EVENT_NAME: L_AQUILA
EVENT_ID: IT-2009-0009
EVENT_DATE_YYYYMMDD: 20090406
EVENT_TIME_HHMMSS: 013240
EVENT_LATITUDE_DEGREE: 42.3420
EVENT_LONGITUDE_DEGREE: 13.3800
EVENT_DEPTH_KM: 8.3
HYPOCENTER_REFERENCE: INGV-CNT_Seismic_Bulletin
MAGNITUDE_W: 6.1
MAGNITUDE_W_REFERENCE: INGV-CNT_Seismic_Bulletin
MAGNITUDE_L: 
MAGNITUDE_L_REFERENCE: 
FOCAL_MECHANISM: Normal faulting
NETWORK: MN
STATION_CODE: AQU
STATION_NAME: AQUILA CASTELLO
STATION_LATITUDE_DEGREE: 42.353880
STATION_LONGITUDE_DEGREE: 13.401930
STATION_ELEVATION_M: 729
LOCATION: 
SENSOR_DEPTH_M: 15.0
VS30_M/S: 
SITE_CLASSIFICATION_EC8: B (inferred from geology)
MORPHOLOGIC_CLASSIFICATION: 
EPICENTRAL_DISTANCE_KM: 2.5
EARTHQUAKE_BACKAZIMUTH_DEGREE: 57.1
DATE_TIME_FIRST_SAMPLE_YYYYMMDD_HHMMSS: 20090406_013210.000
DATE_TIME_FIRST_SAMPLE_PRECISION: milliseconds
SAMPLING_INTERVAL_S: 0.010000
NDATA: 14001
DURATION_S: 140.010
STREAM: HLZ
UNITS: cm/s^2
INSTRUMENT: sensor = Unknown [Unknown] | digitizer = Unknown [Unknown]
INSTRUMENT_ANALOG/DIGITAL: D
INSTRUMENTAL_FREQUENCY_HZ: 
INSTRUMENTAL_DAMPING: 
FULL_SCALE_G: 
N_BIT_DIGITAL_CONVERTER: 
PGA_CM/S^2: 326.397400
TIME_PGA_S: 32.870000
BASELINE_CORRECTION: BASELINE NOT REMOVED
FILTER_TYPE: 
FILTER_ORDER: 
LOW_CUT_FREQUENCY_HZ: 
HIGH_CUT_FREQUENCY_HZ: 
LATE/NORMAL_TRIGGERED: NT
DATABASE_VERSION: 0.5
HEADER_FORMAT: DYNA 1.2
DATA_TYPE: ACCELERATION
PROCESSING: converted to cm/s^2
DATA_TIMESTAMP_YYYYMMDD_HHMMSS: 20210223_213920.305
DATA_LICENSE: CC-BY4_0 (http://creativecommons.org/licenses/by/4.0/)
DATA_CITATION: Luzi L, Puglia R, Russo E & ORFEUS WG5 (2016). Engineering Strong Motion Database. Istituto Nazionale di Geofisica e Vulcanologia, Observatories & Research Facilities for European Seismology. doi: 10.13127/ESM
DATA_CREATOR: ESM working group
ORIGINAL_DATA_MEDIATOR_CITATION: data obtained within the DPC-INGV data exchange agreements
ORIGINAL_DATA_MEDIATOR: Archive of Italian Department of Civil Protection
ORIGINAL_DATA_CREATOR_CITATION:  http://www.fdsn.org/networks/detail/MN/
ORIGINAL_DATA_CREATOR: network: MN (Mediterranean Very Broadband Seismographic Network (MedNet)); owner: Istituto Nazionale di Geofisica e Vulcanologia (INGV)
USER1: 
USER2: 
USER3: 
USER4: 
USER5: 
[...]
0.000655
-0.000275
-0.000089
0.000097
0.001027
0.000283
-0.000647
0.001957
-0.000833
0.000283
0.000841
-0.001391
0.002143
0.000097
-0.000647
0.001213
-0.000275
0.000655
0.000841
0.000469
0.001213
-0.000461
-0.000089
0.000841
-0.000089
0.001027
-0.000461
-0.000089
0.001585
-0.000833
0.001399
-0.000275
-0.000275
0.001957
-0.001205
0.001213
0.000097
0.000841
0.000097
-0.000275
0.003259
-0.002321
0.001027
0.002329
-0.002135
0.000841
0.000283
0.000097
0.000097
0.000841
0.000655
0.000097
0.000655
-0.000275
0.000469
-0.000089
-0.000089
0.000283
0.000841
0.000655
-0.001391
0.001213
0.001213
-0.000647
0.000841
-0.000461
0.000655
0.001399
-0.001019
0.000841
0.000283
0.000841
0.000841
-0.000461
0.001399
-0.000089
-0.000089
0.001399
0.001213
-0.001019
0.000841
0.000841
-0.000461
0.000655
-0.000833
0.001771
-0.000089
0.000283
0.001957
-0.000275
0.000469
0.000097
0.001027
-0.000647
-0.000461
0.001585
-0.000275
0.000841
0.000283
0.000841
0.000469
0.000283
0.000655
-0.001391
0.001399
0.000283
-0.000833
0.001585
-0.000089
-0.000461
0.001213
0.000097
0.000655
0.001585
0.000097
0.000655
0.000841
0.000469
0.000283
0.000283
0.001399
0.000469
0.000097
0.000841
-0.000275
0.001213
-0.001205
-0.000275
0.001399
-0.001763
0.001771
0.000469
-0.000461
0.001771
-0.000647
0.001027
0.001213
-0.000275
0.001213
0.000841
0.000283
0.001027
0.001399
-0.000833
0.001585
0.000097
-0.000647
0.001771
-0.001577
0.001771
-0.000089
0.000283
0.001027
-0.001019
0.002515
-0.000833
0.000841
0.000283
-0.000461
0.002329
-0.000089
-0.000275
-0.000275
0.000655
-0.000461
0.001213
0.001027
0.000283
0.000655
0.000469
0.002329
-0.000647
0.001027
0.001399
0.000097
0.000283
0.001399
0.000841
-0.001577
0.002143
0.000097
-0.000089
0.000655
-0.000461
0.001399
-0.000461
0.000097
0.000283
0.001213
-0.000275
-0.000275
0.001213
0.000469
0.000283
-0.000833
0.001585
-0.000275
-0.000089
0.001213
0.000469
0.000655
0.000097
0.001585
-0.000275
0.001213
0.000097
-0.001019
0.001957
-0.000461
0.000469
0.000841
-0.001391
0.001027
0.001027
0.000097
-0.000089
0.001585
0.000097
-0.000833
0.001771
-0.000461
-0.000461
0.000841
-0.000089
-0.000089
0.000841
0.000469
-0.000089
0.001027
0.000469
-0.000275
0.000469
0.001213
0.000283
-0.000275
0.001771
-0.000647
0.000655
0.000841
-0.001949
0.002701
-0.000275
0.000469
0.001585
0.000469
0.001213
-0.000647
0.002701
-0.001205
0.000283
0.001027
-0.001019
0.001585
-0.000275
0.001027
-0.000647
0.000655
0.000469
-0.000275
0.001027
0.000097
0.000097
-0.000461
0.001771
-0.000461
0.001027
0.001027
0.000469
0.001771
-0.000089
0.001957
-0.000089
0.001213
-0.000461
-0.001205
0.002143
-0.000275
-0.000647
0.000097
0.001213
-0.000833
0.000097
0.001027
-0.001577
0.000841
0.000469
-0.000647
-0.000275
-0.000647
0.000283
0.000097
0.000469
0.000655
-0.000833
0.001027
0.001027
-0.001019
0.002143
-0.000089
0.001399
0.001585
-0.000647
0.001771
-0.001577
0.002515
-0.000461
-0.000275
0.002887
-0.001577
0.002515
-0.000275
0.000469
0.001027
-0.000833
0.000841
0.000469
0.000097
0.000469
0.001213
-0.001577
0.001213
0.000283
-0.000461
0.001399
-0.000275
0.001957
-0.001763
0.001027
0.000283
-0.002321
0.002329
-0.001205
0.000655
0.000655
-0.000461
0.001957
-0.000647
0.000097
0.001399
-0.001205
0.001027
0.000841
-0.001019
0.001771
-0.000089
0.001399
-0.000089
-0.000647
0.001957
-0.001019
0.000469
0.000655
0.000283
0.000655
0.000283
0.001585
-0.000647
0.000841
0.000841
-0.001205
0.001771
-0.000461
-0.000089
0.002329
-0.001577
0.001213
0.000097
-0.000647
0.001771
-0.001391
0.001213
0.000097
0.000469
0.001399
-0.000275
0.001027
0.000655
0.000097
-0.000089
0.000841
0.001585
0.000283
-0.000089
0.002329
-0.000461
0.000283
0.000841
-0.000275
0.000655
-0.000461
0.000469
-0.001019
0.000283
0.000283
0.000097
0.001213
-0.001019
0.001585
0.000283
-0.000647
0.001213
0.000097
0.000841
-0.000089
0.000469
0.001027
-0.000089
0.000655
0.000283
-0.000647
0.001213
0.000283
0.000097
0.001213
-0.000647
0.000655
0.001027
0.000283
0.001771
0.000655
-0.000647
0.000655
-0.000461
-0.000089
0.001213
-0.001205
0.000655
0.000841
-0.000647
0.001027
0.000097
0.000655
0.000469
0.001027
0.000097
0.000097
0.001771
-0.001577
0.001957
0.000841
-0.000647
0.001585
-0.001391
0.000841
-0.000461
0.001213
-0.000089
-0.001577
0.002515
-0.000275
0.000283
-0.000275
0.001027
0.000841
-0.000089
-0.000647
-0.000833
0.002887
-0.002135
0.000469
0.000841
-0.000647
0.002701
-0.002135
0.001771
0.000655
-0.001763
0.002143
-0.000833
0.000283
0.000469
-0.000275
0.000841
0.000469
0.000841
0.000283
0.000283
-0.000089
0.001771
0.000841
-0.001763
0.001957
-0.000461
0.000469
0.002515
-0.001019
0.001213
-0.000275
0.000283
-0.000461
0.000283
0.000469
-0.001763
0.002515
-0.001019
0.000097
0.000655
-0.001019
0.001027
-0.001763
0.001399
0.001213
-0.000833
0.002329
-0.000833
0.000097
0.001399
-0.000089
0.001213
-0.000647
0.001027
0.000655
0.000655
0.000655
-0.000461
0.001585
-0.000461
0.000841
0.001027
-0.000461
0.000097
0.000283
0.001027
0.000097
0.000469
0.000469
-0.000833
0.000841
0.000097
-0.000647
0.000283
0.000469
0.000655
-0.000461
0.002143
-0.000461
-0.000089
0.001957
-0.001763
0.000655
0.000655
-0.000647
0.000283
0.000097
0.000469
0.000655
-0.000461
0.000097
0.000469
0.000097
-0.000089
-0.000089
0.000655
0.000469
0.000097
-0.000461
0.001027
0.000469
0.000283
0.000655
-0.001391
0.000655
0.000841
0.000283
0.000655
0.000283
0.000655
0.000655
0.000283
-0.000647
0.001027
0.000283
-0.000647
0.001213
0.000655
-0.000089
-0.000275
0.000097
-0.000833
0.000841
-0.000461
0.000097
0.001027
-0.000275
0.001213
-0.000833
0.001213
-0.000647
-0.000833
0.001213
-0.000089
0.000841
0.000097
0.001399
-0.000647
0.000469
0.001399
-0.000647
0.000469
0.000283
0.000841
0.000283
0.000283
0.000469
0.001213
-0.000275
0.000283
0.001027
-0.000089
0.001213
0.000841
0.001399
-0.001391
0.001027
0.000841
-0.001577
0.001957
-0.001019
0.000283
0.001027
-0.000461
-0.000461
0.001213
-0.000275
-0.000275
0.001213
-0.001019
0.001771
-0.001019
0.001771
0.000469
-0.000461
0.002701
-0.001019
0.001027
-0.000461
0.000841
0.000655
-0.000647
0.002143
-0.000647
0.000097
0.001399
-0.000275
0.000841
0.000097
0.000469
-0.000275
-0.000461
0.001585
-0.000647
-0.000089
-0.000275
0.001027
-0.000275
0.000097
0.002143
-0.001019
0.001771
0.000655
0.000283
0.001399
-0.001391
0.001585
-0.000647
-0.000461
0.001957
-0.001019
0.000097
-0.000275
0.000655
0.000655
-0.001391
0.001027
-0.000275
-0.001019
0.000097
0.000469
0.000655
-0.001949
0.002701
-0.000833
-0.001949
0.003259
-0.002693
0.001213
0.000841
-0.002135
0.001771
0.000469
-0.000461
0.000283
-0.000089
-0.000089
0.001399
-0.000275
0.000469
0.001585
-0.000461
0.000469
0.000283
-0.000275
0.001027
0.000283
0.000283
0.000469
0.000841
0.000469
-0.000275
0.001213
0.000469
-0.000089
0.000469
0.000283
-0.000461
0.001027
0.001027
0.000283
0.000655
0.000469
0.000283
-0.000089
0.001585
0.000469
0.000097
-0.000089
-0.000461
0.000097
-0.000275
-0.000461
0.000097
0.001399
-0.000833
0.000469
-0.000461
-0.000461
0.001399
-0.000275
0.000469
0.000283
0.001585
-0.000647
0.001213
0.001585
-0.001205
0.001213
-0.000647
0.002329
0.000655
-0.000833
0.002329
-0.000275
0.000655
0.001027
-0.000833
0.000097
0.001027
-0.000461
0.000655
0.001399
-0.001577
0.000469
0.002143
0.000097
-0.000647
-0.000275
0.000283
0.000841
0.000283
-0.000461
0.000283
0.000655
-0.000461
0.000097
0.001213
0.000469
-0.000461
0.000283
0.001585
-0.000461
-0.000461
0.002143
-0.000461
-0.000275
0.000655
-0.000089
0.001213
-0.000833
0.001213
0.001027
-0.000833
0.001213
-0.000647
0.001399
0.001771
-0.001205
-0.000089
0.001399
-0.000833
-0.000275
0.001585
-0.000833
0.000655
0.000841
0.000283
-0.000275
0.000283
0.000097
0.001213
0.001585
-0.000275
0.001027
-0.001391
0.001771
-0.000647
-0.001577
0.002515
-0.001763
0.000097
0.000097
0.000283
0.001399
-0.001949
-0.000089
0.002143
-0.001205
0.001771
0.000283
-0.000647
0.002515
-0.001019
0.001027
0.000655
-0.000089
-0.000647
-0.000461
0.001957
-0.000647
0.000841
0.002143
-0.000647
0.001027
0.001027
0.000283
0.001213
-0.000275
0.001771
-0.000461
0.000097
0.000469
-0.001019
0.002143
-0.000461
0.000097
0.000655
-0.000275
0.001399
0.000469
-0.000647
0.001213
0.000097
-0.000089
0.000841
-0.001019
0.001027
0.000283
0.000469
0.000841
0.000655
0.000655
-0.000833
0.001027
-0.000275
0.000655
0.000841
-0.000647
0.001771
-0.000461
0.001027
0.000097
0.000097
0.001585
-0.000833
0.001957
-0.001019
0.001027
0.001399
-0.001763
0.001957
-0.001205
0.001771
0.000283
-0.000647
0.001771
-0.001577
0.001585
0.000097
-0.000089
0.001399
-0.000833
0.001213
-0.000461
-0.000461
0.001399
-0.000647
0.000655
-0.000275
0.000283
0.000655
0.000469
0.000655
-0.000647
0.001585
-0.000461
-0.000089
0.000469
-0.000089
0.000097
0.000097
0.000841
-0.000833
0.002515
-0.000089
-0.000833
0.001585
-0.001205
0.001771
0.000655
-0.001577
0.001399
-0.000275
-0.000461
0.001399
0.000283
0.000283
0.000841
0.000469
0.000283
0.000469
-0.000647
-0.000647
0.001399
0.000655
-0.000833
0.001399
0.000283
-0.000275
0.001771
-0.000833
0.001027
0.001213
0.000469
0.000097
0.000283
0.001585
-0.001019
0.001585
0.000283
-0.000833
0.001399
-0.000833
0.001027
0.000655
-0.001205
0.001027
0.000469
-0.000833
0.001027
0.000841
-0.001205
0.001213
0.001399
-0.000833
0.001399
0.000655
0.000283
0.000841
0.000097
0.000097
0.000283
0.000655
-0.000461
0.001213
0.000841
0.000097
0.001027
-0.000647
0.001399
-0.000275
0.001027
0.001027
-0.000833
0.001957
-0.000089
0.000283
-0.000461
0.001027
0.001213
-0.000647
0.001213
-0.000833
0.000841
0.001027
-0.001205
0.000469
0.000841
-0.000647
0.000469
0.001399
0.000097
0.000097
0.000097
0.000841
-0.000833
-0.000275
0.000655
-0.000833
-0.000461
-0.000275
0.001399
-0.000833
0.000283
0.001399
-0.000089
0.000469
0.000469
0.001585
-0.000089
0.000283
0.000283
0.001585
-0.000089
-0.001205
0.001027
-0.001391
0.001213
-0.000461
-0.000647
0.001213
-0.001391
0.001399
-0.000275
-0.000089
0.000841
0.000097
0.001213
-0.000833
0.000841
0.000283
0.000655
0.000841
-0.001205
0.001213
0.000469
0.000469
0.000655
0.000655
0.000283
0.000469
0.000841
-0.000089
0.001399
-0.000461
-0.000275
0.000655
0.000283
0.000469
-0.000275
0.000283
-0.000089
0.000097
0.000469
0.000283
-0.000461
0.000283
0.000097
-0.000647
0.001027
-0.000275
0.000469
0.001399
-0.001019
0.001027
0.001213
-0.000647
-0.000089
0.001585
-0.000089
-0.000647
0.001585
0.000655
0.000655
0.000097
-0.000089
0.000655
0.000283
-0.000647
0.000283
0.001213
-0.001205
0.000841
0.001957
-0.001577
0.000655
0.000469
-0.000833
0.001957
-0.001763
0.000655
0.001399
-0.001205
0.001771
-0.000833
0.001027
0.000469
-0.000461
0.000283
-0.000647
0.002329
-0.000833
0.000841
0.001213
-0.000833
0.000841
-0.000647
0.001027
-0.000461
-0.000089
0.001213
0.000097
0.001027
-0.000461
0.000469
0.000469
-0.000461
0.001585
-0.000089
0.000283
0.001027
-0.000461
0.000469
0.000283
0.001213
-0.000461
-0.001019
0.001771
0.000283
-0.000275
0.001957
-0.000461
-0.000275
0.001771
-0.001205
0.001213
0.000469
-0.000461
0.001027
-0.002879
-0.012550
-0.033566
-0.045840
-0.101262
-0.493123
-1.611423
-2.997536
-2.810067
-1.206730
-2.001982
-3.370984
0.849469
4.349621
1.681918
1.405923
3.031020
1.149642
-0.165798
0.308266
-2.270538
-3.757824
0.777309
0.577194
-1.542053
-1.740122
-5.660403
-6.420319
-4.974136
3.442781
13.235022
5.948867
-5.541190
-1.271823
13.813049
8.066068
-15.501185
-15.891558
-0.011434
4.211996
-1.912712
-5.196754
2.725082
6.445992
-4.977297
-1.199477
17.025303
7.680158
-11.213221
-5.962435
10.831225
13.345494
-18.052837
-34.512291
-5.901248
12.099239
1.264392
-5.847500
10.530494
12.752961
0.410370
7.930860
10.243527
-15.544891
-32.594833
-7.295915
-0.313094
-28.717325
-60.897331
-82.955170
-73.970268
-54.722225
-71.082741
-140.935303
-169.681747
-59.029716
84.425911
39.466072
-117.717514
-81.458214
96.000587
136.408371
58.320023
-5.724938
-34.153908
-39.423847
-1.890394
51.849579
-65.942421
-174.301682
-91.431786
-24.159876
47.746853
75.641685
11.884246
-12.830321
20.937588
105.379768
130.952637
25.999044
-59.071751
-57.492775
-20.780798
11.375775
-61.358936
-160.690155
-150.751175
2.818816
142.893127
31.890347
-73.644806
8.167241
34.433441
-2.300481
-37.317619
-106.005768
-109.912659
-93.114532
-82.536896
-38.868881
-58.359818
-82.112862
-60.979534
-57.327251
-105.283234
-110.625526
5.301841
96.429642
-12.171020
-240.370117
-194.881165
-10.372961
-10.082832
4.350179
-27.810673
-124.271652
-74.366592
117.215378
228.278976
105.243256
-81.694038
-106.880249
50.128330
110.685791
-1.280192
-150.702820
-220.979233
-87.394897
83.297752
57.518635
-98.846451
-141.465729
22.359221
264.959534
326.397400
146.067627
22.614758
102.163605
205.103775
136.947891
-65.159447
-157.361465
-53.127815
57.292854
41.139896
7.631060
28.500109
39.532097
59.339569
91.450577
55.921436
23.708881
33.231266
5.181883
39.864445
76.477478
36.345322
7.737812
-29.665640
64.138420
137.587112
4.171824
5.622471
130.112930
106.202919
-17.872437
-83.071777
-62.102673
-52.769989
-53.136742
-64.376282
-98.011772
-79.165077
-7.358405
81.337517
94.723648
49.557369
46.394772
100.684135
194.397629
160.025650
66.170074
52.231583
65.567680
99.011055
33.334671
-62.848640
-38.688110
-3.476435
-16.901245
11.178822
51.396530
18.323818
13.555838
44.203739
54.067955
61.758617
53.281258
63.603729
90.263840
77.322945
-6.622108
-64.651344
-64.085220
-28.781303
69.731415
54.264721
-18.396528
36.280041
90.318886
76.826378
93.046661
72.899956
-50.515347
-36.238560
86.902428
76.462601
17.433903
-47.684353
-93.887283
-18.865570
47.680084
32.663837
28.211653
8.132649
-28.955566
-15.143359
-7.659507
9.640206
51.983486
64.542931
43.155182
-34.527912
-53.041706
-11.588157
-34.458729
-59.105598
-40.706741
2.976156
24.975780
5.632700
5.889539
-40.911133
-136.120834
-146.278336
-71.826469
-16.647755
-46.591160
-114.400185
-99.531601
24.821789
79.623711
48.712090
29.892916
16.031424
26.540991
13.899530
-12.686186
-56.412415
-104.593063
-103.137955
-87.284233
-47.521622
-7.990366
22.791626
57.812485
84.036469
98.565819
96.775192
58.044773
20.465012
11.025574
-23.826040
-36.976158
-29.717901
-26.089422
-10.504635
-17.732765
-41.861679
-38.669140
-0.005297
34.511742
23.046232
-18.653927
-30.152908
-41.332005
-76.516151
-68.697540
-24.535742
46.355534
139.267441
161.719925
123.805405
84.126480
80.763771
95.889557
45.860825
-21.078365
-71.736084
-98.848686
-86.819656
-66.063866
-20.826550
7.095994
31.841248
74.054153
74.781708
74.376640
71.586006
49.258499
11.738809
-9.749555
18.180984
6.905364
-17.069557
13.583921
19.430960
-9.910428
-24.630592
-25.152826
-6.764755
44.024452
78.211746
39.945530
-27.424204
-38.796162
-12.513782
-42.970867
-72.115669
-82.881332
-91.260124
-35.895985
43.786957
89.707008
19.215593
-62.155491
-32.399368
-13.979494
-41.640175
-37.612583
-18.807917
-23.332264
-25.539478
-24.180706
10.433599
32.062008
19.970675
11.867694
-24.212137
-56.489967
-82.371933
-82.085899
-53.480621
-48.078075
-53.651909
-71.639565
-81.124191
-40.098583
22.896147
27.511808
-30.736517
-88.736000
-64.235680
17.328823
16.157518
-63.970100
-131.572678
-92.988258
10.614930
41.476707
12.317766
-23.295439
-42.862438
-20.027763
3.744441
18.748411
54.262302
54.286480
40.224129
45.200035
51.209064
26.961679
-14.848208
-11.209873
-3.920370
-1.182925
-11.806498
-21.305820
19.441374
52.505344
56.207287
52.717178
48.297169
54.004162
60.359299
46.059635
29.318237
37.462692
18.857023
-36.893398
-23.888531
48.933033
60.756367
5.393715
-8.107162
50.322681
79.637657
33.351223
-26.883186
-21.988182
13.574250
-5.382363
-59.507130
-79.015358
-35.451305
7.795094
6.491186
-19.344099
-35.127888
-26.668566
-6.204954
26.732924
49.503250
50.692596
24.459497
-6.351507
15.723812
30.495865
-8.775017
-17.881550
-3.573889
-10.728370
-41.429276
-68.071526
-48.761738
-18.597015
-4.950888
-15.673589
-34.168968
-46.466183
-33.314205
-17.395210
-23.524010
-17.090759
-30.939793
-23.079702
33.855785
71.695366
57.768219
39.779079
43.350834
37.252907
54.630730
26.034752
-43.475430
-71.096870
-58.491676
0.083230
12.805593
-8.507578
-17.540833
-33.866753
-38.467350
-44.370556
-30.218931
-31.178219
-57.066509
-29.645741
16.193785
22.987463
26.912394
81.991798
124.724709
70.859566
18.976051
28.702271
51.157917
45.075985
14.239502
16.930639
2.793151
-43.327019
-30.438761
38.931007
55.138271
-18.470549
-39.924507
40.646675
97.551666
101.610313
89.613831
26.120674
-36.905670
2.266640
40.002441
-42.214111
-170.992157
-206.090576
-107.173912
12.854878
39.851238
-25.512512
-50.910927
15.937503
84.755470
105.522789
71.998329
17.106762
11.644703
44.981693
15.818104
-34.502060
-66.046204
-106.147484
-107.634026
-95.687019
-68.151497
-35.226456
-22.305838
29.564474
81.241364
84.002617
41.019566
-8.801985
-8.773902
-18.327530
-53.786186
-84.776474
-99.830475
-67.318863
-42.864857
-36.764698
1.248583
54.049728
57.963314
30.048395
61.320259
84.087799
45.279636
19.133949
-28.367868
-89.431007
-89.788460
-79.840744
-79.241699
-50.257206
21.710337
74.341125
44.844997
28.166088
78.603233
117.041855
78.046593
1.757612
-34.787914
-30.229904
-12.922381
-24.473253
-73.702271
-105.153046
-78.277206
6.951673
64.738213
28.422369
-5.302763
19.352104
47.930412
56.593567
39.106201
12.997525
-11.645439
-0.045096
34.619797
35.928165
30.293518
7.191588
8.287571
59.288425
87.501465
49.226883
7.091344
21.230320
21.970150
-7.639793
-32.323486
-41.658775
-65.248718
-84.534142
-71.824982
-44.873817
-22.778414
-39.140411
-24.549133
35.005520
71.413422
52.629768
0.163016
2.908087
12.107608
-18.620821
-33.716850
-33.470985
4.322282
36.049427
23.723761
23.914019
46.183685
77.703461
79.423409
26.300890
-61.266132
-91.185730
-42.216343
-9.499039
-10.207997
-36.185184
-44.252644
-11.394738
9.884398
-0.582208
2.530733
34.944515
39.016930
-1.382668
-39.599041
-26.029722
8.689474
25.526840
28.383127
21.018303
22.028175
13.613120
-12.441621
-31.369965
-32.358822
-20.316219
-16.166250
-5.562020
8.011018
7.678299
11.451470
16.058949
28.365831
25.026552
-9.212815
-24.085299
1.597111
32.728931
