EVENT_NAME: L_AQUILA
EVENT_ID: IT-2009-0009
EVENT_DATE_YYYYMMDD: 20090406
EVENT_TIME_HHMMSS: 013240
EVENT_LATITUDE_DEGREE: 42.3420
EVENT_LONGITUDE_DEGREE: 13.3800
EVENT_DEPTH_KM: 8.3
HYPOCENTER_REFERENCE: INGV-CNT_Seismic_Bulletin
MAGNITUDE_W: 6.1
MAGNITUDE_W_REFERENCE: INGV-CNT_Seismic_Bulletin
MAGNITUDE_L: 
MAGNITUDE_L_REFERENCE: 
FOCAL_MECHANISM: Normal faulting
NETWORK: MN
STATION_CODE: AQU
STATION_NAME: AQUILA CASTELLO
STATION_LATITUDE_DEGREE: 42.353880
STATION_LONGITUDE_DEGREE: 13.401930
STATION_ELEVATION_M: 729
LOCATION: 
SENSOR_DEPTH_M: 15.0
VS30_M/S: 
SITE_CLASSIFICATION_EC8: B (inferred from geology)
MORPHOLOGIC_CLASSIFICATION: 
EPICENTRAL_DISTANCE_KM: 2.5
EARTHQUAKE_BACKAZIMUTH_DEGREE: 57.1
DATE_TIME_FIRST_SAMPLE_YYYYMMDD_HHMMSS: 20090406_013210.000
DATE_TIME_FIRST_SAMPLE_PRECISION: milliseconds
SAMPLING_INTERVAL_S: 0.010000
NDATA: 14001
DURATION_S: 140.010
STREAM: HLN
UNITS: cm/s^2
INSTRUMENT: sensor = Unknown [Unknown] | digitizer = Unknown [Unknown]
INSTRUMENT_ANALOG/DIGITAL: D
INSTRUMENTAL_FREQUENCY_HZ: 
INSTRUMENTAL_DAMPING: 
FULL_SCALE_G: 
N_BIT_DIGITAL_CONVERTER: 
PGA_CM/S^2: -309.540710
TIME_PGA_S: 33.580000
BASELINE_CORRECTION: BASELINE NOT REMOVED
FILTER_TYPE: 
FILTER_ORDER: 
LOW_CUT_FREQUENCY_HZ: 
HIGH_CUT_FREQUENCY_HZ: 
LATE/NORMAL_TRIGGERED: NT
DATABASE_VERSION: 0.5
HEADER_FORMAT: DYNA 1.2
DATA_TYPE: ACCELERATION
PROCESSING: converted to cm/s^2
DATA_TIMESTAMP_YYYYMMDD_HHMMSS: 20210223_213919.991
DATA_LICENSE: CC-BY4_0 (http://creativecommons.org/licenses/by/4.0/)
DATA_CITATION: Luzi L, Puglia R, Russo E & ORFEUS WG5 (2016). Engineering Strong Motion Database. Istituto Nazionale di Geofisica e Vulcanologia, Observatories & Research Facilities for European Seismology. doi: 10.13127/ESM
DATA_CREATOR: ESM working group
ORIGINAL_DATA_MEDIATOR_CITATION: data obtained within the DPC-INGV data exchange agreements
ORIGINAL_DATA_MEDIATOR: Archive of Italian Department of Civil Protection
ORIGINAL_DATA_CREATOR_CITATION:  http://www.fdsn.org/networks/detail/MN/
ORIGINAL_DATA_CREATOR: network: MN (Mediterranean Very Broadband Seismographic Network (MedNet)); owner: Istituto Nazionale di Geofisica e Vulcanologia (INGV)
USER1: 
USER2: 
USER3: 
USER4: 
USER5: 
[...]
-0.015306
-0.015492
-0.014376
-0.015492
-0.015678
-0.015120
-0.017725
-0.013259
-0.015864
-0.016980
-0.014190
-0.016236
-0.014748
-0.016794
-0.014748
-0.014748
-0.016422
-0.012887
-0.015678
-0.016794
-0.014934
-0.016422
-0.016980
-0.014190
-0.014934
-0.015492
-0.015492
-0.014562
-0.014376
-0.015864
-0.013259
-0.015492
-0.016608
-0.016050
-0.013818
-0.015492
-0.017538
-0.012701
-0.016794
-0.014934
-0.015120
-0.017166
-0.014190
-0.016236
-0.015120
-0.015492
-0.014562
-0.016050
-0.016608
-0.014934
-0.014934
-0.015492
-0.016794
-0.013632
-0.015492
-0.015492
-0.016050
-0.016236
-0.014376
-0.016422
-0.013818
-0.015864
-0.014562
-0.016236
-0.018097
-0.014004
-0.016422
-0.014376
-0.014934
-0.016422
-0.014562
-0.015864
-0.016050
-0.015120
-0.014376
-0.015864
-0.016422
-0.014562
-0.016050
-0.016608
-0.013818
-0.016050
-0.016236
-0.014190
-0.016422
-0.015306
-0.014934
-0.014934
-0.015678
-0.016050
-0.014748
-0.016422
-0.015678
-0.014190
-0.016980
-0.015120
-0.014190
-0.017538
-0.013445
-0.015120
-0.016422
-0.015120
-0.014376
-0.014190
-0.017352
-0.013818
-0.017166
-0.015306
-0.014562
-0.017352
-0.013818
-0.015678
-0.015492
-0.016608
-0.015678
-0.015864
-0.016608
-0.014376
-0.015120
-0.016236
-0.015864
-0.015120
-0.016608
-0.014004
-0.014934
-0.015864
-0.013632
-0.015678
-0.015864
-0.015864
-0.013818
-0.016236
-0.015864
-0.014562
-0.016050
-0.016236
-0.015864
-0.014004
-0.017725
-0.014934
-0.014376
-0.017911
-0.014748
-0.016236
-0.016980
-0.016050
-0.015492
-0.015306
-0.016422
-0.016236
-0.014934
-0.015864
-0.015306
-0.014376
-0.016050
-0.013445
-0.016608
-0.015678
-0.013632
-0.016422
-0.014934
-0.016608
-0.013818
-0.016236
-0.015678
-0.014004
-0.016608
-0.014376
-0.015864
-0.015492
-0.015492
-0.016050
-0.016236
-0.013632
-0.015864
-0.016050
-0.013632
-0.018469
-0.014562
-0.014934
-0.015864
-0.015306
-0.016236
-0.013073
-0.016980
-0.014190
-0.014748
-0.018097
-0.013818
-0.015864
-0.015306
-0.015678
-0.016050
-0.014190
-0.016608
-0.014934
-0.014190
-0.017538
-0.013445
-0.014934
-0.016980
-0.013632
-0.016794
-0.013632
-0.015864
-0.017166
-0.014004
-0.016608
-0.014934
-0.015864
-0.015306
-0.014562
-0.015864
-0.015306
-0.016236
-0.014562
-0.015864
-0.015678
-0.013073
-0.017538
-0.015492
-0.014562
-0.017538
-0.013445
-0.015864
-0.016236
-0.015120
-0.016236
-0.014748
-0.017911
-0.014376
-0.014748
-0.016422
-0.015120
-0.015492
-0.014376
-0.016422
-0.016236
-0.015864
-0.014376
-0.014934
-0.015492
-0.015120
-0.014562
-0.016050
-0.016608
-0.014934
-0.015864
-0.015120
-0.016236
-0.015678
-0.015492
-0.015864
-0.015678
-0.016794
-0.014562
-0.014934
-0.016422
-0.015306
-0.015306
-0.014748
-0.015120
-0.016236
-0.015120
-0.015678
-0.015306
-0.015306
-0.016794
-0.013632
-0.016236
-0.016608
-0.013259
-0.016608
-0.014748
-0.014748
-0.015678
-0.013818
-0.015306
-0.016608
-0.015678
-0.014748
-0.015492
-0.015306
-0.016050
-0.015120
-0.015678
-0.016422
-0.014004
-0.015864
-0.015306
-0.014190
-0.015678
-0.016794
-0.016050
-0.014004
-0.016422
-0.013818
-0.014748
-0.017166
-0.014004
-0.015864
-0.015120
-0.016050
-0.015120
-0.016050
-0.015864
-0.013632
-0.018097
-0.015306
-0.015120
-0.016050
-0.016050
-0.014376
-0.015864
-0.017725
-0.012887
-0.016422
-0.015492
-0.016050
-0.015306
-0.012887
-0.017725
-0.013445
-0.015492
-0.019213
-0.014004
-0.015492
-0.015306
-0.015492
-0.016608
-0.014934
-0.016422
-0.015120
-0.015306
-0.015678
-0.014004
-0.015120
-0.015864
-0.016050
-0.013445
-0.016236
-0.015492
-0.013818
-0.016794
-0.014562
-0.015864
-0.015492
-0.017352
-0.014934
-0.014934
-0.019399
-0.013632
-0.015864
-0.015492
-0.014748
-0.016422
-0.014004
-0.017725
-0.014748
-0.014376
-0.017166
-0.013259
-0.016050
-0.015492
-0.015306
-0.016422
-0.014004
-0.016422
-0.014190
-0.015492
-0.016422
-0.014934
-0.015306
-0.014190
-0.016608
-0.014190
-0.013818
-0.016236
-0.015306
-0.015492
-0.016050
-0.015678
-0.014004
-0.015492
-0.015864
-0.015120
-0.017538
-0.016050
-0.015306
-0.015120
-0.014562
-0.016794
-0.013073
-0.016050
-0.015864
-0.013073
-0.017538
-0.013818
-0.016422
-0.016794
-0.013445
-0.015864
-0.015120
-0.015678
-0.016422
-0.014934
-0.016422
-0.014934
-0.015120
-0.016422
-0.015306
-0.015306
-0.014934
-0.016794
-0.014748
-0.014748
-0.014748
-0.014376
-0.017911
-0.015492
-0.015120
-0.015492
-0.015492
-0.015306
-0.014748
-0.017352
-0.015306
-0.016236
-0.014376
-0.014562
-0.017166
-0.013073
-0.015492
-0.015678
-0.015306
-0.016422
-0.015120
-0.016050
-0.015678
-0.014562
-0.015306
-0.015120
-0.015306
-0.016608
-0.014748
-0.016050
-0.016236
-0.015678
-0.015306
-0.015678
-0.016236
-0.014376
-0.015864
-0.014190
-0.016050
-0.015306
-0.014748
-0.016422
-0.013632
-0.016794
-0.015678
-0.015120
-0.015864
-0.016050
-0.014748
-0.014748
-0.016980
-0.013632
-0.015120
-0.014376
-0.017352
-0.014562
-0.014934
-0.018655
-0.011585
-0.017911
-0.015864
-0.014376
-0.016608
-0.014376
-0.016050
-0.015492
-0.015864
-0.015120
-0.016980
-0.014748
-0.016050
-0.015864
-0.015120
-0.015678
-0.013445
-0.017166
-0.014004
-0.015120
-0.017166
-0.014004
-0.016422
-0.015492
-0.014934
-0.014748
-0.014562
-0.017725
-0.015120
-0.015492
-0.016422
-0.014748
-0.015306
-0.015306
-0.015492
-0.015864
-0.017166
-0.013818
-0.014562
-0.017166
-0.014562
-0.016050
-0.014190
-0.015864
-0.014748
-0.013818
-0.018469
-0.013445
-0.015678
-0.017725
-0.014190
-0.015306
-0.015492
-0.016794
-0.015120
-0.014934
-0.016422
-0.014004
-0.015864
-0.016794
-0.015120
-0.016050
-0.016980
-0.015492
-0.012701
-0.018097
-0.016236
-0.012515
-0.019585
-0.014748
-0.013632
-0.017538
-0.014748
-0.015492
-0.016236
-0.015492
-0.016236
-0.016608
-0.015306
-0.015120
-0.015306
-0.014934
-0.015864
-0.016050
-0.015492
-0.015864
-0.014376
-0.014934
-0.015864
-0.015306
-0.013818
-0.015492
-0.016422
-0.014376
-0.016050
-0.015306
-0.014934
-0.014748
-0.016236
-0.016236
-0.015864
-0.015678
-0.014376
-0.015492
-0.015864
-0.015864
-0.013259
-0.016980
-0.016422
-0.014004
-0.017725
-0.014562
-0.016236
-0.016608
-0.014562
-0.015678
-0.016050
-0.015864
-0.015492
-0.016608
-0.015120
-0.015120
-0.016608
-0.015306
-0.014562
-0.017166
-0.015678
-0.014190
-0.014934
-0.015864
-0.016236
-0.014562
-0.015492
-0.015678
-0.014190
-0.015120
-0.015864
-0.014376
-0.016422
-0.015678
-0.014004
-0.017911
-0.014934
-0.013073
-0.018283
-0.015864
-0.013818
-0.015492
-0.015306
-0.016236
-0.014934
-0.014934
-0.015678
-0.016422
-0.016050
-0.013632
-0.016980
-0.015678
-0.013445
-0.015864
-0.016608
-0.015120
-0.013818
-0.018283
-0.014562
-0.013632
-0.017352
-0.014562
-0.016236
-0.016050
-0.015864
-0.015120
-0.013445
-0.016608
-0.015306
-0.015492
-0.016236
-0.014376
-0.015306
-0.015678
-0.016236
-0.014376
-0.017725
-0.015120
-0.013632
-0.017911
-0.014004
-0.016794
-0.015678
-0.015678
-0.014934
-0.014190
-0.016236
-0.013818
-0.016236
-0.014748
-0.016050
-0.015492
-0.015864
-0.017352
-0.013632
-0.017352
-0.016050
-0.014748
-0.017352
-0.014748
-0.016794
-0.015492
-0.013259
-0.017538
-0.014190
-0.016236
-0.015306
-0.013259
-0.017725
-0.014004
-0.015306
-0.015120
-0.016794
-0.016608
-0.012701
-0.017538
-0.015864
-0.013445
-0.015864
-0.015120
-0.016050
-0.015306
-0.015120
-0.016050
-0.013632
-0.017352
-0.015120
-0.014748
-0.018655
-0.014190
-0.015120
-0.015306
-0.015678
-0.016422
-0.015306
-0.016980
-0.015864
-0.013818
-0.016608
-0.017538
-0.014376
-0.016236
-0.015120
-0.014190
-0.017352
-0.015678
-0.014748
-0.015678
-0.016236
-0.016050
-0.014748
-0.015864
-0.015492
-0.015306
-0.016980
-0.015120
-0.014934
-0.015492
-0.015492
-0.015678
-0.014562
-0.015492
-0.016794
-0.015864
-0.016794
-0.015120
-0.013818
-0.016980
-0.014748
-0.015306
-0.017352
-0.014748
-0.015678
-0.015864
-0.015492
-0.016236
-0.015306
-0.016050
-0.014748
-0.016050
-0.017911
-0.012701
-0.015306
-0.017352
-0.016050
-0.016236
-0.014934
-0.015678
-0.015492
-0.016050
-0.014934
-0.015120
-0.016422
-0.016608
-0.014376
-0.016050
-0.016236
-0.014748
-0.016422
-0.014004
-0.016794
-0.015492
-0.015120
-0.016980
-0.014004
-0.015864
-0.016236
-0.014562
-0.016980
-0.016422
-0.014190
-0.015864
-0.014934
-0.015492
-0.015492
-0.016422
-0.016236
-0.015492
-0.016980
-0.013632
-0.016236
-0.016980
-0.013818
-0.017352
-0.015306
-0.013818
-0.016794
-0.014376
-0.015120
-0.016794
-0.015492
-0.014748
-0.015678
-0.017725
-0.013259
-0.014562
-0.018469
-0.013445
-0.015306
-0.016980
-0.014562
-0.016794
-0.015492
-0.015864
-0.016422
-0.013632
-0.016236
-0.016422
-0.015492
-0.016050
-0.014748
-0.014562
-0.014748
-0.016236
-0.015678
-0.015678
-0.016050
-0.014562
-0.016050
-0.016422
-0.015120
-0.015120
-0.015306
-0.015306
-0.015492
-0.014748
-0.016050
-0.014748
-0.015492
-0.017352
-0.012701
-0.016236
-0.016794
-0.015864
-0.014934
-0.014376
-0.018283
-0.013632
-0.016236
-0.016050
-0.014004
-0.018283
-0.015492
-0.014004
-0.016608
-0.016422
-0.014004
-0.016422
-0.016050
-0.014562
-0.014562
-0.016794
-0.017538
-0.014190
-0.016422
-0.016236
-0.016608
-0.015306
-0.014748
-0.016980
-0.014376
-0.015864
-0.016236
-0.014376
-0.015678
-0.016050
-0.014934
-0.015306
-0.015306
-0.016050
-0.015120
-0.014562
-0.017352
-0.015492
-0.016050
-0.016236
-0.014934
-0.016980
-0.014748
-0.015306
-0.016236
-0.015120
-0.015120
-0.016794
-0.016980
-0.014004
-0.015864
-0.015492
-0.015306
-0.016608
-0.015492
-0.014748
-0.014748
-0.015492
-0.014934
-0.015864
-0.015120
-0.015120
-0.016422
-0.014562
-0.014934
-0.017166
-0.016794
-0.014562
-0.015678
-0.015492
-0.015492
-0.015864
-0.016236
-0.016050
-0.014004
-0.016422
-0.016422
-0.014934
-0.015678
-0.015492
-0.016608
-0.016236
-0.014004
-0.016608
-0.015492
-0.015306
-0.017166
-0.014562
-0.014748
-0.016422
-0.016050
-0.014562
-0.016236
-0.015120
-0.013632
-0.016422
-0.016794
-0.014934
-0.015864
-0.015864
-0.013818
-0.016980
-0.016608
-0.014748
-0.016422
-0.014376
-0.015678
-0.016236
-0.014934
-0.017911
-0.014190
-0.015120
-0.017352
-0.013632
-0.016422
-0.014562
-0.015120
-0.017166
-0.015492
-0.015864
-0.014376
-0.017538
-0.014562
-0.014748
-0.016980
-0.014004
-0.016794
-0.016050
-0.015678
-0.014748
-0.014748
-0.016794
-0.015492
-0.016236
-0.014376
-0.015306
-0.018283
-0.014748
-0.015492
-0.015306
-0.015120
-0.017352
-0.015492
-0.015678
-0.014190
-0.017352
-0.018283
-0.011771
-0.014748
-0.018469
-0.014748
-0.015678
-0.015306
-0.013445
-0.017538
-0.015678
-0.016236
-0.015120
-0.014562
-0.018841
-0.014376
-0.018841
-0.021632
-0.020143
-0.028329
-0.068329
-0.224794
-0.488980
-0.566190
-0.231306
-0.094004
-0.426097
-0.108515
0.595485
0.513810
0.302089
0.325903
0.294275
-0.232794
-0.694190
-0.719678
-1.438934
-0.726934
0.023206
0.068043
0.985066
0.270275
-0.637632
-2.348143
-0.345725
1.895578
-0.295678
0.205717
-2.460143
-1.106655
3.599020
1.263578
-0.947771
-1.837073
0.053903
0.020229
-3.584050
-2.252329
3.460229
5.589903
1.165717
-2.028143
-0.630748
-0.530469
-6.096980
-5.914097
5.045531
6.989903
-3.297911
-9.438562
-2.259771
8.608322
5.337438
-2.226655
0.799764
0.684601
-3.729352
-0.828143
0.046275
-1.704608
-1.707399
-1.821818
-2.313166
-3.475399
-6.288608
-12.747213
-9.960236
-3.738097
-2.397818
-11.447492
-26.503677
-5.854934
25.706182
15.390462
-16.341446
-14.986283
23.745438
36.876972
-5.209166
-28.806004
-21.332516
-28.278748
-2.576980
-1.146655
-21.169352
-21.568235
-41.283772
-0.392422
38.825996
3.853531
-26.037445
-29.300329
-10.606934
40.495392
40.467300
-24.065166
-28.262749
-9.504050
-2.022748
30.706554
44.613903
36.580231
24.788416
31.849625
40.539673
5.203299
-19.104980
-7.985166
18.631578
9.280508
-15.642469
-8.271492
-22.086376
-30.360235
-16.224607
6.954927
38.504322
37.238834
21.163300
6.490182
-19.943119
-30.800423
-16.785912
23.887392
47.620972
38.680138
-9.737538
-17.274469
31.066742
1.300043
-4.004515
19.406834
10.370555
29.545996
33.401623
-10.415120
-54.189819
-57.858284
-18.449537
32.108974
10.672322
-39.338284
-33.233353
-8.784236
42.823021
62.012043
6.756229
-9.412701
16.043114
55.147114
81.839951
50.851856
20.645159
29.269159
46.936695
31.566090
16.960693
45.636230
83.023766
120.287949
106.004227
25.305437
3.762555
48.991207
27.770927
6.334089
44.823021
39.083298
19.851484
2.729996
11.944322
50.105438
54.414276
63.288879
78.213158
83.416695
68.861160
65.939110
69.363853
52.961250
43.872509
35.431206
39.491673
55.193996
73.959389
78.515488
71.745811
69.447395
69.524231
50.529438
16.421717
17.049252
7.949159
-12.659585
-3.156515
-4.590376
-13.128608
-31.860144
-41.602840
-19.573444
-14.811399
-53.769726
-119.440605
-155.218094
-167.576233
-127.701447
-100.196884
-148.027023
-123.054001
-106.823677
-134.621811
-117.262375
-138.359680
-165.853256
-183.463867
-217.404694
-231.495682
-256.353729
-286.233154
-309.540710
-262.073547
-153.181625
-60.128796
-35.815121
-115.158005
-158.595963
-216.291779
-280.024597
-284.951477
-258.991302
-136.762466
-52.762283
14.521066
43.113811
11.680508
24.705811
9.165345
11.421903
4.489252
1.221717
26.091671
26.557716
6.269903
-23.517818
-22.342934
1.015020
48.439205
83.187859
114.541344
123.745064
107.896133
118.395302
102.963486
82.184509
97.969063
133.113998
152.899490
150.655212
152.080505
159.398651
167.229156
164.650558
146.422653
113.837532
99.843674
130.712875
130.832138
115.034180
165.489990
164.612595
114.724228
105.953812
99.351204
101.200134
82.873627
41.825809
-10.237818
-60.331028
-88.686562
-111.315582
-115.631676
-103.306656
-83.551308
-79.619209
-82.516518
-73.672424
-43.943493
19.237160
90.116600
105.743576
62.915485
17.085531
-48.543304
-132.296799
-186.280609
-187.559860
-117.531960
-15.420329
25.434927
42.223392
63.810928
51.683670
55.944138
42.770184
-1.087306
-23.817911
-56.820702
-88.464981
-87.274094
-92.677261
-51.167122
44.437531
91.581718
119.863579
112.105438
81.635117
54.524227
9.713252
-27.864237
-66.003769
-42.968422
6.898741
42.829346
105.712135
145.519394
131.945251
95.311768
56.083858
23.836229
-17.809166
-50.672981
-51.502934
-57.449165
-46.541260
-51.873913
-60.813820
-46.935677
-50.438004
-36.827400
-53.031490
-97.512978
-107.567490
-101.741631
-83.837448
-76.110565
-83.070374
-56.862747
-3.201538
69.564041
120.417068
111.364227
71.270645
6.822648
-24.160608
-38.811958
-86.923958
-61.129353
20.859858
50.126835
58.064880
49.587856
47.786739
61.583206
36.372414
16.424879
9.036601
14.181531
9.743578
-6.876701
10.373903
5.037345
-18.629818
-47.365257
-69.390373
-68.459770
-53.880608
-16.358004
14.504508
48.634926
56.506741
41.011299
44.308228
22.187485
-4.463120
-3.244329
8.999020
29.692600
76.335022
107.171860
110.464134
126.567947
118.230644
87.360878
53.977066
29.655207
18.071764
24.219856
38.726833
35.703392
37.201439
44.158463
55.197716
59.297440
54.856693
48.721066
34.156975
7.723113
-22.260328
-25.671864
-22.750748
-16.754097
-8.680980
-21.618654
-31.734003
-29.163771
-15.318376
0.901717
25.016693
43.563484
17.505253
-25.531586
-44.061260
-30.647491
-19.479305
-23.567120
-14.154283
-12.075771
-30.979399
-52.374561
-78.628883
-89.096420
-81.661629
-91.303490
-117.880608
-132.334930
-96.232605
-20.858097
45.684975
56.926647
19.000507
2.027299
-13.598748
-38.325630
-24.314283
-15.702748
-32.132702
-31.275770
-33.470188
-32.308701
-9.982562
2.537066
18.840322
28.076601
13.311206
-8.984422
-29.568794
-36.643955
-31.211958
-19.634283
-29.080421
-39.508327
-19.964144
1.527764
23.575392
21.955112
-19.483398
-58.954655
-73.588516
-71.844704
-53.748886
-17.496422
0.520694
6.864694
19.762926
37.544693
43.128136
11.204973
-7.271678
-6.071678
-16.563398
-40.501259
-71.038376
-51.165073
-11.479306
3.551950
41.376507
54.538925
31.416880
15.006462
9.141531
14.643857
-13.434097
0.132601
43.430275
22.025810
1.971113
-16.961910
-20.697910
1.691485
9.830089
32.004230
56.532787
42.603298
2.310834
-13.314841
-4.709073
-6.445259
-5.528050
4.270648
4.764601
-2.851771
-16.465538
-33.704422
-43.959492
-42.368980
3.847578
63.142834
65.795670
33.784138
20.932974
36.735020
29.936693
13.467857
18.244600
10.052787
-20.444515
-15.078748
12.538555
-5.556329
-1.903306
19.435299
21.814835
28.899857
39.439018
57.356602
55.321995
59.852600
89.012787
108.973160
112.771301
87.261162
62.062836
61.639580
52.393436
54.727390
72.145996
91.199203
110.365341
102.503952
80.499481
60.815022
43.931297
24.136135
18.129066
37.167763
35.311394
10.167392
-9.591492
-41.048607
-63.536236
-70.446373
-95.990562
-113.389076
-112.670563
-94.508514
-62.765633
-62.744793
-61.415863
-57.380142
-98.360046
-138.301254
-158.922470
-153.371964
-130.213638
-132.879868
-152.802277
-131.988510
-47.113911
17.637159
17.876415
-27.411400
-65.044884
-39.864052
-10.317073
-19.911491
-22.224607
-16.015678
-3.594283
26.713251
37.212414
34.588787
47.556042
68.009064
74.866371
79.740784
96.867111
93.435112
71.152512
62.593250
55.584694
53.480507
63.347485
69.789528
82.500412
84.916969
71.971115
46.020599
37.015579
54.380417
34.991764
25.800880
48.083298
51.200695
56.825439
54.854088
41.926834
13.445159
-29.531027
-47.302933
-39.242470
7.903578
32.151764
19.640881
38.158276
35.605160
3.871764
-12.048608
-8.257352
2.399764
6.394182
4.211113
-11.426655
-22.722097
-9.861445
27.982649
63.585812
64.820229
57.069160
49.688881
45.193810
32.498554
4.355113
-5.250469
-18.775679
-43.222191
-68.384979
-91.735123
-88.071678
-70.987396
-67.066284
-72.253448
-74.115959
-82.775864
-102.323959
-108.538841
-94.712425
-94.235588
-97.141075
-80.489914
-72.951118
-75.062935
-58.605446
-33.643398
-12.369911
11.725903
6.857624
-11.591306
-21.717445
-26.213446
-6.389073
15.595299
38.857624
56.375019
63.711765
70.692230
69.547859
79.066185
93.610367
87.650925
78.129440
83.195297
78.917343
68.584877
73.258553
81.128883
82.578369
79.281250
68.489067
47.594368
32.047207
24.650555
10.717345
-0.374562
-11.594655
-23.378469
-20.262934
-11.497352
-13.105166
-37.236889
-62.225166
-77.412888
-92.620888
-95.364326
-95.651215
-98.755959
-89.834099
-70.494003
-58.106098
-50.506096
-54.097912
-65.572327
-58.571770
-38.463306
-9.551492
-0.293259
-0.159306
20.655020
16.953810
-18.122097
-37.264050
-30.902376
-24.467028
-22.480421
-27.167679
-41.059029
-43.292328
-29.626284
-13.068143
