EVENT_NAME: L_AQUILA
EVENT_ID: IT-2009-0009
EVENT_DATE_YYYYMMDD: 20090406
EVENT_TIME_HHMMSS: 013240
EVENT_LATITUDE_DEGREE: 42.3420
EVENT_LONGITUDE_DEGREE: 13.3800
EVENT_DEPTH_KM: 8.3
HYPOCENTER_REFERENCE: INGV-CNT_Seismic_Bulletin
MAGNITUDE_W: 6.1
MAGNITUDE_W_REFERENCE: INGV-CNT_Seismic_Bulletin
MAGNITUDE_L: 
MAGNITUDE_L_REFERENCE: 
FOCAL_MECHANISM: Normal faulting
NETWORK: MN
STATION_CODE: AQU
STATION_NAME: AQUILA CASTELLO
STATION_LATITUDE_DEGREE: 42.353880
STATION_LONGITUDE_DEGREE: 13.401930
STATION_ELEVATION_M: 729
LOCATION: 
SENSOR_DEPTH_M: 15.0
VS30_M/S: 
SITE_CLASSIFICATION_EC8: B (inferred from geology)
MORPHOLOGIC_CLASSIFICATION: 
EPICENTRAL_DISTANCE_KM: 2.5
EARTHQUAKE_BACKAZIMUTH_DEGREE: 57.1
DATE_TIME_FIRST_SAMPLE_YYYYMMDD_HHMMSS: 20090406_013210.000
DATE_TIME_FIRST_SAMPLE_PRECISION: milliseconds
SAMPLING_INTERVAL_S: 0.010000
NDATA: 14001
DURATION_S: 140.010
STREAM: HLE
UNITS: cm/s^2
INSTRUMENT: sensor = Unknown [Unknown] | digitizer = Unknown [Unknown]
INSTRUMENT_ANALOG/DIGITAL: D
INSTRUMENTAL_FREQUENCY_HZ: 
INSTRUMENTAL_DAMPING: 
FULL_SCALE_G: 
N_BIT_DIGITAL_CONVERTER: 
PGA_CM/S^2: -258.294647
TIME_PGA_S: 34.700000
BASELINE_CORRECTION: BASELINE NOT REMOVED
FILTER_TYPE: 
FILTER_ORDER: 
LOW_CUT_FREQUENCY_HZ: 
HIGH_CUT_FREQUENCY_HZ: 
LATE/NORMAL_TRIGGERED: NT
DATABASE_VERSION: 0.5
HEADER_FORMAT: DYNA 1.2
DATA_TYPE: ACCELERATION
PROCESSING: converted to cm/s^2
DATA_TIMESTAMP_YYYYMMDD_HHMMSS: 20210223_213919.682
DATA_LICENSE: CC-BY4_0 (http://creativecommons.org/licenses/by/4.0/)
DATA_CITATION: Luzi L, Puglia R, Russo E & ORFEUS WG5 (2016). Engineering Strong Motion Database. Istituto Nazionale di Geofisica e Vulcanologia, Observatories & Research Facilities for European Seismology. doi: 10.13127/ESM
DATA_CREATOR: ESM working group
ORIGINAL_DATA_MEDIATOR_CITATION: data obtained within the DPC-INGV data exchange agreements
ORIGINAL_DATA_MEDIATOR: Archive of Italian Department of Civil Protection
ORIGINAL_DATA_CREATOR_CITATION:  http://www.fdsn.org/networks/detail/MN/
ORIGINAL_DATA_CREATOR: network: MN (Mediterranean Very Broadband Seismographic Network (MedNet)); owner: Istituto Nazionale di Geofisica e Vulcanologia (INGV)
USER1: 
USER2: 
USER3: 
USER4: 
USER5: 
[...]
0.032679
0.031930
0.034737
0.033240
0.034176
0.034363
0.033801
0.035673
0.032491
0.034550
0.033989
0.033427
0.033989
0.034176
0.034363
0.031743
0.035112
0.033240
0.033989
0.033801
0.033053
0.034550
0.032491
0.034363
0.032866
0.034550
0.032866
0.032491
0.034924
0.032679
0.033801
0.032491
0.035299
0.033614
0.033053
0.033989
0.032117
0.035112
0.031930
0.033989
0.034176
0.033801
0.033989
0.031556
0.033614
0.033614
0.033989
0.033614
0.033427
0.033240
0.033240
0.033801
0.033614
0.034363
0.033240
0.033240
0.034176
0.033053
0.033240
0.033053
0.033427
0.033989
0.033053
0.033614
0.034176
0.033240
0.033989
0.033240
0.033053
0.034363
0.033989
0.033427
0.033989
0.032304
0.033801
0.034176
0.031181
0.036422
0.033801
0.032866
0.035299
0.033801
0.034550
0.032679
0.034924
0.032679
0.033614
0.033989
0.032304
0.035299
0.033053
0.033801
0.033427
0.033053
0.033240
0.033240
0.033240
0.033801
0.034176
0.032491
0.034550
0.032679
0.034176
0.033614
0.033801
0.035673
0.032866
0.034924
0.033053
0.034550
0.033053
0.031743
0.035486
0.032866
0.032679
0.033801
0.033989
0.031369
0.034363
0.033801
0.032117
0.034924
0.032304
0.033801
0.032117
0.032491
0.034363
0.032491
0.033614
0.033614
0.032866
0.033801
0.034363
0.033614
0.034363
0.032304
0.034363
0.034924
0.033427
0.034363
0.031743
0.035673
0.031930
0.032866
0.035860
0.031369
0.035112
0.033427
0.033801
0.033427
0.032117
0.034176
0.034176
0.032866
0.033801
0.034550
0.031181
0.033801
0.033427
0.032866
0.033801
0.033240
0.034737
0.031369
0.034924
0.033989
0.031930
0.035486
0.031930
0.033614
0.033614
0.032866
0.034363
0.032866
0.033989
0.033801
0.032304
0.035112
0.033989
0.032117
0.034737
0.032679
0.034737
0.033614
0.032117
0.034737
0.032491
0.033614
0.032679
0.034176
0.034737
0.031743
0.034924
0.033427
0.032866
0.033801
0.033053
0.035112
0.032491
0.033989
0.035112
0.031369
0.035486
0.032679
0.032491
0.035299
0.031556
0.034737
0.032491
0.033427
0.034924
0.032866
0.033053
0.033427
0.034363
0.033240
0.033801
0.034176
0.033801
0.032679
0.035486
0.033801
0.032866
0.033614
0.033240
0.033989
0.033240
0.033801
0.032304
0.032679
0.033240
0.033989
0.034176
0.033240
0.033240
0.032679
0.033989
0.033989
0.034363
0.034550
0.034176
0.033053
0.033989
0.033427
0.032679
0.033989
0.032679
0.034176
0.032679
0.034176
0.035673
0.031369
0.034924
0.034737
0.032491
0.034924
0.033614
0.032679
0.034176
0.033989
0.032117
0.033801
0.033240
0.032304
0.034363
0.032866
0.033801
0.033801
0.034363
0.033801
0.032679
0.033801
0.033240
0.034924
0.032491
0.034550
0.033053
0.031556
0.036422
0.031743
0.033614
0.033801
0.032866
0.033240
0.032679
0.034737
0.032866
0.034176
0.033240
0.033053
0.033240
0.034363
0.031369
0.033053
0.037170
0.029871
0.032866
0.034737
0.033240
0.034924
0.031556
0.035112
0.033614
0.030433
0.034737
0.032679
0.033427
0.034176
0.032491
0.033427
0.033240
0.034924
0.033427
0.033053
0.032491
0.033989
0.035673
0.031556
0.034550
0.032866
0.033427
0.034924
0.031930
0.035299
0.032304
0.032679
0.033427
0.033053
0.033614
0.031181
0.034737
0.033614
0.032491
0.033053
0.032679
0.034176
0.030994
0.034176
0.034363
0.031930
0.035860
0.032679
0.033240
0.034363
0.032491
0.034176
0.033427
0.035112
0.032866
0.032117
0.033989
0.033801
0.034737
0.031930
0.034550
0.034737
0.032491
0.033801
0.032491
0.033801
0.033240
0.033053
0.033989
0.032679
0.034176
0.032304
0.031181
0.033989
0.034176
0.034363
0.032304
0.034924
0.033614
0.033427
0.034176
0.031930
0.035299
0.032117
0.032679
0.035486
0.032866
0.033801
0.033240
0.032117
0.032679
0.033240
0.034363
0.032491
0.033427
0.034550
0.032679
0.033989
0.032304
0.033801
0.033053
0.033614
0.034924
0.030807
0.033801
0.033427
0.032866
0.033989
0.032679
0.033801
0.033053
0.033801
0.032866
0.033614
0.034737
0.032117
0.034363
0.033427
0.032866
0.033614
0.033240
0.032304
0.032866
0.034737
0.032679
0.033801
0.034550
0.033053
0.032491
0.034176
0.031930
0.031930
0.034176
0.033801
0.033801
0.033053
0.034737
0.033053
0.034363
0.033801
0.033053
0.033427
0.033240
0.034363
0.032866
0.034363
0.031930
0.034176
0.034176
0.032304
0.034550
0.033053
0.035299
0.033427
0.034363
0.032304
0.033801
0.034550
0.030994
0.036422
0.031556
0.032866
0.034176
0.032117
0.034363
0.033053
0.033614
0.033614
0.033240
0.033053
0.034176
0.033240
0.033240
0.033427
0.034176
0.034176
0.033240
0.035112
0.031556
0.033240
0.035673
0.031743
0.033614
0.033989
0.033240
0.034363
0.032866
0.033427
0.032491
0.033240
0.034176
0.032491
0.034363
0.033614
0.032117
0.032679
0.035673
0.033989
0.031743
0.034550
0.032304
0.033614
0.034550
0.033989
0.034363
0.032304
0.034550
0.032679
0.031556
0.034737
0.033053
0.033614
0.032679
0.032491
0.034924
0.032491
0.033053
0.032866
0.033053
0.033427
0.031930
0.033427
0.031930
0.034924
0.032491
0.032117
0.035673
0.029310
0.034550
0.035299
0.030058
0.034737
0.033427
0.031181
0.034363
0.033614
0.032304
0.033801
0.033427
0.033053
0.033989
0.033614
0.033240
0.033053
0.032866
0.033989
0.032866
0.033427
0.034737
0.033427
0.033240
0.034176
0.033801
0.033240
0.033053
0.032491
0.034176
0.032679
0.033989
0.033989
0.032304
0.034550
0.033614
0.033989
0.033053
0.033240
0.033427
0.033240
0.033053
0.032491
0.033427
0.031743
0.033427
0.033801
0.033053
0.033427
0.033801
0.032679
0.032117
0.034176
0.033053
0.033053
0.034550
0.033989
0.031556
0.034176
0.034924
0.032679
0.033614
0.033240
0.034737
0.033614
0.032491
0.034176
0.033801
0.034176
0.033989
0.032679
0.033801
0.033989
0.031369
0.033989
0.034737
0.031930
0.033427
0.033614
0.033614
0.033240
0.032866
0.033240
0.033801
0.034363
0.031181
0.033801
0.034924
0.031181
0.033989
0.033427
0.032866
0.033427
0.033240
0.035299
0.031369
0.033240
0.034924
0.031181
0.033989
0.033614
0.033240
0.033801
0.032491
0.034737
0.033053
0.033614
0.033614
0.032491
0.033801
0.033427
0.033240
0.032866
0.034550
0.031181
0.032491
0.034363
0.032117
0.034924
0.032679
0.032866
0.032117
0.033240
0.034363
0.033053
0.034924
0.033053
0.034737
0.031930
0.033614
0.033801
0.030058
0.035486
0.032679
0.032679
0.033989
0.032117
0.035112
0.030807
0.033427
0.035486
0.030620
0.036047
0.032304
0.032866
0.035673
0.031556
0.035486
0.032679
0.033240
0.033053
0.032679
0.034550
0.031181
0.034924
0.034550
0.032491
0.033614
0.033427
0.033989
0.033801
0.033801
0.033614
0.032117
0.034737
0.033801
0.031369
0.033989
0.033240
0.033614
0.033427
0.033427
0.032866
0.032679
0.034176
0.033053
0.033427
0.033801
0.032304
0.032866
0.034363
0.033614
0.032679
0.033240
0.033989
0.033614
0.032866
0.033989
0.032491
0.033801
0.033989
0.031930
0.033801
0.033801
0.033053
0.032117
0.033614
0.033614
0.033240
0.034924
0.031743
0.032866
0.033614
0.032679
0.034550
0.032679
0.034363
0.033240
0.031930
0.035112
0.031930
0.032304
0.033989
0.032491
0.033989
0.033614
0.033801
0.032866
0.032491
0.035112
0.032117
0.033240
0.033240
0.032117
0.034737
0.033427
0.032866
0.032679
0.034176
0.034363
0.033053
0.032866
0.033614
0.031743
0.033614
0.033240
0.032304
0.035299
0.033053
0.033801
0.032491
0.032491
0.034550
0.033614
0.031930
0.033614
0.033989
0.031743
0.035299
0.032866
0.033427
0.034363
0.032117
0.034363
0.033053
0.032679
0.033427
0.033240
0.033989
0.032679
0.033053
0.033053
0.033240
0.034363
0.031930
0.034737
0.034363
0.033053
0.033801
0.032866
0.033801
0.032304
0.034737
0.033240
0.032304
0.036234
0.033053
0.032491
0.033240
0.031743
0.033614
0.033989
0.032866
0.033614
0.032866
0.033053
0.034176
0.033801
0.033427
0.033427
0.033427
0.033989
0.033053
0.032866
0.034176
0.033801
0.032491
0.032679
0.033989
0.033427
0.033614
0.034924
0.033427
0.033240
0.033240
0.033801
0.033427
0.032866
0.034924
0.033614
0.032679
0.031930
0.033801
0.034550
0.031930
0.034550
0.032866
0.032866
0.033614
0.031556
0.033053
0.033801
0.033614
0.033053
0.034176
0.033053
0.032679
0.033989
0.033989
0.033053
0.032491
0.033240
0.032679
0.033053
0.033989
0.033053
0.031743
0.034363
0.034550
0.032491
0.033240
0.033989
0.033614
0.033801
0.033614
0.034176
0.034737
0.031181
0.032866
0.035112
0.031369
0.034924
0.032866
0.031930
0.034550
0.031556
0.034176
0.033614
0.033240
0.033240
0.033427
0.033240
0.032491
0.034550
0.032866
0.033427
0.033427
0.032866
0.033240
0.033801
0.034176
0.032679
0.033801
0.033053
0.034363
0.033801
0.032491
0.034550
0.032304
0.032866
0.033053
0.033614
0.034176
0.033053
0.033427
0.032304
0.032679
0.034176
0.033989
0.032117
0.032866
0.033614
0.033053
0.033427
0.032679
0.033427
0.033614
0.033053
0.035299
0.033053
0.031930
0.033427
0.034363
0.034176
0.032117
0.033801
0.032679
0.034176
0.034176
0.032491
0.033989
0.033053
0.032679
0.034176
0.034550
0.031743
0.033427
0.034363
0.031556
0.035112
0.034176
0.032304
0.035299
0.031181
0.033427
0.034363
0.031930
0.034737
0.031930
0.034737
0.033427
0.031930
0.034176
0.032491
0.035486
0.032117
0.033989
0.034550
0.031743
0.034550
0.032491
0.033427
0.033614
0.033614
0.034363
0.032304
0.033240
0.033053
0.033427
0.033989
0.032866
0.033989
0.033240
0.033427
0.034737
0.033240
0.032491
0.033427
0.034924
0.031743
0.031930
0.035860
0.033614
0.032304
0.034737
0.032679
0.032679
0.036234
0.032117
0.031930
0.033989
0.033240
0.034363
0.033427
0.033989
0.032491
0.034363
0.033240
0.019204
0.021075
0.082460
0.180153
0.014712
-0.339750
-0.019723
0.270359
-0.566950
-0.507998
-0.017665
-0.407311
0.614340
0.598433
-0.274060
0.470048
0.343722
-0.518478
-0.854038
0.322387
-0.416294
-0.104315
1.530252
-0.345551
0.380216
-1.405007
-2.844564
0.803175
0.272043
-0.958842
-2.276564
-2.287980
2.813539
4.330763
1.483278
-1.776312
-6.029107
-4.212817
2.732690
5.280549
6.220416
1.832499
-7.018756
-3.731093
-0.598765
0.364308
3.990712
-5.001280
-3.288297
4.091960
-0.722284
-1.742064
0.362998
-0.331141
-1.437758
5.258840
-1.118106
-5.621682
-0.685790
1.295005
9.670150
0.357197
-1.720168
-2.062090
-8.451763
0.870923
2.939304
-5.475892
-8.204538
7.422480
14.380339
-5.746698
-33.174454
-14.444677
18.201941
-0.246736
-13.338621
2.664755
0.618645
-16.338448
1.853647
28.007849
8.894601
-36.928867
-23.001734
9.622053
-1.622475
37.417557
31.209608
-44.389038
-55.444172
-32.004578
-2.637202
-7.112518
-24.464870
-18.213503
-49.945332
-63.652191
-28.630829
-28.027456
-21.291744
-21.608213
-0.581547
30.047033
-26.832130
-13.747918
-8.070164
-21.145580
35.278248
37.953743
21.996592
-16.765148
-57.460335
-29.770384
-13.624773
-37.056877
-20.769783
15.127255
22.677069
16.272612
18.119781
-1.196148
-43.370754
-43.559216
13.807474
86.697311
51.463345
-23.996246
-13.345359
-56.165073
-71.532326
14.359566
61.418972
32.934010
-20.746202
-54.775669
-39.161003
7.152048
-3.124166
34.549858
24.708395
-36.399609
-2.896592
25.761675
13.927624
-4.487366
-30.343061
-63.116005
-12.262509
-12.436559
-30.819920
-2.754919
2.049593
30.800123
5.891219
-13.689340
-16.171885
15.523451
62.696083
77.656288
108.093224
58.030251
-23.685953
-1.971323
56.641037
56.259624
66.697159
34.941940
-14.394334
29.250149
10.629481
-0.865454
47.485847
53.332039
112.376900
122.556168
70.784706
146.916168
178.215118
97.164421
49.217922
25.267973
19.986416
46.078484
73.749344
65.715561
81.499222
108.798965
89.384224
28.346588
-44.908939
-36.764549
2.153649
21.860161
38.533344
18.673370
36.518116
55.166855
33.036003
62.283230
42.021633
13.811778
19.698580
-26.225389
-38.862686
-42.248043
-58.947430
-99.954224
-70.594330
-7.367603
-60.597717
-68.536613
-85.119225
-126.080536
-131.200394
-155.509293
-137.137360
-111.954651
-100.461960
-114.070000
-156.638367
-219.559296
-164.481827
65.533653
146.270874
104.712547
79.620422
-55.859829
-132.063156
-99.465195
-134.568344
-178.811890
-145.976440
-60.896408
-20.665354
-21.381014
-61.349312
-92.804909
-66.310654
-110.331871
-162.673584
-172.577927
-192.369415
-185.945496
-118.414871
-53.240479
-21.581825
45.301807
128.049210
164.913254
119.090530
54.967541
49.059406
59.136120
72.415337
127.276649
180.567596
182.260925
176.205688
208.647003
235.549057
205.506821
148.631210
89.959709
44.482281
21.537514
24.208891
38.687557
53.151440
88.748474
79.648125
42.737671
17.791708
-22.608719
-39.746597
-56.605247
-64.809151
-78.236595
-117.279808
-156.179672
-196.920151
-202.244568
-170.931580
-118.985497
-73.393532
-35.946144
-1.348675
15.819709
21.991915
3.294140
-36.686882
-57.811993
-39.947224
-21.081949
-5.543640
4.014854
-5.949007
23.321239
83.029922
122.369957
141.149323
175.860764
232.174179
233.306442
199.157379
141.848328
31.138304
-43.935760
-25.329315
22.339638
40.612019
76.385536
114.721703
135.766525
159.936935
168.997604
174.125137
131.653900
71.322006
37.661415
-7.191495
-20.270655
-8.996556
-36.928120
-51.125313
-10.217896
32.904625
48.381924
20.421164
-38.644096
-118.300713
-208.613831
-258.294647
-245.719666
-202.034760
-162.220871
-109.212524
-64.841156
-46.476696
-52.766056
-111.899063
-164.852203
-175.895721
-160.002579
-121.809586
-90.869774
-43.076740
26.743088
79.735336
118.561272
158.775101
167.683823
74.329323
-29.639380
-24.588203
-28.480547
-70.147980
-27.517847
24.341768
45.331753
88.462883
92.084984
69.398483
20.208187
-31.895845
-14.385164
28.596247
75.584908
102.202866
118.462265
143.359192
148.711121
151.276199
137.540329
96.337967
56.355446
47.897953
78.820923
117.811546
133.620667
142.982468
175.751099
164.073883
63.702950
-33.272518
-75.909950
-89.844757
-67.578972
-34.719936
-31.000521
-28.015478
-23.531740
-43.144863
-71.367447
-64.074028
-40.489769
-33.892921
-36.363300
-60.844566
-88.279251
-94.670982
-76.357422
-59.382927
-65.009026
-76.631973
-89.487679
-93.621254
-110.854767
-125.942230
-107.507027
-93.483887
-87.930023
-84.835693
-84.741928
-71.101509
-46.287300
-55.770184
-100.711990
-99.224709
-47.331036
-28.611925
-52.173164
-44.568138
-29.619728
-30.730087
-25.808420
-22.966173
7.739512
41.445961
47.378799
21.658224
-18.286678
-39.165123
-32.541325
-14.306373
-27.457584
-48.846199
-60.630844
-46.815063
-33.680508
-46.478378
-16.092531
6.922790
9.731348
37.906956
52.510262
61.118221
88.958832
131.658401
142.478836
126.223938
122.963593
112.755692
97.529549
84.384514
68.840965
42.935860
0.567927
-31.092222
-58.062210
-68.031685
-36.948143
-23.791880
-14.469755
21.935768
11.916885
-42.665760
-63.122746
-67.507103
-85.120903
-78.944588
-76.178139
-60.177006
-12.758269
6.210871
15.441667
13.314334
13.937356
54.572094
82.881516
72.605293
44.607296
43.901367
76.683105
73.901314
33.424152
-3.523357
-37.481335
-43.772003
-10.265433
24.213009
28.015896
7.289791
-16.327217
-48.820560
-77.385628
-59.869705
-0.107310
58.680782
82.403908
71.974045
74.484657
66.429909
35.009312
57.909164
77.838570
39.735409
35.328964
68.598976
52.813072
20.610186
27.676779
43.126377
39.483318
1.048903
-23.727688
-8.420134
6.190659
-11.328818
-36.269165
-1.656349
17.124144
-24.102922
-64.253502
-80.848083
-68.658447
-46.601524
-20.253248
-16.372133
9.635153
54.046391
59.497318
44.209042
-25.946537
-80.790070
-79.550392
-76.252060
-50.500980
-21.439219
-15.448175
-22.402292
-31.440134
-39.501431
-50.829239
-41.837437
-23.406164
-14.128955
10.524864
21.431400
4.090837
3.550723
29.261751
30.873861
32.154903
81.038086
103.945236
102.316093
115.157387
84.895805
23.364658
-19.849005
-66.433243
-115.504135
-115.102882
-49.347198
22.635147
35.166332
14.403172
8.769024
-14.285787
-66.868927
-111.096001
-124.063057
-94.231178
-43.126335
0.982464
22.599401
10.700036
-14.313485
-2.545686
11.590121
-36.430115
-58.052105
-33.464161
-24.850025
-2.858975
37.098469
74.565880
78.871078
66.837334
47.592712
22.843634
43.385395
67.048256
55.232544
46.055462
45.757332
32.025768
48.947865
87.030815
90.890594
97.445145
109.737335
119.750603
129.827133
120.107689
88.112915
43.696625
2.638928
-33.626419
-52.031303
-36.621380
-3.404142
6.011370
-3.398715
-16.398708
-58.748489
-105.403275
-116.896904
-65.383331
19.867575
79.429344
121.564651
150.514313
136.279495
82.868599
39.411640
22.357792
1.142103
-17.842197
7.099459
29.179031
33.231388
55.720631
70.271912
75.992149
78.826721
62.647240
23.892982
-13.380730
-62.617065
-117.264839
-126.058830
-107.484756
-90.186684
-67.500557
-33.766220
-6.795112
-6.415759
-29.496958
-63.201347
-93.266609
-96.444595
-74.793602
-53.731937
-31.930655
-20.990807
-37.655010
-65.148827
-84.051346
-85.303749
-83.805428
-83.721214
-67.978165
-46.541264
-39.786083
-41.287216
-41.548851
-46.261848
-43.535633
-45.430714
-54.436741
-52.284332
-45.550491
-33.134029
-25.476416
-12.508799
13.946526
23.750748
7.648370
-4.296660
-0.608684
-7.965922
-6.068783
21.142441
34.381424
34.264645
37.274014
34.991158
36.746628
38.863667
28.549273
36.695908
60.620590
60.225704
54.806030
61.364326
57.448212
47.397514
43.959946
28.502485
3.940930
-4.184183
-4.055424
-1.645308
11.706529
24.621931
18.626959
-4.265968
-46.000397
-96.767616
-127.056335
-123.064804
-87.830650
-74.330406
-86.926338
-75.587868
-54.100807
-53.036114
-72.745247
-72.792969
-50.299980
-44.177372
-42.223152
-30.015364
-5.882007
21.225348
19.655909
5.862773
8.214124
18.876616
25.518005
19.105125
3.647479
-14.486225
-20.790745
-12.272615
17.322899
58.553520
71.384331
71.794006
65.578568
61.410740
66.566528
53.376392
41.145023
33.233261
15.124635
-18.412630
-53.081589
-77.814011
-94.525940
-85.288589
-54.224514
-16.452047
13.685639
31.125391
27.377527
-5.291736
-54.447784
-97.408043
-125.273361
-140.254715
-122.389565
-82.021515
-34.142391
18.872873
62.953976
107.783302
132.843613
128.013275
109.264595
82.640091
72.880783
72.351151
79.354301
91.938629
100.472672
108.493912
102.972427
102.193138
107.415558
96.746140
78.697029
57.351830
32.177734
10.443267
-4.944948
-15.333826
-18.095222
-15.952170
-25.591700
-46.829472
-55.602688
-42.429016
-14.891966
13.855571
29.223200
37.932034
49.271446
44.109665
13.293934
-20.018002
-44.038506
-62.980324
-66.649208
-61.326290
-54.594883
-36.149574
-30.197460
-45.687859
-63.285378
-72.406693
-60.408508
-47.374268
-51.404915
-63.633289
-79.919823
-86.001450
-78.810776
-60.477379
-30.379370
-6.289058
15.122950
28.592878
23.380379
11.161735
-0.379426
12.420880
36.293911
51.305767
69.398674
72.449211
56.991379
34.717731
5.491467
-13.012419
-6.878581
