EVENT_NAME: L_AQUILA
EVENT_ID: IT-2009-0009
EVENT_DATE_YYYYMMDD: 20090406
EVENT_TIME_HHMMSS: 013240
EVENT_LATITUDE_DEGREE: 42.3420
EVENT_LONGITUDE_DEGREE: 13.3800
EVENT_DEPTH_KM: 8.3
HYPOCENTER_REFERENCE: INGV-CNT_Seismic_Bulletin
MAGNITUDE_W: 6.1
MAGNITUDE_W_REFERENCE: INGV-CNT_Seismic_Bulletin
MAGNITUDE_L: 
MAGNITUDE_L_REFERENCE: 
FOCAL_MECHANISM: Normal faulting
NETWORK: MN
STATION_CODE: AQU
STATION_NAME: AQUILA CASTELLO
STATION_LATITUDE_DEGREE: 42.353880
STATION_LONGITUDE_DEGREE: 13.401930
STATION_ELEVATION_M: 729
LOCATION: 
SENSOR_DEPTH_M: 15.0
VS30_M/S: 
SITE_CLASSIFICATION_EC8: B (inferred from geology)
MORPHOLOGIC_CLASSIFICATION: 
EPICENTRAL_DISTANCE_KM: 2.5
EARTHQUAKE_BACKAZIMUTH_DEGREE: 57.1
DATE_TIME_FIRST_SAMPLE_YYYYMMDD_HHMMSS: 20090406_013225.000
DATE_TIME_FIRST_SAMPLE_PRECISION: milliseconds
SAMPLING_INTERVAL_S: 0.005000
NDATA: 18000
DURATION_S: 90.000
STREAM: HLN
UNITS: cm/s^2
INSTRUMENT: sensor = Unknown [Unknown] | digitizer = Unknown [Unknown]
INSTRUMENT_ANALOG/DIGITAL: D
INSTRUMENTAL_FREQUENCY_HZ: 
INSTRUMENTAL_DAMPING: 
FULL_SCALE_G: 
N_BIT_DIGITAL_CONVERTER: 
PGA_CM/S^2: -301.881470
TIME_PGA_S: 18.580000
BASELINE_CORRECTION: BASELINE REMOVED
FILTER_TYPE: BUTTERWORTH
FILTER_ORDER: 2
LOW_CUT_FREQUENCY_HZ: 0.150
HIGH_CUT_FREQUENCY_HZ: 40.000
LATE/NORMAL_TRIGGERED: NT
DATABASE_VERSION: 0.5
HEADER_FORMAT: DYNA 1.2
DATA_TYPE: ACCELERATION
PROCESSING: manual (Paolucci et al., 2011)
DATA_TIMESTAMP_YYYYMMDD_HHMMSS: 20210223_213920.147
DATA_LICENSE: CC-BY4_0 (http://creativecommons.org/licenses/by/4.0/)
DATA_CITATION: Luzi L, Puglia R, Russo E & ORFEUS WG5 (2016). Engineering Strong Motion Database. Istituto Nazionale di Geofisica e Vulcanologia, Observatories & Research Facilities for European Seismology. doi: 10.13127/ESM
DATA_CREATOR: ESM working group
ORIGINAL_DATA_MEDIATOR_CITATION: data obtained within the DPC-INGV data exchange agreements
ORIGINAL_DATA_MEDIATOR: Archive of Italian Department of Civil Protection
ORIGINAL_DATA_CREATOR_CITATION:  http://www.fdsn.org/networks/detail/MN/
ORIGINAL_DATA_CREATOR: network: MN (Mediterranean Very Broadband Seismographic Network (MedNet)); owner: Istituto Nazionale di Geofisica e Vulcanologia (INGV)
USER1: 
USER2: 
USER3: 
USER4: 
USER5: 
[...]
-0.013253
-0.013592
-0.013778
-0.013612
-0.013293
-0.013170
-0.013365
-0.013796
-0.014344
-0.014896
-0.015294
-0.015308
-0.014794
-0.014077
-0.013981
-0.014870
-0.015957
-0.016220
-0.015539
-0.014610
-0.014295
-0.014938
-0.016072
-0.016957
-0.017195
-0.016781
-0.016024
-0.015561
-0.016108
-0.017560
-0.018613
-0.018207
-0.016894
-0.016050
-0.016464
-0.017756
-0.018697
-0.018590
-0.018138
-0.018261
-0.018848
-0.019302
-0.019456
-0.019482
-0.019445
-0.019226
-0.018741
-0.018266
-0.018416
-0.019361
-0.020347
-0.020635
-0.020429
-0.020371
-0.020697
-0.021129
-0.021221
-0.020875
-0.020544
-0.020666
-0.021152
-0.021699
-0.022177
-0.022478
-0.022396
-0.022091
-0.022279
-0.023242
-0.024100
-0.023900
-0.022875
-0.022117
-0.022522
-0.023859
-0.024759
-0.024434
-0.023860
-0.024160
-0.024957
-0.025343
-0.025267
-0.025169
-0.025154
-0.025043
-0.024796
-0.024661
-0.024981
-0.025665
-0.026051
-0.025836
-0.025683
-0.026164
-0.026801
-0.026984
-0.026976
-0.027265
-0.027710
-0.027935
-0.027998
-0.028264
-0.028901
-0.029549
-0.029505
-0.028735
-0.028341
-0.029116
-0.030300
-0.030719
-0.030279
-0.029773
-0.029949
-0.030758
-0.031331
-0.031163
-0.030910
-0.031294
-0.031931
-0.031989
-0.031302
-0.030570
-0.030769
-0.031987
-0.032992
-0.032884
-0.032415
-0.032632
-0.033295
-0.033507
-0.032996
-0.032406
-0.032722
-0.034036
-0.035070
-0.034854
-0.034109
-0.033953
-0.034380
-0.034866
-0.035393
-0.036171
-0.036993
-0.037279
-0.036633
-0.035515
-0.035236
-0.036441
-0.038024
-0.038526
-0.037806
-0.036806
-0.036511
-0.037144
-0.038023
-0.038496
-0.038705
-0.039025
-0.039373
-0.039484
-0.039417
-0.039473
-0.039819
-0.040236
-0.040251
-0.039895
-0.040008
-0.041033
-0.042090
-0.042177
-0.041553
-0.041284
-0.042079
-0.043545
-0.044340
-0.043729
-0.042635
-0.042283
-0.042706
-0.043271
-0.043692
-0.044085
-0.044573
-0.045059
-0.045300
-0.045300
-0.045472
-0.046074
-0.046710
-0.046800
-0.046250
-0.045557
-0.045493
-0.046421
-0.047844
-0.048851
-0.048870
-0.048136
-0.047606
-0.047899
-0.048539
-0.048734
-0.048408
-0.048149
-0.048603
-0.049777
-0.050839
-0.051047
-0.050582
-0.050121
-0.050102
-0.050551
-0.051226
-0.051863
-0.052320
-0.052520
-0.052428
-0.052192
-0.052179
-0.052582
-0.053125
-0.053434
-0.053503
-0.053637
-0.054132
-0.054896
-0.055400
-0.055287
-0.054871
-0.054688
-0.054904
-0.055352
-0.055810
-0.056179
-0.056495
-0.056756
-0.056835
-0.056723
-0.056716
-0.057122
-0.057918
-0.058772
-0.059310
-0.059474
-0.059620
-0.059986
-0.060264
-0.060050
-0.059439
-0.059011
-0.059381
-0.060498
-0.061433
-0.061476
-0.061068
-0.061108
-0.061893
-0.062950
-0.063476
-0.063188
-0.062722
-0.062791
-0.063332
-0.063866
-0.064158
-0.064320
-0.064582
-0.064988
-0.065309
-0.065420
-0.065543
-0.065836
-0.066050
-0.065994
-0.066005
-0.066577
-0.067718
-0.068753
-0.068713
-0.067476
-0.066346
-0.066595
-0.068026
-0.069561
-0.070418
-0.070535
-0.070398
-0.070396
-0.070427
-0.070327
-0.070298
-0.070567
-0.071003
-0.071388
-0.071745
-0.072125
-0.072361
-0.072322
-0.072206
-0.072334
-0.072853
-0.073665
-0.074490
-0.074973
-0.074877
-0.074386
-0.074151
-0.074624
-0.075493
-0.076116
-0.076198
-0.076003
-0.076083
-0.076567
-0.076880
-0.076710
-0.076714
-0.077455
-0.078386
-0.078709
-0.078495
-0.078405
-0.078876
-0.079668
-0.080016
-0.079612
-0.079197
-0.079563
-0.080496
-0.081227
-0.081334
-0.081076
-0.081170
-0.081984
-0.083012
-0.083485
-0.083184
-0.082553
-0.082312
-0.082748
-0.083382
-0.083690
-0.083786
-0.084013
-0.084390
-0.084787
-0.085244
-0.085821
-0.086374
-0.086684
-0.086726
-0.086750
-0.087090
-0.087640
-0.087740
-0.087150
-0.086726
-0.087322
-0.088609
-0.089555
-0.089512
-0.088823
-0.088631
-0.089521
-0.090616
-0.090797
-0.090111
-0.089484
-0.089716
-0.090740
-0.091588
-0.091556
-0.091124
-0.091169
-0.091915
-0.092929
-0.093609
-0.093664
-0.093316
-0.093005
-0.093056
-0.093635
-0.094700
-0.095749
-0.095904
-0.094892
-0.093738
-0.093742
-0.095153
-0.096985
-0.097736
-0.096896
-0.095724
-0.095688
-0.096788
-0.097995
-0.098443
-0.098150
-0.097971
-0.098478
-0.099182
-0.099421
-0.099339
-0.099470
-0.099947
-0.100385
-0.100282
-0.099684
-0.099405
-0.100048
-0.101177
-0.101975
-0.102178
-0.102073
-0.102072
-0.102301
-0.102487
-0.102388
-0.102149
-0.102046
-0.102161
-0.102485
-0.103063
-0.103826
-0.104462
-0.104732
-0.104772
-0.104882
-0.105175
-0.105488
-0.105540
-0.105324
-0.105277
-0.105755
-0.106548
-0.107164
-0.107322
-0.107102
-0.106836
-0.106806
-0.107017
-0.107318
-0.107600
-0.107851
-0.108102
-0.108323
-0.108416
-0.108433
-0.108643
-0.109124
-0.109497
-0.109461
-0.109318
-0.109610
-0.110467
-0.111330
-0.111282
-0.110222
-0.109422
-0.109978
-0.111392
-0.112507
-0.112881
-0.112740
-0.112391
-0.111983
-0.111617
-0.111609
-0.112397
-0.113721
-0.114348
-0.113650
-0.112751
-0.112929
-0.113872
-0.114448
-0.114188
-0.113649
-0.113873
-0.115124
-0.116282
-0.116215
-0.115172
-0.114242
-0.114220
-0.115118
-0.116220
-0.116720
-0.116364
-0.115604
-0.115294
-0.115860
-0.116773
-0.117248
-0.117069
-0.116521
-0.116021
-0.115915
-0.116394
-0.117396
-0.118529
-0.119198
-0.118961
-0.118031
-0.117364
-0.117627
-0.118396
-0.118947
-0.119180
-0.119306
-0.119276
-0.118943
-0.118448
-0.118196
-0.118530
-0.119261
-0.119630
-0.119239
-0.118720
-0.118833
-0.119464
-0.119952
-0.119864
-0.119336
-0.118960
-0.119164
-0.119741
-0.120189
-0.120226
-0.119939
-0.119658
-0.119622
-0.119760
-0.119933
-0.120163
-0.120454
-0.120598
-0.120392
-0.119950
-0.119689
-0.120043
-0.120924
-0.121578
-0.121470
-0.121002
-0.120840
-0.121044
-0.121215
-0.121052
-0.120703
-0.120672
-0.121103
-0.121381
-0.121000
-0.120354
-0.120126
-0.120433
-0.120886
-0.121048
-0.120773
-0.120321
-0.120094
-0.120327
-0.120959
-0.121640
-0.121882
-0.121365
-0.120322
-0.119569
-0.119641
-0.120122
-0.120327
-0.120151
-0.119948
-0.120040
-0.120391
-0.120608
-0.120377
-0.119813
-0.119236
-0.118841
-0.118684
-0.118749
-0.118913
-0.118960
-0.118828
-0.118733
-0.118823
-0.118886
-0.118675
-0.118296
-0.118075
-0.118209
-0.118523
-0.118525
-0.117957
-0.117204
-0.116873
-0.117209
-0.117981
-0.118637
-0.118681
-0.118007
-0.116972
-0.116203
-0.116042
-0.116197
-0.116214
-0.116013
-0.115769
-0.115611
-0.115557
-0.115571
-0.115603
-0.115562
-0.115277
-0.114580
-0.113660
-0.113153
-0.113439
-0.114057
-0.114270
-0.113831
-0.113033
-0.112375
-0.112106
-0.112028
-0.111905
-0.111825
-0.111927
-0.112025
-0.111746
-0.110906
-0.109825
-0.109238
-0.109458
-0.109841
-0.109641
-0.108948
-0.108381
-0.108344
-0.108624
-0.108509
-0.107600
-0.106391
-0.105646
-0.105604
-0.105966
-0.106219
-0.105976
-0.105203
-0.104257
-0.103675
-0.103644
-0.103679
-0.103185
-0.102127
-0.101022
-0.100545
-0.100915
-0.101586
-0.101789
-0.101219
-0.100155
-0.099219
-0.098813
-0.098728
-0.098424
-0.097577
-0.096452
-0.095838
-0.096135
-0.096712
-0.096661
-0.095773
-0.094561
-0.093727
-0.093444
-0.093110
-0.092262
-0.091319
-0.090888
-0.090883
-0.090759
-0.090169
-0.089357
-0.088980
-0.089142
-0.088910
-0.087602
-0.085932
-0.085053
-0.085178
-0.085521
-0.085055
-0.083624
-0.082302
-0.081909
-0.081825
-0.081138
-0.080026
-0.079252
-0.079129
-0.079301
-0.079107
-0.078261
-0.077154
-0.076187
-0.075240
-0.074263
-0.073742
-0.073826
-0.073657
-0.072484
-0.070803
-0.069637
-0.069352
-0.069415
-0.068909
-0.067592
-0.066356
-0.065970
-0.065969
-0.065525
-0.064560
-0.063436
-0.062298
-0.061107
-0.059944
-0.059049
-0.058615
-0.058487
-0.058132
-0.057250
-0.056183
-0.055271
-0.054270
-0.052901
-0.051511
-0.050720
-0.050731
-0.051008
-0.050548
-0.048937
-0.046983
-0.045628
-0.044830
-0.044027
-0.043003
-0.042011
-0.041410
-0.041148
-0.040626
-0.039442
-0.037939
-0.036560
-0.035208
-0.033802
-0.032840
-0.032766
-0.033145
-0.032876
-0.031012
-0.027783
-0.024866
-0.023788
-0.024375
-0.025203
-0.024868
-0.023072
-0.020869
-0.019352
-0.018430
-0.017351
-0.015729
-0.013959
-0.012901
-0.012791
-0.012670
-0.011646
-0.010056
-0.008619
-0.007333
-0.005806
-0.004040
-0.002572
-0.001990
-0.002022
-0.001352
0.000644
0.002662
0.003211
0.002556
0.002048
0.002614
0.004091
0.005346
0.004885
0.000562
-0.012839
-0.045202
-0.107375
-0.204293
-0.325944
-0.441190
-0.505145
-0.478387
-0.359732
-0.206885
-0.106090
-0.117489
-0.220433
-0.300207
-0.237554
-0.008249
0.302824
0.549715
0.633029
0.575678
0.469482
0.392008
0.373180
0.391380
0.389530
0.302985
0.105875
-0.155527
-0.393009
-0.543176
-0.637277
-0.791041
-1.026942
-1.164324
-1.026780
-0.663878
-0.273058
-0.007648
0.145078
0.341537
0.640319
0.852187
0.780217
0.445739
-0.068040
-0.761803
-1.489953
-1.794010
-1.300698
-0.179023
0.937090
1.372723
1.002827
0.424092
0.099386
-0.294852
-1.108640
-1.877421
-1.774916
-0.483464
1.435363
2.779641
2.738582
1.633816
0.289446
-0.787472
-1.386468
-1.355361
-0.738844
0.022252
0.295349
-0.335408
-1.685551
-2.885021
-2.989862
-1.653680
0.745534
3.288323
4.953198
5.082937
3.692527
1.529383
-0.391343
-1.348234
-1.215425
-0.540204
-0.243667
-1.120293
-3.207756
-5.432658
-6.200151
-4.382464
-0.250215
4.242965
6.740949
5.981933
2.284197
-2.650033
-6.642644
-7.999047
-6.073890
-1.568483
3.660206
7.239428
7.620608
5.165721
1.726953
-0.536412
-0.641079
0.447952
1.039242
0.297639
-1.299502
-2.403877
-2.133504
-0.996872
-0.090234
0.021977
-0.509363
-1.146608
-1.476349
-1.517298
-1.501251
-1.572915
-1.761473
-2.061402
-2.498821
-3.210076
-4.506080
-6.689441
-9.404193
-11.356361
-11.372049
-9.461715
-6.545690
-3.769147
-2.199683
-2.801603
-6.334032
-12.704258
-19.596437
-22.257324
-16.876530
-4.110668
11.056290
21.623615
22.508049
13.649484
-0.452313
-12.836649
-17.184959
-10.695975
4.572668
21.838383
32.658978
31.079519
17.191410
-1.925675
-17.454666
-24.920290
-25.730316
-24.908276
-24.956024
-22.556850
-14.850654
-5.494083
-0.750772
-3.122184
-10.100730
-16.823462
-21.309549
-26.351940
-32.533535
-33.042538
-21.254759
0.253673
21.225960
30.509951
23.706154
6.653353
-11.036569
-23.470797
-29.148506
-28.437202
-20.957644
-5.352574
16.474596
36.220951
43.536865
33.045967
9.042964
-15.103560
-27.461454
-26.845284
-19.542734
-11.853412
-5.522944
2.592210
14.940448
28.766829
39.137672
43.434582
41.927624
36.689247
30.756102
27.397743
28.615570
33.483608
37.772991
35.574112
24.174305
7.461150
-7.537674
-15.490401
-14.359197
-5.528636
6.477097
15.153262
15.632021
8.101647
-2.578101
-9.999283
-11.624747
-11.491257
-14.541591
-20.654032
-26.120907
-27.559986
-23.778633
-15.666458
-4.402523
9.469423
24.164511
35.456226
39.730774
37.171124
30.620586
22.849096
14.745618
5.217904
-6.272417
-17.692375
-25.899317
-28.635185
-24.581627
-13.208028
3.980724
22.715998
38.086723
46.638466
45.942978
34.504738
14.709590
-5.051932
-14.536391
-8.532395
7.790637
19.921661
17.829281
6.850379
-0.956486
0.349008
7.939062
14.341895
15.688101
16.170935
21.075832
29.058250
33.797157
29.263962
13.670029
-9.153023
-32.491932
-50.118763
-57.827950
-53.840591
-38.598881
-15.160858
9.539637
25.299562
24.675285
8.800141
-13.665496
-31.462955
-37.649364
-33.219074
-21.770344
-4.143337
18.794434
41.725128
55.930584
54.019001
36.361935
13.514562
-2.208754
-5.569816
2.236426
17.598583
36.816368
56.360603
71.517982
76.503830
68.785080
52.594856
35.929245
25.671581
24.763435
31.224932
39.678326
44.019417
40.955582
32.479115
24.364414
22.825651
30.759539
46.078407
65.060371
85.496933
104.872063
117.767418
117.280777
99.096443
66.684425
33.107491
13.068746
12.992732
27.130882
40.325603
40.524048
29.273405
17.566755
15.971691
26.224735
39.081234
44.378155
40.490788
31.416002
20.847610
11.384604
5.885774
7.314040
16.996872
32.230701
46.274502
54.128719
57.268074
60.177505
65.275955
72.176208
78.861588
82.849564
82.327278
77.655853
71.930550
68.520325
68.262909
69.160149
67.893318
62.875523
55.938965
49.660599
44.610958
40.480328
37.932472
38.153790
41.702648
48.308456
57.047726
66.323029
73.998627
78.327339
78.910896
76.773499
73.863098
71.953659
71.561974
71.530457
69.246925
62.118149
49.576965
34.559994
22.808115
17.745344
16.594711
13.999395
7.427418
-1.143234
-6.838201
-6.893638
-3.885196
-2.064673
-3.074437
-6.690500
-12.834553
-21.225079
-30.125711
-36.268921
-36.206676
-29.340969
-19.814577
-13.957529
-16.842932
-30.826563
-54.966118
-84.930626
-114.156677
-137.564468
-153.866043
-162.370560
-160.271393
-146.494354
-126.475693
-110.911179
-109.687531
-122.369270
-135.026566
-134.784393
-123.709076
-113.172150
-111.745041
-118.652786
-124.841179
-124.251740
-121.875916
-125.657005
-136.519836
-150.056335
-162.414139
-173.223358
-185.021729
-199.020111
-212.545044
-223.001160
-231.813232
-242.047684
-254.928024
-270.009918
-285.946564
-298.946747
-301.881470
-287.989075
-255.307663
-207.685638
-153.471176
-102.243935
-62.478195
-41.851772
-45.884373
-71.683983
-105.632484
-135.227112
-160.080917
-186.353271
-216.790390
-247.801239
-271.958099
-284.302399
-285.246307
-274.176941
-245.493073
-198.036896
-142.712585
-92.412010
-50.592712
-15.077854
13.890841
32.435173
36.839863
29.719767
21.367870
19.306652
20.202751
18.164026
14.150239
11.842579
10.942810
8.935880
5.565165
3.571038
6.532163
14.915469
24.168777
28.807455
26.736658
18.608744
6.062655
-7.952447
-18.944994
-23.305935
-20.366966
-10.824905
4.950309
25.552073
47.422100
67.415260
85.180016
101.185844
114.077858
121.319092
121.615494
117.271439
113.878616
114.547485
115.741112
112.207199
103.268684
92.954857
87.085892
89.665199
100.564789
116.424698
132.602509
145.058548
151.818909
153.452866
152.639893
152.234970
153.550735
156.549896
160.579788
164.638550
167.458145
167.796021
164.689713
157.420807
145.696991
130.654312
115.795029
106.281578
106.532326
115.996880
127.274048
132.076553
128.568893
123.033134
125.931335
141.229370
159.655869
167.827606
160.182999
141.336166
121.986763
110.069244
105.046394
102.852486
101.872955
101.665115
100.029945
93.995163
82.011497
64.263115
41.981121
16.757410
-9.681071
-35.150120
-57.191730
-74.642967
-88.547401
-100.173317
-109.032677
-113.792191
-113.835510
-109.467468
-101.709320
-92.520309
-84.698311
-80.364632
-79.532997
-80.485794
-80.856789
-78.548515
-72.072067
-59.961971
-40.459705
-12.756262
21.353889
56.786148
85.860428
101.584358
101.163132
87.038246
65.460815
41.615135
15.809839
-14.397374
-50.350559
-90.253029
-129.130035
-161.352921
-182.822998
-190.469345
-181.484970
-154.795166
-113.395287
-65.405586
-22.354254
7.568330
24.890221
35.590359
45.004242
54.033497
59.209068
58.561161
55.705639
54.787270
54.647556
50.619850
39.299042
21.711102
3.171790
-12.148092
-25.502268
-40.268642
-57.047836
-72.939812
-83.819054
-88.490425
-90.288429
-91.543198
-88.396080
-73.924904
-44.403961
-3.593116
37.658741
70.023941
92.566200
108.123207
116.964645
117.688278
110.517784
97.986328
83.496597
68.649391
52.122219
32.682682
11.659038
-9.297577
-30.064928
-48.777534
-59.371014
-56.501030
-41.074902
-18.945292
3.648923
24.637711
47.368328
74.749893
103.764717
127.690514
140.817307
141.187927
131.082016
114.620926
95.337341
75.738396
57.332806
40.080826
22.320517
2.759240
-17.468826
-35.137981
-46.876404
-52.069660
-53.818508
-54.897709
-54.555717
-51.790310
-48.902031
-49.070030
-52.559349
-56.532536
-57.367485
-54.293976
-50.604027
-48.784733
-46.832840
-42.854553
-40.045040
-43.828331
-56.561474
-75.323387
-93.078789
-104.001190
-107.511566
-105.826035
-100.504478
-92.766930
-84.886009
-79.657959
-78.639992
-80.263809
-79.596687
-71.866959
-55.644245
-31.740944
-1.359935
33.346642
68.108337
97.090004
114.770538
118.637863
110.343208
92.802040
67.824921
38.393829
10.660384
-9.689682
-22.181177
-31.906935
-45.819393
-64.772530
-79.139053
-77.194962
-55.538361
-21.030987
13.250633
37.190102
49.926788
55.376133
56.133789
53.546165
49.862854
48.166344
50.436722
54.920731
55.928253
49.442406
37.711555
25.808598
16.808203
11.578331
10.089947
11.334258
12.865313
11.845255
7.052392
0.708308
-2.066321
1.255471
6.674412
8.216642
3.559402
-6.250856
-19.210499
-33.508850
-47.571392
-59.605343
-67.629318
-70.556900
-68.761215
-62.639400
-51.643272
-36.095737
-18.525131
-1.274311
15.609988
32.120319
45.766212
53.223202
53.399754
48.812782
44.391552
42.601177
40.316589
33.242413
21.220591
7.960418
-1.817503
-5.396069
-3.534098
1.454575
8.336528
17.974766
32.558445
52.470905
74.078972
92.121895
103.460320
109.033371
113.142899
118.636047
123.318352
123.048195
116.008629
103.166672
86.977539
70.027664
54.193245
40.581566
29.789036
22.345970
18.952679
19.994764
24.777170
31.085751
35.743805
37.003952
36.186882
35.751518
36.936123
39.825844
44.145542
49.261772
53.992474
57.104397
57.996998
56.899223
54.601299
51.620743
47.570534
41.531548
32.678001
20.688065
6.231232
-8.424738
-19.731947
-25.429110
-26.489710
-25.306152
-23.205961
-20.266394
-16.411604
-12.775756
-11.894427
-15.296228
-21.512762
-27.591097
-31.327774
-31.751162
-28.847458
-23.319263
-16.239492
-8.198724
1.239777
12.585516
24.947975
35.188305
38.486340
31.592894
15.655538
-4.737987
-23.872625
-36.964184
-41.691036
-38.812790
-31.927341
-25.455202
-22.207638
-21.987837
-21.859713
-19.395092
-15.476709
-13.102044
-14.856793
-21.327724
-30.963743
-42.020870
-54.049202
-66.627930
-77.869843
-85.286156
-87.597115
-86.014366
-84.264351
-86.223885
-93.514305
-105.168106
-118.088135
-127.660080
-128.719604
-117.559822
-93.733383
-60.084763
-22.000988
13.790160
40.588154
53.507072
51.463596
38.386921
22.255840
9.643409
1.083365
-6.790912
-16.672064
-27.391550
-33.880337
-32.587997
-26.069330
-20.295118
-19.662838
-24.192263
-29.739141
-32.568176
-33.049862
-33.439186
-34.329304
-34.060074
-30.192726
-22.214699
-12.727608
-4.404434
2.870369
10.374562
17.916574
23.595221
24.991753
20.940756
12.491785
1.708387
-9.727174
-20.470503
-29.142574
-34.651096
-36.593189
-35.099998
-30.833296
-25.694632
-22.897524
-24.710955
-30.190001
-35.641918
-36.726154
-31.445335
-21.618683
-10.178721
1.557614
12.800017
21.337330
23.782681
17.231052
1.547481
-19.513948
-40.556782
-57.422745
-68.325119
-73.698051
-74.704735
-71.775932
-64.450684
-52.233021
-36.372993
