EVENT_NAME: L_AQUILA
EVENT_ID: IT-2009-0009
EVENT_DATE_YYYYMMDD: 20090406
EVENT_TIME_HHMMSS: 013240
EVENT_LATITUDE_DEGREE: 42.3420
EVENT_LONGITUDE_DEGREE: 13.3800
EVENT_DEPTH_KM: 8.3
HYPOCENTER_REFERENCE: INGV-CNT_Seismic_Bulletin
MAGNITUDE_W: 6.1
MAGNITUDE_W_REFERENCE: INGV-CNT_Seismic_Bulletin
MAGNITUDE_L: 
MAGNITUDE_L_REFERENCE: 
FOCAL_MECHANISM: Normal faulting
NETWORK: MN
STATION_CODE: AQU
STATION_NAME: AQUILA CASTELLO
STATION_LATITUDE_DEGREE: 42.353880
STATION_LONGITUDE_DEGREE: 13.401930
STATION_ELEVATION_M: 729
LOCATION: 
SENSOR_DEPTH_M: 15.0
VS30_M/S: 
SITE_CLASSIFICATION_EC8: B (inferred from geology)
MORPHOLOGIC_CLASSIFICATION: 
EPICENTRAL_DISTANCE_KM: 2.5
EARTHQUAKE_BACKAZIMUTH_DEGREE: 57.1
DATE_TIME_FIRST_SAMPLE_YYYYMMDD_HHMMSS: 20090406_013225.000
DATE_TIME_FIRST_SAMPLE_PRECISION: milliseconds
SAMPLING_INTERVAL_S: 0.005000
NDATA: 18000
DURATION_S: 90.000
STREAM: HLZ
UNITS: cm/s^2
INSTRUMENT: sensor = Unknown [Unknown] | digitizer = Unknown [Unknown]
INSTRUMENT_ANALOG/DIGITAL: D
INSTRUMENTAL_FREQUENCY_HZ: 
INSTRUMENTAL_DAMPING: 
FULL_SCALE_G: 
N_BIT_DIGITAL_CONVERTER: 
PGA_CM/S^2: 306.426453
TIME_PGA_S: 17.865000
BASELINE_CORRECTION: BASELINE REMOVED
FILTER_TYPE: BUTTERWORTH
FILTER_ORDER: 2
LOW_CUT_FREQUENCY_HZ: 0.150
HIGH_CUT_FREQUENCY_HZ: 40.000
LATE/NORMAL_TRIGGERED: NT
DATABASE_VERSION: 0.5
HEADER_FORMAT: DYNA 1.2
DATA_TYPE: ACCELERATION
PROCESSING: manual (Paolucci et al., 2011)
DATA_TIMESTAMP_YYYYMMDD_HHMMSS: 20210223_213920.433
DATA_LICENSE: CC-BY4_0 (http://creativecommons.org/licenses/by/4.0/)
DATA_CITATION: Luzi L, Puglia R, Russo E & ORFEUS WG5 (2016). Engineering Strong Motion Database. Istituto Nazionale di Geofisica e Vulcanologia, Observatories & Research Facilities for European Seismology. doi: 10.13127/ESM
DATA_CREATOR: ESM working group
ORIGINAL_DATA_MEDIATOR_CITATION: data obtained within the DPC-INGV data exchange agreements
ORIGINAL_DATA_MEDIATOR: Archive of Italian Department of Civil Protection
ORIGINAL_DATA_CREATOR_CITATION:  http://www.fdsn.org/networks/detail/MN/
ORIGINAL_DATA_CREATOR: network: MN (Mediterranean Very Broadband Seismographic Network (MedNet)); owner: Istituto Nazionale di Geofisica e Vulcanologia (INGV)
USER1: 
USER2: 
USER3: 
USER4: 
USER5: 
[...]
-0.083168
-0.083600
-0.083626
-0.083476
-0.083742
-0.084506
-0.084957
-0.084580
-0.084111
-0.084413
-0.085211
-0.085618
-0.085227
-0.084458
-0.084214
-0.084876
-0.085743
-0.086049
-0.085924
-0.085840
-0.085811
-0.085623
-0.085351
-0.085329
-0.085799
-0.086539
-0.086867
-0.086467
-0.085939
-0.085999
-0.086597
-0.087193
-0.087392
-0.087163
-0.086757
-0.086410
-0.086205
-0.086283
-0.086866
-0.087660
-0.087686
-0.086617
-0.085697
-0.086184
-0.087658
-0.088638
-0.088120
-0.086619
-0.085965
-0.087037
-0.088323
-0.088146
-0.086991
-0.086407
-0.087017
-0.088147
-0.088552
-0.087746
-0.086652
-0.086372
-0.086904
-0.087554
-0.087827
-0.087706
-0.087506
-0.087501
-0.087648
-0.087682
-0.087389
-0.086896
-0.086682
-0.086996
-0.087436
-0.087448
-0.086974
-0.086444
-0.086381
-0.086871
-0.087378
-0.087413
-0.087131
-0.086973
-0.087089
-0.087270
-0.087199
-0.086817
-0.086460
-0.086429
-0.086613
-0.086734
-0.086695
-0.086547
-0.086336
-0.086108
-0.085962
-0.086006
-0.086237
-0.086465
-0.086382
-0.085920
-0.085454
-0.085371
-0.085626
-0.085898
-0.085938
-0.085725
-0.085449
-0.085341
-0.085467
-0.085651
-0.085561
-0.085059
-0.084429
-0.084059
-0.084053
-0.084230
-0.084325
-0.084211
-0.083996
-0.083843
-0.083787
-0.083799
-0.083854
-0.083831
-0.083499
-0.082856
-0.082326
-0.082268
-0.082529
-0.082745
-0.082786
-0.082743
-0.082714
-0.082686
-0.082542
-0.082245
-0.081944
-0.081797
-0.081783
-0.081762
-0.081596
-0.081180
-0.080506
-0.079822
-0.079592
-0.079915
-0.080212
-0.079995
-0.079559
-0.079408
-0.079507
-0.079428
-0.078878
-0.078029
-0.077454
-0.077454
-0.077633
-0.077513
-0.077139
-0.076721
-0.076205
-0.075621
-0.075382
-0.075643
-0.075806
-0.075272
-0.074281
-0.073585
-0.073665
-0.074255
-0.074488
-0.073949
-0.073286
-0.073059
-0.072751
-0.071817
-0.070816
-0.070596
-0.071123
-0.071597
-0.071244
-0.070106
-0.069167
-0.069133
-0.069472
-0.069325
-0.068641
-0.067977
-0.067790
-0.068038
-0.068200
-0.067817
-0.066962
-0.066098
-0.065655
-0.065655
-0.065615
-0.065073
-0.064122
-0.063313
-0.063194
-0.063714
-0.064033
-0.063404
-0.061998
-0.060588
-0.059845
-0.059908
-0.060331
-0.060560
-0.060384
-0.059883
-0.059208
-0.058463
-0.057692
-0.056953
-0.056370
-0.056035
-0.055904
-0.055791
-0.055464
-0.054811
-0.053972
-0.053223
-0.052784
-0.052629
-0.052447
-0.051920
-0.051017
-0.049980
-0.049143
-0.048713
-0.048610
-0.048563
-0.048274
-0.047556
-0.046460
-0.045324
-0.044646
-0.044622
-0.044817
-0.044548
-0.043489
-0.041992
-0.040929
-0.040786
-0.041032
-0.040858
-0.040084
-0.039077
-0.038251
-0.037662
-0.036994
-0.036133
-0.035483
-0.035257
-0.034908
-0.033908
-0.032579
-0.031629
-0.031330
-0.031312
-0.030896
-0.029883
-0.028893
-0.028399
-0.027926
-0.026841
-0.025336
-0.024144
-0.023772
-0.024063
-0.024227
-0.023571
-0.022166
-0.020660
-0.019732
-0.019532
-0.019482
-0.018875
-0.017565
-0.016038
-0.015022
-0.014724
-0.014480
-0.013624
-0.012314
-0.011100
-0.010224
-0.009610
-0.009100
-0.008537
-0.007783
-0.006831
-0.005844
-0.004917
-0.003905
-0.002652
-0.001279
-0.000119
0.000575
0.000939
0.001491
0.002426
0.003249
0.003711
0.004487
0.006041
0.007611
0.008260
0.008205
0.008481
0.009870
0.012058
0.013681
0.013974
0.013902
0.014684
0.016188
0.017626
0.018756
0.019873
0.021225
0.022599
0.023401
0.023486
0.023675
0.024864
0.026986
0.029148
0.030419
0.030769
0.031284
0.032763
0.034580
0.035732
0.036204
0.036788
0.038180
0.040200
0.041783
0.042347
0.042728
0.043903
0.045634
0.047144
0.048196
0.049017
0.049818
0.050680
0.051674
0.052979
0.054777
0.056838
0.058433
0.059210
0.059842
0.061173
0.063191
0.065186
0.066465
0.067019
0.067654
0.069033
0.070888
0.072560
0.073817
0.074902
0.076168
0.077653
0.079015
0.080132
0.081447
0.083208
0.084860
0.085892
0.086685
0.087887
0.089537
0.091178
0.092447
0.093529
0.095090
0.097319
0.099379
0.100554
0.101306
0.102478
0.104200
0.106028
0.107584
0.108913
0.110440
0.112381
0.114353
0.115858
0.116900
0.117927
0.119436
0.121481
0.123524
0.125078
0.126295
0.127651
0.129378
0.131268
0.132869
0.134096
0.135508
0.137514
0.139713
0.141548
0.143071
0.144659
0.146451
0.148339
0.150181
0.151938
0.153657
0.155304
0.156742
0.158055
0.159681
0.161808
0.163957
0.165682
0.167254
0.169142
0.171304
0.173330
0.174949
0.176373
0.178187
0.180555
0.182804
0.184422
0.185896
0.187838
0.190015
0.191903
0.193534
0.195335
0.197557
0.199951
0.201942
0.203436
0.205174
0.207574
0.209884
0.211437
0.212861
0.215052
0.217835
0.220318
0.221926
0.223021
0.224699
0.227384
0.230054
0.231865
0.233549
0.236019
0.238804
0.240959
0.242461
0.244044
0.246310
0.249069
0.251410
0.252962
0.254641
0.257252
0.260192
0.262506
0.264254
0.266139
0.268554
0.271247
0.273597
0.275423
0.277359
0.279891
0.282534
0.284646
0.286402
0.288441
0.291085
0.294051
0.296677
0.298693
0.300635
0.303024
0.305615
0.307977
0.310204
0.312620
0.315259
0.317928
0.320486
0.322949
0.325405
0.327830
0.330072
0.332215
0.334714
0.337713
0.340599
0.342837
0.344770
0.347036
0.349753
0.352611
0.355311
0.357789
0.360210
0.362737
0.365370
0.368079
0.370889
0.373687
0.376191
0.378488
0.381243
0.384723
0.388077
0.390441
0.392130
0.394122
0.396980
0.400383
0.403409
0.405697
0.408086
0.411334
0.414910
0.417814
0.419844
0.421672
0.424206
0.427664
0.431211
0.434020
0.436283
0.438743
0.441818
0.445325
0.448681
0.451509
0.454038
0.456711
0.459689
0.462836
0.465924
0.468830
0.471623
0.474458
0.477417
0.480426
0.483289
0.485911
0.488480
0.491340
0.494724
0.498510
0.502189
0.505282
0.507799
0.510224
0.513174
0.516790
0.520467
0.523577
0.526215
0.528970
0.532288
0.535999
0.539363
0.542032
0.544666
0.547988
0.551794
0.555447
0.558678
0.561615
0.564480
0.567425
0.570529
0.573871
0.577500
0.581174
0.584379
0.587052
0.589964
0.593675
0.597624
0.600967
0.603681
0.606415
0.609763
0.613663
0.617361
0.620423
0.623426
0.627032
0.630987
0.634588
0.637561
0.640275
0.643436
0.647347
0.651486
0.655148
0.658208
0.661106
0.664428
0.668383
0.672545
0.676285
0.679363
0.682134
0.685350
0.689417
0.693870
0.697902
0.701154
0.703975
0.707165
0.711126
0.715341
0.719132
0.722485
0.725809
0.729381
0.733156
0.736879
0.740389
0.743803
0.747324
0.751006
0.754807
0.758675
0.762496
0.766094
0.769521
0.773171
0.777284
0.781533
0.785446
0.788968
0.792410
0.796099
0.800015
0.803770
0.807236
0.810890
0.815037
0.819181
0.822848
0.826394
0.830365
0.834645
0.838689
0.842198
0.845467
0.849217
0.853686
0.858137
0.861886
0.865242
0.868806
0.872591
0.876392
0.880361
0.884703
0.889212
0.893432
0.897110
0.900485
0.904170
0.908391
0.912569
0.916245
0.919875
0.924076
0.928681
0.933036
0.936738
0.939994
0.943504
0.947744
0.952426
0.956911
0.960856
0.964415
0.968104
0.972314
0.976938
0.981546
0.985761
0.989529
0.993163
0.996986
1.001031
1.005211
1.009518
1.013852
1.017913
1.021580
1.025215
1.029265
1.033757
1.038330
1.042564
1.046357
1.050059
1.054032
1.058270
1.062673
1.067294
1.072015
1.076342
1.080040
1.083649
1.087830
1.092581
1.097385
1.101752
1.105621
1.109408
1.113496
1.117832
1.122233
1.126728
1.131284
1.135581
1.139435
1.143174
1.147190
1.151470
1.155863
1.160414
1.165088
1.169508
1.173345
1.176787
1.180408
1.184684
1.189476
1.194014
1.197930
1.201911
1.206563
1.211356
1.215528
1.219222
1.223141
1.227667
1.232498
1.236905
1.240685
1.244624
1.249320
1.254183
1.258427
1.262224
1.266224
1.270666
1.275302
1.279772
1.284004
1.288282
1.292719
1.296948
1.300770
1.304679
1.309125
1.313807
1.318231
1.322431
1.326722
1.331166
1.335501
1.339423
1.343058
1.347052
1.351768
1.356690
1.361165
1.365229
1.369284
1.373511
1.377846
1.382182
1.386450
1.390617
1.394712
1.398837
1.403090
1.407464
1.411814
1.415966
1.419974
1.424180
1.428695
1.433061
1.436895
1.440497
1.444410
1.448776
1.453352
1.457815
1.462034
1.466136
1.470249
1.474307
1.478263
1.482274
1.486466
1.490708
1.494826
1.498865
1.502975
1.507206
1.511492
1.515719
1.519785
1.523658
1.527452
1.531397
1.535608
1.539900
1.543997
1.547824
1.551600
1.555686
1.560128
1.564458
1.568320
1.572012
1.576037
1.580454
1.584838
1.588675
1.591964
1.595426
1.599646
1.604306
1.608673
1.612373
1.615582
1.618840
1.622625
1.626991
1.631556
1.635734
1.639218
1.642316
1.645644
1.649611
1.654097
1.658495
1.662348
1.665835
1.669339
1.672921
1.676451
1.679922
1.683463
1.687199
1.691104
1.694974
1.698586
1.701899
1.705092
1.708481
1.712282
1.716387
1.720374
1.723772
1.726601
1.729597
1.733416
1.737832
1.742002
1.745217
1.747598
1.750168
1.753700
1.757769
1.761478
1.764543
1.767430
1.770833
1.774758
1.778255
1.780775
1.783197
1.786576
1.790695
1.794557
1.797540
1.799941
1.802723
1.806295
1.809843
1.812640
1.815215
1.818343
1.821813
1.824964
1.827628
1.830132
1.832835
1.835766
1.838646
1.841436
1.844575
1.848142
1.851319
1.853551
1.855549
1.858244
1.861529
1.864637
1.867087
1.869075
1.871268
1.873986
1.876763
1.879171
1.881546
1.884254
1.886945
1.889164
1.891126
1.893354
1.896020
1.898845
1.901388
1.903517
1.905577
1.907823
1.909990
1.911828
1.913629
1.915769
1.918127
1.920306
1.922124
1.923808
1.925812
1.928228
1.930492
1.932137
1.933470
1.935070
1.937059
1.939107
1.940804
1.942092
1.943372
1.944980
1.946763
1.948467
1.950146
1.951852
1.953299
1.954223
1.954846
1.955727
1.957307
1.959456
1.961402
1.962522
1.963044
1.963693
1.964962
1.966668
1.968022
1.968519
1.968626
1.969171
1.970442
1.971963
1.972891
1.972997
1.973130
1.974037
1.975292
1.976064
1.976217
1.976245
1.976660
1.977437
1.977885
1.977243
1.975115
1.971029
1.964304
1.955345
1.946620
1.940596
1.935601
1.919246
1.862019
1.716555
1.425225
0.949206
0.309410
-0.374919
-0.883031
-0.994679
-0.636065
0.003491
0.480350
0.405523
-0.204639
-0.841926
-0.712324
0.627184
2.761134
4.705104
5.545875
5.084212
4.068242
3.460861
3.616329
4.193450
4.500383
4.105159
3.233083
2.439892
2.085734
2.058147
1.819715
0.957981
-0.300264
-1.201945
-0.975862
0.424478
2.018265
2.734170
2.392475
1.543580
0.812814
0.318933
-0.431852
-1.769337
-3.258839
-4.266059
-4.588254
-4.119739
-2.397860
1.022687
5.860428
10.699896
13.271010
12.008502
7.435360
1.781810
-2.129676
-2.167115
2.005956
8.498792
13.580712
13.719256
7.819323
-1.962947
-10.912248
-14.784321
-12.578827
-6.353485
0.338624
4.518424
5.229782
3.229824
0.166534
-2.090399
-2.075272
0.501947
4.254223
6.801440
6.151848
2.418943
-1.446886
-1.839659
2.662036
10.037535
15.467495
14.947009
8.531069
-0.267842
-6.779356
-7.819794
-3.342837
4.334042
11.782871
15.150531
11.191372
-0.336004
-15.019336
-26.006454
-27.766766
-19.433029
-5.964780
5.635310
10.815418
9.034499
3.465336
-1.158316
-1.178258
3.797435
10.252258
13.761340
12.497364
8.180880
4.926495
5.644912
9.164115
11.470697
8.562367
-0.791965
-13.498388
-23.680182
-25.857225
-18.950632
-8.197656
-1.043898
-2.090164
-11.669787
-26.735832
-43.474751
-59.222328
-71.780006
-78.602219
-78.097931
-71.299660
-61.957760
-55.794727
-58.948563
-75.656876
-104.815681
-137.521790
-159.267227
-155.011292
-117.133217
-52.298817
18.728260
67.125946
70.653885
27.769133
-39.983109
-95.372437
-106.468811
-66.007950
7.669023
80.773209
123.972893
128.298538
102.545181
63.601597
26.509285
-1.806845
-20.909605
-32.766010
-38.200424
-34.990322
-19.985668
5.787154
30.561600
32.286091
-2.996955
-64.358040
-123.047798
-150.563950
-137.275406
-99.165955
-57.721600
-20.103331
15.306830
46.533302
66.048721
65.929993
46.243095
18.734285
-2.125452
-8.553445
1.500424
27.575436
64.968918
102.215088
124.035706
117.905342
82.331192
30.645550
-18.081264
-50.266438
-61.570686
-55.664845
-39.086651
-17.941040
-0.571396
1.099998
-21.001150
-63.432999
-112.827087
-151.355179
-162.694366
-137.204224
-75.943939
5.989039
80.439911
114.740852
93.572174
34.981304
-23.626135
-50.058018
-36.107552
-2.363764
23.602818
29.792383
19.553606
1.713865
-18.737776
-43.499493
-72.482536
-97.357750
-109.470482
-109.074196
-102.590851
-95.412766
-87.782112
-75.790787
-59.379936
-47.090286
-47.183548
-58.003014
-70.620705
-76.228447
-71.850983
-62.555622
-57.405510
-63.592369
-81.563660
-102.596840
-112.375603
-97.635628
-54.717644
4.720976
57.843929
78.880974
49.774605
-28.770649
-130.747528
-209.577423
-227.197433
-181.692368
-103.997299
-37.126759
-5.842066
-0.275051
0.290447
0.094453
-10.275754
-38.645580
-79.214287
-109.988632
-107.162399
-61.056496
19.650362
110.614052
181.210678
205.866882
174.793137
99.998215
8.571726
-68.018883
-104.034363
-88.559425
-31.330366
38.147167
86.769699
95.003487
61.021523
-2.693521
-78.097168
-148.024826
-195.102798
-201.932800
-160.969315
-84.007423
1.551603
63.373657
78.601280
44.900555
-20.686934
-88.933060
-130.249054
-125.236885
-68.631477
29.666864
146.325836
248.912994
306.426453
301.713898
240.471558
152.678482
76.951057
41.699444
55.049999
102.578568
156.654922
188.549438
178.450317
122.753204
35.362892
-55.790897
-120.590179
-139.766251
-112.113991
-55.487835
3.453280
42.279953
52.005592
40.333164
23.134586
13.433452
15.393705
23.853008
32.114029
39.204716
48.312561
61.552483
75.586990
81.581902
73.591774
55.780464
38.222775
28.548763
26.322178
23.704388
16.604263
12.444939
20.331478
38.996193
57.971615
65.497078
57.345665
39.763439
20.073185
-0.202650
-16.659540
-15.155701
14.660147
63.275974
103.893463
108.073242
70.473335
21.038641
-1.568318
18.047983
66.181999
110.482094
122.651672
96.382980
44.317123
-12.626872
-55.821732
-76.488861
-76.945900
-67.669380
-59.029282
-54.642185
-53.562584
-54.956726
-59.884743
-70.125999
-84.063385
-94.505066
-93.456757
-77.378967
-47.088089
-6.438251
37.012115
72.181610
89.629204
87.227356
71.022415
52.593338
42.921703
47.834766
69.259819
105.863380
148.385574
178.211441
179.680389
152.803802
111.502151
74.494865
53.917915
49.408623
55.490086
68.679245
83.056946
86.002777
66.731201
26.980923
-18.702574
-50.260017
-55.983578
-41.813698
-23.280361
-12.691302
-12.094141
-12.924141
-5.459375
11.552785
30.311628
39.354908
33.720711
20.925873
12.810902
15.150453
25.895500
38.464607
47.658482
53.189468
56.451275
57.090862
55.043663
53.199619
55.535667
63.791332
75.801445
85.370483
84.546768
67.346962
34.385185
-5.204423
-39.710590
-61.860123
-70.221695
-66.613441
-50.975655
-20.550085
20.379044
54.245621
63.170383
44.934559
14.645397
-3.916736
3.975045
31.841272
61.638634
79.293922
82.714142
81.409119
84.471474
89.275856
83.528931
55.285984
7.286624
-36.917423
-50.778980
-26.035852
22.846130
66.996063
84.138268
73.770317
47.706055
15.488417
-18.622108
-51.816151
-76.986328
-82.090172
-61.109768
-23.295151
13.725477
35.984493
40.377090
35.026962
29.200544
24.217415
16.180761
2.706232
-13.244344
-24.155914
-25.329769
-20.114576
-14.322658
-9.172260
-1.753570
11.030201
28.735613
46.344368
58.260761
61.610558
54.226768
33.468864
1.629698
-30.040533
-48.363873
-47.961037
-34.766151
-23.045507
-23.805853
-35.675602
-49.610619
-57.158722
-54.030910
-40.654827
-20.953423
-0.911193
13.293299
17.867435
14.200191
8.669634
5.238995
-0.683422
-17.593081
-49.681244
-91.766754
-129.372528
-147.718811
-140.897659
-113.119705
-75.974266
-43.295620
-26.250610
-30.187346
-52.721416
-84.147858
-109.504234
-113.877228
-89.233536
-40.431900
14.012103
53.839134
69.754829
65.046097
50.796486
37.022434
26.827490
20.058229
17.649618
19.420902
21.425348
19.230173
11.764342
-0.041255
-15.915999
-36.163059
-59.944576
-83.545647
-100.770691
-107.651596
-105.786224
-98.500320
-86.555382
-69.764435
-49.812840
-29.552584
-10.959398
5.805057
22.048002
38.724171
55.082081
69.634476
81.544281
90.617073
96.455833
97.485725
91.107170
76.417290
56.562248
37.182060
22.896370
13.730004
4.603173
-8.371710
-22.630138
-32.908119
-36.871956
-35.888779
-32.972580
-29.776688
-25.387297
-19.402962
-14.647936
-14.895790
-21.381432
-31.763954
-40.930481
-43.633781
-37.066292
-21.804903
-1.756268
17.155594
28.814365
29.176672
18.324347
0.843640
-15.828464
-26.410332
-31.826233
-37.149536
-46.973358
-61.063057
-73.111702
-76.207153
-68.205811
-50.553078
-24.914545
8.314980
48.943062
92.964874
130.693344
152.596298
155.684509
143.393127
122.751915
101.503853
85.988701
79.832809
82.499435
88.112442
86.788132
71.623360
44.295307
11.496555
-20.803434
-49.186218
-72.160957
-88.447525
-96.369682
-95.796944
-89.216286
-78.762360
-63.944950
-44.793011
-24.826616
-8.005721
5.364852
18.317476
34.155964
52.324223
67.207840
74.180344
74.902740
73.905136
73.351456
72.385979
68.693962
60.258732
46.554047
28.969156
11.092810
-1.658912
-4.229908
2.911417
11.342678
12.061228
3.820222
-6.832315
-10.575437
-3.397008
8.822352
16.562321
14.732302
4.538887
-8.480449
-18.980255
-25.120253
-27.277168
-25.504713
-18.493364
-4.182248
17.508450
42.345364
62.714054
70.405403
60.792519
36.089897
4.590847
-22.434261
-36.179180
-35.279503
-26.488186
-21.333059
-27.411568
-42.222492
-58.323269
-70.880173
-79.526825
-86.175529
-90.065865
-85.406532
-66.884171
-35.316422
3.651038
42.240273
70.407791
76.894455
56.555359
17.054672
-24.324474
-49.425583
-50.603176
-36.706848
-23.384533
-20.499836
-27.950317
-37.610832
-41.215271
-37.071968
-29.105936
-22.799835
-21.143559
-22.887177
-25.381460
-27.194592
-26.664755
-20.666512
-7.853203
8.218800
21.484930
27.636656
26.558174
21.858889
16.084135
7.447561
-6.267769
-23.528896
-41.125851
-57.359787
-71.320015
-81.094742
-84.195763
-79.380745
-68.654327
-57.421810
-50.481056
-48.612068
-50.489712
-55.509823
-63.385799
-72.441948
-78.772308
-76.902061
-62.973618
-37.952385
-8.067058
16.916161
28.164837
21.834173
-0.359054
-31.903271
-62.833672
-81.841270
-80.558846
-58.158287
-23.252748
7.996979
20.667292
9.241139
-22.388353
-63.926685
-101.805374
-122.487633
-117.299866
-86.907875
-41.708778
1.626746
29.119205
36.851784
28.959423
12.492508
-6.273562
-23.269836
-35.209389
-38.763821
-32.987473
-21.307114
-8.831788
1.589160
10.863123
22.314892
36.740658
49.418266
54.951481
52.859222
46.995461
42.340347
41.950039
45.225571
48.746342
48.034878
39.777813
24.013321
5.150235
-9.354611
-14.653247
-12.625741
-8.151358
-4.249759
-2.117169
-2.751773
-6.821807
-13.293744
-18.191660
-15.475259
-2.228892
17.482792
36.378258
