EVENT_NAME: L_AQUILA
EVENT_ID: IT-2009-0009
EVENT_DATE_YYYYMMDD: 20090406
EVENT_TIME_HHMMSS: 013240
EVENT_LATITUDE_DEGREE: 42.3420
EVENT_LONGITUDE_DEGREE: 13.3800
EVENT_DEPTH_KM: 8.3
HYPOCENTER_REFERENCE: INGV-CNT_Seismic_Bulletin
MAGNITUDE_W: 6.1
MAGNITUDE_W_REFERENCE: INGV-CNT_Seismic_Bulletin
MAGNITUDE_L: 
MAGNITUDE_L_REFERENCE: 
FOCAL_MECHANISM: Normal faulting
NETWORK: MN
STATION_CODE: AQU
STATION_NAME: AQUILA CASTELLO
STATION_LATITUDE_DEGREE: 42.353880
STATION_LONGITUDE_DEGREE: 13.401930
STATION_ELEVATION_M: 729
LOCATION: 
SENSOR_DEPTH_M: 15.0
VS30_M/S: 
SITE_CLASSIFICATION_EC8: B (inferred from geology)
MORPHOLOGIC_CLASSIFICATION: 
EPICENTRAL_DISTANCE_KM: 2.5
EARTHQUAKE_BACKAZIMUTH_DEGREE: 57.1
DATE_TIME_FIRST_SAMPLE_YYYYMMDD_HHMMSS: 20090406_013225.000
DATE_TIME_FIRST_SAMPLE_PRECISION: milliseconds
SAMPLING_INTERVAL_S: 0.005000
NDATA: 18000
DURATION_S: 90.000
STREAM: HLE
UNITS: cm/s^2
INSTRUMENT: sensor = Unknown [Unknown] | digitizer = Unknown [Unknown]
INSTRUMENT_ANALOG/DIGITAL: D
INSTRUMENTAL_FREQUENCY_HZ: 
INSTRUMENTAL_DAMPING: 
FULL_SCALE_G: 
N_BIT_DIGITAL_CONVERTER: 
PGA_CM/S^2: -255.267776
TIME_PGA_S: 19.705000
BASELINE_CORRECTION: BASELINE REMOVED
FILTER_TYPE: BUTTERWORTH
FILTER_ORDER: 2
LOW_CUT_FREQUENCY_HZ: 0.150
HIGH_CUT_FREQUENCY_HZ: 40.000
LATE/NORMAL_TRIGGERED: NT
DATABASE_VERSION: 0.5
HEADER_FORMAT: DYNA 1.2
DATA_TYPE: ACCELERATION
PROCESSING: manual (Paolucci et al., 2011)
DATA_TIMESTAMP_YYYYMMDD_HHMMSS: 20210223_213919.817
DATA_LICENSE: CC-BY4_0 (http://creativecommons.org/licenses/by/4.0/)
DATA_CITATION: Luzi L, Puglia R, Russo E & ORFEUS WG5 (2016). Engineering Strong Motion Database. Istituto Nazionale di Geofisica e Vulcanologia, Observatories & Research Facilities for European Seismology. doi: 10.13127/ESM
DATA_CREATOR: ESM working group
ORIGINAL_DATA_MEDIATOR_CITATION: data obtained within the DPC-INGV data exchange agreements
ORIGINAL_DATA_MEDIATOR: Archive of Italian Department of Civil Protection
ORIGINAL_DATA_CREATOR_CITATION:  http://www.fdsn.org/networks/detail/MN/
ORIGINAL_DATA_CREATOR: network: MN (Mediterranean Very Broadband Seismographic Network (MedNet)); owner: Istituto Nazionale di Geofisica e Vulcanologia (INGV)
USER1: 
USER2: 
USER3: 
USER4: 
USER5: 
[...]
0.029595
0.029647
0.029653
0.029807
0.030299
0.031048
0.031636
0.031788
0.031761
0.031960
0.032436
0.032912
0.033073
0.032883
0.032704
0.032945
0.033677
0.034623
0.035357
0.035612
0.035481
0.035276
0.035290
0.035654
0.036284
0.036971
0.037503
0.037753
0.037766
0.037768
0.038037
0.038564
0.038950
0.038972
0.039017
0.039522
0.040330
0.040912
0.040926
0.040558
0.040468
0.041071
0.042019
0.042727
0.043006
0.042978
0.042803
0.042697
0.042954
0.043666
0.044510
0.045085
0.045340
0.045576
0.046139
0.046915
0.047240
0.046790
0.046242
0.046396
0.047194
0.048027
0.048482
0.048668
0.049055
0.049797
0.050388
0.050486
0.050567
0.051126
0.051832
0.052064
0.051773
0.051537
0.052037
0.053234
0.054118
0.053952
0.053306
0.053206
0.053927
0.054976
0.055680
0.055849
0.055986
0.056547
0.057311
0.057873
0.058231
0.058558
0.058809
0.058851
0.058780
0.058954
0.059725
0.060899
0.061635
0.061469
0.061068
0.061267
0.061979
0.062586
0.062774
0.062811
0.063283
0.064363
0.065431
0.065861
0.065776
0.065653
0.065718
0.066011
0.066618
0.067543
0.068533
0.069246
0.069518
0.069444
0.069329
0.069484
0.069990
0.070603
0.070907
0.070846
0.070968
0.071695
0.072671
0.073273
0.073379
0.073448
0.074092
0.075337
0.076374
0.076606
0.076493
0.076683
0.077055
0.077194
0.077166
0.077396
0.078174
0.079363
0.080413
0.080834
0.080637
0.080291
0.080390
0.081193
0.082330
0.083147
0.083280
0.083067
0.083407
0.084627
0.085818
0.086104
0.085886
0.086061
0.086831
0.087696
0.088072
0.087963
0.088076
0.088870
0.089833
0.090279
0.090278
0.090338
0.090745
0.091418
0.092106
0.092685
0.093269
0.093911
0.094384
0.094546
0.094651
0.095005
0.095564
0.096120
0.096626
0.097220
0.098017
0.098830
0.099196
0.099082
0.099243
0.100251
0.101613
0.102490
0.102686
0.102607
0.102743
0.103234
0.103784
0.104167
0.104570
0.105133
0.105586
0.105813
0.106295
0.107341
0.108396
0.108762
0.108537
0.108500
0.109387
0.111073
0.112400
0.112495
0.111863
0.111546
0.111916
0.112618
0.113115
0.113282
0.113602
0.114496
0.115708
0.116685
0.117166
0.117330
0.117585
0.118137
0.118754
0.119163
0.119452
0.119907
0.120669
0.121626
0.122494
0.123070
0.123413
0.123710
0.124081
0.124539
0.125049
0.125607
0.126262
0.126971
0.127532
0.127812
0.127957
0.128268
0.128947
0.129934
0.130900
0.131514
0.131706
0.131667
0.131718
0.132131
0.132962
0.134010
0.134914
0.135459
0.135815
0.136326
0.137170
0.138185
0.138935
0.139181
0.139191
0.139359
0.139773
0.140337
0.141011
0.141760
0.142444
0.142912
0.143180
0.143503
0.144233
0.145387
0.146438
0.146906
0.146903
0.146803
0.146786
0.146964
0.147568
0.148717
0.150108
0.151171
0.151489
0.151283
0.151420
0.152366
0.153470
0.153955
0.153991
0.154220
0.154884
0.155682
0.156121
0.156112
0.156202
0.156901
0.158059
0.159196
0.160046
0.160594
0.160937
0.161275
0.161853
0.162691
0.163440
0.163792
0.163882
0.164099
0.164712
0.165693
0.166737
0.167522
0.167952
0.168121
0.168211
0.168429
0.168921
0.169648
0.170352
0.170847
0.171261
0.171847
0.172697
0.173660
0.174425
0.174747
0.174680
0.174627
0.175148
0.176434
0.177970
0.179032
0.179327
0.179126
0.179036
0.179496
0.180410
0.181396
0.182173
0.182706
0.183159
0.183671
0.184213
0.184729
0.185302
0.186066
0.186995
0.187752
0.187828
0.187213
0.186763
0.187351
0.188896
0.190479
0.191119
0.190800
0.190733
0.191759
0.193090
0.193580
0.193292
0.193142
0.193793
0.195025
0.195886
0.195924
0.195948
0.196775
0.198024
0.198891
0.199254
0.199477
0.199808
0.200281
0.200851
0.201463
0.202036
0.202473
0.202740
0.203022
0.203679
0.204739
0.205640
0.205960
0.206034
0.206393
0.207048
0.207685
0.208123
0.208419
0.208763
0.209293
0.210002
0.210807
0.211618
0.212285
0.212620
0.212681
0.212872
0.213444
0.214119
0.214614
0.215130
0.215918
0.216754
0.217229
0.217266
0.217228
0.217642
0.218564
0.219326
0.219428
0.219269
0.219476
0.220077
0.220763
0.221419
0.222118
0.222886
0.223596
0.224045
0.224216
0.224379
0.224722
0.225064
0.225202
0.225301
0.225687
0.226491
0.227562
0.228555
0.229130
0.229164
0.228870
0.228734
0.229116
0.229911
0.230752
0.231355
0.231701
0.232001
0.232392
0.232754
0.232989
0.233275
0.233807
0.234485
0.235043
0.235359
0.235632
0.236269
0.237299
0.238081
0.238051
0.237460
0.237001
0.237139
0.237898
0.238963
0.239968
0.240705
0.241047
0.240918
0.240546
0.240492
0.241018
0.241663
0.241983
0.242247
0.242875
0.243711
0.244268
0.244295
0.244027
0.244020
0.244540
0.245182
0.245443
0.245356
0.245327
0.245696
0.246509
0.247463
0.248072
0.247965
0.247298
0.246853
0.247263
0.248294
0.249143
0.249196
0.248664
0.248575
0.249542
0.250830
0.251353
0.250955
0.250389
0.250527
0.251369
0.251819
0.251205
0.250434
0.250662
0.251737
0.252664
0.252779
0.252323
0.252202
0.252793
0.253308
0.253129
0.252936
0.253493
0.254324
0.254519
0.253985
0.253374
0.253352
0.253941
0.254460
0.254538
0.254744
0.255438
0.255862
0.255383
0.254710
0.254830
0.255622
0.256213
0.255999
0.255226
0.254839
0.255302
0.255880
0.255799
0.255378
0.255300
0.255596
0.255883
0.255998
0.256063
0.256239
0.256437
0.256303
0.255733
0.255188
0.255099
0.255299
0.255414
0.255406
0.255458
0.255639
0.255803
0.255714
0.255375
0.255132
0.255209
0.255341
0.255194
0.254864
0.254698
0.254883
0.255250
0.255351
0.254901
0.254101
0.253380
0.253040
0.253182
0.253701
0.254177
0.253971
0.252858
0.251496
0.250857
0.251385
0.252630
0.253455
0.253064
0.251811
0.250679
0.250364
0.250750
0.250977
0.250393
0.249353
0.248752
0.249115
0.250025
0.250259
0.249105
0.247324
0.246152
0.245997
0.246405
0.246657
0.246432
0.246045
0.245824
0.245597
0.245129
0.244576
0.244106
0.243512
0.242692
0.242102
0.242181
0.242553
0.241941
0.238779
0.232719
0.225920
0.222976
0.230403
0.254763
0.297431
0.344126
0.359888
0.307655
0.179338
0.024182
-0.055359
0.014347
0.194872
0.345472
0.306760
0.051613
-0.240515
-0.358004
-0.259641
-0.078396
0.006153
-0.028768
0.021202
0.304537
0.664447
0.821523
0.666944
0.347186
0.162168
0.274520
0.520978
0.624498
0.463867
0.097389
-0.307882
-0.539777
-0.439702
-0.081228
0.189878
0.125792
-0.096517
-0.093757
0.318852
0.907739
1.139493
0.802702
0.357409
0.230934
0.153046
-0.362547
-1.289187
-2.047143
-1.942721
-0.885716
0.312639
0.801299
0.524740
-0.106974
-0.823705
-1.546348
-2.151643
-2.284278
-1.451918
0.398926
2.511291
3.904721
4.108725
3.251261
1.779542
0.031947
-1.941942
-3.952364
-5.310210
-5.242728
-3.516887
-0.667909
2.219314
4.309013
5.562968
6.187908
5.949279
4.333033
1.181616
-2.640776
-5.289783
-5.524668
-3.977770
-2.138728
-0.823583
0.151988
1.361918
2.520401
2.134108
-0.442517
-3.393806
-4.275194
-2.473365
0.554672
2.454295
1.984247
0.165691
-1.199537
-1.342456
-0.632399
0.068625
0.097511
-0.493330
-0.866183
0.056340
2.152019
3.468811
2.323055
-0.656359
-3.425657
-4.393835
-3.408855
-1.572044
0.380149
2.918305
5.864782
7.129133
5.267274
1.845914
-0.616063
-1.492434
-1.952930
-3.339318
-5.425825
-6.075645
-3.836144
-0.130183
2.317095
1.909619
-1.137777
-5.075644
-7.416279
-6.014546
-0.532124
6.707140
11.973994
11.958140
5.119420
-7.243788
-20.582594
-28.123920
-25.066185
-12.578200
2.610113
11.685286
10.006468
1.143213
-7.256981
-9.650323
-5.624177
0.154589
2.146234
-1.615360
-8.381546
-12.133946
-8.160299
2.977364
15.995387
23.551634
20.070059
5.238608
-14.895724
-29.804539
-31.577496
-21.233606
-7.011001
1.953716
3.929756
7.275068
18.742102
32.626171
36.486992
22.439423
-6.235738
-35.597965
-52.455513
-54.193840
-45.350582
-31.168079
-16.485882
-6.317736
-3.955898
-8.548634
-15.608746
-20.012457
-21.020849
-24.197554
-34.292774
-48.267380
-58.084995
-57.434971
-46.972729
-34.745617
-27.852364
-25.669483
-24.455091
-23.338734
-22.497570
-19.570023
-11.128610
2.964342
16.000093
16.641953
1.898755
-15.286324
-21.111496
-16.629581
-11.793779
-12.576716
-15.496001
-10.507613
6.621716
26.668575
37.969147
38.419365
31.748604
19.846144
2.527062
-18.917267
-39.023403
-49.163795
-45.002632
-32.191296
-21.234135
-19.226109
-25.490383
-31.936428
-30.355211
-19.235554
-3.074689
11.465668
19.700178
21.440056
19.707752
18.015497
17.575254
15.921837
9.172299
-4.626189
-23.196344
-39.772808
-46.741989
-39.392799
-16.858562
17.180140
52.779335
74.763496
72.058990
46.904629
13.439297
-10.977521
-19.763424
-23.755785
-35.867710
-54.587097
-66.904816
-59.704376
-30.518812
8.444223
40.259937
54.662815
50.150639
31.558365
6.061737
-19.777149
-40.407875
-51.135647
-49.087032
-35.272938
-16.407923
-2.733173
1.963790
5.822157
16.487425
28.720932
30.728308
16.683954
-6.950233
-23.742008
-21.956989
-5.953395
11.493485
21.200939
21.077242
14.412146
5.276966
-5.175886
-18.238449
-34.417515
-48.847496
-51.501862
-38.658066
-20.916651
-11.923146
-14.623384
-21.908451
-24.298374
-18.218166
-8.699161
-0.753411
7.362919
17.125839
22.893946
18.937111
7.583751
-4.648563
-13.549173
-17.175993
-13.689122
-1.868695
17.025946
38.589664
57.093285
70.616402
82.885338
94.982735
98.776001
84.820526
53.150017
14.977059
-12.342817
-16.613556
0.406695
26.469810
47.655170
57.565742
60.713043
62.798092
61.471844
50.841850
30.385672
8.588973
-0.986964
6.275503
17.974310
19.665731
11.340808
3.832863
7.108319
21.586620
37.770111
49.374352
62.461391
83.604866
106.664215
118.437012
111.866341
94.923744
88.796341
107.317558
140.349091
165.074249
165.156311
139.963226
103.652489
71.751259
49.519165
34.846848
25.268713
20.641134
22.604439
31.905027
46.117546
60.055996
68.259781
69.449593
68.760529
72.649780
82.856071
95.577316
103.752708
101.330315
86.283737
59.717651
24.965416
-10.752218
-36.424118
-44.215916
-35.717422
-18.810652
-1.393697
12.536340
23.230795
30.734402
32.351917
27.898569
23.816719
26.821180
36.298389
45.550045
47.914448
43.786217
41.863316
47.602772
54.285660
52.321800
41.107620
27.742941
19.461611
16.442648
10.650993
-3.576463
-21.149557
-33.691196
-39.179146
-40.957119
-43.382584
-50.351746
-64.146370
-81.672325
-92.752243
-87.443710
-65.314598
-38.135292
-24.383005
-32.573421
-51.248695
-64.814018
-71.106308
-77.430527
-89.384552
-105.861572
-120.547356
-129.713791
-136.748734
-144.871124
-150.311646
-147.832916
-137.927567
-125.101326
-113.440575
-105.442581
-102.558273
-105.752739
-115.999832
-134.624512
-162.020721
-192.743103
-211.794128
-199.641479
-143.284775
-50.560734
45.710033
111.389580
135.813095
130.369385
113.854584
94.524323
63.059963
11.380299
-49.342903
-97.656189
-119.549698
-117.866310
-110.999779
-116.380608
-135.793732
-158.726288
-171.887161
-166.349731
-141.503342
-104.508415
-67.041374
-38.812897
-22.949631
-18.757507
-25.489964
-41.517437
-61.940723
-78.721077
-84.366272
-79.688377
-76.837769
-87.423309
-110.692482
-137.131363
-157.576416
-169.203110
-176.435318
-184.169540
-191.296829
-191.937241
-180.042892
-154.194244
-119.914810
-85.934021
-58.611576
-38.011658
-17.452475
10.252460
46.549255
87.122276
124.312187
149.731827
156.879807
144.182983
117.031715
85.734039
61.212223
49.462265
48.440308
52.297153
57.235695
63.930099
76.694160
98.533203
126.849709
154.671097
174.412567
182.318497
181.173218
178.067047
180.286377
191.201996
207.873581
223.120636
229.343750
222.420074
203.724350
177.603806
148.151764
118.339371
90.249908
65.473946
45.336960
30.929211
22.949118
21.225555
24.345802
30.134190
36.886280
44.970577
56.579479
71.261147
83.008675
85.260643
76.826942
61.592411
44.971943
29.642519
13.992125
-3.349743
-19.796909
-32.329163
-41.490200
-49.286552
-56.015823
-61.146172
-65.466911
-71.391815
-81.746170
-97.513000
-116.807526
-137.286972
-158.175583
-178.351410
-194.357971
-202.290131
-200.365463
-188.997253
-169.972092
-146.065887
-120.652184
-96.499023
-74.666138
-54.793392
-36.112495
-18.668285
-3.752828
7.496030
15.207733
19.573652
19.480040
13.280105
0.412076
-17.375515
-35.726128
-49.365044
-54.493443
-50.756672
-41.621880
-31.321894
-21.839899
-13.334112
-5.923973
-0.867787
0.006924
-2.356362
-2.306388
6.388951
25.579912
52.131977
79.850899
103.070061
119.636040
131.185867
142.114624
157.260727
178.966782
204.365921
225.307312
234.479797
230.971069
218.124222
198.716156
172.065094
134.596603
85.881859
33.493366
-10.469394
-35.732616
-38.695442
-24.386351
-2.742181
17.017487
31.190260
43.128937
57.772305
75.985176
95.079597
111.865715
125.220505
136.669037
147.624008
157.286377
164.620193
170.034393
172.735275
168.587769
153.840134
129.580688
101.198578
74.935623
53.368595
33.766499
13.601510
-4.396705
-15.325597
-17.577604
-14.987637
-15.225783
-23.269547
-36.219601
-46.156719
-45.808990
-32.891724
-11.549229
11.404086
30.554922
42.368774
44.544418
36.197132
18.166552
-7.808106
-40.219456
-78.137413
-120.636734
-165.045258
-205.908585
-236.944733
-253.745041
-255.267776
-244.202866
-225.532211
-204.257004
-182.914856
-160.631378
-136.070068
-110.416031
-86.646103
-67.480904
-54.247437
-47.221264
-47.742802
-58.911705
-81.639420
-111.206078
-139.917114
-161.474716
-173.054306
-175.267654
-169.880569
-158.137711
-141.859406
-124.230133
-107.321411
-89.730057
-68.249870
-40.900734
-8.744890
24.119396
53.519287
78.097328
99.213997
119.380730
139.801193
157.963074
166.832092
156.820908
123.126572
72.255150
19.878265
-16.705591
-29.875999
-28.167976
-26.978827
-35.484196
-50.699184
-59.438713
-51.200882
-28.654762
-2.325703
19.384649
35.172634
50.041595
67.377518
83.245186
91.640160
90.924911
82.452255
67.025093
44.928230
18.073719
-7.978483
-24.629549
-26.137186
-14.199528
5.631497
28.877533
52.389275
73.217422
89.350349
101.013481
110.406776
120.169579
130.948257
140.420303
146.342270
149.265427
150.629318
150.023895
145.379852
134.612610
117.419930
96.222313
75.133484
58.474827
49.775883
50.992966
61.782421
79.154572
98.458549
115.015503
126.098907
132.467102
137.883286
146.886841
160.358307
172.404633
173.283920
154.883713
116.092712
65.061783
13.878618
-28.181086
-57.492836
-75.649017
-85.304123
-86.838730
-79.972832
-66.555046
-50.975563
-38.575592
-32.249352
-30.341625
-29.298740
-27.269016
-25.214182
-26.191307
-32.778648
-44.621784
-58.089344
-67.614822
-69.141403
-62.930813
-52.643528
-42.843910
-36.456722
-33.697929
-34.157391
-38.693424
-48.094315
-61.202293
-75.175407
-86.662117
-92.896362
-92.548927
-86.235886
-76.610970
-67.381500
-61.836765
-61.381428
-64.967194
-70.649384
-77.099472
-83.266418
-88.021873
-91.413155
-95.505074
-102.322510
-111.335617
-119.294197
-121.952484
-117.572227
-108.958755
-100.430389
-94.199951
-90.275620
-87.831955
-86.301224
-85.623390
-85.293274
-83.596352
-78.494682
-69.241982
-57.846638
-49.390518
-49.396255
-60.260448
-78.750526
-95.939674
-102.379829
-93.939583
-73.816231
-51.344158
-36.379978
-33.449291
-39.864735
-47.446014
-49.130058
-44.406403
-37.297871
-31.936296
-29.789093
-29.258932
-28.476212
-27.315952
-25.313078
-19.768917
-8.334732
7.919360
25.189548
39.071213
46.188538
45.038841
35.853291
20.324942
1.504201
-16.575993
-30.185608
-37.121239
-36.927895
-31.011667
-22.999290
-18.101810
-19.864143
-27.602255
-38.166485
-48.477459
-55.876431
-58.027714
-54.212521
-46.722122
-40.067966
-38.257629
-40.549652
-40.252766
-31.913963
-17.839884
-4.518004
3.906130
8.384628
13.844338
23.626038
35.525776
45.338844
51.670650
56.369576
62.878559
74.169479
90.962212
110.770859
128.261932
138.415039
139.792084
134.942657
128.710052
124.473579
121.641495
117.906517
112.256081
105.215866
97.861107
90.891930
84.179886
76.974686
68.172432
56.459354
40.827503
21.859325
2.191124
-15.698446
-31.492208
-45.758713
-57.724834
-64.631950
-63.132442
-53.228062
-40.336674
-30.475887
-24.735546
-19.456310
-9.854088
4.498201
16.896276
18.857565
6.974409
-14.979046
-37.935966
-54.055401
-62.144436
-66.091202
-70.495926
-76.698059
-81.678123
-82.603165
-80.711815
-78.516502
-75.715378
-69.261581
-56.066944
-36.794033
-17.110863
-2.523506
6.375061
11.625665
14.189692
14.097021
12.383490
12.340335
18.714842
33.490124
52.786026
69.836266
79.342239
79.205284
70.751549
58.050285
46.855164
42.581882
47.809196
60.205193
72.452682
76.895386
70.392448
54.777771
34.814899
14.642302
-4.428093
-21.931175
-35.783691
-42.741173
-40.250496
-28.373592
-10.653078
7.536031
21.251987
27.494474
25.949432
18.450680
7.755314
-4.235122
-17.558350
-32.902988
-49.662701
-64.903168
-73.639946
-71.375183
-56.656803
-31.499397
-0.632456
30.163134
55.654835
72.193588
78.740997
77.757423
74.608627
73.421204
73.422523
70.593674
61.902359
49.618504
41.981182
45.479397
57.505238
68.726440
69.904007
59.000011
44.074352
36.052132
39.875626
51.859509
61.999657
61.851543
51.144917
36.217937
25.119789
22.611744
27.543919
35.429096
41.721806
42.621082
35.450890
20.479492
2.203055
-12.913177
-19.837805
-17.374632
-8.960011
-0.447130
2.779690
-2.056616
-13.457409
-25.281090
-28.880117
-19.975973
-3.806583
9.178393
10.498683
-1.905094
-22.876492
-44.880444
-62.848656
-74.410454
-78.720329
-76.263069
-68.783607
-58.146061
-45.641392
-33.233627
-23.970596
-18.767773
-13.901099
-4.251140
12.035499
31.945433
49.063419
58.550438
60.146553
54.085579
37.624287
9.618429
-24.418297
-55.091015
-74.914581
-82.348129
-82.108604
-79.182434
-73.761841
-63.986404
-50.297318
-35.713985
-24.010397
-17.585299
-16.315151
-18.552324
-22.529272
-26.960897
-31.284584
-35.708775
-40.767075
-45.907509
-48.773983
-47.159100
-41.187469
-33.089779
-25.503754
-19.092915
-11.717194
-1.671311
9.190190
16.788374
17.920307
12.811049
5.887168
2.820921
6.727486
16.162382
25.578812
30.049276
29.897917
30.454941
38.494965
56.041462
77.022949
93.178757
101.256714
103.828110
106.038612
109.762199
110.360710
101.624329
81.885811
54.741566
26.482435
1.480296
-20.820644
-43.455894
-68.042702
-92.670311
-111.735039
-118.707993
-109.446632
-84.283226
-48.797112
-12.019483
16.638357
31.324718
32.537907
25.675972
17.527872
11.884895
6.982506
-1.705042
-17.397118
-39.972424
-65.839470
-90.185852
-109.133598
-119.926674
-120.702904
-111.099266
-92.861023
-69.237907
-43.915047
-20.140310
-0.320488
13.601973
19.889387
17.816460
8.896767
-2.472762
-9.882312
-8.958127
-1.312058
5.823038
3.449357
-11.716022
-32.704285
-48.581238
-52.978561
-46.956398
-37.209484
