EVENT_NAME: CENTRAL_ITALY
EVENT_ID: EMSC-20160824_0000006
EVENT_DATE_YYYYMMDD: 20160824
EVENT_TIME_HHMMSS: 013632
EVENT_LATITUDE_DEGREE: 42.6983
EVENT_LONGITUDE_DEGREE: 13.2335
EVENT_DEPTH_KM: 8.1
HYPOCENTER_REFERENCE: INGV-CNT_Seismic_Bulletin
MAGNITUDE_W: 6.0
MAGNITUDE_W_REFERENCE: INGV-webservice
MAGNITUDE_L: 
MAGNITUDE_L_REFERENCE: 
FOCAL_MECHANISM: Normal faulting
NETWORK: IT
STATION_CODE: AMT
STATION_NAME: AMATRICE
STATION_LATITUDE_DEGREE: 42.632460
STATION_LONGITUDE_DEGREE: 13.286176
STATION_ELEVATION_M: 950
LOCATION: 
SENSOR_DEPTH_M: 0.0
VS30_M/S: 670
SITE_CLASSIFICATION_EC8: B
MORPHOLOGIC_CLASSIFICATION: 
EPICENTRAL_DISTANCE_KM: 8.5
EARTHQUAKE_BACKAZIMUTH_DEGREE: 149.2
DATE_TIME_FIRST_SAMPLE_YYYYMMDD_HHMMSS: 20160824_013629.104
DATE_TIME_FIRST_SAMPLE_PRECISION: milliseconds
SAMPLING_INTERVAL_S: 0.005000
NDATA: 5579
DURATION_S: 27.895
STREAM: HGE
UNITS: cm/s^2
INSTRUMENT: sensor = Unknown [Unknown] | digitizer = Unknown [Unknown]
INSTRUMENT_ANALOG/DIGITAL: D
INSTRUMENTAL_FREQUENCY_HZ: 
INSTRUMENTAL_DAMPING: 
FULL_SCALE_G: 
N_BIT_DIGITAL_CONVERTER: 
PGA_CM/S^2: -850.803528
TIME_PGA_S: 9.130000
BASELINE_CORRECTION: BASELINE REMOVED
FILTER_TYPE: BUTTERWORTH
FILTER_ORDER: 2
LOW_CUT_FREQUENCY_HZ: 0.060
HIGH_CUT_FREQUENCY_HZ: 40.000
LATE/NORMAL_TRIGGERED: NT
DATABASE_VERSION: 0.5
HEADER_FORMAT: DYNA 1.2
DATA_TYPE: ACCELERATION
PROCESSING: manual (Paolucci et al., 2011)
DATA_TIMESTAMP_YYYYMMDD_HHMMSS: 20201211_094900.157
DATA_LICENSE: CC-BY3_0-IT (http://creativecommons.org/licenses/by/3.0/deed.en)
DATA_CITATION: Luzi L, Puglia R, Russo E & ORFEUS WG5 (2016). Engineering Strong Motion Database. Istituto Nazionale di Geofisica e Vulcanologia, Observatories & Research Facilities for European Seismology. doi: 10.13127/ESM
DATA_CREATOR: ESM working group
ORIGINAL_DATA_MEDIATOR_CITATION: Ufficio Rischio Sismico e Vulcanico del Dipartimento della Protezione Civile (http://www.protezionecivile.gov.it/)
ORIGINAL_DATA_MEDIATOR: Rete Accelerometrica Nazionale - RAN Download (http://www.mot1.it/randownload/)
ORIGINAL_DATA_CREATOR_CITATION: Presidency Of Counsil Of Ministers-Civil Protection Department. (1972). Italian Strong Motion Network. Presidency of Counsil of Ministers - Civil Protection Department. https://doi.org/10.7914/SN/IT http://www.fdsn.org/networks/detail/IT/
ORIGINAL_DATA_CREATOR: network: IT (Italian Strong Motion Network (RAN)); owner: Presidency of Counsil of Ministers - Civil Protection Department (PCM - DPC)
USER1: 
USER2: 
USER3: 
USER4: 
USER5: 
[...]
0.005062
0.006215
0.000304
-0.006369
-0.006848
-0.002763
-0.000922
-0.004104
-0.007441
-0.006390
-0.005134
-0.008095
-0.010302
-0.006720
-0.001834
-0.001930
-0.004960
-0.004764
-0.001610
-0.000640
-0.002436
-0.003495
-0.002938
-0.002177
-0.001801
-0.003354
-0.008227
-0.011874
-0.008638
-0.002259
-0.001216
-0.006778
-0.011305
-0.007612
-0.000521
-0.001291
-0.008782
-0.011821
-0.008890
-0.007589
-0.009436
-0.010271
-0.009261
-0.008664
-0.009163
-0.009185
-0.008748
-0.010043
-0.012029
-0.011215
-0.008507
-0.007969
-0.009058
-0.007151
-0.002712
-0.001120
-0.002671
-0.003151
-0.002121
-0.002299
-0.004789
-0.007325
-0.005304
0.001026
0.003812
-0.000357
-0.004192
-0.002065
0.001625
0.001372
-0.002060
-0.006057
-0.008523
-0.006973
-0.002491
-0.000212
-0.001954
-0.003648
-0.002510
-0.001321
-0.003099
-0.005736
-0.005328
-0.002411
-0.000061
0.000903
0.000560
-0.001113
-0.003292
-0.005556
-0.007711
-0.008503
-0.006360
-0.002225
0.000112
0.000447
0.002844
0.006702
0.007713
0.005852
0.003472
0.002050
0.002962
0.005019
0.004832
0.001964
-0.001486
-0.004825
-0.007526
-0.006855
-0.001854
0.002479
0.001341
-0.001649
-0.000583
0.002385
0.002439
0.000470
-0.000894
-0.001064
-0.000331
0.000225
-0.000779
-0.003399
-0.005333
-0.004208
-0.001850
-0.003042
-0.007251
-0.007148
-0.001214
0.002049
-0.001440
-0.005174
-0.004082
-0.001678
-0.001964
-0.003302
-0.004354
-0.006058
-0.006337
-0.003734
-0.001936
-0.003443
-0.005382
-0.004701
-0.002692
-0.001598
-0.000484
0.002335
0.005182
0.004689
0.001343
-0.001176
-0.001243
-0.000344
-0.000646
-0.001974
-0.002995
-0.003946
-0.003691
-0.000539
0.002206
0.000102
-0.004254
-0.004489
-0.000889
0.000516
-0.001402
-0.002487
-0.001453
-0.000708
-0.001018
-0.000587
0.000441
-0.000324
-0.002906
-0.004618
-0.003466
-0.000590
0.001018
0.001504
0.003566
0.005978
0.005461
0.002857
-0.000126
-0.003353
-0.004711
-0.002424
0.000931
0.000839
-0.002964
-0.004268
0.000719
0.006072
0.005179
0.001027
-0.000196
0.001509
0.004507
0.009243
0.011801
0.007229
0.000064
-0.001854
0.000955
0.003385
0.004024
0.004221
0.002922
-0.000842
-0.002471
0.001460
0.005617
0.003156
-0.004357
-0.009025
-0.006970
-0.001609
0.002563
0.003877
0.002809
0.000599
-0.001348
-0.001782
-0.000354
0.002467
0.005159
0.005512
0.003344
0.000936
0.001044
0.004307
0.006325
0.002735
-0.002707
-0.003182
0.001178
0.004856
0.005192
0.003899
0.002004
-0.000431
-0.000814
0.001398
0.002322
0.001868
0.002954
0.003901
0.001387
-0.002535
-0.001347
0.005168
0.008075
0.003581
-0.000695
0.002033
0.007817
0.007902
0.001862
-0.001232
0.002855
0.007962
0.009667
0.009640
0.007953
0.003769
0.000393
0.000899
0.003005
0.003650
0.003276
0.003130
0.003677
0.004396
0.003714
0.001922
0.000772
0.000185
0.000218
0.002694
0.006681
0.007786
0.005612
0.004613
0.005166
0.004223
0.004128
0.008324
0.012198
0.009375
0.001692
-0.003952
-0.003424
0.002041
0.007084
0.006644
0.002151
0.000966
0.006013
0.010906
0.009245
0.003459
0.001815
0.007067
0.010280
0.003966
-0.002082
0.004255
0.012997
0.008789
-0.000487
-0.000385
0.004512
0.004872
0.004027
0.007021
0.010760
0.010188
0.005908
0.004187
0.006630
0.006988
0.003610
0.000248
-0.002197
-0.002059
0.002922
0.009643
0.013250
0.011141
0.004213
-0.000880
0.001730
0.008664
0.012332
0.009985
0.004598
0.001871
0.006669
0.017027
0.022715
0.016865
0.006855
0.004716
0.010845
0.016822
0.018500
0.017561
0.015532
0.012525
0.009552
0.008982
0.010764
0.010491
0.006215
0.002468
0.002729
0.004149
0.003029
0.001145
0.003039
0.009303
0.015738
0.017080
0.011174
0.001960
-0.002918
-0.000453
0.003398
0.002597
0.000381
0.002588
0.007791
0.010823
0.010645
0.009829
0.009247
0.007218
0.004132
0.003868
0.006760
0.007860
0.006788
0.006722
0.005596
0.003295
0.005845
0.012531
0.014439
0.009131
0.004206
0.006564
0.015461
0.023812
0.023967
0.016053
0.008939
0.009560
0.015904
0.020710
0.018500
0.011355
0.006072
0.006061
0.010183
0.015052
0.017805
0.018537
0.017443
0.014490
0.012936
0.014655
0.014964
0.010127
0.005233
0.006498
0.010074
0.008955
0.005572
0.005988
0.009567
0.011694
0.010251
0.008379
0.009884
0.012629
0.013365
0.013798
0.015763
0.017536
0.017481
0.015042
0.009012
0.002528
0.003017
0.009268
0.012135
0.009988
0.009077
0.012585
0.017612
0.019824
0.017391
0.012326
0.010371
0.013361
0.014588
0.010234
0.005746
0.006351
0.011291
0.016915
0.019110
0.015402
0.007984
0.002274
0.001646
0.004204
0.005880
0.006723
0.008978
0.010742
0.008816
0.005715
0.007540
0.013923
0.017140
0.013700
0.008575
0.007061
0.009054
0.011276
0.011274
0.009705
0.010507
0.015246
0.018099
0.015012
0.013145
0.018622
0.023702
0.019798
0.011909
0.009279
0.012118
0.013461
0.009824
0.006588
0.008806
0.012114
0.010712
0.006212
0.003517
0.005652
0.011248
0.014215
0.012340
0.011488
0.015298
0.020237
0.022349
0.020834
0.017517
0.015716
0.015271
0.012271
0.007780
0.008154
0.013519
0.016022
0.012091
0.007021
0.005210
0.004970
0.005055
0.007109
0.010639
0.013275
0.015340
0.018109
0.018705
0.014496
0.010392
0.011940
0.015921
0.015571
0.010832
0.008086
0.010684
0.014902
0.015896
0.013575
0.011740
0.012915
0.016381
0.019936
0.020393
0.015993
0.010103
0.008477
0.012393
0.016701
0.016353
0.013547
0.013228
0.014018
0.011887
0.008805
0.009179
0.011548
0.011745
0.010716
0.011229
0.012281
0.012610
0.013109
0.013375
0.012076
0.011075
0.013169
0.017266
0.019138
0.016635
0.013562
0.013388
0.014487
0.015996
0.017005
0.013077
0.003308
-0.003754
0.002799
0.021379
0.035546
0.030361
0.004305
-0.030436
-0.050154
-0.035330
0.007724
0.051426
0.071636
0.057170
0.002843
-0.076398
-0.120478
-0.060305
0.090970
0.210287
0.171712
-0.006087
-0.151246
-0.116859
0.045803
0.140867
0.053975
-0.130516
-0.247801
-0.219591
-0.082621
0.069830
0.140844
0.095711
0.015076
0.027163
0.147493
0.233907
0.149141
-0.060830
-0.199982
-0.138368
0.037820
0.132451
0.083186
0.026383
0.096024
0.242641
0.324707
0.299202
0.208824
0.054578
-0.182191
-0.429332
-0.553706
-0.504490
-0.369614
-0.289978
-0.319660
-0.343000
-0.166113
0.241013
0.646787
0.804026
0.720110
0.565315
0.434182
0.341837
0.309686
0.298904
0.201886
0.013640
-0.146547
-0.235636
-0.330105
-0.461800
-0.564285
-0.561429
-0.425519
-0.213744
-0.090343
-0.202806
-0.481523
-0.667233
-0.577120
-0.249840
0.154242
0.451320
0.451759
0.064284
-0.539504
-0.935906
-0.731046
0.077181
0.988182
1.307482
0.722241
-0.302645
-0.798916
-0.181020
1.082442
1.825111
1.335298
0.062906
-0.931957
-1.082277
-0.698550
-0.399347
-0.399374
-0.394107
-0.056777
0.467606
0.699160
0.444202
0.095521
0.198587
0.777507
1.233293
0.993892
0.171143
-0.573292
-0.780001
-0.626947
-0.563020
-0.729518
-0.933650
-1.022701
-1.021220
-0.957530
-0.763151
-0.370889
0.116073
0.338365
-0.060825
-0.882165
-1.293067
-0.664820
0.651796
1.719248
2.011344
1.711700
1.243185
0.826867
0.381590
-0.311845
-1.262255
-2.053914
-2.111557
-1.277885
-0.097302
0.596173
0.464248
-0.015887
-0.124108
0.319967
0.936191
1.362548
1.556348
1.617831
1.547401
1.210188
0.522242
-0.330050
-0.962369
-1.195240
-1.265455
-1.479150
-1.781951
-1.813940
-1.319003
-0.487670
0.101429
0.042894
-0.354237
-0.329357
0.408689
1.337257
1.871557
1.989124
1.837401
1.283808
0.283323
-0.675317
-0.896423
-0.139921
1.127354
1.940432
1.473635
-0.059812
-1.320901
-1.141355
0.244323
1.583488
1.945982
1.332778
0.293627
-0.577177
-0.987502
-1.167703
-1.600545
-2.325645
-2.602563
-1.498046
0.959807
3.277756
3.552860
1.309762
-1.844671
-3.661871
-3.193362
-1.042595
1.645092
3.627427
3.672498
1.483676
-1.364657
-2.228446
0.216284
4.296440
6.414326
4.365668
-0.304265
-3.821632
-4.175057
-2.886298
-2.712595
-4.610831
-7.376016
-9.150651
-8.630123
-5.924345
-3.019144
-2.314581
-3.925166
-5.263280
-3.767715
0.620121
5.701751
9.053232
9.869096
9.327601
9.328729
10.600145
11.910565
11.583569
9.708881
7.978996
7.272859
6.564010
4.838718
3.026449
2.935588
4.726108
6.238727
4.882366
0.008024
-6.487214
-11.521416
-12.810869
-10.492560
-7.497601
-7.399292
-10.695231
-13.898163
-13.574503
-10.495095
-8.148291
-7.579086
-5.940199
-1.064186
4.539372
6.096364
2.032888
-4.129983
-6.941215
-3.876864
2.689263
8.162056
9.780929
8.166781
6.383219
7.624380
11.945816
15.095142
12.353345
3.830962
-5.240183
-9.747450
-9.064033
-6.110398
-4.322417
-6.129766
-11.380378
-15.968965
-14.728775
-7.068398
1.573799
4.576205
0.218858
-7.099551
-11.162156
-9.011250
-2.548431
3.746481
6.440591
5.391498
3.483785
3.901479
6.797113
9.129599
8.414082
5.502158
2.909671
1.922269
2.437763
4.276532
7.297761
10.994911
14.860165
18.626942
21.610807
21.971403
17.697279
9.772522
3.545597
3.743906
7.490622
6.271773
-3.461546
-15.362019
-20.280315
-15.311240
-5.188681
2.253772
1.411961
-7.454759
-18.778572
-26.592665
-28.949228
-28.050543
-27.235178
-27.345034
-25.551039
-19.170420
-10.041586
-2.958698
-0.601950
-1.220182
-0.688116
3.030483
7.271718
7.542468
3.498314
1.204627
7.684026
22.334351
35.753803
38.602917
29.939142
16.758980
7.462699
5.037115
5.837025
5.508490
3.508494
0.839863
-2.823294
-7.764261
-11.318280
-9.065700
-0.950900
7.026569
10.929910
14.510482
21.376535
25.416969
16.484138
-4.798472
-23.984261
-26.152681
-9.132339
16.435200
36.089520
40.257408
28.128269
6.414550
-13.815135
-21.880144
-15.566466
-4.577163
-1.473285
-9.219131
-19.737003
-24.324352
-23.288574
-22.963423
-24.008209
-18.962378
-5.247850
6.831189
6.349968
-2.479776
-3.286496
13.065389
35.987904
46.450157
37.284958
17.793221
2.415556
-1.040443
5.872149
15.024015
15.533960
1.763647
-21.008341
-41.840473
-51.576397
-45.767662
-26.339725
-1.948442
14.387587
12.876701
-2.556165
-16.042177
-16.635124
-8.279446
-1.156198
0.874935
1.879236
7.036017
17.051565
27.022264
29.466200
22.075001
12.863654
11.717762
16.825821
18.238007
14.780618
15.834240
25.332531
34.369728
31.984749
18.858137
6.542781
1.394466
-4.333571
-19.732574
-39.661568
-48.480064
-38.711281
-21.113722
-12.901342
-20.110027
-34.831829
-46.620567
-52.267471
-51.992931
-41.732403
-18.066465
11.053986
28.564621
24.820774
9.782254
3.278117
12.976085
28.948526
38.662102
39.217049
36.527660
37.689648
43.720940
49.261082
50.184471
50.799076
58.738827
70.547394
72.961090
63.637432
55.983917
57.246841
56.510849
41.757931
17.364468
-3.853389
-17.552874
-28.232391
-40.065441
-54.464741
-70.316643
-83.091888
-88.163887
-84.454086
-72.847786
-55.202293
-36.641327
-23.372562
-15.586998
-6.130864
11.212238
33.091408
47.591198
42.770763
15.316975
-23.451145
-50.274681
-45.908791
-12.331888
26.876297
45.221996
34.310806
9.403118
-3.816480
10.202129
47.054543
90.615837
125.851463
142.165634
132.380142
96.950768
49.612400
12.494233
-0.328924
6.314774
15.182991
11.920556
-4.871320
-25.715216
-39.956371
-43.111435
-37.120243
-25.208788
-9.841145
2.503186
1.949373
-15.179262
-42.842983
-71.696533
-95.665672
-113.357071
-126.076065
-138.272018
-153.503616
-163.405518
-157.040634
-142.833252
-136.474854
-132.133835
-109.958008
-66.556206
-20.788797
5.201967
0.521622
-30.537825
-70.739388
-99.637924
-106.191055
-96.016548
-87.435532
-92.667686
-99.183701
-82.239891
-38.973057
6.257728
29.365211
25.876516
9.976254
-0.083420
0.600548
7.580415
22.639971
49.607456
81.990028
107.193085
119.646072
123.196739
122.438522
118.951447
116.155327
121.199020
138.659760
162.171646
174.655319
161.319168
123.134071
75.596748
36.315918
14.999663
11.135059
18.019289
26.965267
27.867485
13.183715
-15.949298
-53.984768
-99.403610
-148.730560
-186.139938
-194.646332
-175.720825
-146.301437
-121.813301
-108.781097
-108.149925
-120.277138
-145.787125
-181.796326
-218.591980
-243.654694
-250.217606
-238.370850
-209.073074
-163.767029
-110.339890
-62.474117
-29.613194
-11.021090
-0.438701
7.056015
12.321542
13.749107
11.846145
11.066498
13.729850
13.534957
2.582294
-14.596798
-23.999649
-19.653877
-7.667806
6.028886
21.974237
38.971504
46.772057
36.051601
10.684318
-18.611732
-45.218712
-68.253334
-89.089607
-104.099274
-101.957062
-72.840759
-16.939098
57.428547
137.388412
207.737686
257.607391
284.682068
291.430908
283.230713
270.819824
266.241913
273.739777
290.080261
312.660278
340.373352
367.889709
387.172058
396.613098
402.910614
412.751312
427.751617
446.787109
470.394562
503.800110
551.897888
608.607483
654.658386
668.216919
639.396545
573.963806
483.303955
375.069031
253.262253
122.824768
-7.990482
-128.110352
-226.272858
-298.900330
-357.477783
-419.449158
-489.472473
-559.364929
-623.554504
-686.541931
-755.117798
-818.716919
-850.803528
-839.919128
-796.794434
-735.711670
-668.957275
-605.078369
-543.685974
-479.902069
-413.222198
-348.910156
-293.261200
-248.746033
-209.313232
-159.569168
-84.517929
14.330801
110.956009
172.674423
193.242615
194.450394
198.720291
219.304642
259.966034
308.573547
344.879669
356.600006
345.226624
323.172089
306.892120
308.689453
327.509277
344.877930
340.113342
312.417053
277.420044
245.521118
217.518738
197.014297
190.561554
191.919434
180.039551
142.420349
90.481697
44.556599
13.162978
-8.739610
-28.902876
-48.666256
-62.730629
-69.027222
-75.599861
-91.166153
-114.156189
-138.861389
-166.178787
-200.266022
-238.221237
-268.374573
-276.315399
-253.717590
-207.711578
-159.142502
-128.127975
-122.659042
-137.227188
-159.696274
-179.741852
-190.617340
-189.174271
-177.683731
-162.063873
-147.835373
-137.068558
-128.385056
-121.207535
-116.587975
-111.522835
-98.634491
-75.731285
-51.259300
-36.870907
-37.056190
-46.469002
-54.378162
-51.151714
-32.005497
3.456336
52.187721
105.878494
151.213776
179.055038
193.429916
204.569702
215.432373
222.638260
225.508224
226.467056
226.623306
225.210037
221.479752
215.661301
206.900848
190.859924
163.558884
127.422432
89.644218
56.483952
31.038456
12.303563
-5.514851
-30.089561
-66.191368
-113.002380
-163.908447
-209.542770
-243.853394
-267.326355
-283.659607
-295.180267
-301.958527
-302.158508
-291.867340
-266.665802
-225.070267
-169.951706
-104.786034
-26.445139
74.218712
192.980499
301.127258
372.192535
405.405701
409.166626
383.830444
332.459564
270.705200
214.521439
165.981400
119.006470
73.734917
36.611263
9.376334
-14.803113
-46.037327
-89.713600
-141.246155
-189.975601
-227.183853
-247.346298
-246.533600
-225.975708
-193.655441
-157.094223
-117.367111
-72.738350
-24.276203
24.152800
68.647186
106.981918
139.597443
169.549973
199.730896
228.729767
249.393219
251.715179
228.648972
183.489273
131.926804
89.111183
54.443008
17.320431
-26.928917
-75.234428
-123.952141
-170.966339
-213.395264
-247.414825
-271.284668
-285.124084
-287.232422
-274.724976
-248.165970
-212.654266
-173.400482
-131.435333
-82.215317
-17.332973
66.979958
160.001709
238.435654
280.842224
280.979095
248.244705
200.523788
157.611282
132.484909
125.305992
127.763252
131.117203
130.871109
126.072998
114.747169
93.996910
64.660400
31.216488
-2.100961
-32.780262
-58.392838
-75.111885
-79.445511
-70.870819
-51.938499
-27.283672
-2.636062
17.334154
30.391174
35.383896
31.306532
18.573627
-0.242243
-21.327385
-40.984360
-56.373943
-65.114838
-65.043579
-55.108730
-36.557873
-13.790321
6.607782
19.265625
22.109785
15.190603
-0.040876
-20.212648
-41.521641
-62.136986
-81.641937
-98.296844
-108.409027
-108.331345
-96.190430
-73.500511
-46.481922
-23.135174
-7.504253
1.606494
6.506418
7.362366
3.637864
-2.779765
-7.837519
-8.701589
-5.393315
0.657720
7.530173
12.150958
11.027135
2.790030
-10.595083
-25.427429
-38.570869
-48.086964
-52.694653
-51.907459
-46.853138
-40.199917
-34.601833
-31.214771
-30.156841
-31.947458
-37.245388
-45.639961
-56.088634
-67.687645
-79.229950
-89.130638
-96.003548
-99.041710
-97.623512
-90.342415
-76.166603
-57.064796
-37.244049
-19.721615
-5.114149
6.822376
15.938974
22.263702
26.614697
29.393921
29.324362
24.563354
14.795254
1.442676
-13.627809
-28.505026
-40.565582
-46.441326
-43.120087
-29.522219
-7.730220
17.433956
40.769630
58.796207
69.676872
72.279755
66.744186
56.007126
45.169704
38.353020
36.917503
40.069603
45.003162
47.235439
43.419109
33.957355
22.029911
10.943159
3.027310
-0.051220
3.086424
13.360689
30.388248
51.711246
73.440468
92.392677
107.838654
120.993065
132.318863
139.302963
137.756241
125.422623
103.576050
76.192871
48.958481
26.870964
10.877675
-1.855301
-14.269443
-27.036512
-39.130711
-49.481419
-57.735809
-63.979939
-68.331810
-70.886192
-71.673065
-70.608765
-67.807190
-63.492779
-57.255188
-48.271084
-36.870605
-25.291311
-16.104309
-10.179291
-6.927383
-5.842560
-6.987356
-10.593770
-16.609711
-24.434132
-33.023125
-41.314018
-48.620594
-54.232025
-56.507004
-53.496723
-44.928303
-32.305828
-16.941006
0.509322
18.487329
34.327461
46.082069
53.306808
56.353508
56.133392
53.737171
49.465549
43.071327
35.115292
27.276834
21.243816
17.762293
16.696999
17.477882
19.833822
24.530565
32.209530
42.008663
52.761829
63.944027
74.952614
84.629967
91.403046
93.904213
91.120415
82.424530
68.789848
53.214931
38.895054
27.001120
16.371553
5.444435
-6.217113
-18.521063
-31.428955
-44.116917
-54.549850
-60.649807
-61.457802
-57.095768
-48.505322
-37.195107
-24.394978
-10.882586
1.970278
12.217842
18.910215
22.675524
24.901999
27.194101
30.457405
33.619465
34.803391
33.719803
31.501232
29.342049
28.265236
28.711130
29.569721
28.832424
25.998205
22.875338
21.415787
21.784477
22.753620
22.987621
22.177544
21.654148
23.298218
27.309750
31.507147
32.927849
29.828613
22.387333
12.155943
1.249421
-8.631062
-17.150082
-24.672867
-30.536604
-33.390141
-33.505878
-33.294220
-35.025337
-39.076050
-44.520512
-50.238071
-55.061836
-57.769997
-58.054852
-57.390385
-57.824139
-59.988560
-63.213371
-67.178650
-72.260300
-78.019997
-82.228401
-82.184402
-76.848579
-67.172897
-54.662983
-40.440838
-25.557014
-11.196876
1.668387
12.412135
20.910385
27.991285
35.068474
42.903145
51.059124
58.514580
64.387177
68.027748
68.766769
