EVENT_NAME: CENTRAL_ITALY
EVENT_ID: EMSC-20160824_0000006
EVENT_DATE_YYYYMMDD: 20160824
EVENT_TIME_HHMMSS: 013632
EVENT_LATITUDE_DEGREE: 42.6983
EVENT_LONGITUDE_DEGREE: 13.2335
EVENT_DEPTH_KM: 8.1
HYPOCENTER_REFERENCE: INGV-CNT_Seismic_Bulletin
MAGNITUDE_W: 6.0
MAGNITUDE_W_REFERENCE: INGV-webservice
MAGNITUDE_L: 
MAGNITUDE_L_REFERENCE: 
FOCAL_MECHANISM: Normal faulting
NETWORK: IT
STATION_CODE: AMT
STATION_NAME: AMATRICE
STATION_LATITUDE_DEGREE: 42.632460
STATION_LONGITUDE_DEGREE: 13.286176
STATION_ELEVATION_M: 950
LOCATION: 
SENSOR_DEPTH_M: 0.0
VS30_M/S: 670
SITE_CLASSIFICATION_EC8: B
MORPHOLOGIC_CLASSIFICATION: 
EPICENTRAL_DISTANCE_KM: 8.5
EARTHQUAKE_BACKAZIMUTH_DEGREE: 149.2
DATE_TIME_FIRST_SAMPLE_YYYYMMDD_HHMMSS: 20160824_013629.104
DATE_TIME_FIRST_SAMPLE_PRECISION: milliseconds
SAMPLING_INTERVAL_S: 0.005000
NDATA: 5579
DURATION_S: 27.895
STREAM: HGN
UNITS: cm/s^2
INSTRUMENT: sensor = Unknown [Unknown] | digitizer = Unknown [Unknown]
INSTRUMENT_ANALOG/DIGITAL: D
INSTRUMENTAL_FREQUENCY_HZ: 
INSTRUMENTAL_DAMPING: 
FULL_SCALE_G: 
N_BIT_DIGITAL_CONVERTER: 
PGA_CM/S^2: 368.387054
TIME_PGA_S: 8.985000
BASELINE_CORRECTION: BASELINE REMOVED
FILTER_TYPE: BUTTERWORTH
FILTER_ORDER: 2
LOW_CUT_FREQUENCY_HZ: 0.060
HIGH_CUT_FREQUENCY_HZ: 40.000
LATE/NORMAL_TRIGGERED: NT
DATABASE_VERSION: 0.5
HEADER_FORMAT: DYNA 1.2
DATA_TYPE: ACCELERATION
PROCESSING: manual (Paolucci et al., 2011)
DATA_TIMESTAMP_YYYYMMDD_HHMMSS: 20201211_094900.240
DATA_LICENSE: CC-BY3_0-IT (http://creativecommons.org/licenses/by/3.0/deed.en)
DATA_CITATION: Luzi L, Puglia R, Russo E & ORFEUS WG5 (2016). Engineering Strong Motion Database. Istituto Nazionale di Geofisica e Vulcanologia, Observatories & Research Facilities for European Seismology. doi: 10.13127/ESM
DATA_CREATOR: ESM working group
ORIGINAL_DATA_MEDIATOR_CITATION: Ufficio Rischio Sismico e Vulcanico del Dipartimento della Protezione Civile (http://www.protezionecivile.gov.it/)
ORIGINAL_DATA_MEDIATOR: Rete Accelerometrica Nazionale - RAN Download (http://www.mot1.it/randownload/)
ORIGINAL_DATA_CREATOR_CITATION: Presidency Of Counsil Of Ministers-Civil Protection Department. (1972). Italian Strong Motion Network. Presidency of Counsil of Ministers - Civil Protection Department. https://doi.org/10.7914/SN/IT http://www.fdsn.org/networks/detail/IT/
ORIGINAL_DATA_CREATOR: network: IT (Italian Strong Motion Network (RAN)); owner: Presidency of Counsil of Ministers - Civil Protection Department (PCM - DPC)
USER1: 
USER2: 
USER3: 
USER4: 
USER5: 
[...]
-0.082957
-0.080618
-0.081540
-0.086361
-0.088928
-0.084337
-0.078919
-0.080365
-0.085680
-0.087833
-0.086381
-0.085478
-0.085826
-0.084826
-0.082652
-0.080897
-0.078814
-0.077302
-0.079625
-0.084710
-0.086989
-0.083932
-0.079504
-0.077799
-0.077093
-0.076281
-0.079023
-0.084732
-0.086122
-0.080533
-0.075664
-0.078202
-0.083043
-0.083191
-0.081231
-0.081005
-0.079804
-0.076604
-0.076246
-0.079461
-0.080251
-0.077150
-0.076084
-0.079089
-0.080124
-0.077439
-0.078126
-0.083358
-0.085058
-0.080958
-0.078155
-0.080273
-0.081811
-0.079463
-0.078245
-0.080817
-0.082422
-0.079638
-0.076268
-0.077614
-0.081713
-0.082455
-0.080211
-0.079702
-0.079874
-0.077044
-0.074051
-0.076155
-0.081854
-0.085433
-0.085559
-0.084883
-0.083501
-0.080255
-0.077747
-0.078135
-0.078591
-0.077591
-0.078494
-0.081257
-0.080457
-0.076159
-0.074366
-0.074803
-0.072833
-0.071384
-0.076674
-0.085780
-0.088807
-0.082980
-0.077269
-0.078454
-0.081828
-0.082187
-0.082506
-0.085494
-0.087088
-0.084576
-0.082179
-0.082699
-0.082063
-0.078229
-0.076556
-0.079139
-0.080318
-0.078675
-0.079640
-0.083658
-0.084551
-0.080926
-0.079311
-0.082770
-0.085136
-0.082587
-0.080929
-0.084294
-0.087352
-0.085346
-0.082033
-0.080784
-0.077706
-0.072552
-0.074092
-0.083548
-0.088475
-0.083328
-0.078952
-0.083613
-0.089730
-0.088657
-0.085336
-0.086761
-0.089314
-0.088430
-0.088352
-0.092782
-0.095734
-0.091251
-0.083995
-0.080977
-0.080517
-0.078440
-0.078065
-0.082691
-0.085717
-0.081970
-0.078613
-0.082118
-0.086428
-0.083529
-0.077108
-0.076833
-0.082338
-0.084487
-0.081653
-0.081023
-0.085227
-0.088895
-0.087550
-0.083942
-0.082566
-0.082629
-0.082842
-0.084435
-0.084977
-0.081456
-0.078639
-0.081767
-0.086195
-0.085366
-0.081396
-0.079509
-0.080062
-0.080525
-0.079571
-0.077639
-0.075540
-0.074160
-0.075740
-0.080511
-0.083330
-0.081121
-0.078862
-0.081457
-0.085694
-0.086528
-0.085885
-0.087698
-0.089851
-0.089005
-0.087087
-0.086201
-0.083964
-0.079439
-0.078149
-0.084762
-0.092708
-0.091388
-0.082854
-0.078023
-0.079412
-0.081130
-0.081630
-0.083145
-0.083942
-0.082680
-0.082102
-0.082513
-0.081535
-0.079920
-0.080481
-0.083276
-0.084511
-0.082595
-0.082798
-0.087971
-0.091568
-0.088957
-0.085434
-0.086019
-0.087358
-0.085229
-0.082286
-0.083141
-0.085882
-0.084905
-0.081013
-0.080337
-0.084648
-0.089803
-0.091947
-0.090913
-0.088101
-0.085878
-0.086533
-0.088106
-0.087362
-0.085194
-0.083942
-0.083657
-0.083259
-0.083291
-0.085007
-0.086316
-0.083258
-0.078183
-0.078242
-0.082065
-0.081398
-0.077478
-0.079726
-0.087947
-0.089665
-0.079561
-0.069721
-0.071601
-0.079927
-0.083418
-0.080853
-0.078031
-0.076895
-0.077277
-0.080883
-0.085220
-0.084005
-0.078504
-0.077338
-0.082049
-0.084617
-0.082059
-0.080872
-0.083671
-0.083573
-0.077392
-0.073418
-0.077955
-0.084735
-0.085321
-0.081242
-0.079553
-0.080581
-0.079151
-0.076524
-0.077968
-0.080938
-0.079760
-0.076828
-0.076708
-0.077411
-0.077274
-0.080773
-0.088052
-0.088310
-0.077583
-0.070820
-0.077282
-0.082771
-0.076354
-0.070071
-0.074807
-0.080993
-0.077005
-0.069390
-0.070025
-0.074678
-0.073301
-0.069851
-0.073005
-0.079274
-0.080648
-0.079051
-0.080171
-0.081608
-0.078290
-0.073181
-0.073159
-0.077514
-0.079861
-0.079118
-0.078663
-0.077897
-0.075659
-0.076008
-0.079360
-0.078793
-0.073367
-0.070986
-0.074454
-0.078049
-0.078146
-0.077286
-0.078048
-0.079663
-0.081692
-0.084797
-0.086305
-0.081954
-0.073475
-0.068729
-0.071839
-0.077457
-0.078977
-0.076812
-0.073892
-0.071252
-0.070449
-0.072673
-0.075399
-0.074247
-0.070522
-0.072466
-0.080938
-0.084091
-0.077364
-0.072828
-0.077947
-0.082344
-0.076912
-0.069523
-0.069472
-0.072948
-0.073758
-0.073360
-0.074410
-0.074869
-0.072950
-0.070907
-0.069988
-0.068692
-0.068274
-0.071160
-0.073671
-0.070220
-0.064073
-0.064196
-0.071071
-0.075934
-0.074857
-0.071942
-0.069657
-0.067254
-0.066492
-0.069107
-0.071187
-0.068492
-0.063990
-0.062780
-0.064455
-0.067262
-0.070959
-0.072814
-0.071302
-0.068663
-0.066362
-0.065920
-0.068669
-0.071857
-0.072279
-0.071220
-0.070820
-0.069975
-0.067801
-0.066831
-0.068610
-0.069703
-0.067505
-0.066160
-0.069530
-0.074058
-0.074901
-0.072552
-0.070740
-0.071144
-0.071048
-0.068653
-0.066158
-0.063920
-0.061846
-0.063545
-0.068755
-0.071725
-0.071127
-0.070293
-0.069302
-0.065910
-0.061572
-0.061964
-0.069439
-0.075124
-0.070093
-0.062626
-0.065862
-0.074566
-0.074303
-0.066427
-0.063355
-0.066568
-0.067812
-0.064513
-0.061477
-0.060828
-0.059998
-0.059869
-0.062712
-0.063943
-0.060069
-0.057035
-0.058720
-0.060121
-0.058185
-0.057152
-0.060577
-0.063965
-0.060734
-0.054911
-0.056559
-0.063496
-0.064760
-0.061234
-0.061005
-0.061470
-0.057988
-0.057464
-0.064504
-0.068696
-0.062874
-0.057400
-0.059787
-0.061364
-0.056636
-0.053254
-0.056466
-0.060755
-0.059920
-0.056862
-0.058993
-0.064569
-0.063894
-0.056873
-0.052663
-0.053887
-0.056829
-0.059616
-0.061948
-0.061907
-0.057774
-0.053210
-0.054239
-0.059818
-0.063454
-0.063717
-0.063027
-0.059750
-0.053935
-0.052620
-0.057830
-0.061649
-0.060667
-0.060135
-0.061536
-0.061000
-0.057710
-0.053868
-0.051467
-0.052154
-0.054959
-0.056279
-0.054990
-0.053882
-0.055222
-0.058134
-0.060247
-0.058947
-0.053675
-0.049393
-0.051810
-0.057355
-0.057716
-0.054293
-0.053617
-0.054241
-0.052758
-0.051687
-0.052368
-0.051227
-0.048276
-0.048701
-0.052190
-0.052626
-0.049366
-0.047772
-0.049909
-0.051969
-0.051174
-0.049732
-0.049329
-0.048377
-0.047083
-0.047717
-0.049285
-0.049818
-0.050904
-0.052949
-0.052225
-0.047522
-0.044638
-0.047793
-0.050670
-0.047307
-0.044254
-0.050332
-0.063925
-0.076717
-0.082112
-0.077080
-0.062822
-0.048901
-0.051409
-0.078090
-0.115534
-0.138388
-0.131989
-0.102770
-0.071952
-0.062008
-0.081363
-0.120845
-0.164193
-0.189617
-0.164313
-0.069853
0.050272
0.099487
0.017940
-0.136403
-0.216560
-0.131711
0.027658
0.065585
-0.087275
-0.284012
-0.338590
-0.218531
-0.042657
0.037656
-0.051116
-0.251523
-0.420404
-0.456836
-0.397341
-0.374078
-0.459917
-0.552360
-0.456776
-0.124577
0.238384
0.372704
0.260848
0.141270
0.205672
0.381388
0.479367
0.445458
0.362886
0.300326
0.269811
0.284725
0.364953
0.470430
0.471565
0.259358
-0.083111
-0.293808
-0.189301
0.098100
0.201487
-0.089247
-0.559795
-0.807114
-0.667206
-0.292020
0.060034
0.208055
0.180705
0.186803
0.320708
0.408677
0.279366
0.014532
-0.179735
-0.214421
-0.176938
-0.230215
-0.470537
-0.844104
-1.173374
-1.267059
-1.044846
-0.595678
-0.136901
0.096409
0.005700
-0.257759
-0.366562
-0.069825
0.579564
1.206583
1.328871
0.710726
-0.344954
-1.087219
-0.899897
0.077032
0.949218
0.838780
-0.233432
-1.328906
-1.578199
-1.031336
-0.404199
-0.238920
-0.493422
-0.780420
-0.866896
-0.912453
-1.169309
-1.542636
-1.630247
-1.189123
-0.437712
0.153472
0.342726
0.322279
0.412882
0.628904
0.676805
0.406057
0.067084
-0.046040
-0.038387
-0.243164
-0.700281
-1.053841
-0.978630
-0.591832
-0.393654
-0.716343
-1.184588
-0.969681
0.188989
1.492655
1.928623
1.402670
0.755519
0.739363
1.221070
1.492929
1.178730
0.601997
0.308898
0.417728
0.498273
0.023398
-1.075510
-2.245362
-2.775251
-2.519306
-2.036708
-1.924082
-2.173109
-2.313847
-2.017849
-1.326864
-0.406076
0.602368
1.448426
1.747546
1.248991
0.116315
-1.101066
-1.785354
-1.651178
-1.011370
-0.626127
-1.104132
-2.331790
-3.512081
-3.944561
-3.787297
-3.752905
-4.102474
-4.377652
-4.091679
-3.267197
-2.205882
-1.002093
0.402223
1.692903
2.157039
1.443986
0.180429
-0.247208
1.282720
4.291064
6.629314
6.511577
4.371403
2.299382
2.157674
4.279477
7.250179
8.872894
7.866766
4.870645
1.881073
0.663800
1.398756
2.636655
2.653220
1.071191
-0.879148
-1.829184
-1.632020
-1.100789
-1.153011
-2.567066
-5.728731
-9.882377
-12.885678
-12.447936
-8.350679
-3.498344
-1.673826
-3.474519
-5.351348
-3.615470
1.322935
5.714865
6.798064
5.192314
3.465679
3.504455
5.164268
6.618512
5.944461
2.888770
-0.800611
-2.933392
-2.835546
-1.870566
-1.959802
-3.555522
-5.263991
-5.279708
-3.098036
-0.325743
0.363645
-2.071701
-5.604762
-7.339004
-6.786540
-5.754651
-5.393299
-5.031211
-4.041316
-3.360982
-4.439295
-7.107972
-8.927729
-6.928001
-0.301053
8.433537
14.776098
15.246066
10.493713
5.694732
6.171258
11.917852
17.455433
17.658234
13.353187
10.135068
11.406119
14.480944
14.583909
11.044793
8.238271
10.363314
15.810757
18.179461
13.296885
3.780466
-3.473691
-3.296284
3.427459
10.025581
9.284442
0.122929
-10.774053
-14.963688
-9.567546
1.460843
10.842305
12.043269
3.674966
-7.711560
-11.537687
-2.623440
13.199746
24.088591
23.217062
13.970499
4.970943
2.434810
6.742494
13.635907
18.173319
18.200811
14.693217
10.502644
9.314703
13.402295
21.182869
28.490871
32.331711
32.317249
29.626656
25.859507
21.780050
16.790680
11.117118
7.908134
10.058887
14.489350
13.495711
4.010259
-7.239312
-10.374836
-3.619183
4.080018
3.045200
-5.950919
-12.990852
-10.617425
-0.811265
8.820934
11.713024
6.779985
-0.051359
-1.075459
4.776648
11.095510
11.557413
7.078430
4.551026
7.514756
11.268814
10.165709
5.245483
1.978567
5.126380
16.059168
29.953226
36.516129
28.609253
11.224169
-0.810331
3.381247
19.413534
32.097401
31.503004
22.543650
17.717419
23.138454
34.120743
42.267975
43.939903
42.132713
41.195038
40.763092
36.606770
26.527939
13.097699
1.333913
-4.530218
-1.845854
10.303376
26.947165
34.409630
21.501949
-3.740970
-18.862444
-11.535449
9.851024
29.681870
38.489517
34.063438
21.718117
14.833631
24.192375
44.343716
58.396233
56.927689
45.260059
33.704494
28.104740
27.148939
23.871222
15.158326
9.764008
16.668089
27.121378
21.510866
-3.782307
-28.458412
-32.569660
-18.171520
-2.685032
-1.092964
-14.695786
-29.758764
-31.144299
-17.667850
1.692514
18.882612
27.630323
24.505486
15.432146
11.289890
15.192760
24.389055
38.756165
53.523529
54.127995
33.701061
7.454184
-2.507181
6.728497
17.592422
16.066906
4.594317
-9.122948
-19.764135
-20.971802
-10.380626
4.482101
16.593788
26.822414
33.044506
26.367374
6.281798
-11.932018
-11.872003
5.219801
21.237457
22.504562
13.294438
4.421349
-1.608114
-9.265945
-21.144489
-32.934944
-35.891151
-27.963642
-21.553446
-28.871561
-39.173908
-30.577080
-4.971867
15.632463
24.075100
30.148094
34.147118
27.147053
14.290397
12.827136
27.214628
44.623055
53.112858
49.508327
33.580589
8.502986
-15.282135
-26.134727
-22.400534
-15.430683
-16.249216
-19.409885
-12.345332
1.224105
5.692098
0.564553
3.591158
22.258659
39.199238
36.488724
20.653215
11.096102
15.329968
27.011517
38.191704
43.053223
37.562622
25.105511
16.910194
19.554449
26.726889
27.764570
19.031082
4.014282
-10.906050
-18.393766
-16.061045
-12.557166
-20.585958
-42.112026
-64.823677
-72.093925
-53.767242
-14.477603
24.593136
40.848972
30.282021
9.777949
2.762148
21.608847
57.176231
86.267242
92.605385
76.749580
48.043919
17.827190
-0.756196
0.522346
14.963688
25.026539
16.751165
-12.576702
-54.044895
-90.596519
-108.323090
-107.876175
-100.756897
-96.230019
-97.416092
-103.567101
-109.446800
-111.512672
-115.567589
-125.715378
-129.905090
-110.408920
-67.040855
-21.470144
-0.863081
-21.319937
-71.361931
-105.323463
-86.016144
-36.237083
-8.402530
-17.447401
-38.759563
-49.099079
-45.407494
-34.839516
-18.579502
6.751061
33.593189
45.399509
39.315971
34.310318
48.113762
75.643715
100.313263
115.031677
122.090050
123.497025
116.840866
98.960739
77.180252
64.997467
59.181385
44.342655
20.867373
-0.497810
-22.741455
-53.735840
-85.268112
-103.558388
-110.832008
-117.068504
-121.019676
-118.181038
-115.597633
-124.510345
-146.551254
-170.137833
-177.554321
-162.079132
-137.498260
-124.312164
-130.786316
-149.018402
-166.309784
-180.320618
-195.849380
-209.395386
-215.262390
-220.192596
-230.458527
-236.281708
-229.915741
-222.117844
-221.006485
-216.174240
-199.760483
-180.872360
-169.956116
-166.361816
-163.035355
-152.566040
-131.941864
-108.183243
-94.178970
-94.335670
-99.472382
-99.244957
-94.180557
-91.430283
-94.892136
-104.625549
-119.078964
-133.938171
-144.425690
-148.743973
-147.825958
-148.014130
-162.838913
-198.763657
-236.232986
-241.868301
-208.219330
-165.172852
-143.586960
-143.787369
-148.180435
-149.943954
-154.306107
-159.206085
-152.970367
-130.247208
-96.608963
-57.208305
-11.095476
42.351559
98.135376
148.193146
186.880554
212.354630
226.796219
240.260178
265.296478
301.000031
332.927002
351.151001
356.951843
353.880707
344.020721
331.629486
323.101990
322.870697
331.696655
347.255005
362.640564
368.387054
360.476349
342.434509
319.708466
296.565125
277.468414
267.446198
269.028137
279.786407
295.891235
315.936340
335.613800
344.110626
331.936279
297.788971
248.765427
197.929077
158.045456
134.816422
126.528450
128.451904
135.152451
139.182312
131.804535
107.850571
69.314796
27.881939
1.576972
-3.229265
0.084493
-1.447920
-6.546295
-9.772368
-8.851158
-1.182762
15.456630
36.797546
53.645653
62.212097
66.025261
67.419235
65.854218
61.378571
49.677177
19.724222
-31.586283
-88.992859
-135.235291
-169.613449
-197.895004
-212.997421
-200.149979
-159.723801
-114.711082
-92.376862
-103.468719
-138.363754
-178.706619
-212.215927
-234.649826
-243.872772
-243.259399
-245.854431
-263.552124
-292.381134
-315.111694
-321.187836
-320.560547
-328.425873
-337.171082
-321.035431
-268.038544
-191.416428
-114.949608
-56.645344
-22.174595
-7.037563
-0.258714
10.260529
28.367418
47.405441
60.439133
69.104027
80.531883
98.041618
116.212166
123.826904
112.372047
86.431244
64.700432
63.572170
79.807091
93.751328
88.304901
62.867695
31.092308
7.147075
-5.943017
-14.727844
-24.107632
-32.261478
-37.146614
-41.405613
-47.530499
-53.394100
-55.639530
-52.222401
-39.029148
-10.517515
31.528559
73.678291
100.250145
106.579735
99.923347
88.020699
71.367577
48.712818
25.832436
12.256456
9.453936
9.654074
7.418992
4.721478
4.622366
7.494513
12.526199
18.142370
22.746889
25.747166
25.275110
17.638203
2.586615
-14.422527
-27.481787
-34.331631
-35.267174
-31.623533
-25.849422
-20.613667
-15.903615
-7.732041
7.955277
29.924387
52.364117
70.326309
81.769226
85.833328
82.545067
73.669846
62.435272
52.518543
46.343243
43.446880
40.754349
34.457497
22.378660
6.291909
-6.168012
-3.187316
18.984295
46.393288
63.860275
71.776764
73.953438
67.456665
49.980076
24.859287
-0.515007
-22.897602
-49.018421
-84.275734
-119.434242
-137.944305
-134.947220
-122.880821
-118.205391
-127.193588
-145.072586
-163.261444
-174.505386
-175.181641
-166.407532
-152.576706
-138.377579
-127.042587
-120.563782
-120.401543
-126.463074
-135.662964
-143.244019
-145.779846
-142.716995
-135.805222
-127.255356
-118.080437
-107.194092
-91.259941
-68.922081
-45.579273
-27.463112
-12.759293
5.181767
28.643639
53.135048
72.800804
86.561806
98.601234
113.385063
131.110886
148.356186
161.807648
169.861526
171.653381
166.899872
156.615860
143.178085
131.460327
129.576508
142.550537
163.199951
177.080902
177.290222
166.376083
148.334183
127.358673
109.172997
95.744347
82.060486
64.522263
47.902630
38.994003
38.987202
44.539162
50.976028
53.735683
50.133221
39.527534
22.072779
-0.641928
-24.127365
-41.636780
-47.943138
-43.735085
-35.770008
-31.156900
-30.980406
-30.289925
-23.802988
-10.694419
5.310196
19.420725
28.908689
32.696297
29.319872
17.735073
0.282741
-17.486431
-31.118128
-40.157070
-46.036213
-49.020069
-48.755844
-45.583920
-39.664150
-31.270130
-22.867489
-18.061529
-17.571131
-18.545755
-18.539097
-17.803053
-16.730064
-13.514236
-6.310833
3.300761
10.880629
13.214304
10.633618
5.625167
0.779220
-2.015126
-2.242260
-1.104680
-0.065199
0.754913
2.023702
3.797920
5.098733
4.824685
3.448007
2.892310
3.682599
3.508371
-0.229563
-7.318077
-14.895849
-20.124086
-21.739582
-19.478092
-14.070064
-8.014886
-4.234676
-3.683393
-5.653544
-9.713067
-15.410607
-20.699045
-23.542528
-25.200373
-28.616684
-33.664463
-37.449390
-38.715294
-38.740543
-38.217213
-35.715256
-29.730577
-20.849003
-11.077321
-1.941112
5.964781
12.733075
19.633371
28.203346
37.136375
42.137005
40.704338
34.980671
28.819681
24.196777
21.096756
18.785238
16.351751
13.430915
10.696577
8.317017
4.110463
-4.817508
-18.311937
-32.470730
-42.654301
-46.558563
-45.385155
-42.885860
-42.311382
-43.820320
-45.601215
-46.670933
-47.013741
-45.589779
-39.827923
-27.928059
-11.382847
5.601146
18.793627
25.428246
25.160820
21.958263
23.174770
33.642971
50.723965
66.615479
75.522568
77.534012
75.984024
73.357605
70.550644
68.192009
67.010315
67.105522
67.525909
66.757988
63.697300
58.436943
52.279217
46.703636
42.432034
39.756611
39.124828
40.535912
42.380753
42.098949
38.977154
35.055038
32.200912
29.974346
27.229156
24.031204
21.530462
21.094616
22.875013
24.420776
22.508656
17.372042
13.007858
12.302155
14.058492
15.312092
14.170744
10.366151
5.326293
1.633468
0.841231
2.249350
4.401609
6.254077
6.319511
2.845400
-3.925874
-11.238560
-16.512735
-19.370535
-20.510408
-19.957123
-17.341240
-12.947093
-8.157705
-4.685592
-2.023118
2.450396
9.206122
14.807821
15.435332
11.495507
6.830084
3.152512
-1.204886
-7.200381
-13.162965
-17.293301
-19.727463
-21.145264
-21.524126
-21.457352
-22.727385
-26.221893
-30.567505
-33.843391
-35.622726
-36.820126
-38.394901
-40.343914
-41.214638
-38.709820
-31.613474
-20.871433
-8.575540
2.971662
11.567368
16.464115
19.212818
21.483892
22.952955
22.987564
22.410700
21.922901
20.901947
18.944555
17.135317
16.991047
18.878653
21.540026
22.748688
21.128023
17.498665
13.825558
11.295981
9.863638
8.619458
5.680854
-1.263921
-12.642517
-25.011942
-32.727760
-32.942753
-28.474144
-24.671673
-24.215689
-25.755264
-26.337231
-24.163589
-19.843790
-15.537839
-12.572836
-10.444121
-8.669292
-8.191053
-9.398292
-9.649265
-5.188051
3.742396
12.000814
15.226682
14.430909
13.620963
14.885923
17.637129
21.271971
25.876850
30.047501
30.483915
25.342648
