EVENT_NAME: CENTRAL_ITALY
EVENT_ID: EMSC-20160824_0000006
EVENT_DATE_YYYYMMDD: 20160824
EVENT_TIME_HHMMSS: 013632
EVENT_LATITUDE_DEGREE: 42.6983
EVENT_LONGITUDE_DEGREE: 13.2335
EVENT_DEPTH_KM: 8.1
HYPOCENTER_REFERENCE: INGV-CNT_Seismic_Bulletin
MAGNITUDE_W: 6.0
MAGNITUDE_W_REFERENCE: INGV-webservice
MAGNITUDE_L: 
MAGNITUDE_L_REFERENCE: 
FOCAL_MECHANISM: Normal faulting
NETWORK: IT
STATION_CODE: AMT
STATION_NAME: AMATRICE
STATION_LATITUDE_DEGREE: 42.632460
STATION_LONGITUDE_DEGREE: 13.286176
STATION_ELEVATION_M: 950
LOCATION: 
SENSOR_DEPTH_M: 0.0
VS30_M/S: 670
SITE_CLASSIFICATION_EC8: B
MORPHOLOGIC_CLASSIFICATION: 
EPICENTRAL_DISTANCE_KM: 8.5
EARTHQUAKE_BACKAZIMUTH_DEGREE: 149.2
DATE_TIME_FIRST_SAMPLE_YYYYMMDD_HHMMSS: 20160824_013629.104
DATE_TIME_FIRST_SAMPLE_PRECISION: milliseconds
SAMPLING_INTERVAL_S: 0.005000
NDATA: 5579
DURATION_S: 27.895
STREAM: HGZ
UNITS: cm/s^2
INSTRUMENT: sensor = Unknown [Unknown] | digitizer = Unknown [Unknown]
INSTRUMENT_ANALOG/DIGITAL: D
INSTRUMENTAL_FREQUENCY_HZ: 
INSTRUMENTAL_DAMPING: 
FULL_SCALE_G: 
N_BIT_DIGITAL_CONVERTER: 
PGA_CM/S^2: 391.367859
TIME_PGA_S: 8.965000
BASELINE_CORRECTION: BASELINE REMOVED
FILTER_TYPE: BUTTERWORTH
FILTER_ORDER: 2
LOW_CUT_FREQUENCY_HZ: 0.060
HIGH_CUT_FREQUENCY_HZ: 40.000
LATE/NORMAL_TRIGGERED: NT
DATABASE_VERSION: 0.5
HEADER_FORMAT: DYNA 1.2
DATA_TYPE: ACCELERATION
PROCESSING: manual (Paolucci et al., 2011)
DATA_TIMESTAMP_YYYYMMDD_HHMMSS: 20201211_094900.320
DATA_LICENSE: CC-BY3_0-IT (http://creativecommons.org/licenses/by/3.0/deed.en)
DATA_CITATION: Luzi L, Puglia R, Russo E & ORFEUS WG5 (2016). Engineering Strong Motion Database. Istituto Nazionale di Geofisica e Vulcanologia, Observatories & Research Facilities for European Seismology. doi: 10.13127/ESM
DATA_CREATOR: ESM working group
ORIGINAL_DATA_MEDIATOR_CITATION: Ufficio Rischio Sismico e Vulcanico del Dipartimento della Protezione Civile (http://www.protezionecivile.gov.it/)
ORIGINAL_DATA_MEDIATOR: Rete Accelerometrica Nazionale - RAN Download (http://www.mot1.it/randownload/)
ORIGINAL_DATA_CREATOR_CITATION: Presidency Of Counsil Of Ministers-Civil Protection Department. (1972). Italian Strong Motion Network. Presidency of Counsil of Ministers - Civil Protection Department. https://doi.org/10.7914/SN/IT http://www.fdsn.org/networks/detail/IT/
ORIGINAL_DATA_CREATOR: network: IT (Italian Strong Motion Network (RAN)); owner: Presidency of Counsil of Ministers - Civil Protection Department (PCM - DPC)
USER1: 
USER2: 
USER3: 
USER4: 
USER5: 
[...]
0.089211
0.086317
0.093671
0.102580
0.103277
0.099155
0.099198
0.101587
0.099512
0.096263
0.097594
0.099370
0.097255
0.095206
0.095796
0.095898
0.094519
0.095332
0.099144
0.101034
0.100493
0.103372
0.108885
0.109121
0.103211
0.099072
0.099432
0.097922
0.093146
0.092887
0.098788
0.102058
0.099359
0.097870
0.100682
0.101788
0.099220
0.099176
0.103388
0.105264
0.101744
0.098611
0.099320
0.098178
0.094278
0.096854
0.105526
0.107894
0.102354
0.100692
0.107008
0.111334
0.106538
0.098684
0.096615
0.100635
0.104969
0.105790
0.103644
0.100180
0.096994
0.096776
0.098923
0.098088
0.093747
0.091971
0.094754
0.097891
0.098917
0.100380
0.104629
0.108253
0.106534
0.102018
0.100732
0.102799
0.104642
0.104416
0.101717
0.098768
0.098950
0.101200
0.101861
0.100228
0.099341
0.102573
0.107864
0.108316
0.102269
0.097604
0.100128
0.103756
0.101386
0.097606
0.099296
0.103126
0.104003
0.105226
0.109604
0.112482
0.111377
0.110071
0.110121
0.108987
0.106028
0.103962
0.103631
0.101602
0.097395
0.096223
0.099740
0.102505
0.100951
0.099543
0.103366
0.108105
0.106087
0.100432
0.100257
0.105336
0.109352
0.110914
0.111181
0.108986
0.105316
0.105609
0.111209
0.115290
0.113052
0.108941
0.108048
0.108163
0.106602
0.106528
0.110278
0.113188
0.111000
0.108351
0.110379
0.112185
0.108316
0.103567
0.103784
0.106146
0.105869
0.104328
0.104428
0.104620
0.103793
0.104786
0.107884
0.108403
0.105257
0.104206
0.107645
0.110370
0.109815
0.109867
0.111902
0.112596
0.111038
0.110451
0.112216
0.111787
0.106406
0.103010
0.107249
0.111972
0.109305
0.104767
0.106013
0.109121
0.108960
0.108700
0.110824
0.111826
0.109428
0.107655
0.109703
0.111208
0.109424
0.109210
0.112314
0.113394
0.110109
0.107719
0.110005
0.111703
0.107809
0.103639
0.105299
0.108402
0.106983
0.104569
0.105534
0.105866
0.102709
0.101725
0.105840
0.108493
0.106227
0.104384
0.105257
0.105109
0.104162
0.107088
0.112568
0.112783
0.106116
0.101020
0.103858
0.110166
0.111861
0.108667
0.106356
0.106543
0.106596
0.106490
0.107480
0.108176
0.107777
0.108786
0.111925
0.113064
0.110335
0.107980
0.108834
0.110006
0.108475
0.106222
0.106183
0.106472
0.105581
0.107212
0.112446
0.115626
0.113618
0.110943
0.110898
0.110098
0.107327
0.107939
0.113305
0.116030
0.111473
0.105635
0.105463
0.107236
0.104685
0.102703
0.108056
0.115477
0.117158
0.115250
0.115275
0.115768
0.112905
0.109470
0.109595
0.111397
0.111885
0.111271
0.110613
0.110882
0.113156
0.117356
0.120458
0.117762
0.110484
0.106529
0.107771
0.107595
0.104981
0.106583
0.112428
0.114927
0.112638
0.111189
0.112493
0.112444
0.109177
0.107714
0.111470
0.115637
0.115645
0.113898
0.113399
0.112622
0.110308
0.109104
0.109435
0.106984
0.102636
0.103682
0.110600
0.114838
0.111747
0.107190
0.107580
0.110139
0.109955
0.108661
0.109643
0.111795
0.112935
0.114830
0.118918
0.120381
0.115466
0.110601
0.112330
0.115530
0.113994
0.111491
0.112195
0.112327
0.109277
0.108322
0.112804
0.116461
0.114538
0.112985
0.115502
0.116184
0.113028
0.110960
0.111854
0.113273
0.112945
0.111240
0.109466
0.107714
0.107414
0.111279
0.118239
0.123023
0.122172
0.117464
0.112742
0.109853
0.109131
0.111802
0.116808
0.118250
0.114339
0.112619
0.117516
0.120737
0.114250
0.106459
0.110621
0.121231
0.120594
0.108760
0.106388
0.118419
0.122652
0.112128
0.107971
0.116577
0.120409
0.112339
0.104127
0.106571
0.117355
0.125859
0.125844
0.120131
0.113801
0.109791
0.108925
0.108350
0.106745
0.109240
0.116266
0.118979
0.114395
0.110206
0.110876
0.111791
0.109887
0.109606
0.113765
0.117161
0.114840
0.110531
0.110197
0.111922
0.110606
0.106492
0.102525
0.100563
0.101418
0.104799
0.108987
0.111322
0.111619
0.112374
0.113880
0.114153
0.113699
0.115304
0.118267
0.118747
0.116299
0.114288
0.114693
0.115550
0.114986
0.115878
0.119281
0.118436
0.110490
0.104870
0.108953
0.114976
0.112887
0.107630
0.109019
0.114988
0.118523
0.119221
0.119688
0.119752
0.118687
0.117114
0.114944
0.111293
0.107227
0.107483
0.113845
0.118016
0.113626
0.109197
0.113289
0.117965
0.114345
0.109413
0.110549
0.113200
0.114323
0.116104
0.116134
0.111698
0.107499
0.110051
0.118508
0.123148
0.117807
0.110631
0.110892
0.115082
0.116731
0.116897
0.118657
0.120672
0.120183
0.118210
0.117527
0.118011
0.118706
0.120269
0.121306
0.118244
0.112052
0.108956
0.111371
0.113966
0.112040
0.108075
0.107003
0.109557
0.112638
0.114650
0.116189
0.115593
0.112417
0.111480
0.113661
0.112467
0.107173
0.106139
0.110688
0.111428
0.106836
0.106073
0.110356
0.111292
0.107203
0.106442
0.111913
0.114810
0.110914
0.107279
0.108332
0.110462
0.110644
0.111444
0.115034
0.117603
0.116706
0.117409
0.121286
0.121071
0.115582
0.113376
0.116813
0.118347
0.113973
0.109107
0.108454
0.109331
0.108206
0.105879
0.106003
0.109326
0.110119
0.105919
0.102872
0.104015
0.106360
0.109514
0.113364
0.113182
0.107629
0.103454
0.104848
0.107698
0.108052
0.108031
0.110994
0.114319
0.113213
0.109708
0.108635
0.109345
0.108491
0.106441
0.106089
0.106898
0.105998
0.104961
0.107281
0.110519
0.110977
0.110968
0.111728
0.109298
0.104586
0.103802
0.106000
0.105649
0.104430
0.106501
0.109897
0.110092
0.107326
0.107190
0.110574
0.111195
0.107855
0.105645
0.106486
0.108453
0.110137
0.110916
0.108893
0.103880
0.100451
0.100874
0.101379
0.101061
0.103052
0.105775
0.104945
0.100723
0.097543
0.100475
0.108094
0.111156
0.106567
0.103428
0.107305
0.110852
0.106883
0.100165
0.099223
0.103143
0.105077
0.104598
0.104897
0.103838
0.100508
0.099424
0.100857
0.100703
0.099594
0.101476
0.105622
0.106666
0.103164
0.100443
0.101732
0.103208
0.102285
0.102785
0.106611
0.108852
0.106842
0.105178
0.105598
0.104328
0.105530
0.120022
0.145893
0.166110
0.166321
0.147292
0.125221
0.122771
0.153443
0.210265
0.263667
0.275302
0.231311
0.158007
0.096532
0.076425
0.112868
0.198486
0.275561
0.240861
0.038011
-0.235907
-0.368309
-0.226176
0.088031
0.308808
0.274840
0.118994
0.132431
0.428081
0.801013
0.937480
0.711409
0.271772
-0.095962
-0.171469
0.061423
0.412203
0.650851
0.720130
0.761715
0.899069
1.014074
0.810689
0.144940
-0.752391
-1.454531
-1.739473
-1.729727
-1.616102
-1.397029
-0.994165
-0.472083
0.010765
0.376946
0.630256
0.734243
0.608680
0.286590
0.008241
0.036832
0.336371
0.517641
0.205997
-0.515402
-1.107795
-1.114095
-0.622101
-0.070144
0.278360
0.494024
0.749971
1.084950
1.318816
1.199658
0.741116
0.312514
0.235212
0.394789
0.410438
0.105654
-0.310647
-0.467178
-0.160169
0.481215
1.100138
1.389105
1.260332
0.789521
0.158478
-0.290418
-0.170105
0.542487
1.257481
1.151601
-0.058729
-1.702635
-2.570780
-1.902653
-0.136772
1.315841
1.235412
-0.261723
-1.686531
-1.438027
0.707840
3.371148
4.853489
4.513862
2.937200
1.135487
-0.215021
-0.935509
-1.057387
-0.626764
0.130298
0.668906
0.461239
-0.470423
-1.487385
-1.887238
-1.556854
-1.041747
-0.879259
-0.927582
-0.544517
0.578439
1.992074
2.969229
3.161063
2.614051
1.389922
-0.477048
-2.598092
-4.037067
-3.859383
-2.177369
-0.536885
-0.729525
-2.914912
-5.198510
-5.391361
-3.107318
0.040254
2.159711
2.739502
2.674687
2.969597
3.626942
3.841841
3.119359
1.904875
1.044790
0.866452
0.937673
0.650786
-0.062886
-0.680665
-0.759748
-0.468161
-0.255620
-0.180975
0.080033
0.586973
0.877427
0.591027
0.188215
0.722648
2.778282
5.716306
8.025985
8.439090
6.818765
4.113067
1.508194
-0.382477
-1.521940
-1.788638
-0.705890
1.860581
4.987829
7.161343
7.499645
6.191463
3.689703
0.031212
-4.552558
-8.671756
-10.142855
-7.662524
-2.329366
2.355449
2.676013
-2.131990
-8.955124
-13.521995
-13.919059
-11.450961
-8.777669
-7.693635
-8.245359
-9.165883
-8.981616
-7.156930
-4.443243
-2.037577
-0.339039
1.459541
4.490333
8.844459
13.194635
15.819918
15.723403
12.907606
8.522630
5.119731
5.596379
10.516694
16.349358
17.407988
10.922818
0.494165
-6.689546
-6.866145
-3.239667
-1.879643
-4.927890
-9.054826
-10.110530
-7.683204
-4.694434
-3.564334
-3.653740
-2.359238
1.846727
7.609541
11.577660
11.126805
6.794279
2.157576
0.898183
3.917022
9.189952
13.668682
15.274467
14.245669
12.930627
13.219212
14.189111
13.560329
11.025800
8.358560
6.321797
3.248792
-2.448761
-9.193626
-12.920601
-11.239894
-6.537679
-4.413378
-8.733419
-18.145939
-27.261616
-31.218737
-29.873598
-28.006556
-30.491945
-36.597485
-40.050591
-35.828342
-26.161816
-17.955921
-14.129490
-10.140008
-0.757546
11.754736
18.674896
14.001407
1.610837
-7.410843
-4.832306
7.441521
19.536142
21.997786
12.936250
-0.575097
-7.632313
-2.445375
10.239833
19.084284
15.535676
-0.003862
-18.381618
-26.736452
-16.842779
7.260103
29.794226
34.332977
17.018623
-10.471522
-31.325035
-37.074680
-31.894461
-25.747749
-24.758125
-27.895832
-30.671387
-29.836121
-24.995956
-17.759340
-10.303700
-4.560971
-2.529473
-6.163884
-14.843567
-23.286757
-25.035646
-18.933109
-9.992248
-3.595274
-1.259379
-1.866858
-3.007996
0.183850
13.048024
34.154198
51.138210
48.570908
23.920290
-6.106178
-20.202940
-13.924078
-2.465820
-2.012793
-13.472584
-24.918110
-24.418703
-9.864383
9.139548
18.349079
10.889458
-7.001731
-23.020927
-30.528242
-31.329947
-27.897015
-17.536041
3.257992
31.214350
54.794956
59.777760
39.068188
1.071055
-32.939674
-44.554729
-33.722778
-18.117207
-16.024244
-29.087286
-42.089359
-40.401077
-26.248970
-14.927367
-16.294964
-24.791986
-28.406307
-23.574802
-17.695932
-17.573435
-20.538956
-18.842396
-8.036839
10.838896
33.029610
50.094433
49.580170
22.404297
-22.954720
-58.435177
-58.991367
-28.543089
3.703194
12.988956
-2.091267
-27.548309
-48.079487
-52.528702
-39.827763
-24.581152
-25.702848
-44.261349
-59.051601
-47.177971
-6.262138
43.553925
77.398003
86.765839
82.899872
76.777451
63.509304
37.580814
14.236383
15.713207
37.491928
47.671616
23.745432
-23.145258
-60.600063
-63.609333
-35.427464
-3.232077
9.063263
-0.652241
-20.593058
-39.865398
-50.860382
-47.997692
-32.067562
-9.992594
9.623392
16.069384
2.227793
-22.612576
-37.584698
-33.775421
-24.367645
-25.335135
-31.977697
-25.989357
-3.212172
21.564379
36.517212
43.589714
49.538120
58.033085
64.847176
55.382572
21.081692
-16.560623
-17.315706
31.679094
94.815315
125.449539
114.629272
88.564186
67.544090
46.896023
16.835581
-13.355711
-18.067350
15.262970
62.806301
82.938210
63.501266
36.387688
32.176197
38.052174
24.470963
-6.837365
-32.929825
-49.255680
-66.345245
-78.120056
-64.542389
-25.210611
12.757714
23.540718
7.023074
-12.566143
-5.347397
38.910061
99.089233
139.943878
141.666565
114.505836
83.349243
55.395493
14.333576
-47.979946
-110.196678
-142.694885
-142.350266
-132.329681
-125.988998
-109.375168
-68.277100
-13.867483
30.987020
57.605934
73.159714
87.184616
105.709236
127.621239
138.484619
121.110306
79.207413
38.184055
19.472385
24.085579
38.539379
44.182915
24.417362
-19.809875
-57.906994
-47.584084
25.293266
128.304428
203.504410
205.504654
132.079910
26.754459
-53.277187
-74.772964
-42.806141
6.522721
29.710302
7.496814
-44.557175
-96.571526
-123.483589
-106.737137
-41.789810
46.006351
109.029907
113.297768
66.136314
7.438760
-26.653856
-31.942112
-30.045275
-40.859173
-66.155724
-95.915154
-120.737976
-137.061813
-148.416534
-159.178680
-159.035995
-122.593155
-39.108776
58.430073
106.399872
63.678242
-46.645737
-147.434494
-160.496521
-75.008186
27.360729
50.955784
-10.684756
-85.368263
-112.868134
-88.267639
-39.373047
4.594487
23.355303
5.138213
-45.067520
-96.038895
-106.227509
-60.919521
10.844071
63.625504
75.576111
56.370686
26.460152
-0.822885
-19.976477
-23.156746
-2.851291
29.129032
48.951595
51.656349
45.037384
22.495363
-24.012112
-78.985916
-119.448166
-142.318207
-156.094604
-161.104797
-157.460815
-157.225922
-170.339554
-186.533890
-179.606857
-130.831284
-52.847942
13.675416
34.589455
9.611450
-35.063869
-74.090996
-102.206055
-127.463997
-150.343826
-161.833420
-156.692657
-131.219421
-78.825371
-10.361441
34.738083
24.320185
-30.412642
-93.703804
-143.645569
-177.894104
-197.753357
-199.980637
-181.397125
-147.761398
-114.772049
-97.166084
-98.295044
-110.773781
-124.593834
-134.345337
-139.545731
-140.742111
-138.868073
-136.696991
-138.332520
-146.785553
-159.974731
-170.847061
-175.278519
-174.302719
-163.292252
-128.509583
-64.695496
8.943165
60.457546
73.696594
60.071659
42.561089
35.548862
41.774639
57.236053
71.986588
75.926102
68.352341
55.023010
38.633381
17.147306
-12.808419
-51.420578
-90.056587
-109.586739
-88.835182
-21.950706
70.972954
157.753937
220.093964
259.455017
282.330292
293.100098
300.334167
316.133575
343.966522
373.784302
391.367859
388.027252
361.501770
314.447968
255.163895
194.943771
142.549667
102.318718
74.675301
59.265301
61.291206
88.539413
136.854965
185.956604
217.066879
231.629547
244.431686
259.712677
264.690582
247.424240
211.153442
168.932938
132.863220
109.349541
94.953148
76.658295
46.008945
12.952690
-2.856089
6.720097
29.396082
42.442974
35.394012
18.253984
0.273534
-21.594000
-46.954857
-64.888649
-67.978874
-61.971436
-56.116734
-50.947800
-42.037037
-27.558903
-3.485320
39.790920
102.875107
162.758972
185.068497
152.071075
75.396759
-14.176827
-87.570389
-128.742096
-129.804535
-93.192345
-43.622223
-18.292599
-35.338867
-78.423325
-114.426163
-120.016357
-90.326401
-33.951237
30.167517
77.486099
92.865829
81.803680
61.950390
47.426186
44.404282
55.617256
80.191368
107.123085
117.701401
100.276115
58.607433
5.822017
-43.773300
-77.592041
-86.488899
-69.736130
-41.007965
-23.415024
-30.017031
-52.350254
-72.330284
-78.640480
-70.253662
-54.574963
-43.894127
-42.312565
-35.347130
-3.884698
51.447708
107.316269
138.307129
137.136581
114.352745
82.450500
46.309834
7.661460
-28.701445
-57.090389
-75.835678
-85.155281
-83.755241
-74.210068
-67.308907
-72.368355
-85.459755
-93.683846
-89.178223
-75.539116
-62.350262
-54.219719
-46.405918
-34.101635
-20.621883
-9.421680
5.174401
29.168571
54.822968
66.443146
59.768082
45.580013
34.950916
31.309126
35.213284
46.496483
61.236198
72.682625
77.985291
83.107933
96.521606
116.621475
132.081161
135.709961
130.502655
123.206818
119.332993
123.468430
139.048447
165.443405
194.683640
213.014221
209.176758
181.043030
133.527588
73.405426
7.070780
-60.502495
-125.556282
-182.891495
-225.446945
-248.551971
-253.200958
-243.787308
-222.757324
-186.917343
-130.592072
-58.367695
8.306476
48.269604
60.153152
54.492352
36.156544
9.030216
-11.453422
-9.861658
8.093368
21.077087
17.502747
5.473658
0.231058
9.384147
28.140469
43.992825
46.228661
32.368866
7.306190
-21.236282
-46.384346
-63.869297
-72.398003
-73.422371
-70.661011
-68.640373
-70.510117
-76.819077
-84.990089
-88.925133
-81.276703
-58.956505
-26.365377
7.677803
35.342236
52.270817
57.633873
54.865829
51.531979
53.108597
56.089920
52.654953
40.585583
23.051523
1.933829
-23.216064
-51.073215
-78.065453
-103.033173
-128.484207
-155.197311
-178.226440
-190.393646
-188.520950
-174.331604
-149.655319
-111.728996
-54.679695
21.228844
101.995560
164.831680
192.397949
183.385986
151.565842
117.357086
97.788361
96.305206
101.108498
98.039932
83.829750
65.952698
53.471230
49.427666
51.039349
54.905167
59.152943
60.719330
53.575657
33.361641
4.534865
-19.935251
-27.554996
-15.356241
7.890224
27.158663
30.932816
18.281830
-2.568054
-21.747066
-33.793034
-38.458748
-37.745583
-32.937160
-24.432957
-13.474343
-2.711782
5.964386
13.757836
23.164455
33.656937
41.057529
40.956512
31.456144
14.542995
-3.264282
-14.044945
-14.745905
-9.408492
-4.684404
-4.885714
-11.048494
-21.403692
-31.685307
-37.549965
-38.236401
-36.974709
-37.359642
-40.300854
-44.883640
-50.593090
-57.281872
-64.132179
-70.315758
-75.874435
-80.396111
-81.476730
-75.937820
-62.543430
-43.127636
-21.052446
1.537859
24.686140
48.930573
73.753731
97.832535
119.158722
134.191467
138.560837
130.408432
112.591446
90.371696
67.594299
45.681919
24.538086
3.216426
-19.033806
-41.039646
-59.584171
-72.347351
-80.383514
-86.431007
-91.775345
-95.679634
-96.540901
-92.530914
-81.949226
-64.670944
-43.724304
-24.163824
-10.160502
-4.103902
-7.100219
-17.452585
-28.940977
-33.927101
-29.448427
-18.802883
-7.276122
2.188177
9.700243
16.432537
22.310610
25.940861
27.439533
30.752542
40.989571
57.900848
73.039024
75.429932
60.588120
33.734768
5.144187
-16.884186
-30.206749
-38.270649
-45.729931
-54.609310
-64.491486
-74.342766
-82.592613
-86.804001
-85.005714
-77.247459
-65.647736
-53.690243
-45.334717
-43.150562
-46.109695
-49.121208
-45.837952
-34.208115
-19.820513
-12.093914
-16.720198
-31.603594
-48.399529
-58.018379
-56.528198
-46.650898
-34.103786
-22.924973
-13.833730
-6.060581
0.317177
4.075139
4.032305
0.146496
-5.807812
-10.434708
-10.891188
-7.706720
-4.782449
-5.641339
-9.435368
-11.286843
-6.921731
3.176021
13.805947
19.089485
16.908512
9.787594
2.032403
-3.695425
-7.121147
-8.497384
-7.655915
-5.335529
-4.176934
-7.723793
-18.161737
-33.872898
-48.772312
-55.516953
-50.743771
-36.861691
-18.728935
-0.158510
16.487703
29.711109
38.702457
43.083157
42.819523
38.624443
32.312958
26.209520
21.695494
18.514484
15.732004
13.578486
14.330564
19.745358
27.459909
32.545719
32.634953
29.839420
28.039963
29.285929
32.968472
37.320141
40.892937
43.146332
44.063435
43.479874
40.530914
33.566502
21.731905
6.995302
-6.450186
-15.220936
-19.154951
-21.281981
-25.609133
-33.953396
-44.062016
-51.032948
-50.850616
-42.857960
-30.058578
-17.766155
-10.753598
-10.247505
-13.646625
-17.267061
-18.636110
-16.629801
-11.410776
-4.642051
1.506762
5.910908
8.709729
10.075094
8.967164
3.319018
-7.973946
-22.781002
-36.083267
-43.310452
-43.048622
-37.179771
-30.040045
-26.687414
-29.458826
-35.537556
-38.805672
-34.664936
-23.775309
-11.747246
-4.726458
-4.642386
-8.515214
-12.003757
-13.433159
-14.600281
-17.943369
-23.242750
-27.453648
-27.594267
-23.102993
-15.436501
-6.494091
1.774357
7.005709
7.466125
4.049529
0.329557
0.221016
5.579510
