EVENT_NAME: CENTRAL_ITALY
EVENT_ID: EMSC-20160824_0000006
EVENT_DATE_YYYYMMDD: 20160824
EVENT_TIME_HHMMSS: 013632
EVENT_LATITUDE_DEGREE: 42.6983
EVENT_LONGITUDE_DEGREE: 13.2335
EVENT_DEPTH_KM: 8.1
HYPOCENTER_REFERENCE: INGV-CNT_Seismic_Bulletin
MAGNITUDE_W: 6.0
MAGNITUDE_W_REFERENCE: INGV-webservice
MAGNITUDE_L: 
MAGNITUDE_L_REFERENCE: 
FOCAL_MECHANISM: Normal faulting
NETWORK: IT
STATION_CODE: GSA
STATION_NAME: GRAN SASSO (LAB. INFN ASSERGI)
STATION_LATITUDE_DEGREE: 42.420689
STATION_LONGITUDE_DEGREE: 13.519362
STATION_ELEVATION_M: 1062
LOCATION: 
SENSOR_DEPTH_M: 0.0
VS30_M/S: 492
SITE_CLASSIFICATION_EC8: B
MORPHOLOGIC_CLASSIFICATION: 
EPICENTRAL_DISTANCE_KM: 38.8
EARTHQUAKE_BACKAZIMUTH_DEGREE: 142.6
DATE_TIME_FIRST_SAMPLE_YYYYMMDD_HHMMSS: 20160824_013633.964
DATE_TIME_FIRST_SAMPLE_PRECISION: milliseconds
SAMPLING_INTERVAL_S: 0.005000
NDATA: 13207
DURATION_S: 66.035
STREAM: HGZ
UNITS: cm/s^2
INSTRUMENT: sensor = Unknown [Unknown] | digitizer = Unknown [Unknown]
INSTRUMENT_ANALOG/DIGITAL: D
INSTRUMENTAL_FREQUENCY_HZ: 
INSTRUMENTAL_DAMPING: 
FULL_SCALE_G: 
N_BIT_DIGITAL_CONVERTER: 
PGA_CM/S^2: 18.156731
TIME_PGA_S: 12.805000
BASELINE_CORRECTION: BASELINE REMOVED
FILTER_TYPE: BUTTERWORTH
FILTER_ORDER: 2
LOW_CUT_FREQUENCY_HZ: 0.050
HIGH_CUT_FREQUENCY_HZ: 30.000
LATE/NORMAL_TRIGGERED: NT
DATABASE_VERSION: 0.5
HEADER_FORMAT: DYNA 1.2
DATA_TYPE: ACCELERATION
PROCESSING: manual (Paolucci et al., 2011)
DATA_TIMESTAMP_YYYYMMDD_HHMMSS: 20201211_094920.777
DATA_LICENSE: CC-BY3_0-IT (http://creativecommons.org/licenses/by/3.0/deed.en)
DATA_CITATION: Luzi L, Puglia R, Russo E & ORFEUS WG5 (2016). Engineering Strong Motion Database. Istituto Nazionale di Geofisica e Vulcanologia, Observatories & Research Facilities for European Seismology. doi: 10.13127/ESM
DATA_CREATOR: ESM working group
ORIGINAL_DATA_MEDIATOR_CITATION: Ufficio Rischio Sismico e Vulcanico del Dipartimento della Protezione Civile (http://www.protezionecivile.gov.it/)
ORIGINAL_DATA_MEDIATOR: Rete Accelerometrica Nazionale - RAN Download (http://www.mot1.it/randownload/)
ORIGINAL_DATA_CREATOR_CITATION: Presidency Of Counsil Of Ministers-Civil Protection Department. (1972). Italian Strong Motion Network. Presidency of Counsil of Ministers - Civil Protection Department. https://doi.org/10.7914/SN/IT http://www.fdsn.org/networks/detail/IT/
ORIGINAL_DATA_CREATOR: network: IT (Italian Strong Motion Network (RAN)); owner: Presidency of Counsil of Ministers - Civil Protection Department (PCM - DPC)
USER1: 
USER2: 
USER3: 
USER4: 
USER5: 
[...]
-0.961805
-0.958394
-0.886225
-0.756214
-0.557350
-0.287582
0.009341
0.250306
0.368370
0.363151
0.297868
0.254456
0.287112
0.398693
0.545281
0.662556
0.696599
0.622877
0.455764
0.256024
0.116587
0.101502
0.172432
0.189222
0.017274
-0.345168
-0.742591
-0.963180
-0.871322
-0.471291
0.115154
0.709081
1.128047
1.227105
0.943457
0.343216
-0.374122
-0.959626
-1.249687
-1.233061
-0.989662
-0.592515
-0.099328
0.387718
0.731837
0.873467
0.896644
0.935875
1.026460
1.081243
1.005443
0.793396
0.506235
0.194862
-0.120873
-0.404727
-0.567253
-0.502488
-0.177672
0.305604
0.742801
0.938338
0.825174
0.510252
0.203291
0.068062
0.107979
0.174540
0.077610
-0.291145
-0.880732
-1.471052
-1.754837
-1.505094
-0.733802
0.288206
1.172005
1.590886
1.392353
0.658023
-0.267110
-0.868379
-0.747203
0.062019
1.056076
1.623712
1.519555
1.013531
0.587038
0.501210
0.656595
0.813067
0.864299
0.868483
0.866096
0.756361
0.394734
-0.211300
-0.837907
-1.182587
-1.074499
-0.591477
-0.014584
0.344150
0.327644
-0.005937
-0.483022
-0.943839
-1.267006
-1.330608
-1.044940
-0.460791
0.203006
0.703845
0.956715
1.043632
1.040805
0.871108
0.355607
-0.580076
-1.738440
-2.679834
-2.952631
-2.374796
-1.161676
0.206545
1.275973
1.841996
1.973871
1.897261
1.850126
1.961223
2.170918
2.249974
1.944515
1.161573
0.055520
-1.041592
-1.786838
-1.997489
-1.755628
-1.383749
-1.262137
-1.573770
-2.157302
-2.586074
-2.423411
-1.487298
0.033856
1.660029
2.823607
3.107452
2.442016
1.151715
-0.241695
-1.352529
-2.103606
-2.575934
-2.749947
-2.485827
-1.774071
-0.922486
-0.394288
-0.403875
-0.671454
-0.624921
0.091321
1.260216
2.220286
2.366287
1.589074
0.300157
-0.935775
-1.812391
-2.402118
-2.944201
-3.528669
-3.934353
-3.716340
-2.476890
-0.187910
2.609222
4.928193
5.842064
5.075793
3.194484
1.190868
-0.159858
-0.624368
-0.371472
0.307660
1.115797
1.743186
1.922080
1.547857
0.716830
-0.371468
-1.526989
-2.587535
-3.393735
-3.832784
-3.929698
-3.835759
-3.652138
-3.245356
-2.269464
-0.427123
2.194886
4.938963
6.737429
6.683372
4.723944
1.861578
-0.501272
-1.592394
-1.691970
-1.569315
-1.624752
-1.647653
-1.278085
-0.502483
0.333331
0.862842
0.967799
0.777934
0.498711
0.243577
-0.027108
-0.444052
-1.087286
-1.850787
-2.412365
-2.374741
-1.553280
-0.241990
0.803582
0.793780
-0.477103
-2.305385
-3.409732
-2.783317
-0.438824
2.563052
4.839330
5.590029
4.989596
3.826016
2.780682
1.993400
1.203654
0.178929
-1.048544
-2.267185
-3.243399
-3.751693
-3.577220
-2.648120
-1.209494
0.202194
1.054231
1.164988
0.810696
0.515201
0.709595
1.489983
2.561017
3.355822
3.316621
2.248449
0.504942
-1.203074
-2.247715
-2.382358
-1.697625
-0.422333
1.157783
2.639428
3.495459
3.271228
1.901414
-0.121338
-1.971944
-3.052522
-3.416538
-3.582093
-3.867228
-3.955131
-3.166623
-1.130810
1.827802
4.871622
7.130161
8.085393
7.686062
6.223093
4.121807
1.826297
-0.200023
-1.508213
-1.836720
-1.299883
-0.360704
0.455043
0.858935
0.830842
0.387932
-0.583492
-2.159897
-4.039817
-5.493418
-5.775606
-4.630588
-2.424298
0.123818
2.296120
3.613766
3.958997
3.572452
2.887919
2.293117
1.977391
1.927432
2.006248
2.037386
1.887820
1.559619
1.231141
1.174313
1.574426
2.364005
3.169584
3.420935
2.612022
0.602019
-2.223989
-5.051158
-6.948676
-7.250059
-5.857232
-3.373465
-0.959583
0.151798
-0.678319
-3.062868
-5.755184
-7.371932
-7.172778
-5.342102
-2.676845
-0.075246
1.786941
2.569455
2.313175
1.415275
0.448467
-0.110973
-0.066045
0.494470
1.313847
2.110320
2.659155
2.801456
2.471990
1.795161
1.097452
0.667599
0.419598
-0.133202
-1.435421
-3.359373
-5.152615
-5.977819
-5.535207
-4.190238
-2.602614
-1.339582
-0.784983
-1.164784
-2.412239
-3.973745
-4.919960
-4.461815
-2.477232
0.432335
3.369606
5.606316
6.719406
6.507119
5.033687
2.839604
0.935319
0.298289
1.157322
2.708475
3.600192
2.823076
0.285869
-3.282087
-6.841189
-9.476061
-10.534716
-9.636707
-6.813060
-2.750936
1.229564
3.738370
4.123621
2.848794
1.105061
0.028003
0.136958
1.245519
2.679439
3.598469
3.364662
1.896002
-0.203978
-1.935211
-2.491647
-1.750345
-0.318930
0.891707
1.284902
0.933159
0.390462
0.145306
0.201505
0.112096
-0.609428
-2.033235
-3.646091
-4.624064
-4.382698
-2.981059
-1.074607
0.481390
1.085559
0.705801
-0.077696
-0.401470
0.300572
1.876135
3.575774
4.628132
4.730330
4.033775
2.788685
1.168153
-0.524359
-1.662065
-1.584673
-0.214080
1.694727
3.065827
3.335673
2.767435
1.956580
1.126383
0.023302
-1.500777
-2.974981
-3.572650
-2.929318
-1.593412
-0.577127
-0.466470
-0.982740
-1.355937
-1.048433
-0.126655
0.943872
1.737751
2.112674
2.130510
1.833724
1.155155
0.085662
-1.110397
-1.975558
-2.224496
-1.961530
-1.473012
-0.873243
-0.049595
1.074814
2.319776
3.292173
3.601376
3.076649
1.902384
0.599201
-0.222541
-0.244547
0.350485
1.069749
1.543393
1.790465
2.079489
2.551753
2.999446
3.010624
2.327561
1.097309
-0.187871
-1.029250
-1.307004
-1.405332
-1.924403
-3.167151
-4.834168
-6.219626
-6.738186
-6.297618
-5.238477
-4.018472
-2.964170
-2.200957
-1.681610
-1.242264
-0.706220
-0.040517
0.578458
0.935844
1.044343
1.184649
1.647101
2.437279
3.196701
3.358159
2.454514
0.486232
-1.886230
-3.620019
-3.975256
-3.041049
-1.578401
-0.343478
0.415693
0.861762
1.115517
0.986577
0.146290
-1.449766
-3.298226
-4.515085
-4.351989
-2.682718
-0.086818
2.520801
4.409362
5.316176
5.341550
4.640505
3.271399
1.370459
-0.601227
-1.955301
-2.243761
-1.614358
-0.652430
0.102007
0.458898
0.498370
0.320642
-0.090445
-0.790193
-1.667033
-2.324869
-2.271089
-1.358748
-0.063717
0.806575
0.806882
0.254614
-0.119018
0.083659
0.543111
0.543864
-0.358634
-1.932676
-3.402777
-3.938871
-3.147402
-1.301583
0.788049
2.195439
2.361930
1.351652
-0.244638
-1.635129
-2.186151
-1.693699
-0.483578
0.749147
1.346838
1.089747
0.240862
-0.828486
-2.054246
-3.666633
-5.724406
-7.717668
-8.754092
-8.228316
-6.337084
-3.941624
-1.905353
-0.506321
0.564125
1.678877
2.829158
3.738655
4.315556
4.801560
5.417887
6.012229
6.196747
5.775649
4.883013
3.699560
2.222271
0.451041
-1.286544
-2.389817
-2.460988
-1.714956
-0.876241
-0.623450
-1.073478
-1.754109
-2.050249
-1.676264
-0.777762
0.276863
1.092284
1.327139
0.801090
-0.366565
-1.778101
-2.990372
-3.748214
-4.014923
-3.831409
-3.182619
-2.014135
-0.428306
1.091014
1.747840
0.960767
-1.021237
-3.079368
-3.976095
-3.288573
-1.638952
-0.012985
1.094787
1.858481
2.611673
3.369726
3.906575
4.172639
4.447512
4.975018
5.517202
5.442244
4.345598
2.542416
0.881182
0.042051
-0.017395
0.023069
-0.541437
-1.870284
-3.516352
-4.830842
-5.407407
-5.214595
-4.423433
-3.187552
-1.582985
0.306561
2.308528
4.173285
5.633451
6.447923
6.464692
5.744963
4.630172
3.557950
2.705707
1.870187
0.794553
-0.429118
-1.394289
-1.822720
-1.889721
-2.065969
-2.667548
-3.578817
-4.375393
-4.699609
-4.568715
-4.349877
-4.382353
-4.577092
-4.434599
-3.523505
-1.924600
-0.161104
1.269699
2.223510
2.800280
3.044185
2.860693
2.227643
1.400873
0.816271
0.729845
0.940171
0.898718
0.145838
-1.328981
-3.112133
-4.659533
-5.524322
-5.386565
-4.034260
-1.481062
1.818445
4.950164
6.932272
7.285260
6.286076
4.717556
3.395398
2.823391
3.064304
3.764628
4.331339
4.256058
3.419899
2.140068
0.929297
0.201670
0.114925
0.514816
0.940607
0.794806
-0.298151
-2.187098
-4.244175
-5.769490
-6.409244
-6.244627
-5.545336
-4.493833
-3.137856
-1.519024
0.221116
1.820459
2.917670
3.143739
2.333842
0.743699
-0.986082
-2.212552
-2.716207
-2.720248
-2.484930
-1.980879
-1.031684
0.294625
1.568304
2.327398
2.499306
2.467678
2.725502
3.454704
4.387707
5.016093
4.967175
4.301919
3.504864
3.097465
3.168707
3.306237
3.032867
2.278178
1.392713
0.756355
0.436682
0.200645
-0.238491
-1.032128
-2.148272
-3.332673
-4.081027
-3.830779
-2.390559
-0.239282
1.657298
2.406942
1.679089
-0.202377
-2.511877
-4.449806
-5.353577
-4.830074
-2.945167
-0.414180
1.526773
1.771124
0.161632
-2.249678
-3.872270
-3.723004
-2.111780
-0.295897
0.556712
0.157896
-0.977138
-2.206562
-3.253360
-4.069762
-4.403027
-3.726114
-1.735725
1.095737
3.577734
4.548416
3.703566
1.807250
0.122628
-0.462518
0.070037
1.082571
1.905031
2.252061
2.143495
1.633721
0.784625
-0.131260
-0.586890
-0.123929
1.219797
2.808888
3.778449
3.621323
2.551154
1.322547
0.630483
0.621515
0.928001
1.078043
0.827445
0.208689
-0.571692
-1.239531
-1.535700
-1.275075
-0.403194
0.894235
2.088318
2.425846
1.345671
-1.092432
-4.141411
-6.715872
-7.885203
-7.242164
-5.052160
-2.153655
0.416366
1.952141
2.433229
2.412837
2.520283
2.994050
3.600837
3.920707
3.681368
2.861427
1.561583
-0.111648
-1.943232
-3.416688
-3.800490
-2.636761
-0.248822
2.253778
3.578068
3.054627
1.078069
-1.164702
-2.508773
-2.512146
-1.471423
0.123403
2.016975
4.060445
5.823563
6.584268
5.857017
3.912956
1.695585
0.192697
-0.139019
0.530619
1.689499
2.807950
3.512026
3.617950
3.110111
2.119110
0.906822
-0.174666
-0.791118
-0.791241
-0.312194
0.327441
0.919169
1.566534
2.553571
3.958983
5.379084
6.091533
5.615201
4.185278
2.662040
1.932883
2.359161
3.685792
5.309276
6.576920
7.010637
6.508168
5.406629
4.204043
3.079757
1.730303
-0.207119
-2.579176
-4.682179
-5.855888
-6.055428
-5.790744
-5.545393
-5.318739
-4.735479
-3.546272
-1.985887
-0.656959
-0.073814
-0.279843
-0.852948
-1.260167
-1.244274
-0.976252
-0.941346
-1.643683
-3.245519
-5.346552
-7.119253
-7.772361
-7.004009
-5.109414
-2.745346
-0.607180
0.796034
1.239038
0.755797
-0.459409
-2.103620
-3.738438
-4.827557
-4.937523
-3.985792
-2.345066
-0.733547
0.058754
-0.479050
-2.277012
-4.615683
-6.412532
-6.757658
-5.388606
-2.810080
0.013333
2.189278
3.307628
3.491992
3.142686
2.622831
2.100771
1.581011
1.028109
0.487427
0.139926
0.228698
0.851533
1.771127
2.472870
2.504814
1.817262
0.782742
-0.097093
-0.501955
-0.393771
0.058018
0.590359
0.971512
1.165028
1.426071
2.151610
3.528034
5.277289
6.739169
7.243054
6.537907
5.031206
3.633840
3.185853
3.824554
4.888963
5.531252
5.431916
4.885201
4.280211
3.674892
2.936181
2.190225
1.965734
2.762443
4.454146
6.200889
7.054371
6.710764
5.694855
4.840707
4.635050
5.033933
5.765939
6.659932
7.664631
8.650917
9.286152
9.153933
8.064684
6.293950
4.451742
3.002030
1.880103
0.638143
-1.000533
-2.755674
-3.979665
-4.241894
-3.732763
-3.061201
-2.596027
-2.009603
-0.551137
2.179023
5.738907
9.104019
11.355401
12.150971
11.715700
10.581049
9.362735
8.594927
8.507446
8.817292
8.793943
7.704645
5.365843
2.356116
-0.309920
-1.817500
-2.025349
-1.447689
-0.812844
-0.562287
-0.633752
-0.619954
-0.109028
1.092249
2.957380
5.295503
7.722701
9.684068
10.717086
10.794936
10.315446
9.614903
8.504439
6.448552
3.324487
-0.067193
-2.428989
-3.000427
-2.157951
-1.005201
-0.453721
-0.715793
-1.524674
-2.606744
-3.851859
-5.162101
-6.319709
-7.041812
-7.101166
-6.399465
-5.012070
-3.213802
-1.443401
-0.200711
0.088530
-0.782303
-2.678383
-5.108826
-7.397935
-8.996002
-9.731482
-9.804412
-9.553663
-9.258056
-9.129567
-9.374761
-10.151809
-11.444721
-13.007442
-14.469679
-15.541709
-16.158501
-16.456989
-16.613216
-16.638924
-16.260418
-15.018379
-12.611011
-9.221786
-5.469374
-1.983157
0.935624
3.217138
4.725453
5.249305
4.820286
3.864183
2.854567
1.820785
0.335419
-1.928292
-4.657433
-6.966427
-8.025036
-7.687225
-6.616264
-5.819349
-5.928142
-6.770648
-7.584842
-7.665082
-6.823021
-5.291059
-3.334309
-1.076521
1.339329
3.554214
5.040333
5.390531
4.633678
3.315875
2.230344
1.965110
2.623615
3.914010
5.434880
6.834775
7.760296
7.825639
6.824328
5.044454
3.298276
2.506145
3.130138
4.897442
6.982163
8.483160
8.919487
8.494806
7.939400
7.931283
8.470593
8.764333
7.800558
5.149029
1.322325
-2.539169
-5.349548
-6.655787
-6.826922
-6.810079
-7.583024
-9.576382
-12.405722
-15.104699
-16.712070
-16.796824
-15.550587
-13.435888
-10.762670
-7.597095
-4.026355
-0.412551
2.686383
4.833546
5.902291
5.969405
5.120365
3.429032
1.079806
-1.592468
-4.225513
-6.571342
-8.495851
-9.853594
-10.423734
-10.070786
-9.061894
-8.211775
-8.537230
-10.527276
-13.622460
-16.438122
-17.605621
-16.549824
-13.650308
-9.814798
-5.913331
-2.487452
0.190261
1.931554
2.571636
2.067409
0.594274
-1.485673
-3.726321
-5.650170
-6.764565
-6.654017
-5.164983
-2.561490
0.475913
3.056319
4.452230
4.478778
3.616766
2.735473
2.579112
3.373498
4.789588
6.196058
6.956199
6.644054
5.241980
3.305899
1.870987
1.949506
3.883869
7.090568
10.469018
13.134932
14.812225
15.595595
15.492154
14.351082
12.262157
9.900675
8.331930
8.384465
10.147311
12.971455
15.846269
17.799280
18.156731
16.690763
13.667764
9.784023
5.993831
3.220136
1.981179
2.132526
2.957307
3.568634
3.325259
2.032919
-0.060646
-2.401023
-4.361017
-5.475981
-5.516943
-4.405949
-2.208091
0.685641
3.462712
5.211601
5.499564
4.643635
3.392347
2.336913
1.554921
0.673263
-0.797029
-3.085534
-5.936593
-8.670089
-10.532312
-11.120994
-10.569231
-9.345841
-7.855193
-6.202947
-4.315383
-2.212405
-0.085242
1.905467
3.831137
5.872632
7.925192
9.380955
9.430139
7.664560
4.431819
0.658646
-2.650699
-4.864722
-5.900071
-6.088956
-5.853935
-5.431850
-4.854767
-4.139084
-3.427958
-2.939273
-2.826778
-3.112639
-3.678184
-4.224437
-4.264950
-3.307199
-1.175147
1.825768
5.093127
8.088699
10.550899
12.431659
13.693545
14.181215
13.679720
12.104028
9.637587
6.682672
3.706229
1.173746
-0.430677
-0.699550
0.418386
2.384250
4.176239
4.776782
3.749909
1.492239
-1.052447
-2.999200
-3.973830
-4.121884
-3.795167
-3.233753
-2.447643
-1.311739
0.224111
1.975083
3.576976
4.752756
5.539048
6.207440
6.933065
7.564787
7.746236
7.246843
6.166791
4.849438
3.603744
2.466666
1.195337
-0.495031
-2.646760
-4.983191
-7.097185
-8.706744
-9.736731
-10.194034
-10.037466
-9.241458
-8.013866
-6.919398
-6.699431
-7.832626
-10.127815
-12.676215
-14.288482
-14.205348
-12.586205
-10.352667
-8.475374
-7.290873
-6.395587
-5.118309
-3.080261
-0.400040
2.454217
4.893756
6.372273
6.529348
5.338094
3.161822
0.639641
-1.557158
-2.989478
-3.621152
-3.793812
-3.997180
-4.587032
-5.646595
-7.023997
-8.413866
-9.408069
-9.599480
-8.800317
-7.238697
-5.519826
-4.320347
-4.021139
-4.523897
-5.334866
-5.830973
-5.575678
-4.560213
-3.234206
-2.233264
-1.912865
-2.033457
-1.907980
-0.947120
0.839184
2.813077
4.163903
4.424376
3.621957
2.057048
0.046215
-2.110585
-4.019802
-5.202204
-5.304347
-4.308401
-2.510738
-0.306362
1.982012
4.087376
5.686272
6.384262
5.884910
4.231633
1.896681
-0.423254
-2.204992
-3.397911
-4.366000
-5.498739
-6.828259
-7.990136
-8.520732
-8.176112
-7.017823
-5.303792
-3.363099
-1.521783
-0.028790
1.022344
1.691923
2.077397
2.194404
2.014379
1.650366
1.448260
1.755786
2.509475
3.097849
2.753813
1.164209
-1.288554
-3.888922
-6.188926
-8.258771
-10.369436
-12.465491
-13.982874
-14.191288
-12.719380
-9.810225
-6.186339
-2.718890
-0.101417
1.386098
1.940717
2.055928
2.192409
2.546241
3.066596
3.615645
4.033585
4.041183
3.192109
1.102350
-2.140152
-5.782309
-8.720812
-10.151043
-10.016530
-8.882595
-7.393431
-5.832943
-4.152839
-2.357340
-0.810295
-0.122430
-0.673099
-2.171056
-3.660169
-4.032324
-2.699193
0.061329
3.290755
5.865872
7.005057
6.562038
5.040017
3.323656
2.234365
2.128122
2.753265
3.461544
3.660252
3.207701
2.472831
2.039489
2.309368
3.305673
4.798650
6.602384
8.721638
11.175732
13.708933
15.755625
16.739309
16.406137
14.881912
12.477777
9.535495
6.479881
3.893867
2.341634
2.005327
2.528512
3.310676
4.004376
4.703553
5.618341
6.593951
7.016603
6.236839
4.096529
1.079870
-1.980391
-4.350525
-5.696180
-6.117728
-5.973747
-5.634938
-5.296256
-4.902327
-4.199068
-2.900983
-0.901106
1.596356
4.090817
5.918906
6.450814
5.339652
2.773515
-0.474705
-3.383155
-5.243003
-6.000304
-6.098744
-6.002272
-5.836228
-5.417823
-4.563432
-3.352533
-2.169466
-1.591335
-2.217766
-4.421384
-8.037207
-12.197606
-15.550144
-16.834574
-15.497447
-11.975515
-7.462563
-3.249595
-0.017537
2.411158
4.627579
6.845696
8.475524
8.484617
6.267298
2.287639
-2.028635
-5.053729
-5.822117
-4.479026
-2.112883
-0.104866
0.651095
0.234091
-0.423934
-0.239817
1.209293
3.387018
5.227160
5.898896
5.285974
3.880238
2.340390
1.201358
0.904631
1.877595
4.366866
8.100159
12.138107
15.160482
16.053492
14.427641
10.787846
6.298326
2.236879
-0.618587
-2.303708
-3.445408
-4.668617
-6.098228
-7.306482
-7.666616
-6.816496
-4.957120
-2.833600
-1.363269
-1.065329
-1.661653
-2.196494
-1.664681
0.280287
3.063468
5.560789
6.807650
6.514415
5.051847
3.004916
0.721764
-1.757030
-4.376493
-6.716200
-8.014003
-7.622741
-5.542581
-2.573306
0.085276
1.530547
1.642530
1.004343
0.385322
0.250332
0.615068
1.183065
1.540751
1.321659
0.370928
-1.125451
-2.676058
-3.734211
-4.006261
-3.572136
-2.746389
-1.865485
-1.205019
-0.999863
-1.396721
-2.301290
-3.289933
-3.756335
-3.243946
-1.719886
0.416668
2.582448
4.316147
5.421041
5.880400
5.690853
4.811425
3.271302
1.292529
-0.739413
-2.469582
-3.772937
-4.771823
-5.633861
-6.338905
-6.686442
-6.585135
-6.304902
-6.329982
-6.881052
-7.603828
-7.786522
-6.904916
-4.981848
-2.505247
-0.102217
1.695891
2.496560
2.054073
0.388420
-2.070359
-4.538518
-6.218917
-6.742826
-6.398663
-5.938467
-6.057206
-6.936113
-8.213678
-9.355086
-10.038150
-10.241405
-10.082464
-9.671343
-9.113941
-8.556831
-8.124553
-7.781422
-7.290305
-6.356162
-4.854500
-2.970391
-1.136671
0.216477
0.949653
1.337640
1.943826
3.325550
5.712168
8.799877
11.797699
13.765012
14.096902
12.876629
10.860144
9.085406
8.345063
8.828608
10.098795
11.356832
11.818745
11.021139
8.962627
6.090365
3.167689
1.016297
0.160701
0.547341
1.569868
2.449912
2.723247
2.465027
2.103901
2.026335
2.318226
2.813219
3.316657
3.749947
4.114191
4.394376
4.549141
4.573613
4.523580
4.460790
4.396040
4.314476
4.258708
4.345096
4.633588
4.951652
4.883348
4.001494
2.160576
-0.413691
-3.287149
-6.024374
-8.254871
-9.658651
-10.038751
-9.472963
-8.353734
-7.204330
-6.381255
-5.865369
