EVENT_NAME: CENTRAL_ITALY
EVENT_ID: EMSC-20160824_0000006
EVENT_DATE_YYYYMMDD: 20160824
EVENT_TIME_HHMMSS: 013632
EVENT_LATITUDE_DEGREE: 42.6983
EVENT_LONGITUDE_DEGREE: 13.2335
EVENT_DEPTH_KM: 8.1
HYPOCENTER_REFERENCE: INGV-CNT_Seismic_Bulletin
MAGNITUDE_W: 6.0
MAGNITUDE_W_REFERENCE: INGV-webservice
MAGNITUDE_L: 
MAGNITUDE_L_REFERENCE: 
FOCAL_MECHANISM: Normal faulting
NETWORK: IT
STATION_CODE: GSA
STATION_NAME: GRAN SASSO (LAB. INFN ASSERGI)
STATION_LATITUDE_DEGREE: 42.420689
STATION_LONGITUDE_DEGREE: 13.519362
STATION_ELEVATION_M: 1062
LOCATION: 
SENSOR_DEPTH_M: 0.0
VS30_M/S: 492
SITE_CLASSIFICATION_EC8: B
MORPHOLOGIC_CLASSIFICATION: 
EPICENTRAL_DISTANCE_KM: 38.8
EARTHQUAKE_BACKAZIMUTH_DEGREE: 142.6
DATE_TIME_FIRST_SAMPLE_YYYYMMDD_HHMMSS: 20160824_013633.964
DATE_TIME_FIRST_SAMPLE_PRECISION: milliseconds
SAMPLING_INTERVAL_S: 0.005000
NDATA: 13207
DURATION_S: 66.035
STREAM: HGE
UNITS: cm/s^2
INSTRUMENT: sensor = Unknown [Unknown] | digitizer = Unknown [Unknown]
INSTRUMENT_ANALOG/DIGITAL: D
INSTRUMENTAL_FREQUENCY_HZ: 
INSTRUMENTAL_DAMPING: 
FULL_SCALE_G: 
N_BIT_DIGITAL_CONVERTER: 
PGA_CM/S^2: -35.399914
TIME_PGA_S: 13.425000
BASELINE_CORRECTION: BASELINE REMOVED
FILTER_TYPE: BUTTERWORTH
FILTER_ORDER: 2
LOW_CUT_FREQUENCY_HZ: 0.050
HIGH_CUT_FREQUENCY_HZ: 30.000
LATE/NORMAL_TRIGGERED: NT
DATABASE_VERSION: 0.5
HEADER_FORMAT: DYNA 1.2
DATA_TYPE: ACCELERATION
PROCESSING: manual (Paolucci et al., 2011)
DATA_TIMESTAMP_YYYYMMDD_HHMMSS: 20201211_094920.541
DATA_LICENSE: CC-BY3_0-IT (http://creativecommons.org/licenses/by/3.0/deed.en)
DATA_CITATION: Luzi L, Puglia R, Russo E & ORFEUS WG5 (2016). Engineering Strong Motion Database. Istituto Nazionale di Geofisica e Vulcanologia, Observatories & Research Facilities for European Seismology. doi: 10.13127/ESM
DATA_CREATOR: ESM working group
ORIGINAL_DATA_MEDIATOR_CITATION: Ufficio Rischio Sismico e Vulcanico del Dipartimento della Protezione Civile (http://www.protezionecivile.gov.it/)
ORIGINAL_DATA_MEDIATOR: Rete Accelerometrica Nazionale - RAN Download (http://www.mot1.it/randownload/)
ORIGINAL_DATA_CREATOR_CITATION: Presidency Of Counsil Of Ministers-Civil Protection Department. (1972). Italian Strong Motion Network. Presidency of Counsil of Ministers - Civil Protection Department. https://doi.org/10.7914/SN/IT http://www.fdsn.org/networks/detail/IT/
ORIGINAL_DATA_CREATOR: network: IT (Italian Strong Motion Network (RAN)); owner: Presidency of Counsil of Ministers - Civil Protection Department (PCM - DPC)
USER1: 
USER2: 
USER3: 
USER4: 
USER5: 
[...]
1.288123
1.277542
1.099394
0.868084
0.658787
0.446201
0.116342
-0.420430
-1.111425
-1.767173
-2.186874
-2.277245
-2.067859
-1.642592
-1.069043
-0.384806
0.359886
1.069181
1.644147
2.056708
2.339101
2.474249
2.316135
1.662334
0.455551
-1.049413
-2.337108
-2.934550
-2.756897
-2.184560
-1.759071
-1.730220
-1.833655
-1.486257
-0.261969
1.693470
3.643313
4.715105
4.502507
3.310612
1.855809
0.716063
-0.023208
-0.718501
-1.800698
-3.348774
-4.903339
-5.675531
-5.023988
-2.892260
0.064610
2.775471
4.338927
4.506018
3.674270
2.437761
1.164214
-0.042740
-1.132555
-1.998312
-2.543982
-2.728980
-2.500092
-1.767733
-0.549539
0.879273
2.086194
2.780256
2.942565
2.617799
1.699537
0.098994
-1.874881
-3.474611
-3.954460
-3.030845
-0.982692
1.488070
3.459787
4.169682
3.527437
2.254210
1.282151
0.895172
0.528977
-0.539868
-2.392072
-4.380417
-5.699002
-5.894545
-4.903771
-2.866201
-0.096594
2.820263
5.127445
6.246764
6.054124
4.807946
2.875212
0.584398
-1.711059
-3.570244
-4.596790
-4.680268
-4.062793
-3.097598
-1.930783
-0.457932
1.391440
3.342656
4.758429
4.965724
3.713255
1.441186
-0.879756
-2.295984
-2.422448
-1.586751
-0.516462
0.121724
0.020288
-0.706522
-1.621367
-2.165978
-1.935824
-0.930401
0.409410
1.477791
1.909958
1.787642
1.504682
1.434819
1.646963
1.840980
1.534893
0.403923
-1.396619
-3.128618
-3.773199
-2.681552
-0.129553
2.730385
4.542853
4.546310
2.969148
0.821718
-0.798802
-1.419240
-1.302137
-0.916539
-0.475010
-0.038928
0.190358
-0.020440
-0.557508
-0.895231
-0.494484
0.762074
2.474475
3.952469
4.564594
4.042849
2.602839
0.794879
-0.797162
-1.739638
-1.741764
-0.711482
0.995780
2.493285
2.821091
1.685375
-0.235639
-1.795943
-2.281950
-1.867516
-1.223884
-0.775192
-0.417998
0.099566
0.719127
1.083748
0.900488
0.183825
-0.788817
-1.638532
-2.049094
-1.929446
-1.466570
-0.961034
-0.584787
-0.315023
-0.082350
0.075136
0.051121
-0.134908
-0.249485
-0.033246
0.528904
1.199805
1.774546
2.318119
3.057501
4.022749
4.835197
4.905472
3.876173
1.915284
-0.368399
-2.301453
-3.509733
-3.989148
-3.900987
-3.373497
-2.478600
-1.281566
0.134622
1.596331
2.718847
2.968421
2.024446
0.143121
-1.875274
-3.130347
-3.152026
-2.189494
-1.074473
-0.692913
-1.402971
-2.841672
-4.241197
-4.928398
-4.600990
-3.299744
-1.281404
1.062664
3.282588
4.976786
5.849592
5.659434
4.161657
1.253978
-2.660754
-6.502211
-8.968290
-9.355568
-7.908876
-5.353487
-2.219454
1.288300
4.867975
7.763725
8.964717
7.864254
4.808938
0.996151
-2.233515
-4.051912
-4.239748
-2.955521
-0.664322
1.807852
3.494195
3.796396
2.799181
1.064032
-0.849210
-2.647383
-4.175829
-5.139940
-5.032552
-3.397857
-0.260916
3.618450
6.964469
8.637720
8.237431
6.160100
3.186352
0.099704
-2.438453
-3.998154
-4.586642
-4.651130
-4.709764
-4.960335
-5.261165
-5.384036
-5.173895
-4.501681
-3.201343
-1.183504
1.321319
3.662089
5.017909
4.867262
3.306745
0.992284
-1.209297
-2.622651
-3.010736
-2.544076
-1.566932
-0.414863
0.594838
1.179548
1.275590
1.196812
1.439991
2.201555
3.108347
3.488352
2.894852
1.371865
-0.661247
-2.632273
-3.936788
-4.037493
-2.685320
-0.196930
2.476179
4.116585
3.951477
2.189487
-0.158627
-2.085146
-3.241161
-3.859758
-4.245990
-4.508316
-4.663670
-4.726138
-4.602806
-4.049047
-2.856855
-1.069288
1.025391
3.042411
4.570863
5.187810
4.625471
3.050992
1.087024
-0.602870
-1.771568
-2.567867
-3.097070
-3.151610
-2.434654
-0.921283
1.096075
3.200900
4.980600
6.108781
6.506547
6.388797
5.990783
5.245028
3.848449
1.676087
-0.943196
-3.377578
-5.062701
-5.730844
-5.402783
-4.300102
-2.790902
-1.309069
-0.178727
0.573114
1.252150
2.305753
3.985165
6.066394
7.848990
8.472455
7.356563
4.523665
0.663902
-3.104073
-5.705639
-6.574143
-5.841558
-4.187984
-2.470817
-1.314202
-0.867024
-0.885177
-1.047089
-1.193756
-1.304095
-1.332643
-1.164301
-0.780497
-0.463627
-0.737036
-1.962568
-3.946373
-5.954661
-7.080001
-6.606161
-4.254953
-0.402907
3.856966
7.088191
8.258498
7.334288
5.212849
3.022053
1.349405
0.003543
-1.544144
-3.447337
-5.138422
-5.681242
-4.526389
-1.988686
0.957267
3.319651
4.584314
4.719910
3.871119
2.183173
-0.070218
-2.347751
-4.010372
-4.680694
-4.406989
-3.513309
-2.371798
-1.273089
-0.329388
0.589219
1.696548
2.950150
3.967939
4.415409
4.386769
4.224062
3.987705
3.317501
1.915095
0.034788
-1.656111
-2.696542
-3.217318
-3.686211
-4.323116
-4.805027
-4.539487
-3.208995
-1.066031
1.204523
2.794039
3.008994
1.526975
-1.259655
-4.129885
-5.524616
-4.475254
-1.289316
2.559364
5.268894
5.706784
3.949079
1.066909
-1.640848
-3.378732
-4.015119
-3.695467
-2.478197
-0.466153
1.766294
3.114114
2.590221
0.220770
-2.701910
-4.433845
-4.067333
-2.126610
0.074980
1.592953
2.348652
2.688538
2.773213
2.487170
1.726069
0.541368
-0.977305
-2.768884
-4.642624
-6.145543
-6.751153
-6.241031
-4.857329
-3.060086
-1.186397
0.616432
2.187209
3.216175
3.406389
2.749484
1.563494
0.242839
-0.965295
-1.918427
-2.421406
-2.243232
-1.314367
0.132130
1.620941
2.665948
3.052051
2.943737
2.655438
2.320265
1.916070
1.620984
1.890727
2.954782
4.284781
4.753122
3.443592
0.410112
-3.240528
-6.037363
-7.136927
-6.817629
-5.995651
-5.232606
-4.286638
-2.642863
-0.331551
1.909593
3.226565
3.273388
2.257739
0.515624
-1.817830
-4.677694
-7.678837
-9.990051
-10.734188
-9.597232
-7.075623
-4.131922
-1.575733
0.311682
1.685005
2.790523
3.720388
4.391362
4.642448
4.367286
3.675577
2.953449
2.615096
2.667895
2.606979
1.909465
0.647187
-0.509628
-0.930405
-0.564713
0.199387
1.090947
2.218865
3.780002
5.621212
7.182361
7.882892
7.540096
6.426290
4.989922
3.549435
2.158336
0.637965
-1.250700
-3.545768
-5.904326
-7.665075
-8.134268
-6.952820
-4.368213
-1.211309
1.486671
2.986714
3.082057
2.008790
0.245079
-1.652201
-3.240248
-4.408336
-5.374448
-6.318897
-6.968480
-6.635357
-4.802587
-1.746879
1.424566
3.418785
3.571894
2.231181
0.490452
-0.510121
-0.288756
0.722349
1.574162
1.540743
0.580734
-0.787602
-1.906201
-2.231709
-1.374578
0.774463
3.780516
6.659722
8.384166
8.516950
7.365721
5.555600
3.518107
1.367093
-0.868680
-3.004358
-4.647045
-5.276358
-4.428115
-2.045244
1.175190
3.902831
4.929642
3.985383
1.837508
-0.383146
-1.928742
-2.632718
-2.631436
-2.107665
-1.324737
-0.735201
-0.811937
-1.621970
-2.593727
-2.842579
-1.849361
0.109135
2.137630
3.298330
3.127809
1.845945
0.238699
-0.768068
-0.708935
0.057976
0.602314
0.127052
-1.458514
-3.495831
-4.986776
-5.144242
-3.808513
-1.531502
0.754341
2.304497
2.964536
3.112031
3.229416
3.501370
3.766570
3.763193
3.344229
2.528496
1.516839
0.710266
0.559884
1.187137
2.081270
2.291694
1.098739
-1.368743
-4.091878
-5.748022
-5.534398
-3.712984
-1.514813
-0.375470
-0.929497
-2.528545
-3.779596
-3.684931
-2.334270
-0.602723
0.638507
0.990313
0.478749
-0.652348
-2.025100
-3.156220
-3.615445
-3.253601
-2.258638
-0.998245
0.180551
1.103283
1.854262
2.707400
3.876464
5.287933
6.610509
7.501313
7.808022
7.570114
6.895266
5.864342
4.565847
3.236551
2.284987
1.995808
2.150374
2.094807
1.348095
0.131340
-0.799335
-0.871054
-0.240153
0.343082
0.187942
-0.774903
-2.010817
-2.926914
-3.397511
-3.754300
-4.325700
-5.084339
-5.732832
-6.018008
-5.916263
-5.583732
-5.179277
-4.703565
-3.972207
-2.768085
-1.066947
0.867465
2.610801
3.791811
4.204570
3.818905
2.788372
1.426863
0.089254
-0.951125
-1.522967
-1.549311
-1.094198
-0.367264
0.395836
1.054269
1.564773
1.959787
2.397402
3.128076
4.210157
5.226918
5.487285
4.679535
3.275070
2.151807
1.807807
2.012676
2.205006
2.105719
1.875846
1.761528
1.748743
1.642576
1.385234
1.136379
1.023168
0.934447
0.637554
0.051254
-0.642052
-1.102426
-1.008570
-0.227726
1.032620
2.209903
2.660011
2.123580
0.980790
-0.020399
-0.331612
0.123513
1.179014
2.708907
4.527661
6.146193
6.919895
6.557631
5.361887
3.864400
2.311413
0.619377
-1.229683
-2.928422
-4.049651
-4.421486
-4.193336
-3.539811
-2.413068
-0.695119
1.402084
3.175937
3.759554
2.675062
0.154367
-2.983815
-5.741464
-7.313985
-7.239130
-5.398880
-2.058562
2.063969
5.910008
8.443498
9.033885
7.629704
4.742279
1.289181
-1.763665
-3.848719
-4.983986
-5.557212
-5.957547
-6.328139
-6.493108
-6.061349
-4.715547
-2.522130
0.009434
2.168652
3.359656
3.284413
1.983938
-0.198545
-2.722249
-5.033998
-6.773170
-7.839299
-8.226933
-7.796159
-6.287873
-3.616036
-0.093139
3.676037
7.073128
9.609475
10.912424
10.780781
9.383070
7.352122
5.526589
4.476343
4.250054
4.569507
5.192060
6.022685
6.956032
7.786002
8.341838
8.620272
8.708530
8.643798
8.398380
7.878906
6.805242
4.694105
1.235110
-3.157076
-7.205763
-9.305303
-8.367537
-4.452607
1.124878
6.313704
9.310021
9.443363
7.297145
3.982478
0.273060
-3.608973
-7.520148
-10.906027
-12.859558
-12.629524
-10.057649
-5.598133
-0.038284
5.711168
10.589068
13.385763
13.139268
9.792868
4.481922
-0.941970
-4.833598
-6.462406
-6.073713
-4.372547
-1.927557
1.009393
4.215410
7.133617
8.893161
8.808990
6.944347
4.154504
1.482109
-0.566452
-2.183491
-3.741025
-5.171807
-5.916730
-5.484112
-4.029614
-2.341927
-1.193456
-0.680260
-0.256398
0.563135
1.628310
2.335744
2.289914
1.686311
1.093584
0.976427
1.413981
2.115152
2.589738
2.363695
1.181013
-0.861162
-3.279023
-5.309311
-6.186420
-5.500555
-3.432326
-0.711925
1.687235
2.976838
2.890672
1.758764
0.313335
-0.642994
-0.586356
0.446526
1.793432
2.494030
1.937015
0.358477
-1.295103
-2.073543
-1.687626
-0.574200
0.619686
1.563107
2.256368
2.677737
2.657940
2.177291
1.607333
1.460449
1.905290
2.653962
3.325829
3.780754
4.066470
4.205364
4.140491
3.790301
3.055179
1.846242
0.225506
-1.482130
-2.775018
-3.220033
-2.693938
-1.471060
-0.071027
1.034993
1.590826
1.488893
0.680925
-0.755268
-2.514100
-4.121235
-5.151024
-5.448227
-5.195651
-4.763194
-4.450436
-4.346780
-4.415639
-4.679244
-5.288801
-6.392823
-7.940806
-9.641496
-11.106585
-11.978055
-11.912849
-10.592742
-7.943661
-4.387269
-0.765258
2.080530
3.669887
3.879572
2.737998
0.377532
-2.814323
-6.122019
-8.685122
-9.842403
-9.445635
-7.963736
-6.232233
-4.927165
-4.161801
-3.563735
-2.720902
-1.536941
-0.218490
0.948689
1.732323
1.921604
1.291717
-0.287319
-2.625469
-5.063219
-6.632446
-6.579438
-4.927635
-2.569790
-0.729419
-0.226353
-1.141619
-3.029775
-5.308753
-7.424904
-8.788707
-8.781498
-7.010311
-3.626676
0.624054
4.710734
7.752836
9.327264
9.535870
8.807678
7.512201
5.686494
3.223057
0.407815
-1.827191
-2.366460
-0.709882
2.672525
6.724688
10.476395
13.400743
15.365906
16.514128
17.219345
17.923740
18.745127
19.151146
18.138800
14.948474
9.743227
3.627209
-1.991511
-6.103505
-8.370751
-9.002545
-8.541036
-7.684682
-7.095206
-7.214311
-8.193797
-9.943052
-12.199425
-14.561338
-16.519733
-17.568493
-17.417564
-16.206881
-14.536973
-13.199516
-12.704363
-12.915560
-13.097980
-12.363161
-10.165507
-6.494901
-1.721509
3.673897
9.243200
14.536231
19.017347
22.096842
23.324154
22.626831
20.396961
17.309937
13.983766
10.759562
7.789565
5.315932
3.837381
3.967975
6.045026
9.754459
14.104135
17.849241
20.042294
20.249052
18.384228
14.530638
8.965927
2.234450
-4.924021
-11.706486
-17.289068
-20.828415
-21.602873
-19.345966
-14.555467
-8.473004
-2.685997
1.389995
2.891131
1.701976
-1.479355
-5.257410
-7.958793
-8.301627
-5.986039
-1.845419
2.547516
5.624584
6.520186
5.329337
2.820821
-0.116907
-2.883795
-5.210219
-6.935270
-7.825234
-7.648839
-6.412176
-4.483190
-2.507031
-1.208799
-1.119772
-2.223204
-3.757153
-4.519814
-3.575086
-0.781587
3.192103
7.132232
9.571802
9.227780
5.645008
-0.341611
-6.790134
-11.446349
-12.649220
-9.881323
-3.836215
3.916872
11.556047
17.713099
21.902296
24.366009
25.464367
25.179621
23.198343
19.442749
14.488181
9.444481
5.412491
3.009300
2.298863
2.994436
4.617657
6.558571
8.205688
9.156459
9.266761
8.437764
6.458532
3.233710
-0.842332
-4.906477
-8.103557
-10.034550
-10.816859
-10.890060
-10.850993
-11.283910
-12.404463
-13.727522
-14.216656
-12.932791
-9.671595
-5.136873
-0.622140
2.554601
3.601377
2.571216
0.285530
-2.118246
-3.755384
-4.366932
-4.314987
-4.202504
-4.376615
-4.738718
-4.994135
-4.956312
-4.542949
-3.641225
-2.173803
-0.284942
1.642195
3.147496
3.830625
3.430868
1.978620
-0.049738
-1.832334
-2.604311
-2.079614
-0.592779
1.109757
2.303184
2.699007
2.540975
2.275020
2.119018
2.005609
1.927598
2.229436
3.483118
6.062653
9.808387
14.050100
17.920052
20.655823
21.686888
20.600845
17.237886
11.956173
5.773375
0.047454
-4.266440
-7.267046
-10.061108
-13.939013
-19.385244
-25.679510
-31.310841
-34.806355
-35.399914
-33.212627
-28.955019
-23.419937
-17.200565
-10.870516
-5.265148
-1.292998
0.676055
1.178520
1.316309
1.990373
3.415691
5.260237
7.057584
8.390630
8.840309
8.044035
5.954642
3.012274
-0.006681
-2.361812
-3.671780
-4.015054
-3.792243
-3.443489
-3.198725
-3.045352
-2.926472
-2.948593
-3.360890
-4.320052
-5.708632
-7.229602
-8.668605
-10.005437
-11.256541
-12.264961
-12.695469
-12.247428
-10.888871
-8.921139
-6.827448
-5.008544
-3.589620
-2.455076
-1.510176
-0.941654
-1.166504
-2.409908
-4.262662
-5.678385
-5.515200
-3.242233
0.739973
5.412712
9.791400
13.349830
15.935969
17.431671
17.617641
16.383007
13.973475
10.964617
7.999804
5.538632
3.793583
2.849789
2.774754
3.528524
4.770693
5.872005
6.234714
5.650818
4.340633
2.615843
0.511355
-2.201028
-5.613730
-9.336327
-12.537545
-14.243655
-13.625798
-10.279592
-4.559468
2.275634
8.450337
12.498311
13.931556
13.250504
11.364183
8.928913
6.077956
2.638553
-1.429571
-5.751661
-9.637459
-12.474628
-14.058682
-14.561719
-14.252765
-13.347427
-12.082803
-10.758902
-9.640002
-8.901064
-8.698999
-9.195916
-10.398484
-11.951246
-13.183318
-13.481316
-12.648265
-10.889636
-8.507297
-5.695686
-2.659157
0.166757
2.177265
2.979313
2.685283
1.770009
0.632465
-0.675037
-2.296499
-4.221719
-6.159658
-7.766585
-8.918276
-9.670491
-9.944968
-9.314312
-7.170223
-3.174159
2.383368
8.577363
14.123565
17.720409
18.383467
15.786618
10.508679
3.976494
-2.001689
-5.954860
-7.348228
-6.700618
-5.132466
-3.639836
-2.572382
-1.613785
-0.200084
1.945343
4.529521
6.896038
8.591496
9.748759
10.841584
12.055610
12.992604
13.053051
12.058594
10.424066
8.744177
7.312778
6.078292
4.965334
4.100952
3.677314
3.658015
3.716405
3.465874
2.680587
1.322153
-0.482440
-2.360224
-3.633321
-3.533569
-1.728816
1.185512
3.754202
4.439129
2.571159
-1.266808
-5.660032
-9.197131
-11.151625
-11.662121
-11.395708
-10.967970
-10.523236
-9.742089
-8.243428
-6.096496
-4.059701
-3.285739
-4.616394
-7.990007
-12.419442
-16.454660
-18.700817
-18.183985
-14.606766
-8.417053
-0.567987
7.854158
15.815720
22.317532
26.448605
27.652828
25.992947
22.110729
16.884420
11.090449
5.314164
0.022536
-4.435927
-7.915328
-10.443580
-12.045672
-12.635889
-12.100270
-10.415064
-7.649041
-3.933469
0.451861
4.921599
8.559931
10.348745
9.559146
6.095827
0.634755
-5.471601
-10.485389
-12.767714
-11.404950
-6.709352
-0.187130
6.179861
10.933509
13.689193
14.869154
15.025982
14.455209
13.277910
11.634185
9.725104
7.774274
6.006473
4.590973
3.532218
2.676619
1.957373
1.645264
2.234694
3.987739
6.600558
9.361537
11.663764
13.390034
14.835296
16.290194
17.685148
18.542883
18.213316
16.251581
12.752500
8.427462
4.323269
1.301813
-0.434920
-1.460668
-2.741642
-4.963387
-8.010515
-10.931565
-12.395416
-11.357694
-7.570162
-1.705675
4.894851
10.667638
14.258437
14.867284
12.499257
8.026115
2.919992
-1.326637
-3.842510
-4.717988
-4.816900
-5.174209
-6.408941
-8.526499
-11.072931
-13.354197
-14.610814
-14.245943
-12.108313
-8.644587
-4.757231
-1.433133
0.584246
0.883799
-0.666705
-3.899503
-8.212093
-12.510158
-15.446028
-15.926177
-13.575856
-8.855117
-2.791954
3.476918
9.106357
13.684683
17.097818
19.297405
20.177849
19.633289
17.702177
14.631318
10.797714
6.591550
2.375717
-1.492947
-4.692053
-7.035884
-8.504966
-9.118234
-8.822944
-7.589412
-5.599625
-3.282570
-1.155297
0.354560
0.943674
0.349612
-1.666696
-5.144050
-9.651221
-14.188635
-17.462250
-18.468306
-17.036674
-13.924560
-10.364632
-7.395027
-5.450051
-4.461570
-4.269469
-4.873218
-6.317024
-8.466714
-11.000580
-13.604703
-16.118299
-18.454664
-20.386578
-21.459070
-21.175316
-19.305353
-16.049809
-11.961752
-7.734324
-3.981892
-1.063668
0.992058
2.385655
3.329729
3.923561
4.223942
4.398302
4.773913
5.708848
7.369663
9.577691
11.832021
13.504862
14.115064
13.521043
11.894581
9.518995
6.640939
3.526698
0.593255
-1.632913
-2.769359
-2.807044
-2.079959
-1.016383
0.084956
1.094092
1.952324
2.590604
2.961881
3.141377
3.348704
3.808792
4.552627
5.355586
5.893020
5.982065
5.701118
5.312875
5.112223
5.350698
6.230690
7.845713
10.046385
12.400205
14.391902
15.735453
16.480125
16.784815
16.612204
15.694802
13.821435
11.150369
8.245765
5.802568
4.261984
3.559010
3.143243
2.266427
0.376012
-2.612230
-6.283728
-9.885583
-12.568033
-13.656829
-12.919415
-10.692859
-7.738535
-4.903341
-2.844796
-1.959512
-2.407605
-4.078129
-6.531430
-9.099231
-11.178054
-12.477793
-12.983339
-12.716616
-11.628577
-9.757897
-7.412095
-5.078364
-3.115504
-1.558156
-0.230397
0.993153
2.063621
2.841755
3.242624
3.293599
3.079093
2.666701
2.132262
1.650096
1.470730
1.741470
2.372700
3.119058
3.778498
4.297176
4.709126
5.010536
5.094406
4.796026
4.016409
2.820873
1.418417
0.059756
-1.033616
-1.707310
-1.949787
-1.962703
-2.095025
-2.621927
-3.524640
-4.457158
-4.946815
-4.708393
-3.867198
-2.918489
-2.431292
-2.725044
-3.736982
-5.080825
-6.196010
-6.535325
-5.740879
-3.743107
-0.782881
2.597250
5.612287
7.433898
7.544989
6.062697
3.721132
1.402434
-0.450472
-1.994043
-3.557837
-5.103983
-6.163567
-6.277374
-5.412199
-3.934035
-2.281729
-0.751020
0.475204
1.243638
1.463015
1.193193
0.638462
0.017100
-0.562207
-1.090617
-1.553104
-1.879834
-2.017348
-1.998818
-1.867075
-1.495014
-0.534081
1.359965
4.170900
7.348521
9.989924
11.279091
10.916633
9.263332
