EVENT_NAME: CENTRAL_ITALY
EVENT_ID: EMSC-20160824_0000006
EVENT_DATE_YYYYMMDD: 20160824
EVENT_TIME_HHMMSS: 013632
EVENT_LATITUDE_DEGREE: 42.6983
EVENT_LONGITUDE_DEGREE: 13.2335
EVENT_DEPTH_KM: 8.1
HYPOCENTER_REFERENCE: INGV-CNT_Seismic_Bulletin
MAGNITUDE_W: 6.0
MAGNITUDE_W_REFERENCE: INGV-webservice
MAGNITUDE_L: 
MAGNITUDE_L_REFERENCE: 
FOCAL_MECHANISM: Normal faulting
NETWORK: IT
STATION_CODE: GSA
STATION_NAME: GRAN SASSO (LAB. INFN ASSERGI)
STATION_LATITUDE_DEGREE: 42.420689
STATION_LONGITUDE_DEGREE: 13.519362
STATION_ELEVATION_M: 1062
LOCATION: 
SENSOR_DEPTH_M: 0.0
VS30_M/S: 492
SITE_CLASSIFICATION_EC8: B
MORPHOLOGIC_CLASSIFICATION: 
EPICENTRAL_DISTANCE_KM: 38.8
EARTHQUAKE_BACKAZIMUTH_DEGREE: 142.6
DATE_TIME_FIRST_SAMPLE_YYYYMMDD_HHMMSS: 20160824_013633.964
DATE_TIME_FIRST_SAMPLE_PRECISION: milliseconds
SAMPLING_INTERVAL_S: 0.005000
NDATA: 13207
DURATION_S: 66.035
STREAM: HGN
UNITS: cm/s^2
INSTRUMENT: sensor = Unknown [Unknown] | digitizer = Unknown [Unknown]
INSTRUMENT_ANALOG/DIGITAL: D
INSTRUMENTAL_FREQUENCY_HZ: 
INSTRUMENTAL_DAMPING: 
FULL_SCALE_G: 
N_BIT_DIGITAL_CONVERTER: 
PGA_CM/S^2: -36.421310
TIME_PGA_S: 15.260000
BASELINE_CORRECTION: BASELINE REMOVED
FILTER_TYPE: BUTTERWORTH
FILTER_ORDER: 2
LOW_CUT_FREQUENCY_HZ: 0.050
HIGH_CUT_FREQUENCY_HZ: 30.000
LATE/NORMAL_TRIGGERED: NT
DATABASE_VERSION: 0.5
HEADER_FORMAT: DYNA 1.2
DATA_TYPE: ACCELERATION
PROCESSING: manual (Paolucci et al., 2011)
DATA_TIMESTAMP_YYYYMMDD_HHMMSS: 20201211_094920.656
DATA_LICENSE: CC-BY3_0-IT (http://creativecommons.org/licenses/by/3.0/deed.en)
DATA_CITATION: Luzi L, Puglia R, Russo E & ORFEUS WG5 (2016). Engineering Strong Motion Database. Istituto Nazionale di Geofisica e Vulcanologia, Observatories & Research Facilities for European Seismology. doi: 10.13127/ESM
DATA_CREATOR: ESM working group
ORIGINAL_DATA_MEDIATOR_CITATION: Ufficio Rischio Sismico e Vulcanico del Dipartimento della Protezione Civile (http://www.protezionecivile.gov.it/)
ORIGINAL_DATA_MEDIATOR: Rete Accelerometrica Nazionale - RAN Download (http://www.mot1.it/randownload/)
ORIGINAL_DATA_CREATOR_CITATION: Presidency Of Counsil Of Ministers-Civil Protection Department. (1972). Italian Strong Motion Network. Presidency of Counsil of Ministers - Civil Protection Department. https://doi.org/10.7914/SN/IT http://www.fdsn.org/networks/detail/IT/
ORIGINAL_DATA_CREATOR: network: IT (Italian Strong Motion Network (RAN)); owner: Presidency of Counsil of Ministers - Civil Protection Department (PCM - DPC)
USER1: 
USER2: 
USER3: 
USER4: 
USER5: 
[...]
-0.648000
0.497177
1.650319
2.418097
2.628000
2.401058
2.040624
1.817757
1.821711
1.946490
1.967852
1.675257
1.027198
0.207920
-0.518435
-1.044708
-1.504521
-2.111239
-2.903603
-3.621858
-3.819097
-3.138772
-1.588929
0.356399
1.932719
2.491944
1.888327
0.537980
-0.903179
-1.950910
-2.435225
-2.322744
-1.507644
0.144738
2.530249
5.110514
7.051326
7.657568
6.783442
4.904471
2.824846
1.251072
0.476228
0.317684
0.345112
0.231062
-0.093491
-0.571418
-1.156121
-1.714192
-1.884288
-1.238338
0.289658
2.142978
3.377495
3.240915
1.634953
-0.861112
-3.366673
-5.187591
-6.081095
-6.137766
-5.460127
-3.994616
-1.664276
1.376470
4.619622
7.304332
8.665050
8.212542
5.961372
2.510718
-1.120788
-3.885544
-5.115842
-4.718946
-3.096860
-0.907608
1.161012
2.519879
2.771753
1.869367
0.274922
-1.112914
-1.376531
-0.110903
2.309536
4.900553
6.548747
6.531421
4.811756
1.977885
-1.076584
-3.488326
-4.631028
-4.232172
-2.448373
0.173850
2.914729
5.162675
6.562111
6.972618
6.372968
4.856633
2.721957
0.513520
-1.146426
-1.910624
-1.949819
-1.787957
-1.820211
-1.969238
-1.804743
-0.979019
0.433082
1.943598
2.949008
3.080057
2.383252
1.247485
0.168102
-0.474879
-0.544613
-0.204291
0.155148
0.221649
0.120191
0.359137
1.245790
2.364957
2.803900
2.003001
0.369335
-0.980968
-1.098795
0.097515
1.841343
3.148362
3.490952
2.994956
2.117628
1.229232
0.487853
-0.028124
-0.206543
0.077628
0.897374
2.234394
3.950958
5.773630
7.304498
8.045382
7.463331
5.201571
1.430165
-2.941224
-6.517101
-8.094130
-7.302725
-4.765281
-1.728780
0.529597
1.229865
0.398429
-1.194804
-2.568181
-3.224773
-3.399361
-3.632990
-4.167563
-4.765657
-4.990148
-4.529279
-3.293912
-1.361291
1.072960
3.683498
5.982969
7.369440
7.350755
5.853728
3.326398
0.477062
-2.127723
-4.239925
-5.777473
-6.581440
-6.388717
-5.073024
-2.894510
-0.463478
1.584249
2.929013
3.687022
4.266885
5.036571
5.968815
6.574881
6.313955
5.154871
3.681527
2.593655
2.128328
1.948357
1.488273
0.383142
-1.287094
-2.994636
-4.001662
-3.784718
-2.420458
-0.615735
0.709794
0.981624
0.237560
-1.022227
-2.176070
-2.760397
-2.626575
-1.990636
-1.319141
-1.042197
-1.294602
-1.904249
-2.563691
-2.960941
-2.837248
-2.109536
-1.042616
-0.239490
-0.306624
-1.404048
-3.092403
-4.624797
-5.373850
-5.031535
-3.603169
-1.419559
0.858960
2.478101
3.035626
2.723639
2.061344
1.388026
0.680514
-0.169342
-1.064607
-1.796951
-2.357448
-3.014538
-4.027773
-5.309967
-6.392448
-6.729519
-6.090875
-4.741793
-3.251905
-2.036395
-1.004376
0.301251
2.101126
3.861997
4.457184
3.011674
-0.253279
-3.954161
-6.369315
-6.478795
-4.428770
-1.217653
1.978753
4.318739
5.442951
5.378090
4.368669
2.711197
0.632130
-1.700040
-3.985250
-5.617853
-5.871564
-4.467370
-1.998783
0.309920
1.360959
0.814600
-0.812003
-2.496169
-3.226934
-2.453262
-0.321742
2.369897
4.517315
5.243737
4.360613
2.478390
0.694379
0.049191
1.038900
3.385887
6.179306
8.376590
9.392704
9.327972
8.650925
7.671035
6.306009
4.291468
1.568247
-1.485754
-4.145379
-5.707598
-5.878618
-4.855096
-3.065039
-0.907513
1.220649
2.773803
3.165712
2.166959
0.169679
-2.025064
-3.726443
-4.696771
-5.071282
-5.070800
-4.873343
-4.708366
-4.880846
-5.507598
-6.201709
-6.168425
-4.792166
-2.212554
0.650222
2.604895
2.794528
1.069566
-1.940584
-5.054808
-7.013994
-7.002352
-4.955386
-1.512386
2.340330
5.721121
8.108694
9.262121
9.009463
7.263363
4.299997
0.906875
-1.918291
-3.523874
-3.940756
-3.757003
-3.664897
-3.977197
-4.397350
-4.212592
-2.807156
-0.116870
3.296417
6.498658
8.501183
8.544494
6.407339
2.646736
-1.489743
-4.577184
-5.724977
-5.074810
-3.726691
-3.045274
-3.756142
-5.492345
-7.164956
-7.847173
-7.426758
-6.550242
-6.020189
-6.175417
-6.690922
-6.881898
-6.231864
-4.724785
-2.770261
-0.874442
0.630137
1.632721
2.144311
2.207625
1.900144
1.396427
0.967675
0.811319
0.795327
0.417671
-0.826048
-2.926259
-5.222708
-6.834406
-7.237558
-6.443197
-4.737671
-2.432669
0.091170
2.267137
3.465774
3.295878
1.795013
-0.585881
-3.084719
-4.781727
-4.921254
-3.367591
-0.824182
1.518205
2.697089
2.459396
1.189822
-0.475809
-1.958381
-2.844383
-2.918202
-2.210778
-1.014740
0.220461
1.102038
1.498749
1.604460
1.788110
2.279700
2.907715
3.142417
2.467343
0.807647
-1.303293
-2.963357
-3.448812
-2.706910
-1.351262
-0.103925
0.788048
1.601194
2.721259
4.292729
6.190304
8.109350
9.582737
10.035916
9.029078
6.560790
3.159012
-0.336169
-3.142140
-4.823316
-5.356239
-4.974958
-3.935848
-2.389443
-0.462092
1.533106
2.996975
3.258457
2.010053
-0.405379
-3.139461
-5.303820
-6.372762
-6.275391
-5.266864
-3.777696
-2.274950
-1.099044
-0.379568
-0.135598
-0.410863
-1.203595
-2.262601
-3.102015
-3.369539
-3.210807
-3.162236
-3.599171
-4.288697
-4.489373
-3.471870
-1.023504
2.332674
5.451463
7.018255
6.230787
3.316816
-0.543536
-3.876557
-5.664042
-5.725112
-4.660688
-3.495405
-3.118553
-3.712198
-4.549005
-4.432619
-2.551425
0.892399
4.762734
7.675192
8.727355
7.785939
5.308525
2.024897
-1.253741
-3.713916
-4.694671
-3.971658
-1.946781
0.504394
2.467323
3.392896
3.233805
2.323175
1.157080
0.223772
-0.068039
0.582587
2.259804
4.640679
6.954864
8.299798
8.176942
6.846299
5.192285
4.164008
4.198048
5.063476
6.208100
7.234646
8.061742
8.706616
9.037038
8.831375
8.068022
7.039675
6.098895
5.326533
4.505181
3.391549
1.987232
0.616442
-0.170689
0.176818
1.896536
4.667159
7.652307
9.865185
10.606721
9.693414
7.426877
4.446697
1.561267
-0.474332
-1.253214
-0.947302
-0.257582
-0.059220
-0.962228
-2.987235
-5.435356
-7.077427
-6.760714
-4.170661
-0.151142
3.772779
6.320426
7.060180
6.273276
4.399411
1.724982
-1.427969
-4.396267
-6.257976
-6.318943
-4.563302
-1.696238
1.196297
3.120777
3.579682
2.739898
1.217199
-0.411154
-1.937690
-3.422468
-4.886338
-6.187909
-7.118941
-7.481518
-7.076251
-5.776457
-3.753616
-1.603676
-0.111560
0.216334
-0.576100
-2.034750
-3.624508
-4.940611
-5.764542
-6.074748
-6.029624
-5.890812
-5.939824
-6.452254
-7.664852
-9.635754
-12.074973
-14.358207
-15.801136
-16.014845
-15.081965
-13.464002
-11.779253
-10.615085
-10.360139
-10.977639
-11.849119
-11.985409
-10.652753
-7.967542
-4.893794
-2.587974
-1.646381
-1.851710
-2.513623
-3.043134
-3.336663
-3.732268
-4.576905
-5.759601
-6.668594
-6.662926
-5.616175
-4.020737
-2.613713
-1.908143
-1.957267
-2.393012
-2.657473
-2.342105
-1.471343
-0.521390
-0.138802
-0.775317
-2.465701
-4.776723
-6.893832
-7.911671
-7.316139
-5.360713
-2.962941
-1.108739
-0.213131
0.071518
0.530720
1.888904
4.494165
8.274681
12.838336
17.574766
21.723379
24.467205
25.149012
23.630842
20.598944
17.442404
15.544721
15.394343
16.243204
16.650993
15.501668
12.727948
9.300386
6.618911
5.756065
6.939329
9.466244
12.067091
13.533498
13.267377
11.433856
8.658274
5.526556
2.289881
-1.030952
-4.358258
-7.458515
-10.100915
-12.228362
-13.979513
-15.619084
-17.418125
-19.444904
-21.350636
-22.382668
-21.734711
-19.053070
-14.775228
-10.067452
-6.338006
-4.545320
-4.701322
-5.921741
-7.031252
-7.306967
-6.817122
-6.153411
-5.873303
-6.145360
-6.778265
-7.430338
-7.759862
-7.490588
-6.484143
-4.836797
-2.906705
-1.175742
0.014415
0.660341
1.052100
1.512727
2.144647
2.782476
3.150686
3.097849
2.799931
2.813384
3.832926
6.208687
9.599960
13.137549
16.025482
18.088427
19.806168
21.824720
24.355986
26.890909
28.343208
27.510790
23.697283
17.243999
9.594711
2.694993
-1.957624
-3.954202
-3.892672
-2.763445
-1.341009
0.045705
1.377989
2.693210
3.940562
5.018172
5.903373
6.718450
7.632056
8.657380
9.548791
9.936554
9.582010
8.488644
6.793178
4.653706
2.317924
0.223915
-1.111905
-1.356173
-0.496046
1.222992
3.406272
5.585663
7.327471
8.385586
8.798658
8.862173
9.012595
9.678836
11.106800
13.193411
15.462630
17.268631
18.115646
17.898458
16.958494
15.944038
15.510263
15.968456
17.062441
18.019056
17.872198
15.891456
11.899800
6.352644
0.156462
-5.695819
-10.501779
-14.062291
-16.639269
-18.697556
-20.581629
-22.257460
-23.201271
-22.582088
-19.799114
-15.065354
-9.549865
-4.916362
-2.541491
-2.847161
-5.103240
-7.840914
-9.622578
-9.651416
-7.926939
-5.063005
-1.978922
0.472017
1.860988
2.299359
2.176054
1.749692
0.991740
-0.217240
-1.830887
-3.628912
-5.415284
-7.137774
-8.793078
-10.249610
-11.169299
-11.091989
-9.638166
-6.717050
-2.603473
2.182214
7.110211
11.823626
16.165728
20.081808
23.474234
26.083282
27.482292
27.229046
25.065676
21.004513
15.280324
8.294365
0.644718
-6.807248
-12.975114
-16.800673
-17.696827
-15.923952
-12.515372
-8.665605
-5.041919
-1.608085
1.952889
5.683050
9.145615
11.638754
12.562283
11.698161
9.342289
6.281895
3.586253
2.230468
2.683646
4.664622
7.242193
9.273958
9.943335
9.108872
7.325418
5.562164
4.767112
5.476644
7.613228
10.514300
13.158186
14.516090
13.915176
11.243916
6.913094
1.673864
-3.577050
-7.987133
-10.934157
-12.142306
-11.659793
-9.739463
-6.762952
-3.287661
-0.124912
1.746246
1.521355
-1.015175
-5.326722
-10.330020
-14.790950
-17.668295
-18.313629
-16.594011
-13.010696
-8.723269
-5.251608
-3.796647
-4.559176
-6.614571
-8.461498
-8.805067
-7.093726
-3.645050
0.597046
4.576402
7.694219
10.080887
12.372124
15.204750
18.837917
23.082830
27.412626
31.034086
32.894733
31.875891
27.345985
19.734100
10.504720
1.416476
-6.308369
-12.224645
-16.297703
-18.483902
-18.731495
-17.327881
-15.114010
-13.225591
-12.502959
-13.011227
-14.014712
-14.424378
-13.427884
-10.934736
-7.648063
-4.789886
-3.619215
-4.934501
-8.770628
-14.423816
-20.755144
-26.595495
-31.086676
-33.834091
-34.807678
-34.082699
-31.643410
-27.406282
-21.420998
-14.088786
-6.254171
0.894147
6.098423
8.451607
7.880757
5.390422
2.677367
1.174078
1.170894
1.701643
1.302978
-0.901700
-4.564130
-8.343060
-10.802729
-11.295864
-10.193605
-8.417952
-6.806987
-5.812029
-5.562383
-6.030954
-7.095464
-8.506139
-9.890543
-10.848895
-11.075886
-10.468927
-9.206113
-7.677999
-6.197151
-4.698538
-2.776368
-0.077028
3.359767
7.162205
10.928579
14.330261
16.914501
17.957294
16.674353
12.706632
6.521292
-0.589070
-6.923500
-10.951610
-11.796779
-9.476002
-4.818259
0.873078
6.171724
9.740516
10.527635
8.079330
2.833086
-3.886082
-10.299988
-14.878132
-16.918941
-16.680080
-15.029163
-12.885445
-10.793904
-8.809617
-6.659687
-4.061525
-1.060162
1.813946
3.734081
4.018036
2.496484
-0.420134
-3.941460
-7.194572
-9.479497
-10.396522
-9.790620
-7.571482
-3.640488
1.897849
8.419653
14.753298
19.568069
21.892944
21.413567
18.470510
13.877810
8.663381
3.812817
0.104312
-1.955775
-2.164282
-0.642676
2.184839
5.647276
8.900557
11.080660
11.566816
10.236830
7.545729
4.354231
1.562622
-0.291611
-1.262968
-1.906194
-2.896789
-4.583181
-6.744116
-8.692367
-9.630961
-9.014204
-6.713788
-2.982241
1.648074
6.432739
10.506464
13.090218
13.745659
12.496170
9.756609
6.174895
2.473354
-0.718051
-3.040893
-4.504833
-5.391760
-6.027053
-6.626852
-7.329395
-8.290009
-9.654979
-11.405681
-13.266742
-14.829376
-15.789253
-16.062607
-15.688069
-14.659920
-12.894689
-10.378897
-7.391123
-4.627128
-3.055403
-3.480952
-6.066611
-10.146009
-14.426939
-17.431870
-18.013245
-15.838380
-11.647717
-7.035222
-3.746075
-2.862864
-4.336556
-7.063893
-9.422678
-9.998527
-8.160930
-4.233944
0.751465
5.509186
8.901026
10.193754
9.202284
6.320959
2.404960
-1.490512
-4.435883
-5.887087
-5.777625
-4.439857
-2.403830
-0.148976
2.061034
4.157145
6.101994
7.745389
8.818140
9.044379
8.268662
6.543885
4.196594
1.833539
0.184217
-0.225000
0.605633
2.047252
3.080839
2.796561
0.868098
-2.304085
-5.849156
-8.873884
-10.812097
-11.492733
-10.944742
-9.161739
-6.075221
-1.763751
3.313485
8.301071
12.241187
14.547992
15.349636
15.412104
15.664295
16.663877
18.343859
20.120081
21.229956
21.086681
19.449947
16.411661
12.385083
8.152421
4.751109
3.023571
3.047342
3.943986
4.348154
3.270996
0.760723
-2.078750
-3.695261
-2.915731
0.471842
5.604581
10.866437
14.513484
15.390948
13.390078
9.357177
4.557467
0.107549
-3.311958
-5.452956
-6.375372
-6.365730
-5.916283
-5.635444
-6.023319
-7.260268
-9.183780
-11.405227
-13.410087
-14.643944
-14.688252
-13.501528
-11.556423
-9.722175
-8.910871
-9.669348
-11.905611
-14.845202
-17.254732
-17.921192
-16.233604
-12.555180
-8.127787
-4.533842
-3.000770
-3.896593
-6.656799
-10.154929
-13.248554
-15.116938
-15.248696
-13.294664
-9.053591
-2.636940
5.326065
13.639467
20.799664
25.517979
27.202192
26.059084
22.772419
18.036779
12.267393
5.597492
-1.916560
-10.036602
-18.200844
-25.597919
-31.407822
-35.069126
-36.421310
-35.635254
-33.026054
-28.952833
-23.852568
-18.274727
-12.842443
-8.173844
-4.761910
-2.796861
-2.035174
-1.867163
-1.574436
-0.600486
1.318869
4.169094
7.721991
11.597580
15.345278
18.559868
20.978865
22.484316
23.022806
22.578705
21.277426
19.483538
17.718023
16.427664
15.791047
15.686938
15.827336
15.971409
16.079254
16.285978
16.721033
17.340645
17.922073
18.211016
18.080103
17.571625
16.822966
15.956080
15.001288
13.892659
12.531969
10.869696
8.951599
6.911327
4.903016
3.001635
1.147418
-0.819149
-3.071006
-5.714746
-8.734849
-11.982529
-15.242460
-18.321976
-21.015465
-22.927151
-23.391195
-21.715437
-17.634123
-11.612244
-4.782672
1.409309
5.659777
7.216187
6.140251
3.308114
0.088209
-2.201654
-2.819607
-1.870324
-0.205210
1.003435
0.846008
-0.826931
-3.257992
-5.107863
-5.079764
-2.505992
2.355146
8.396634
14.060719
17.888611
19.003958
17.371201
13.771851
9.501894
5.859687
3.640084
2.929224
3.300645
4.193271
5.153701
5.834109
5.917550
5.192202
3.758067
2.126017
1.036252
1.069852
2.287543
4.121484
5.616819
5.923737
4.773106
2.658626
0.618147
-0.266958
0.612341
3.120569
6.447643
9.434639
10.996288
10.504041
8.017477
4.265491
0.358792
-2.643196
-4.120224
-4.097016
-3.201717
-2.378906
-2.478145
-3.919631
-6.563940
-9.775744
-12.625395
-14.201339
-13.979196
-12.086831
-9.263152
-6.457766
-4.304635
-2.871389
-1.877534
-1.124928
-0.705497
-0.855601
-1.697710
-3.124227
-4.843368
-6.474209
-7.637594
-8.053816
-7.619594
-6.407122
-4.592317
-2.382514
0.014288
2.382678
4.466657
5.956584
6.582310
6.316225
5.521363
4.843623
4.861136
5.768432
7.368224
9.345148
11.524342
13.859270
16.192772
18.076616
18.882208
18.156906
15.946036
12.817108
9.560683
6.780288
4.645272
2.957322
1.455976
0.118249
-0.749381
-0.647039
0.841435
3.739401
7.489458
11.041041
13.207443
13.077771
10.261026
4.938464
-2.170632
-9.909134
-16.933893
-22.121874
-24.935495
-25.510284
-24.435661
-22.424091
-20.065849
-17.709576
-15.426725
-13.070883
-10.465129
-7.642647
-4.955284
-2.920913
-1.885044
-1.736775
-1.888405
-1.543724
-0.114118
2.424446
5.436341
7.903981
8.972755
8.430778
6.788335
4.913631
3.514370
2.818721
2.591725
2.374585
1.752515
0.524203
-1.250988
-3.288884
-5.158778
-6.390335
-6.603072
-5.642920
-3.689333
-1.259646
0.951596
2.352506
2.688681
2.072166
0.791352
-0.932421
-3.027419
-5.434778
-7.911452
-9.975650
-11.040153
-10.618660
-8.484128
-4.756391
0.060763
5.127185
9.454143
12.197480
12.925472
11.736616
9.179253
6.017552
2.967805
0.536784
-0.988813
-1.469707
-0.895729
0.522547
2.298628
3.840629
4.782171
5.167129
5.299903
5.419414
5.503240
5.313272
4.554772
3.026212
0.759159
-1.882300
-4.269283
-5.772507
-6.035699
-5.047174
-3.016748
-0.241404
2.914995
5.984003
8.439259
9.874712
10.192927
9.637184
8.641082
7.623040
6.852463
6.417905
6.273841
6.339081
6.601065
7.149691
8.090271
9.388994
10.793228
11.926722
12.510787
12.546045
12.289854
11.998474
11.625951
10.785572
9.083257
6.561433
3.855412
1.921506
1.543517
2.930012
5.592603
8.535377
10.674890
11.323701
10.508413
8.933690
7.582163
7.155681
7.675971
8.487436
8.659957
7.534801
5.076133
1.835307
-1.389001
-3.908838
-5.297212
-5.361038
-4.124407
-1.907357
0.618971
2.571340
3.203488
2.278806
0.207146
-2.173949
-4.041189
-4.984680
-5.164173
-5.175652
-5.719684
-7.248337
-9.768758
-12.878378
-15.963523
-18.429815
-19.870842
-20.141212
-19.331905
-17.665440
-15.356998
-12.512088
-9.122347
-5.170249
-0.779105
3.704805
7.774351
10.926091
12.802986
13.241534
12.257940
10.030844
6.882746
3.246529
-0.365070
-3.385260
-5.269280
-5.655213
-4.528131
-2.244525
0.627139
3.527775
6.023968
7.795906
8.634732
8.541981
7.826382
7.025227
6.646177
6.919863
7.743239
8.806151
9.751320
10.259089
10.075191
9.044440
7.159947
4.591793
1.663603
-1.232683
-3.748242
-5.622746
-6.610840
-6.393500
-4.654660
-1.338234
3.141973
7.961824
12.177868
15.041877
16.197878
15.722065
14.000698
11.507925
8.625480
5.601136
2.606109
-0.200672
-2.630711
-4.438932
-5.357183
-5.242017
-4.250706
-2.847162
-1.571454
-0.758474
-0.444548
-0.494555
-0.774128
-1.199960
-1.674199
-2.036030
-2.113308
-1.827977
-1.277972
-0.763883
-0.725978
-1.550465
-3.311540
-5.648481
-7.923174
-9.570715
-10.395926
-10.639473
-10.821545
-11.482855
-12.947056
-15.186072
-17.815601
-20.201408
-21.642366
-21.602194
-19.939857
-17.033646
-13.687051
-10.819533
-9.102807
-8.740364
-9.476189
-10.772945
-12.029614
-12.746530
-12.634686
-11.697703
-10.254122
-8.821193
-7.859335
-7.521609
-7.593553
-7.674475
-7.462321
-6.939644
-6.363098
-6.101083
-6.409483
-7.228821
-8.116796
-8.421747
-7.653212
-5.816978
-3.465306
-1.413770
-0.304681
-0.270189
-0.876930
-1.398517
-1.281848
-0.517235
0.348503
0.569540
-0.318713
-2.202248
-4.429099
-6.131823
-6.629892
-5.697652
-3.607245
-0.998315
1.344711
2.768756
3.014111
2.313127
1.212933
0.205377
-0.587057
-1.458174
-2.880288
-5.140039
-8.054690
-10.915315
-12.698062
-12.469580
-9.811731
-5.050887
0.843818
6.641370
11.295754
14.237886
15.415938
15.142259
13.889542
12.144866
10.345017
8.860200
7.969319
7.787293
8.171737
8.699080
8.791986
7.986875
6.200228
3.800726
1.419121
-0.369006
-1.283952
-1.404802
-1.082117
-0.776042
-0.876254
-1.548955
-2.679534
-3.965756
-5.117011
-6.015989
-6.723534
-7.350840
-7.938230
-8.433615
-8.718006
-8.591099
-7.757503
-5.929643
