EVENT_NAME: CENTRAL_ITALY
EVENT_ID: EMSC-20160824_0000006
EVENT_DATE_YYYYMMDD: 20160824
EVENT_TIME_HHMMSS: 013632
EVENT_LATITUDE_DEGREE: 42.6983
EVENT_LONGITUDE_DEGREE: 13.2335
EVENT_DEPTH_KM: 8.1
HYPOCENTER_REFERENCE: INGV-CNT_Seismic_Bulletin
MAGNITUDE_W: 6.0
MAGNITUDE_W_REFERENCE: INGV-webservice
MAGNITUDE_L: 
MAGNITUDE_L_REFERENCE: 
FOCAL_MECHANISM: Normal faulting
NETWORK: IT
STATION_CODE: NRC
STATION_NAME: NORCIA
STATION_LATITUDE_DEGREE: 42.792543
STATION_LONGITUDE_DEGREE: 13.096475
STATION_ELEVATION_M: 616
LOCATION: 
SENSOR_DEPTH_M: 0.0
VS30_M/S: 498
SITE_CLASSIFICATION_EC8: B
MORPHOLOGIC_CLASSIFICATION: 
EPICENTRAL_DISTANCE_KM: 15.3
EARTHQUAKE_BACKAZIMUTH_DEGREE: 313.1
DATE_TIME_FIRST_SAMPLE_YYYYMMDD_HHMMSS: 20160824_013629.848
DATE_TIME_FIRST_SAMPLE_PRECISION: milliseconds
SAMPLING_INTERVAL_S: 0.005000
NDATA: 8000
DURATION_S: 40.000
STREAM: HGN
UNITS: cm/s^2
INSTRUMENT: sensor = Unknown [Unknown] | digitizer = Unknown [Unknown]
INSTRUMENT_ANALOG/DIGITAL: D
INSTRUMENTAL_FREQUENCY_HZ: 
INSTRUMENTAL_DAMPING: 
FULL_SCALE_G: 
N_BIT_DIGITAL_CONVERTER: 
PGA_CM/S^2: 366.771637
TIME_PGA_S: 10.075000
BASELINE_CORRECTION: BASELINE REMOVED
FILTER_TYPE: BUTTERWORTH
FILTER_ORDER: 2
LOW_CUT_FREQUENCY_HZ: 0.080
HIGH_CUT_FREQUENCY_HZ: 50.000
LATE/NORMAL_TRIGGERED: NT
DATABASE_VERSION: 0.5
HEADER_FORMAT: DYNA 1.2
DATA_TYPE: ACCELERATION
PROCESSING: manual (Paolucci et al., 2011)
DATA_TIMESTAMP_YYYYMMDD_HHMMSS: 20201211_094926.711
DATA_LICENSE: CC-BY3_0-IT (http://creativecommons.org/licenses/by/3.0/deed.en)
DATA_CITATION: Luzi L, Puglia R, Russo E & ORFEUS WG5 (2016). Engineering Strong Motion Database. Istituto Nazionale di Geofisica e Vulcanologia, Observatories & Research Facilities for European Seismology. doi: 10.13127/ESM
DATA_CREATOR: ESM working group
ORIGINAL_DATA_MEDIATOR_CITATION: Ufficio Rischio Sismico e Vulcanico del Dipartimento della Protezione Civile (http://www.protezionecivile.gov.it/)
ORIGINAL_DATA_MEDIATOR: Rete Accelerometrica Nazionale - RAN Download (http://www.mot1.it/randownload/)
ORIGINAL_DATA_CREATOR_CITATION: Presidency Of Counsil Of Ministers-Civil Protection Department. (1972). Italian Strong Motion Network. Presidency of Counsil of Ministers - Civil Protection Department. https://doi.org/10.7914/SN/IT http://www.fdsn.org/networks/detail/IT/
ORIGINAL_DATA_CREATOR: network: IT (Italian Strong Motion Network (RAN)); owner: Presidency of Counsil of Ministers - Civil Protection Department (PCM - DPC)
USER1: 
USER2: 
USER3: 
USER4: 
USER5: 
[...]
0.017111
0.016829
0.014962
0.012063
0.011781
0.014714
0.014924
0.012449
0.012327
0.014030
0.014618
0.014430
0.014539
0.014509
0.014434
0.014567
0.014679
0.015078
0.015195
0.014932
0.014827
0.014690
0.014972
0.014752
0.014182
0.014950
0.014919
0.014198
0.015362
0.016217
0.015746
0.015494
0.015233
0.015045
0.014847
0.015387
0.017094
0.016337
0.013879
0.014704
0.016173
0.015509
0.016119
0.016607
0.014856
0.014879
0.016019
0.015498
0.016281
0.017651
0.016765
0.016502
0.017120
0.016817
0.017696
0.018046
0.016182
0.016056
0.017615
0.018143
0.017489
0.016614
0.017078
0.018343
0.019469
0.019753
0.018296
0.017329
0.017756
0.018264
0.018860
0.018337
0.017434
0.018492
0.019255
0.018563
0.019244
0.020317
0.018587
0.017032
0.019716
0.021897
0.019687
0.019215
0.022324
0.022357
0.019472
0.019290
0.021030
0.020537
0.017825
0.016926
0.019150
0.019749
0.017708
0.018145
0.020091
0.019374
0.018948
0.021281
0.022849
0.022213
0.021522
0.021945
0.022826
0.022516
0.021382
0.021444
0.022564
0.023004
0.021663
0.020242
0.020344
0.020672
0.021431
0.022028
0.020691
0.019625
0.020070
0.021540
0.023369
0.022535
0.021134
0.023465
0.025431
0.023554
0.022091
0.024069
0.025629
0.022873
0.019709
0.020763
0.023121
0.022884
0.021323
0.021761
0.024770
0.027123
0.025826
0.023351
0.023977
0.025477
0.024331
0.023332
0.024206
0.023794
0.022564
0.023935
0.025854
0.025751
0.025062
0.024091
0.024198
0.026306
0.026456
0.024683
0.025478
0.027248
0.026310
0.025347
0.026850
0.026906
0.024838
0.025706
0.027990
0.026572
0.024384
0.026356
0.029512
0.028402
0.024861
0.024359
0.027267
0.029313
0.028151
0.026784
0.027840
0.028655
0.027179
0.027201
0.029976
0.029785
0.027035
0.027808
0.030130
0.029851
0.028618
0.028102
0.027686
0.026819
0.026156
0.026552
0.027339
0.027986
0.028589
0.028813
0.029374
0.030330
0.029780
0.028792
0.030107
0.031487
0.029905
0.028368
0.030142
0.031432
0.029225
0.028618
0.030893
0.030286
0.028025
0.029316
0.032196
0.032225
0.030158
0.030565
0.032765
0.030929
0.028210
0.031342
0.034414
0.031807
0.029975
0.032072
0.033136
0.032057
0.031583
0.031621
0.032004
0.032878
0.031868
0.031125
0.033706
0.034059
0.031132
0.031337
0.033581
0.033727
0.032887
0.033098
0.033742
0.032681
0.031252
0.032455
0.034504
0.034620
0.034244
0.035347
0.035913
0.034985
0.035283
0.035133
0.033286
0.034372
0.036646
0.035323
0.033859
0.034856
0.035027
0.033376
0.033251
0.035671
0.036937
0.036599
0.036986
0.036670
0.035783
0.035591
0.035298
0.036042
0.037051
0.036438
0.035577
0.035780
0.036268
0.035120
0.035919
0.040351
0.039846
0.035672
0.036884
0.039511
0.038419
0.038292
0.040155
0.039153
0.037249
0.038339
0.039117
0.037088
0.035203
0.037330
0.040938
0.039669
0.036525
0.037747
0.040322
0.039809
0.037430
0.037056
0.040116
0.041425
0.038963
0.038911
0.040306
0.038627
0.038110
0.039948
0.040832
0.041717
0.041589
0.039539
0.040146
0.043118
0.042847
0.040900
0.041889
0.042779
0.040813
0.039724
0.040537
0.040847
0.040705
0.041473
0.042736
0.042009
0.040625
0.042635
0.045913
0.046257
0.044481
0.043515
0.044012
0.044453
0.043853
0.042943
0.043226
0.043872
0.043393
0.043530
0.044714
0.044798
0.043929
0.043599
0.044354
0.045923
0.046171
0.044418
0.044506
0.046441
0.045982
0.044696
0.045506
0.046930
0.047048
0.045424
0.044689
0.046310
0.046874
0.046259
0.047215
0.047749
0.045979
0.045274
0.047160
0.047453
0.045713
0.046550
0.049205
0.048746
0.045804
0.045876
0.048733
0.049256
0.047860
0.048117
0.048990
0.047425
0.045943
0.047940
0.049453
0.048574
0.048654
0.049789
0.051093
0.051130
0.048422
0.046938
0.049292
0.050878
0.048704
0.047261
0.049735
0.051860
0.050617
0.048567
0.048610
0.050559
0.051286
0.050116
0.049972
0.051050
0.051546
0.052378
0.053970
0.053732
0.052158
0.052187
0.052155
0.050400
0.050657
0.053591
0.053864
0.051791
0.051992
0.053458
0.054061
0.053649
0.052400
0.052225
0.053416
0.053389
0.052703
0.054360
0.056121
0.054547
0.052995
0.054319
0.055396
0.055019
0.054719
0.053717
0.053265
0.055521
0.056754
0.055521
0.055669
0.056079
0.055436
0.056625
0.057631
0.055633
0.054523
0.056999
0.060866
0.065392
0.070991
0.077461
0.087155
0.099709
0.108085
0.109328
0.107166
0.099127
0.077804
0.045863
0.010987
-0.025101
-0.056832
-0.073472
-0.071530
-0.053075
-0.020118
0.025430
0.079969
0.132263
0.172391
0.205560
0.233391
0.240844
0.221857
0.192397
0.168961
0.145973
0.106625
0.054041
0.004411
-0.041087
-0.084881
-0.111252
-0.104179
-0.073391
-0.037614
0.006511
0.071742
0.150916
0.223819
0.276952
0.298496
0.272255
0.200578
0.117864
0.060545
0.035535
0.027152
0.025626
0.030568
0.031448
0.023741
0.036079
0.091442
0.157134
0.184581
0.171060
0.133835
0.074273
0.012452
-0.004283
0.036115
0.092530
0.138971
0.195929
0.272259
0.335536
0.363184
0.361422
0.316713
0.204532
0.058442
-0.050103
-0.108032
-0.165256
-0.237596
-0.275492
-0.234959
-0.119268
0.037624
0.171853
0.191182
0.063705
-0.072699
-0.000134
0.316247
0.653222
0.784980
0.711882
0.568116
0.441989
0.377400
0.397046
0.420047
0.276585
-0.089824
-0.480771
-0.592238
-0.295801
0.261001
0.748159
0.844222
0.502706
0.051459
-0.111793
0.075433
0.353392
0.488506
0.403114
0.087775
-0.287014
-0.333357
0.126579
0.765174
1.120895
1.041624
0.643110
0.152869
-0.105108
0.073452
0.463491
0.620266
0.427592
0.155375
0.062381
0.239227
0.677459
1.186327
1.404775
1.176062
0.766625
0.497043
0.369625
0.267706
0.219865
0.230620
0.152321
-0.069739
-0.269868
-0.307352
-0.229469
-0.106006
0.112837
0.487805
0.942136
1.334257
1.689029
2.161617
2.679638
2.893218
2.596232
1.951556
1.246736
0.671500
0.369033
0.413873
0.626183
0.640160
0.283301
-0.256970
-0.714667
-0.966432
-0.883538
-0.384415
0.256115
0.676867
0.952740
1.298380
1.507302
1.245335
0.660836
0.226936
0.173378
0.469774
1.086366
1.835029
2.299467
2.326667
2.209670
2.134834
1.903605
1.417109
0.956483
0.669835
0.280929
-0.307581
-0.685127
-0.574096
-0.307799
-0.409522
-0.978678
-1.607856
-1.698464
-0.844123
0.772048
2.357324
3.236842
3.483753
3.469202
3.156298
2.366960
1.342699
0.563434
0.248264
0.278755
0.657633
1.670338
3.028077
3.469414
2.111376
-0.406633
-2.768843
-4.236924
-4.635845
-3.990920
-2.582088
-0.664664
1.831703
4.625436
6.482553
6.236477
4.130242
1.370940
-1.152816
-3.045941
-3.880469
-3.245798
-1.325536
1.092632
3.301064
4.820181
5.059622
3.684584
1.249363
-1.181565
-3.027001
-4.293267
-4.819691
-4.126952
-2.149094
0.251061
1.868609
2.241003
1.604026
0.246356
-1.187927
-1.797577
-1.605905
-1.410173
-1.319310
-0.838287
-0.128163
0.471678
1.656091
3.852663
5.459162
4.661363
2.092615
-0.348013
-1.962622
-2.713491
-1.890032
0.620857
3.020620
3.750498
3.677299
3.971950
4.005676
3.358710
2.767239
1.425188
-2.935959
-9.427270
-13.046086
-10.540722
-4.182506
1.778551
4.941133
4.448810
1.248820
-1.025290
0.372569
3.502778
4.873410
4.190663
3.225305
2.720455
2.850634
4.372007
6.877725
7.577322
4.267434
-1.604789
-6.552339
-8.280438
-6.551052
-2.868771
0.338627
1.525524
0.749933
-1.027427
-2.404811
-2.548501
-2.191562
-2.355727
-2.713774
-2.523542
-2.038453
-1.482010
-0.119118
2.091829
3.661455
3.514485
2.254674
0.891941
-0.093308
0.021168
1.617025
2.987666
1.648107
-2.174959
-5.155919
-4.446512
-0.150627
5.620498
10.035089
10.712320
7.676984
3.471224
0.398007
-1.987848
-5.708510
-10.605196
-13.601206
-12.399944
-8.021454
-2.545584
3.758927
10.519299
14.517860
12.863522
6.771747
-0.723726
-7.189673
-10.006346
-7.714811
-1.971231
4.394723
9.728503
13.247575
14.767742
15.349697
15.832772
14.310345
8.323179
-0.456508
-7.429938
-10.026425
-8.667412
-5.075043
-1.792464
-0.913106
-1.894322
-2.730661
-2.882663
-2.719028
-2.191420
-1.917872
-2.557168
-2.861940
-1.233607
1.597519
3.265035
2.748965
1.267508
-0.430588
-2.971539
-5.464156
-5.442589
-2.463763
1.009078
2.771234
3.524324
5.181981
7.718114
9.532261
9.032590
4.807277
-2.709871
-9.494669
-11.195480
-8.088013
-3.965726
-1.248746
-0.261842
-1.288763
-4.126537
-6.903420
-7.639929
-7.154374
-8.241003
-10.959885
-11.451916
-6.559643
2.097017
9.395343
11.500756
8.789566
4.594977
1.713358
0.170057
-1.272220
-2.510899
-2.527260
-1.518325
-0.803528
-0.683194
-0.342551
0.171874
0.034904
-0.983542
-2.685529
-4.773208
-6.680754
-7.893699
-8.004077
-6.746388
-4.360145
-0.810872
4.497404
10.560878
14.125227
13.147585
9.172641
4.080473
-2.911334
-11.366500
-16.931030
-16.931871
-13.544281
-8.713771
-1.849103
6.078609
11.848634
14.516737
15.432579
13.591294
7.080511
-1.334536
-6.306156
-6.855199
-6.548644
-8.049958
-10.756098
-12.681745
-12.942249
-11.685512
-7.456072
1.180732
10.215146
13.363603
10.792312
7.475157
5.342970
3.844590
4.499855
8.092299
10.638296
8.515983
4.626946
3.948072
6.513239
9.574146
11.706311
10.572759
3.576246
-6.072248
-11.425363
-10.237756
-4.930715
2.605038
10.609748
15.270376
13.553965
7.723935
3.248865
1.522804
-0.229054
-2.292270
-2.325610
-0.462799
0.960652
1.664857
3.821550
8.277073
12.465972
13.004161
10.140674
7.395218
6.011206
4.596420
3.807844
5.022006
6.954000
8.011720
8.425426
8.134243
5.533366
0.603017
-3.380413
-4.933907
-6.532663
-8.495341
-8.223830
-6.647734
-7.030415
-8.267542
-6.711059
-2.807444
-0.247452
-0.688560
-2.470472
-2.588511
0.195837
4.063956
6.813754
7.065021
3.838217
-0.915185
-2.196888
2.104610
7.291248
7.117813
2.136221
-2.291809
-4.750479
-6.584265
-5.366548
0.616243
5.626334
4.034575
-0.330988
-0.980253
1.868260
5.280842
8.287864
8.333211
1.856651
-8.807032
-16.305323
-17.685272
-16.473862
-15.109649
-12.093490
-6.475407
0.062062
6.555117
14.374317
21.339895
19.815079
7.822987
-5.442781
-11.091144
-10.144033
-8.345555
-7.408728
-6.217171
-6.829829
-11.074688
-13.529228
-8.075224
0.841594
4.167183
2.084516
1.040910
2.569992
5.927328
13.699234
25.058838
31.632145
27.790619
18.745256
11.287556
4.206804
-2.757144
-3.312719
1.747319
2.274338
-3.760237
-8.122196
-7.631892
-6.082044
-4.304821
-0.831906
1.143527
-2.320664
-7.290126
-6.247141
0.623752
6.475646
7.106392
2.348077
-7.335124
-19.622562
-28.799520
-29.217922
-19.758192
-5.284476
6.483486
11.985472
14.226152
16.545918
17.624269
13.843454
3.914139
-9.448162
-22.215595
-32.048847
-36.666500
-33.960770
-26.823355
-20.156199
-13.001145
-3.081215
5.217980
6.808574
4.035670
1.065305
-3.595689
-10.097331
-11.306333
-4.991847
0.532195
1.360763
3.165040
8.342556
11.509501
8.780518
2.254452
-6.063068
-15.068734
-18.250746
-10.826705
-2.595931
-6.514458
-18.305002
-24.940613
-24.763071
-22.166388
-15.042537
-2.721291
6.180237
4.807252
-1.727445
-3.944123
-1.179435
-0.709978
-5.293490
-10.705399
-14.675914
-17.219101
-15.588954
-8.669542
-0.410853
6.520752
13.708895
20.771835
22.174955
15.038516
7.156191
9.086492
18.211796
21.768105
16.236525
10.991536
13.395457
21.320324
29.611240
36.416389
41.139999
40.448269
31.177086
15.932395
2.397869
-3.819488
-5.045115
-7.423843
-12.899148
-19.887278
-26.711615
-31.745321
-34.503883
-34.123840
-29.501081
-26.391722
-32.894878
-43.764332
-45.128529
-34.817211
-22.540707
-13.780137
-6.942826
-2.852216
-6.072982
-14.435402
-15.340996
-3.456948
7.299209
5.967781
0.635702
-2.454998
-9.591842
-21.865400
-29.716299
-27.256075
-20.783808
-19.575891
-22.892448
-25.885462
-30.809225
-38.369808
-41.562416
-39.552631
-41.056168
-50.506271
-64.555977
-77.000114
-80.860573
-73.437332
-58.552254
-41.821301
-28.302162
-21.072401
-18.617743
-17.851891
-17.829144
-15.981223
-7.935235
3.700162
11.039775
13.962595
19.713184
31.114414
43.883778
52.790550
56.511909
57.530296
58.300587
56.794071
48.084087
33.946148
23.239161
18.512568
14.229611
8.723492
5.950819
6.753760
6.209433
0.228376
-9.159298
-16.376987
-17.804865
-14.356925
-7.996290
2.088559
14.032544
20.268806
16.484177
5.463837
-9.474393
-27.564068
-46.723957
-61.806210
-70.553406
-75.984039
-79.405724
-79.140350
-76.394302
-74.599953
-73.335175
-66.992653
-49.883560
-21.416056
12.297403
41.814091
62.712418
79.561249
100.067787
128.148926
162.621368
199.090057
231.752609
255.114349
266.249237
266.098053
257.111176
239.846115
214.674347
183.549118
146.683517
104.018608
60.649616
22.774960
-10.892417
-47.279205
-86.960915
-119.756012
-139.125809
-153.834824
-174.984375
-199.517456
-216.520432
-222.438339
-221.701355
-218.081512
-212.755646
-207.528641
-204.820557
-205.064163
-204.965927
-199.366074
-186.306580
-167.665482
-144.355515
-115.611191
-81.012314
-37.843750
17.919111
83.357468
148.131546
203.200058
245.308517
276.167694
299.764465
318.443481
333.012970
345.783783
358.330200
366.771637
363.459778
343.711334
309.825409
268.486877
224.683395
177.880081
122.936195
56.434074
-16.310238
-83.776260
-138.491180
-181.473999
-218.093887
-253.787521
-291.138336
-325.615601
-347.691040
-354.358063
-353.607056
-354.491364
-357.794403
-357.722656
-349.341827
-331.804169
-306.624115
-277.500458
-248.867279
-219.603119
-182.313705
-134.651749
-86.351913
-47.555969
-16.402414
14.908814
48.775734
80.912262
104.246956
113.148994
108.991562
101.166061
97.925407
98.394394
98.919106
99.425575
94.761200
72.867180
31.950233
-13.379503
-49.322948
-74.316139
-91.134888
-100.213737
-101.809486
-96.106895
-83.899490
-68.356064
-50.546642
-28.799101
-6.239670
10.048473
18.433077
23.346760
27.960360
32.542431
37.243996
41.613968
43.903191
42.820232
38.166351
30.464806
20.812889
9.648448
-4.562823
-24.900583
-53.391689
-88.183563
-124.937469
-160.229141
-190.696579
-212.400421
-224.841080
-230.921982
-231.053253
-222.314880
-202.446381
-171.374054
-132.077774
-89.052086
-42.344048
11.021186
68.029808
120.371338
163.413589
198.357346
226.672028
247.411957
262.283173
274.886871
281.787109
275.911102
256.531158
227.610153
192.594818
153.528534
111.042831
64.774544
16.437771
-27.348255
-59.579712
-80.189087
-95.058556
-108.324623
-117.383453
-116.271751
-104.592377
-89.375374
-74.670837
-55.767639
-28.456367
4.617107
40.067310
77.281418
114.320915
146.494980
170.390625
185.605484
191.783676
188.544678
177.429825
160.320618
138.622604
113.896996
87.194000
60.841232
40.506607
29.420818
21.812109
9.966682
-4.232748
-11.945326
-8.686870
2.102506
15.211972
29.415058
45.660957
62.065022
73.608833
76.285278
70.345566
59.781666
48.960545
41.055565
38.267521
37.874329
30.243464
7.925223
-25.418600
-58.325382
-80.978333
-91.054588
-91.789490
-85.829094
-73.969383
-58.117382
-39.811668
-17.672915
8.516378
35.695400
63.257515
93.873528
126.910324
157.418045
181.347549
198.500824
211.150650
221.284790
229.725723
235.122467
232.348923
216.897156
190.980881
160.177902
126.560951
89.468727
49.922188
10.517726
-27.672203
-65.293800
-101.384964
-131.981613
-154.012299
-168.401337
-176.042053
-173.069290
-154.892731
-124.815620
-93.795944
-69.191902
-48.952713
-29.438337
-11.853143
1.454603
12.591330
27.729753
49.865314
74.970032
98.754616
121.487015
141.344986
149.916351
141.493790
121.121117
97.524483
73.563858
46.662041
15.030266
-18.460821
-48.700562
-73.341805
-94.267143
-114.358658
-133.012207
-146.421310
-152.662796
-153.035629
-148.501404
-138.852844
-124.595261
-106.967239
-86.959106
-65.562874
-44.640892
-26.222605
-10.600598
4.128368
20.305399
37.913818
54.156624
66.758270
75.892609
82.153130
85.213997
85.097626
82.216995
76.224541
67.042007
56.272568
46.368618
38.868214
33.364967
28.507259
24.776205
25.604965
34.520618
51.370434
72.338531
93.369156
112.628616
129.691299
143.097855
150.228912
150.686188
147.948853
145.918793
145.116425
143.331451
139.228302
133.399521
125.819679
115.743973
104.253212
93.100822
81.649796
68.297684
53.860531
40.506676
28.382652
15.462299
-0.047335
-17.668329
-34.373516
-46.868805
-54.607147
-59.716438
-64.050339
-67.346329
-67.749207
-63.792461
-55.866875
-44.349583
-27.825186
-5.908973
18.705835
43.031616
65.502213
84.510605
98.394180
106.105331
106.512634
99.464226
87.480278
73.644188
58.660686
42.111706
24.748367
7.264143
-10.843086
-29.657940
-48.831600
-68.705368
-88.128258
-103.434448
-112.999519
-119.718163
-126.449379
-132.109360
-134.019547
-131.300339
-124.542412
-114.854485
-103.874153
-92.428238
-79.663200
-64.801987
-48.418701
-31.322256
-14.028243
2.191945
15.737567
26.189915
33.925400
38.304077
36.900951
28.712509
17.632395
8.673539
3.409055
1.047963
-0.954975
-6.169955
-15.630833
-27.299885
-39.957623
-54.436600
-70.687111
-87.147888
-102.209061
-114.831718
-125.599884
-135.975159
-145.924728
-153.576035
-156.498566
-153.535706
-145.776093
-135.645157
-124.902023
-113.002266
-98.540039
-82.012932
-65.500740
-50.527740
-37.001305
-23.898134
-11.216869
-1.095422
4.064752
4.277765
0.664038
-7.333313
-20.743690
-38.532127
-57.491959
-74.073723
-86.625999
-95.440407
-100.857780
-102.818771
-101.305260
-95.709908
-84.941566
-68.792786
-48.580235
-26.926929
-6.312504
12.784325
30.567957
45.653919
56.441368
62.892895
65.585594
64.737671
60.317574
52.241512
40.740913
26.591490
10.970683
-4.903727
-20.664047
-37.137913
-54.648235
-71.293793
-84.601265
-94.795441
-104.250984
-113.446114
-120.122032
-123.159615
-124.164703
-123.656021
-118.881584
-107.925369
-93.407471
-79.095711
-64.736626
-47.896095
-29.416748
-13.288437
-2.565648
2.465558
3.265730
0.696755
-5.207140
-12.831516
-19.584337
-25.056982
-30.659115
-36.518009
-40.553566
-40.850193
-38.334671
-35.720291
-33.497177
-29.588511
-23.210510
-15.319362
-5.895672
5.882723
20.157909
36.398266
53.597294
70.434532
85.683090
98.413742
108.248161
116.065498
123.410614
129.586136
131.510193
128.045486
121.072075
111.907921
100.064468
85.097992
67.912491
50.497589
34.249710
18.799578
3.554266
-10.807044
-23.694281
-35.465057
-45.899113
-53.781361
-58.600975
-61.039097
-61.400169
-58.914772
-52.371246
-41.111420
-26.652021
-12.115017
1.097728
13.843836
26.774082
39.618340
51.560692
60.969315
66.326515
68.134834
68.818695
70.052032
71.147514
70.852959
68.938675
65.329269
60.170345
54.814636
