EVENT_NAME: CENTRAL_ITALY
EVENT_ID: EMSC-20160824_0000006
EVENT_DATE_YYYYMMDD: 20160824
EVENT_TIME_HHMMSS: 013632
EVENT_LATITUDE_DEGREE: 42.6983
EVENT_LONGITUDE_DEGREE: 13.2335
EVENT_DEPTH_KM: 8.1
HYPOCENTER_REFERENCE: INGV-CNT_Seismic_Bulletin
MAGNITUDE_W: 6.0
MAGNITUDE_W_REFERENCE: INGV-webservice
MAGNITUDE_L: 
MAGNITUDE_L_REFERENCE: 
FOCAL_MECHANISM: Normal faulting
NETWORK: IT
STATION_CODE: NRC
STATION_NAME: NORCIA
STATION_LATITUDE_DEGREE: 42.792543
STATION_LONGITUDE_DEGREE: 13.096475
STATION_ELEVATION_M: 616
LOCATION: 
SENSOR_DEPTH_M: 0.0
VS30_M/S: 498
SITE_CLASSIFICATION_EC8: B
MORPHOLOGIC_CLASSIFICATION: 
EPICENTRAL_DISTANCE_KM: 15.3
EARTHQUAKE_BACKAZIMUTH_DEGREE: 313.1
DATE_TIME_FIRST_SAMPLE_YYYYMMDD_HHMMSS: 20160824_013629.848
DATE_TIME_FIRST_SAMPLE_PRECISION: milliseconds
SAMPLING_INTERVAL_S: 0.005000
NDATA: 8000
DURATION_S: 40.000
STREAM: HGZ
UNITS: cm/s^2
INSTRUMENT: sensor = Unknown [Unknown] | digitizer = Unknown [Unknown]
INSTRUMENT_ANALOG/DIGITAL: D
INSTRUMENTAL_FREQUENCY_HZ: 
INSTRUMENTAL_DAMPING: 
FULL_SCALE_G: 
N_BIT_DIGITAL_CONVERTER: 
PGA_CM/S^2: 211.277283
TIME_PGA_S: 9.845000
BASELINE_CORRECTION: BASELINE REMOVED
FILTER_TYPE: BUTTERWORTH
FILTER_ORDER: 2
LOW_CUT_FREQUENCY_HZ: 0.080
HIGH_CUT_FREQUENCY_HZ: 50.000
LATE/NORMAL_TRIGGERED: NT
DATABASE_VERSION: 0.5
HEADER_FORMAT: DYNA 1.2
DATA_TYPE: ACCELERATION
PROCESSING: manual (Paolucci et al., 2011)
DATA_TIMESTAMP_YYYYMMDD_HHMMSS: 20201211_094926.815
DATA_LICENSE: CC-BY3_0-IT (http://creativecommons.org/licenses/by/3.0/deed.en)
DATA_CITATION: Luzi L, Puglia R, Russo E & ORFEUS WG5 (2016). Engineering Strong Motion Database. Istituto Nazionale di Geofisica e Vulcanologia, Observatories & Research Facilities for European Seismology. doi: 10.13127/ESM
DATA_CREATOR: ESM working group
ORIGINAL_DATA_MEDIATOR_CITATION: Ufficio Rischio Sismico e Vulcanico del Dipartimento della Protezione Civile (http://www.protezionecivile.gov.it/)
ORIGINAL_DATA_MEDIATOR: Rete Accelerometrica Nazionale - RAN Download (http://www.mot1.it/randownload/)
ORIGINAL_DATA_CREATOR_CITATION: Presidency Of Counsil Of Ministers-Civil Protection Department. (1972). Italian Strong Motion Network. Presidency of Counsil of Ministers - Civil Protection Department. https://doi.org/10.7914/SN/IT http://www.fdsn.org/networks/detail/IT/
ORIGINAL_DATA_CREATOR: network: IT (Italian Strong Motion Network (RAN)); owner: Presidency of Counsil of Ministers - Civil Protection Department (PCM - DPC)
USER1: 
USER2: 
USER3: 
USER4: 
USER5: 
[...]
0.001101
0.001257
0.001374
0.000891
-0.000262
-0.000914
-0.001098
-0.000722
-0.000302
-0.000621
-0.000899
-0.000724
-0.000374
-0.000286
-0.000514
-0.000860
-0.001514
-0.001203
0.000652
0.002141
0.002154
0.000449
-0.002059
-0.002636
-0.001121
-0.000272
-0.000877
-0.001288
-0.000684
0.000358
0.001442
0.001740
0.000926
0.000485
0.001070
0.001601
0.000842
-0.000598
-0.001095
-0.001031
-0.000668
0.000607
0.001489
0.001321
0.001652
0.001925
0.001456
0.002540
0.003699
0.001982
0.000237
0.000488
0.001599
0.002186
0.000316
-0.001052
0.001485
0.002958
0.001364
0.001143
0.001716
0.001629
0.001892
0.000859
-0.000591
0.000315
0.001354
0.001700
0.003236
0.002696
0.000003
0.001100
0.003200
0.001603
0.000354
0.000993
0.001021
0.000582
0.001294
0.002914
0.003082
0.002469
0.003185
0.003321
0.001288
0.000246
0.002314
0.003707
0.002320
0.001191
0.001319
0.001342
0.001124
0.000983
0.001332
0.002726
0.003617
0.002523
0.001771
0.002837
0.004386
0.004502
0.002321
0.000828
0.001872
0.003497
0.003428
0.002007
0.003666
0.005871
0.002664
0.000781
0.004006
0.004657
0.002495
0.002635
0.002854
0.000540
-0.000200
0.002455
0.004004
0.002992
0.002522
0.003271
0.002801
0.001169
0.001163
0.001933
0.001484
0.001595
0.003041
0.004082
0.004107
0.004133
0.004396
0.004125
0.003912
0.003173
0.002151
0.003876
0.004472
0.001560
0.002570
0.005552
0.004029
0.002443
0.003577
0.005109
0.004661
0.002055
0.002044
0.003537
0.002184
0.002215
0.004602
0.004962
0.004462
0.004636
0.005257
0.005732
0.004241
0.003560
0.005361
0.005261
0.003903
0.004588
0.005501
0.005403
0.004431
0.003266
0.004456
0.006430
0.005750
0.004454
0.005508
0.007588
0.007588
0.005790
0.004926
0.005403
0.006090
0.005850
0.005127
0.005351
0.005461
0.004704
0.004184
0.004646
0.005984
0.006355
0.005748
0.006839
0.007956
0.006389
0.005322
0.006362
0.007017
0.007222
0.007069
0.006103
0.005485
0.005367
0.005697
0.006648
0.006452
0.004822
0.005415
0.008073
0.007894
0.005325
0.005246
0.008558
0.009750
0.007021
0.006407
0.007085
0.005892
0.006487
0.007809
0.007057
0.005846
0.005176
0.006041
0.007462
0.006850
0.004998
0.004931
0.007678
0.009248
0.007647
0.006645
0.007517
0.009384
0.009594
0.005893
0.004616
0.008213
0.008289
0.004369
0.004666
0.008950
0.009835
0.007016
0.006813
0.008480
0.007819
0.007589
0.008303
0.007183
0.006467
0.007603
0.009271
0.009615
0.007928
0.008103
0.010125
0.009782
0.009265
0.009572
0.008279
0.008442
0.009992
0.008685
0.007798
0.009530
0.009849
0.009458
0.009668
0.008859
0.008792
0.009967
0.010753
0.010570
0.009334
0.009697
0.011172
0.011030
0.011036
0.010743
0.009687
0.010009
0.010566
0.010930
0.011294
0.009728
0.007443
0.008191
0.010313
0.009887
0.010029
0.012469
0.013240
0.011802
0.010007
0.010422
0.012473
0.011439
0.009807
0.011245
0.012147
0.012036
0.012791
0.012975
0.012690
0.012496
0.011757
0.012123
0.013442
0.013020
0.012094
0.012110
0.011537
0.010791
0.011752
0.012975
0.012022
0.011532
0.012580
0.011995
0.011660
0.012590
0.011103
0.009253
0.010910
0.012864
0.011772
0.010977
0.012647
0.012859
0.011448
0.012730
0.014910
0.013912
0.011336
0.010644
0.012428
0.014662
0.015479
0.014520
0.013969
0.015662
0.015570
0.013131
0.014754
0.017952
0.015705
0.011951
0.012966
0.015368
0.014084
0.012842
0.014472
0.014916
0.014894
0.016364
0.016515
0.015118
0.014005
0.015225
0.017616
0.015691
0.011575
0.012319
0.015852
0.015741
0.013092
0.013576
0.016512
0.017085
0.015616
0.015071
0.015431
0.015561
0.016061
0.017175
0.017041
0.015786
0.015413
0.016012
0.018015
0.019221
0.015497
0.012741
0.016505
0.018552
0.015386
0.014084
0.016041
0.017849
0.017659
0.016191
0.016890
0.018871
0.018576
0.017168
0.015727
0.015443
0.018111
0.019338
0.017379
0.017131
0.017946
0.017397
0.018175
0.020307
0.019951
0.017203
0.015896
0.017133
0.018450
0.018444
0.019171
0.020930
0.020083
0.017627
0.018226
0.020137
0.019717
0.018972
0.019967
0.021125
0.020717
0.019969
0.020493
0.019944
0.018763
0.019535
0.019416
0.018300
0.018648
0.020067
0.021226
0.019942
0.019506
0.021597
0.021365
0.020860
0.021326
0.020114
0.020360
0.021478
0.020339
0.020160
0.022267
0.022885
0.021381
0.021786
0.024376
0.023714
0.020309
0.021561
0.024952
0.022671
0.019476
0.021371
0.024095
0.023775
0.021907
0.020739
0.021003
0.022757
0.023571
0.021603
0.021024
0.023187
0.024187
0.023836
0.023626
0.023478
0.023327
0.023539
0.025028
0.028179
0.032863
0.039688
0.051614
0.072258
0.101760
0.139323
0.184284
0.233434
0.282353
0.323975
0.348851
0.348167
0.311984
0.232855
0.112515
-0.037819
-0.195421
-0.329107
-0.415402
-0.445885
-0.421801
-0.351258
-0.244699
-0.109956
0.047489
0.215113
0.363192
0.463499
0.511199
0.511524
0.465823
0.374866
0.242309
0.074961
-0.118056
-0.313268
-0.462173
-0.518915
-0.482608
-0.391745
-0.278332
-0.152241
-0.017929
0.123890
0.280754
0.447744
0.580003
0.612679
0.517133
0.325691
0.110832
-0.056159
-0.136992
-0.137368
-0.107601
-0.104069
-0.124449
-0.113318
-0.035353
0.091619
0.217283
0.279444
0.233443
0.092885
-0.071939
-0.189987
-0.229264
-0.174441
-0.005237
0.276387
0.625695
0.969513
1.221020
1.297465
1.170432
0.919630
0.696755
0.580658
0.483175
0.251715
-0.151052
-0.593163
-0.842701
-0.704620
-0.211344
0.290795
0.358527
-0.138601
-0.846221
-1.215453
-0.943673
-0.169387
0.634181
0.961297
0.644715
0.041417
-0.201874
0.303831
1.296656
2.052385
2.026052
1.297773
0.438842
0.081926
0.526228
1.455455
2.063411
1.754058
0.742730
-0.143296
-0.195911
0.595484
1.525348
1.775801
1.171882
0.322319
0.006198
0.521377
1.585468
2.612543
3.033836
2.634303
1.751923
0.999191
0.653391
0.436131
-0.032341
-0.738701
-1.312159
-1.374646
-0.813923
0.109073
0.875452
1.071678
0.740870
0.348752
0.336970
0.712073
1.067635
0.936026
0.132336
-1.144850
-2.512990
-3.684660
-4.520195
-4.895764
-4.672364
-3.824958
-2.520470
-1.037540
0.346567
1.445731
2.246536
2.873470
3.437909
3.941015
4.289040
4.354125
4.060151
3.479437
2.793085
2.100492
1.405270
0.815577
0.491858
0.395127
0.426132
0.697590
1.240211
1.685336
1.724999
1.529692
1.281195
0.750960
-0.328682
-1.831791
-3.253595
-3.905128
-3.248264
-1.414410
0.636625
1.801032
1.698332
0.765564
-0.200382
-0.497311
0.014363
0.716582
0.723371
-0.351310
-2.134511
-3.977006
-5.532470
-6.819190
-8.055647
-9.463721
-10.731480
-10.703647
-8.312821
-4.002253
0.317463
2.889034
3.419038
2.954110
2.764171
3.279539
4.025236
4.462111
4.690241
5.387662
7.097182
9.273882
10.185311
8.407567
4.121644
-1.529716
-7.315886
-11.734970
-13.405042
-12.188666
-9.119396
-5.227071
-1.016584
3.147713
6.663167
8.786598
9.064740
7.569837
4.880777
2.019548
-0.067798
-1.260429
-2.096272
-2.718596
-2.517087
-1.059738
1.320436
4.049151
6.535863
7.850135
7.014666
3.796225
-0.970928
-5.747422
-9.009257
-9.979324
-8.943516
-6.865955
-4.653555
-2.652495
-0.671320
1.540177
4.004416
6.437081
7.742410
6.357699
2.333376
-1.807920
-3.399181
-2.072689
0.575147
2.386391
1.202311
-3.754368
-9.580537
-10.734751
-4.363872
6.332376
15.074639
17.747040
14.246752
7.243467
0.761275
-2.091551
-2.523808
-5.368002
-12.813008
-20.788801
-22.948307
-16.372952
-3.295534
9.976950
15.786144
10.303232
-2.625657
-14.409758
-18.893583
-16.112808
-10.439318
-6.730613
-6.975100
-8.851006
-8.241777
-3.763193
2.161160
6.495253
8.303492
8.326096
7.601357
7.237594
8.341354
10.755497
12.052479
9.453163
3.747726
0.225298
4.211781
15.715110
28.954391
36.555298
34.193718
22.884426
7.735305
-5.665537
-13.675452
-15.161679
-11.823522
-7.362950
-4.846417
-4.523648
-3.841959
0.050558
6.184011
9.334075
6.080577
-1.010191
-6.522836
-6.462092
-0.196403
8.330830
12.550481
9.365976
2.182158
-3.316091
-4.194043
-1.404334
1.636864
1.968724
-1.241393
-7.382765
-14.018767
-16.801884
-13.080771
-4.789765
3.323439
6.654562
2.536996
-8.001202
-19.766268
-26.452860
-25.340996
-19.221125
-14.025870
-13.458316
-14.368866
-9.643826
2.496268
15.250457
20.682161
17.202482
8.815513
0.627975
-3.172972
-0.456140
7.117338
14.972515
18.846586
17.143612
11.674708
5.990943
2.067151
-0.779813
-3.734623
-6.101289
-5.822607
-2.516638
1.128747
1.274566
-4.391579
-15.120044
-26.773617
-32.576271
-26.595230
-9.933356
7.946678
17.125893
15.313308
7.705524
1.614385
1.845556
8.333349
15.577004
15.900011
6.647265
-5.996181
-12.698947
-10.448323
-4.680383
-2.508391
-5.249219
-6.719985
0.811585
16.858770
30.643835
30.961254
16.180086
-5.935954
-25.421217
-35.663174
-34.540409
-23.833357
-8.141720
6.408644
14.616165
16.062000
15.045710
15.204224
15.914140
14.360637
9.714758
4.497818
2.071635
3.029172
4.329340
2.193706
-4.939989
-15.644728
-25.671946
-29.393711
-23.065079
-8.253884
8.233762
20.325794
27.981033
33.895771
38.195263
39.809944
38.261665
31.761002
19.790915
8.438228
5.851994
11.248345
15.142057
11.769427
5.240466
3.097057
9.103545
21.290104
33.637432
40.778797
40.924393
34.212944
22.170736
9.251332
0.398971
-4.116622
-8.815255
-18.022684
-31.661619
-43.114700
-41.460484
-21.584526
7.501202
29.407618
34.252598
22.314798
-0.106458
-22.235987
-32.309929
-26.554991
-13.388616
-6.403215
-12.878943
-28.141623
-39.987251
-38.742649
-24.140530
-3.913196
12.415903
18.503983
13.574545
2.595995
-6.645807
-9.366509
-8.090511
-9.046931
-13.381459
-15.364368
-10.508237
-1.941914
3.358631
2.550553
-1.916195
-7.563300
-13.058040
-15.123302
-10.494998
-1.172775
6.301113
7.275573
2.955804
-1.945169
-4.639893
-6.722328
-9.692040
-10.687326
-7.223298
-1.875864
1.862073
3.635802
4.879466
6.569332
8.072347
8.150082
7.250309
6.626083
5.237846
0.585139
-6.925011
-13.228256
-14.567779
-10.241794
-2.575742
4.183868
6.613724
5.070587
3.731936
6.883446
14.162499
19.879766
17.953081
9.036320
2.744169
9.515267
30.126188
54.643669
69.448288
65.644470
45.148758
20.693295
7.012166
8.657585
17.850109
25.460531
30.642445
38.458332
51.833736
68.244385
81.146027
81.986488
65.489799
36.321289
6.492832
-14.789055
-25.823578
-29.607450
-30.325937
-29.768288
-23.500931
-4.618383
25.298040
52.791409
61.459526
44.558815
12.270123
-15.949963
-28.646435
-28.457687
-25.324871
-30.620853
-51.532600
-82.413849
-105.450691
-106.523453
-87.004822
-56.648476
-23.628904
3.385257
15.879534
17.495344
23.529774
38.568562
47.717304
38.875942
17.627789
-6.278589
-28.543266
-41.980911
-37.732212
-21.116167
-10.880122
-16.504057
-29.096474
-36.162624
-30.967218
-10.632840
19.390436
42.409367
43.992817
26.760729
6.045679
-5.281518
-4.231508
2.362302
0.608342
-20.179321
-55.674339
-88.927925
-104.394585
-97.247940
-73.213501
-43.612202
-17.785837
1.738087
15.424256
22.788931
25.928568
28.948050
30.078243
22.657892
6.254153
-10.453724
-20.670532
-27.721754
-37.244663
-45.884628
-45.596031
-33.934460
-10.765245
26.434135
72.364403
108.315933
117.180214
97.798279
60.779049
19.324598
-11.428838
-18.251034
-2.117277
22.710878
43.344948
52.053768
45.009403
29.964176
24.740995
36.915680
52.306908
52.250179
33.028873
0.859221
-36.870281
-67.086533
-75.850060
-67.200096
-60.602993
-62.866367
-61.458260
-48.953697
-32.939667
-20.542492
-11.747818
-8.309852
-14.640534
-27.492723
-34.585579
-27.312342
-8.645520
12.607867
26.481527
21.731218
-5.421631
-40.386639
-58.724804
-50.070202
-29.215788
-19.796341
-29.592482
-47.235806
-60.231777
-63.046089
-48.123615
-9.966452
38.229633
70.107750
71.437157
50.768475
27.489988
16.208019
18.378654
22.942326
19.269058
9.757612
3.816065
6.942052
22.018984
49.385292
80.368813
98.268707
89.739052
57.903332
22.034937
-2.166040
-17.624756
-36.624321
-66.088737
-105.610229
-146.970016
-172.310501
-165.604935
-129.695068
-84.399269
-46.451290
-19.298018
-5.499255
-12.601629
-34.724899
-49.345032
-45.052822
-32.125774
-23.624811
-23.642288
-30.087172
-37.986225
-40.288460
-29.980347
-5.891225
25.847866
57.153038
79.024170
83.042015
72.835838
65.473137
70.393333
76.790100
68.702408
42.241886
4.490134
-36.745571
-76.803200
-107.971535
-116.939827
-97.101517
-59.433365
-22.468117
2.089404
6.505187
-14.248848
-50.420635
-80.438263
-91.406982
-84.762955
-65.622620
-39.070656
-13.017062
5.221684
11.539865
2.913826
-15.457931
-26.102734
-17.848783
1.828282
22.083427
39.073753
45.650616
31.515635
1.031540
-27.536430
-43.515327
-47.024010
-36.963879
-14.822531
6.007133
8.570474
-11.537133
-44.064541
-73.171295
-83.247169
-67.305565
-35.636784
-6.166187
10.416832
11.609959
2.538801
-2.491503
10.323639
39.217056
66.090225
71.062630
46.339363
1.763579
-40.581955
-61.245071
-52.793648
-17.968409
33.846935
89.613121
137.973312
173.638184
196.852936
209.405609
211.277283
200.447388
174.302078
132.160049
79.738434
27.125675
-19.801613
-57.159859
-75.068260
-66.592094
-43.208134
-26.482155
-21.519588
-12.155145
13.311899
47.103386
75.949043
92.617691
90.119514
60.530514
6.919862
-51.591679
-92.915985
-108.029007
-104.407249
-97.415520
-96.443230
-97.414268
-90.094154
-69.204056
-36.647675
0.643196
34.428997
61.967018
85.582291
103.925217
111.564484
107.465012
97.894516
89.688889
81.041992
63.621506
37.218777
13.994904
3.853768
3.093670
-0.572956
-16.635380
-45.568874
-79.544342
-105.704338
-111.468346
-92.726151
-56.570492
-13.484030
29.113724
63.043884
76.697571
63.127907
27.757421
-14.765347
-48.231983
-61.558933
-55.724548
-43.990353
-38.958229
-41.050293
-45.370594
-53.131813
-66.310860
-79.113289
-84.214294
-79.201683
-63.792706
-41.161266
-23.404392
-25.418539
-49.047520
-80.136887
-103.128990
-110.676796
-99.664162
-67.880028
-17.864573
40.083511
91.362434
123.330429
131.136002
122.434273
114.213631
119.657578
138.015778
158.249908
172.320511
182.350266
192.597961
200.562943
199.505692
184.109619
152.462311
106.650230
54.683186
9.768922
-19.529221
-37.185814
-51.653324
-65.925201
-81.320389
-101.482346
-125.462135
-143.603088
-145.434235
-129.549576
-105.281166
-85.533218
-77.009605
-76.981316
-78.058678
-73.680077
-61.110825
-42.554024
-23.825808
-12.198573
-12.919658
-24.646246
-41.752491
-62.023540
-86.166847
-111.986954
-136.129044
-157.789291
-176.859863
-192.270309
-200.260666
-192.990402
-166.300003
-127.713058
-89.311508
-56.869331
-30.674492
-11.134955
2.294754
15.520639
35.831570
64.566940
97.116211
123.325760
131.444855
120.652580
102.764862
88.968994
82.672180
85.141884
98.678123
119.210411
133.863266
132.440948
117.275558
99.287239
86.366173
77.879883
70.408058
63.645588
57.366734
46.592644
24.929443
-7.540703
-43.946049
-78.068970
-106.921310
-126.766006
-133.567688
-126.501450
-106.069031
-72.689621
-29.007122
20.059834
66.866180
100.021362
109.801491
95.886322
66.228050
28.830523
-10.539976
-44.011364
-62.629028
-65.717140
-66.862579
-82.423630
-111.787567
-138.427734
-150.132019
-146.117722
-126.975365
-91.048866
-41.830750
8.778171
48.911732
76.623848
97.979866
118.773026
141.552231
165.465881
184.850266
190.095505
172.907776
133.561249
84.115082
41.450134
15.437799
6.513291
11.755177
26.992634
47.228954
70.616890
97.969536
126.922752
151.211487
165.138947
165.090210
148.271667
114.571098
70.979881
30.134769
1.545540
-14.260870
-24.162441
-36.678303
-54.749146
-73.381187
-85.990952
-91.046600
-90.023277
-80.722923
-57.203365
-19.022024
22.173271
49.484043
53.054344
33.883698
-0.064016
-38.761837
-74.548485
-103.242119
-122.216103
-130.808868
-131.569962
-128.320358
-122.863708
-114.658928
-103.635094
-89.715912
-68.699776
-34.317593
13.453683
67.124908
119.262360
165.069717
197.110046
204.471420
181.772690
136.963776
85.693886
38.979679
-0.631584
-33.905483
-60.314156
-78.794197
-91.147629
-102.068497
-114.032722
-123.667709
-124.862473
-113.648094
-89.530807
-54.876678
-14.927378
22.667265
51.238934
68.650459
76.672554
77.392899
70.828148
56.981770
39.241032
22.338440
7.185367
-8.628390
-25.241096
-39.677971
-50.562958
-59.329006
-66.369400
-68.267525
-60.104000
-40.418819
-12.002157
22.266735
61.378136
102.754425
139.646561
164.705612
174.768784
170.924210
155.805115
131.547791
100.647865
68.508972
40.915974
18.349701
-2.292251
-20.857603
-33.086086
-35.863129
-29.770493
-15.266358
9.980050
44.997639
79.736397
102.686050
111.951462
112.294563
105.094902
87.992188
61.866886
32.394566
4.672805
-20.228104
-42.200493
-57.852291
-62.290329
-54.934647
-40.834972
-26.350985
-14.473963
-2.869562
12.655333
32.099724
51.480007
67.152367
75.794121
73.494148
59.053230
36.263348
11.704611
-7.839899
-16.837797
-14.047513
-4.644874
4.324944
10.436671
14.580248
16.064573
13.698452
8.906071
4.353516
1.525781
-0.528784
-6.035151
-19.448511
-40.039875
-62.145351
-80.918602
-94.395370
-99.947174
-94.001984
-76.558044
-52.392368
-28.256599
-10.392543
-2.282656
-3.218806
-9.923023
-19.561878
-30.393108
-39.951504
-44.471924
-41.724232
-33.912346
-25.380913
-18.729498
-15.463803
-16.457426
-21.195532
-29.552000
-40.796638
-50.896236
-55.819046
-56.516430
-57.544544
-61.769718
-67.815323
-71.545578
-70.104004
-64.233780
-55.354061
-43.318050
-28.212837
-11.161087
6.635040
24.199560
40.488087
54.392933
64.925270
70.721359
70.226219
63.764194
55.041084
48.960445
46.910969
44.981468
37.397678
21.617411
0.181600
-22.423105
-43.142708
-59.971615
-70.856445
-74.081100
-69.536079
-60.216167
-50.666630
-42.732937
-35.388126
-28.680037
-24.324776
-22.285967
-19.379805
-12.169853
-0.786850
10.809754
17.763878
16.138828
4.018505
-16.173910
-38.003922
-55.421894
-66.199623
-71.882576
-75.676422
-79.851364
-84.234840
-85.994667
-81.077507
-68.224960
-51.158016
-34.695572
-20.658731
-9.953402
-5.962980
-11.495950
-23.062916
-33.184612
-38.984783
-43.627476
-48.729881
-50.857880
-47.484867
-41.580467
-36.792583
-31.864822
-23.810482
-12.771221
0.032140
15.069391
32.294617
48.717613
59.327465
60.795322
55.108360
48.091930
44.156361
44.286816
47.893948
53.932323
59.970989
61.845608
56.943398
48.492962
43.116364
43.288311
46.009579
48.406437
50.495377
52.824409
54.581722
54.758862
53.591755
52.072742
50.985821
51.203308
54.405373
