EVENT_NAME: CENTRAL_ITALY
EVENT_ID: EMSC-20160824_0000006
EVENT_DATE_YYYYMMDD: 20160824
EVENT_TIME_HHMMSS: 013632
EVENT_LATITUDE_DEGREE: 42.6983
EVENT_LONGITUDE_DEGREE: 13.2335
EVENT_DEPTH_KM: 8.1
HYPOCENTER_REFERENCE: INGV-CNT_Seismic_Bulletin
MAGNITUDE_W: 6.0
MAGNITUDE_W_REFERENCE: INGV-webservice
MAGNITUDE_L: 
MAGNITUDE_L_REFERENCE: 
FOCAL_MECHANISM: Normal faulting
NETWORK: IT
STATION_CODE: NRC
STATION_NAME: NORCIA
STATION_LATITUDE_DEGREE: 42.792543
STATION_LONGITUDE_DEGREE: 13.096475
STATION_ELEVATION_M: 616
LOCATION: 
SENSOR_DEPTH_M: 0.0
VS30_M/S: 498
SITE_CLASSIFICATION_EC8: B
MORPHOLOGIC_CLASSIFICATION: 
EPICENTRAL_DISTANCE_KM: 15.3
EARTHQUAKE_BACKAZIMUTH_DEGREE: 313.1
DATE_TIME_FIRST_SAMPLE_YYYYMMDD_HHMMSS: 20160824_013629.848
DATE_TIME_FIRST_SAMPLE_PRECISION: milliseconds
SAMPLING_INTERVAL_S: 0.005000
NDATA: 8000
DURATION_S: 40.000
STREAM: HGE
UNITS: cm/s^2
INSTRUMENT: sensor = Unknown [Unknown] | digitizer = Unknown [Unknown]
INSTRUMENT_ANALOG/DIGITAL: D
INSTRUMENTAL_FREQUENCY_HZ: 
INSTRUMENTAL_DAMPING: 
FULL_SCALE_G: 
N_BIT_DIGITAL_CONVERTER: 
PGA_CM/S^2: 352.871460
TIME_PGA_S: 10.430000
BASELINE_CORRECTION: BASELINE REMOVED
FILTER_TYPE: BUTTERWORTH
FILTER_ORDER: 2
LOW_CUT_FREQUENCY_HZ: 0.080
HIGH_CUT_FREQUENCY_HZ: 50.000
LATE/NORMAL_TRIGGERED: NT
DATABASE_VERSION: 0.5
HEADER_FORMAT: DYNA 1.2
DATA_TYPE: ACCELERATION
PROCESSING: manual (Paolucci et al., 2011)
DATA_TIMESTAMP_YYYYMMDD_HHMMSS: 20201211_094926.607
DATA_LICENSE: CC-BY3_0-IT (http://creativecommons.org/licenses/by/3.0/deed.en)
DATA_CITATION: Luzi L, Puglia R, Russo E & ORFEUS WG5 (2016). Engineering Strong Motion Database. Istituto Nazionale di Geofisica e Vulcanologia, Observatories & Research Facilities for European Seismology. doi: 10.13127/ESM
DATA_CREATOR: ESM working group
ORIGINAL_DATA_MEDIATOR_CITATION: Ufficio Rischio Sismico e Vulcanico del Dipartimento della Protezione Civile (http://www.protezionecivile.gov.it/)
ORIGINAL_DATA_MEDIATOR: Rete Accelerometrica Nazionale - RAN Download (http://www.mot1.it/randownload/)
ORIGINAL_DATA_CREATOR_CITATION: Presidency Of Counsil Of Ministers-Civil Protection Department. (1972). Italian Strong Motion Network. Presidency of Counsil of Ministers - Civil Protection Department. https://doi.org/10.7914/SN/IT http://www.fdsn.org/networks/detail/IT/
ORIGINAL_DATA_CREATOR: network: IT (Italian Strong Motion Network (RAN)); owner: Presidency of Counsil of Ministers - Civil Protection Department (PCM - DPC)
USER1: 
USER2: 
USER3: 
USER4: 
USER5: 
[...]
0.028290
0.029827
0.030150
0.028391
0.028883
0.030850
0.030806
0.030539
0.031532
0.031904
0.033113
0.035483
0.034236
0.031141
0.032232
0.034228
0.032484
0.031207
0.033085
0.033900
0.032765
0.032415
0.032507
0.032516
0.033392
0.034771
0.034406
0.032661
0.033641
0.035563
0.033787
0.032248
0.033978
0.034432
0.032990
0.033369
0.034846
0.034922
0.035141
0.036660
0.036688
0.035146
0.034923
0.035815
0.035884
0.034745
0.033795
0.034298
0.035894
0.036849
0.036354
0.035759
0.035912
0.037301
0.038465
0.036850
0.035659
0.037292
0.038167
0.037189
0.035518
0.034183
0.035253
0.037272
0.037090
0.036022
0.036253
0.037099
0.038277
0.038999
0.037070
0.035829
0.038328
0.039354
0.038181
0.038944
0.039505
0.038470
0.038674
0.040140
0.040603
0.039304
0.037805
0.037806
0.037839
0.037016
0.037921
0.039829
0.040363
0.040421
0.039986
0.039835
0.041517
0.043081
0.042864
0.041365
0.039984
0.040170
0.040817
0.040512
0.040911
0.041882
0.041437
0.041460
0.041818
0.041275
0.042317
0.042399
0.040564
0.041491
0.042856
0.042459
0.042607
0.042015
0.041266
0.042982
0.044341
0.042861
0.042278
0.044574
0.045902
0.045260
0.045340
0.044697
0.042076
0.041390
0.042988
0.043202
0.042758
0.043702
0.045687
0.047113
0.046242
0.044987
0.044945
0.044639
0.045113
0.046334
0.046179
0.045387
0.044908
0.045312
0.046773
0.047173
0.045750
0.044196
0.043481
0.044910
0.048445
0.049399
0.047462
0.048420
0.050602
0.049204
0.047254
0.047692
0.048803
0.049142
0.048355
0.046996
0.046884
0.048631
0.049500
0.048972
0.049044
0.047695
0.046410
0.048347
0.049176
0.048426
0.048373
0.047395
0.048457
0.052155
0.052745
0.050276
0.049307
0.050957
0.051855
0.049772
0.048204
0.049126
0.049731
0.049136
0.049312
0.050766
0.051187
0.049814
0.049352
0.051356
0.053764
0.053317
0.051088
0.051201
0.053182
0.053635
0.052308
0.052044
0.053571
0.054306
0.054178
0.054320
0.054255
0.054141
0.052718
0.050837
0.052026
0.053226
0.051799
0.051700
0.053244
0.053962
0.054157
0.055030
0.056302
0.055582
0.054387
0.056670
0.058466
0.055561
0.054164
0.057879
0.059418
0.056029
0.054365
0.056595
0.058423
0.057890
0.056499
0.055859
0.056079
0.056345
0.056678
0.058014
0.059186
0.057728
0.056236
0.058142
0.059651
0.058202
0.058078
0.059853
0.059357
0.058063
0.059260
0.060232
0.059428
0.058914
0.058780
0.059599
0.061331
0.060968
0.059407
0.059804
0.060711
0.060226
0.060057
0.061306
0.061708
0.060288
0.059119
0.058731
0.058929
0.060936
0.062940
0.062190
0.062416
0.065523
0.065440
0.062178
0.062130
0.063937
0.062893
0.061071
0.062235
0.064180
0.063228
0.061168
0.061974
0.064122
0.063512
0.062662
0.064120
0.064274
0.063140
0.064161
0.066401
0.066516
0.064973
0.065760
0.067648
0.065634
0.062710
0.064661
0.067085
0.064882
0.063868
0.067054
0.067468
0.064585
0.064694
0.067445
0.070116
0.070245
0.066931
0.066528
0.070045
0.070792
0.068461
0.066600
0.066803
0.068036
0.067777
0.066634
0.065682
0.065096
0.067493
0.070945
0.070025
0.068159
0.069451
0.069908
0.069016
0.069429
0.069324
0.069368
0.071080
0.070769
0.069511
0.070281
0.069777
0.069849
0.072622
0.072105
0.069557
0.070602
0.072409
0.071521
0.069822
0.070876
0.073535
0.073449
0.072020
0.072005
0.072668
0.073035
0.071794
0.069344
0.064967
0.055356
0.043149
0.031303
0.015768
-0.004359
-0.024529
-0.041371
-0.051177
-0.048452
-0.031304
-0.000849
0.044369
0.101697
0.161882
0.217792
0.264114
0.296990
0.314680
0.313824
0.290983
0.246792
0.187247
0.117055
0.036259
-0.048179
-0.121157
-0.174574
-0.205724
-0.204541
-0.161646
-0.082084
0.018509
0.124053
0.219959
0.293290
0.336817
0.346680
0.323143
0.270969
0.189939
0.083645
-0.029863
-0.129203
-0.199305
-0.235592
-0.241274
-0.222956
-0.188316
-0.137752
-0.069517
0.010583
0.094907
0.179276
0.259609
0.321761
0.349668
0.347831
0.329126
0.292705
0.234734
0.162396
0.087507
0.016434
-0.048339
-0.104620
-0.158054
-0.222109
-0.294769
-0.347210
-0.354975
-0.328894
-0.292345
-0.246768
-0.182098
-0.094999
0.013104
0.140686
0.275682
0.376738
0.411072
0.409912
0.428332
0.478434
0.535055
0.559883
0.500711
0.318621
0.054592
-0.161280
-0.218186
-0.148094
-0.088780
-0.110332
-0.157081
-0.163237
-0.128696
-0.082793
-0.055075
-0.091157
-0.231723
-0.445077
-0.619832
-0.637860
-0.460951
-0.198483
-0.060578
-0.152961
-0.353535
-0.468615
-0.449664
-0.381826
-0.334532
-0.325662
-0.370211
-0.437640
-0.414162
-0.230423
0.024864
0.206952
0.270681
0.269103
0.271588
0.329209
0.447760
0.560329
0.587255
0.533609
0.483620
0.514561
0.635803
0.762515
0.740695
0.470498
0.019121
-0.435543
-0.763502
-0.928514
-0.894491
-0.607863
-0.105038
0.472367
0.995048
1.399743
1.633236
1.630145
1.357139
0.849928
0.215561
-0.445061
-1.130644
-1.854147
-2.496828
-2.921455
-3.179288
-3.400639
-3.540176
-3.430387
-3.030469
-2.440887
-1.734720
-0.955486
-0.213739
0.385644
0.844840
1.169938
1.296954
1.239764
1.090677
0.836758
0.490031
0.289504
0.428707
0.763495
1.021182
1.095914
1.011837
0.820388
0.662180
0.689208
0.820823
0.837709
0.715753
0.615958
0.593999
0.477642
0.092267
-0.414187
-0.688241
-0.607183
-0.270804
0.338641
1.294578
2.390101
3.127068
3.059663
2.122074
0.680388
-0.735413
-1.826350
-2.658593
-3.370912
-3.850633
-3.860353
-3.449580
-3.062117
-3.122921
-3.552768
-3.910686
-3.973343
-3.718791
-2.891072
-1.262727
0.833322
2.776646
4.176452
4.826578
4.639946
3.829671
2.748988
1.603644
0.633470
0.292655
0.792330
1.613382
1.963127
1.619608
0.914774
0.144561
-0.603234
-1.234438
-1.546213
-1.322535
-0.493394
0.716385
1.851333
2.538067
2.598988
1.935109
0.598945
-1.101655
-2.709188
-3.729073
-3.755137
-2.691841
-0.821151
1.411588
3.497185
4.722128
4.507960
3.091068
1.272698
-0.422339
-1.726786
-2.178090
-1.495305
-0.106874
1.519113
3.745977
6.936476
9.971348
10.848107
8.798795
4.773316
0.040319
-4.550367
-8.154566
-10.058498
-10.255269
-8.961200
-6.045772
-1.902925
2.112566
4.970270
6.601621
6.935439
5.649957
3.349755
1.806113
2.334961
4.698001
7.791758
10.268451
10.629566
8.476223
5.446440
3.131833
0.954317
-2.166929
-5.497951
-7.321370
-6.802106
-4.287559
-0.832676
2.108838
3.139353
1.647973
-1.656790
-5.127503
-7.297412
-7.573996
-6.345525
-4.777915
-3.895584
-3.740991
-3.749966
-3.614381
-3.527155
-3.725026
-3.941809
-3.504126
-2.035535
0.281762
3.300960
7.045497
10.935274
13.704882
14.647000
14.343308
13.527338
12.167954
10.305987
8.401927
6.410009
3.639583
-0.060835
-3.509900
-4.997455
-3.683804
-0.382916
2.855739
4.486893
4.501615
3.706753
3.018111
2.881937
2.552673
1.025491
-1.120958
-2.156905
-1.431938
0.198041
2.077502
4.148872
5.801985
6.224983
5.327888
3.381766
1.159993
-0.199719
-1.022297
-2.690442
-4.621525
-4.465929
-1.524213
2.398692
5.369524
6.757895
6.452651
4.084899
-0.665037
-7.193118
-13.312273
-16.186888
-14.672166
-10.322291
-5.508685
-1.026752
3.249940
6.166073
6.024305
2.808834
-2.031038
-6.590367
-8.498217
-5.822684
1.003370
8.830836
14.244922
16.288017
15.957327
13.924934
10.260756
5.598264
1.161816
-2.105082
-3.763035
-3.692539
-2.139994
0.287794
2.547733
3.284454
1.632058
-1.920669
-5.352375
-6.820668
-7.035626
-7.857109
-8.968619
-8.702711
-6.843490
-4.399340
-1.813851
1.211589
4.379674
6.341313
6.198180
5.023044
5.030484
6.988378
9.399585
10.362544
9.345970
7.438668
6.203490
5.979363
5.208931
1.828868
-3.981977
-9.185591
-10.708191
-7.850805
-2.357011
2.902912
6.268708
8.353820
10.137611
11.042435
9.619656
5.466491
-0.160232
-5.756903
-10.899592
-15.328869
-17.628784
-16.405220
-12.578436
-8.862800
-6.470129
-4.299066
-1.887611
-0.385806
-0.373824
-1.067784
-1.376967
-0.804616
0.206138
0.941989
1.613980
3.174137
5.431156
6.132763
3.475974
-0.558287
-1.507363
2.359546
8.176936
12.311768
14.349697
16.367365
18.818810
19.571798
17.609848
14.177017
10.262307
6.418201
3.847354
3.184431
3.679806
4.701471
6.414040
8.199567
8.065156
4.967034
0.670517
-2.497471
-4.810816
-7.680313
-10.886803
-14.017301
-17.343447
-19.226957
-17.235495
-12.516377
-8.407693
-5.511629
-1.956658
2.744605
7.034673
10.108195
12.730844
14.602875
13.587578
8.549643
1.106572
-5.714615
-9.598985
-10.288460
-9.239832
-7.180813
-3.511672
0.930857
4.207384
6.119282
6.789700
5.375644
2.496584
-0.132284
-2.081160
-3.199079
-2.717661
-1.197586
-0.399844
-0.319781
0.228969
0.093334
-2.801623
-7.117386
-9.364183
-8.374692
-5.515108
-1.970070
1.889125
5.635502
8.644824
9.937818
8.634472
5.439306
2.066232
-0.629319
-2.615148
-4.363455
-6.825025
-9.794305
-10.927720
-8.422231
-4.030323
-0.947892
0.692328
3.168277
6.751771
9.268986
9.413908
7.304336
2.742364
-3.579197
-8.513361
-9.269460
-6.032119
-0.359441
6.046009
10.462417
10.775913
8.717233
8.023951
9.054045
8.760199
5.596634
1.578303
0.215514
3.131449
8.870825
15.409019
20.875353
22.204714
18.179857
12.608771
10.096287
10.498251
11.472396
14.258393
21.475468
31.003574
38.483376
43.736622
47.231785
43.414391
27.091455
2.949373
-20.284994
-39.124344
-51.760204
-54.649696
-48.740444
-40.979183
-35.729034
-30.838861
-24.618599
-19.418781
-15.835889
-12.159571
-9.952815
-11.116179
-12.103423
-8.574466
-1.785903
4.200856
7.271567
6.876428
3.110895
-2.304874
-6.234819
-5.607302
0.790824
10.843525
20.603876
27.969868
33.578854
38.024097
39.863052
37.342007
30.612539
20.539968
7.671497
-5.370717
-13.800824
-15.262133
-12.036994
-8.020499
-5.114566
-2.653957
0.138018
2.954822
6.703447
12.372085
16.517015
14.522576
7.634042
0.472542
-5.367318
-10.141273
-12.362447
-11.837896
-12.581852
-16.336433
-18.628946
-16.624334
-12.173751
-5.601507
3.299111
10.234480
11.589635
11.845444
17.414408
25.465195
28.521412
27.372766
28.367868
30.973127
29.447409
24.476324
21.936733
22.551201
23.233091
24.651747
28.385403
31.659388
31.903437
31.405069
32.308376
31.739611
25.973665
15.394338
1.758288
-14.912775
-32.635044
-46.084026
-52.936829
-56.872643
-61.665157
-65.453972
-63.478661
-56.084911
-50.537258
-52.115307
-57.593807
-62.075218
-66.435387
-73.077858
-80.624611
-86.138268
-87.985352
-86.071480
-82.237846
-79.206253
-77.446510
-75.094452
-71.539818
-68.068413
-65.271385
-62.923946
-60.907364
-59.045315
-57.176830
-53.834160
-47.139973
-39.279507
-34.133312
-30.804298
-26.338352
-20.977827
-15.221880
-7.435251
2.055987
9.883356
14.495945
18.091719
22.028919
22.956030
18.165503
13.138905
14.106436
16.538282
13.246237
5.277315
-3.374853
-10.075077
-12.990143
-14.639001
-20.116385
-29.541435
-37.271065
-38.439709
-34.805595
-32.255058
-32.135124
-30.486151
-26.342834
-23.393259
-23.898067
-27.042946
-30.567017
-31.288013
-27.687559
-20.793629
-10.942813
1.990005
16.400267
31.453785
47.735802
63.018501
73.925812
81.732933
89.644585
97.373543
103.985176
111.765617
123.085060
136.382401
147.945663
155.025330
156.040176
151.250137
141.737350
125.681602
101.440254
73.774635
48.987518
26.178616
0.999979
-25.281654
-48.039806
-66.418243
-81.044693
-90.415970
-95.358002
-100.687988
-108.976097
-117.127251
-120.335236
-116.863731
-108.081177
-95.983475
-81.631378
-64.624435
-44.972992
-24.745991
-6.417271
7.517345
14.441023
14.800757
13.324377
14.753527
19.001081
22.506481
23.933638
24.839569
26.210756
28.068169
29.805685
28.829782
22.123184
10.058130
-4.098427
-18.317951
-33.336498
-50.335484
-68.201912
-83.023705
-90.439819
-89.903793
-85.832504
-82.035103
-77.679657
-71.806854
-66.912598
-63.764748
-57.597206
-45.073170
-30.824520
-20.202366
-10.244483
4.757732
24.794647
46.856247
69.000931
88.954803
104.675323
117.172180
129.572479
143.490463
157.903885
171.232040
182.556503
190.578934
192.798889
186.428879
171.582947
152.954468
134.103241
112.144447
83.797287
52.135952
22.100927
-5.724916
-34.678101
-68.105698
-105.238960
-141.645844
-174.477203
-204.249161
-231.931259
-256.623047
-275.643188
-287.407562
-293.898346
-298.298950
-301.476257
-302.034454
-297.651733
-285.904388
-265.567078
-237.428040
-203.360214
-164.846725
-122.542313
-76.749229
-29.107359
15.737314
53.185768
84.504700
115.906319
150.333740
183.636276
210.252914
228.476089
239.406128
245.775391
251.872025
259.623322
264.567688
260.261719
246.361191
226.976685
201.901932
165.664734
115.319664
54.690403
-8.809290
-68.622208
-122.275879
-172.089462
-219.453995
-259.909454
-288.979889
-308.113953
-319.741150
-322.478943
-314.636963
-297.778320
-274.486969
-245.683655
-212.744339
-178.359283
-142.598846
-102.853889
-58.011887
-9.671847
38.165100
80.933029
118.109756
152.923828
186.381271
216.120285
241.018829
262.738495
282.830231
301.282013
317.605560
331.390503
342.346680
350.012634
352.871460
349.109253
338.568604
322.477081
300.796173
271.206451
232.658875
188.878464
145.257263
103.641525
63.947697
28.066017
-2.856089
-31.356371
-59.880974
-87.818138
-112.843025
-132.259872
-145.274918
-154.604782
-162.189972
-165.083817
-160.013916
-148.941177
-135.761932
-122.014267
-109.650902
-101.926033
-98.762360
-96.883812
-94.762436
-92.995979
-90.509125
-84.537308
-74.553040
-62.099754
-47.556728
-30.972731
-13.844095
2.847478
20.522573
41.100597
63.543137
83.708138
98.889969
111.172401
123.774330
135.903885
144.782791
150.132065
152.494659
149.980026
140.741760
126.066841
108.055946
87.736557
66.788773
46.625904
25.922228
2.233203
-25.488209
-57.231697
-91.959206
-126.074921
-154.196381
-171.064682
-172.076721
-156.249100
-128.868713
-98.014732
-70.566696
-51.506145
-42.435123
-40.636604
-42.398506
-46.832630
-55.298801
-68.406364
-84.595451
-101.374107
-117.733421
-134.471848
-151.574097
-167.004486
-179.577057
-190.994507
-203.129898
-214.851410
-222.469345
-222.021988
-211.541641
-193.203995
-172.833405
-155.102493
-139.789810
-123.442284
-102.283821
-73.557198
-37.635494
0.746298
35.724873
65.124962
91.013641
115.720108
139.286987
160.740906
179.306061
195.585617
211.797791
226.686752
233.498795
228.475662
216.332993
203.884689
193.522263
184.919662
178.620697
175.052414
171.961365
165.313004
152.752716
135.026672
113.433128
88.251503
62.002098
41.524303
34.191704
43.120892
66.321983
98.469948
132.451309
161.914520
184.040283
198.152740
203.631454
201.279007
192.604782
177.070587
154.971298
131.293793
110.534019
90.576744
68.157341
46.768642
33.129498
28.744219
29.316242
30.326626
29.976358
28.332167
26.799559
27.622505
31.605482
37.616837
45.203758
55.255787
68.171478
83.535210
100.721054
118.432503
135.188400
151.167236
167.562805
184.038727
198.335632
207.712112
210.895142
209.021500
203.380936
193.035233
176.784348
156.066238
133.129684
108.076111
80.459404
51.894753
24.935234
0.420489
-22.743914
-45.552845
-67.949036
-90.080963
-113.257301
-138.506714
-164.357422
-186.977402
-202.518341
-208.784851
-205.228577
-192.395035
-171.567825
-145.409348
-118.849678
-97.109108
-81.953117
-71.367676
-62.929012
-55.733574
-48.923206
-40.965302
-31.687649
-22.754208
-14.805811
-6.232216
3.884306
13.681678
21.136164
27.258087
34.803005
44.580708
54.530914
62.267876
67.734070
72.757736
78.327164
83.667938
87.363358
87.748238
82.965782
71.276360
51.274532
23.103107
-10.938260
-48.539795
-88.757637
-130.300079
-170.324265
-205.634415
-234.312820
-256.337128
-273.058258
-285.903564
-295.298798
-300.792206
-302.193359
-300.250000
-295.754333
-288.705719
-278.827209
-266.038605
-250.969498
-234.956665
-218.245148
-199.577240
-178.372604
-155.933136
-134.276276
-114.292580
-95.502640
-77.210678
-58.854225
-39.889828
-20.359299
-1.091445
16.790091
32.076939
43.811516
52.245541
58.990829
65.448837
71.372383
76.269463
81.599792
88.618118
95.888695
101.542328
104.031906
101.134476
92.124290
78.579796
61.980965
42.334236
19.315508
-5.811811
-30.360678
-52.381607
-72.147987
-90.742714
-107.406387
-120.123985
-127.926353
-130.999435
-130.093262
-126.349312
-120.464317
-112.350365
-102.260948
-91.353531
-80.817802
-71.299263
-62.920086
-55.498425
-48.849274
-42.593723
-36.169834
-28.903746
-19.892021
-9.356706
0.471517
7.480156
11.553496
13.884976
15.585343
16.988327
18.124178
19.401682
20.961987
22.302004
23.360113
24.769032
26.670841
28.109695
27.997318
26.452171
24.206806
21.088530
16.704353
11.664333
6.665176
1.634604
-3.613899
-9.244528
-15.774692
-23.539528
-32.386192
-42.011078
-52.033859
-62.577499
-74.320900
-86.704010
-97.680832
-106.340294
-113.805779
-120.759735
-126.147842
-129.448410
-132.093246
-135.129181
-137.377197
-137.150223
-134.419510
-130.346893
-125.263893
-118.240387
-108.828407
-97.719810
-85.343277
-71.593109
-56.829060
-41.772343
-26.999310
-12.525999
2.630702
19.073750
35.374615
49.490223
60.787041
69.488029
75.393173
78.074928
78.248695
78.056198
78.819199
79.849068
80.650002
82.235413
85.570457
90.341850
95.371132
99.316795
101.005287
99.737434
95.557076
89.214638
81.629456
72.814148
61.988384
49.791061
38.785114
30.447289
23.727571
17.612661
13.003695
11.192573
12.112752
14.793658
18.533657
23.212088
28.720463
34.537483
40.377453
46.545250
52.946217
58.679806
63.209270
67.005463
70.551521
73.439522
74.625961
73.468094
70.818970
68.635826
68.096146
68.740601
69.745476
71.210197
73.746590
77.596260
82.499763
87.766563
92.332985
95.445976
97.477196
99.286346
100.797874
101.283295
100.769691
99.877548
98.812714
97.712738
96.999252
96.543655
95.651672
94.076309
92.146355
90.317467
88.985466
88.019142
86.660843
84.452797
81.727417
79.137520
77.119049
75.426270
73.047775
69.061226
63.665398
57.815681
51.746841
44.816128
37.003105
29.342949
22.674568
17.180931
13.012469
10.062621
7.570667
4.936106
2.328720
0.026685
-2.402250
-6.038117
-11.650603
-18.756245
-25.981131
-32.551586
-38.842873
-45.287556
-51.656750
-57.507729
-62.476627
-66.173264
-68.158844
-68.040314
-65.885170
-62.427399
-58.333282
-53.620644
-48.418636
-43.669991
-39.985458
-36.440830
-31.971775
-27.136616
-22.826178
-18.337420
-12.670999
-6.798810
-2.825696
-1.381086
-1.092664
-0.542345
0.303119
1.090050
2.512939
5.689910
10.612163
16.141695
21.133137
24.689692
25.963427
