Origin Time       2021/02/13 23:08:00
Lat.              37.7
Long.             141.8
Depth. (km)       60
Mag.              7.1
Station Code      FKS004
Station Lat.      37.6799
Station Long.     140.7346
Station Height(m) 488
Record Time       2021/02/13 23:08:06
Sampling Freq(Hz) 100Hz
Duration Time(s)  201
Dir.              U-D
Scale Factor      7845(gal)/8223790
Max. Acc. (gal)   239.330
Last Correction   2021/02/13 23:08:06
Memo.             
[...]
  -26665   -26665   -26663   -26661   -26665   -26666   -26663   -26665 
  -26667   -26667   -26663   -26662   -26667   -26666   -26665   -26667 
  -26665   -26663   -26667   -26669   -26667   -26666   -26663   -26665 
  -26666   -26666   -26665   -26665   -26666   -26665   -26662   -26666 
  -26667   -26667   -26665   -26665   -26667   -26669   -26663   -26662 
  -26665   -26666   -26665   -26666   -26670   -26670   -26666   -26663 
  -26665   -26665   -26663   -26662   -26665   -26669   -26666   -26665 
  -26669   -26670   -26665   -26662   -26666   -26669   -26666   -26666 
  -26669   -26670   -26666   -26663   -26663   -26665   -26666   -26666 
  -26666   -26669   -26665   -26663   -26670   -26669   -26663   -26662 
  -26663   -26663   -26663   -26663   -26667   -26669   -26665   -26662 
  -26665   -26666   -26665   -26665   -26666   -26667   -26666   -26665 
  -26666   -26667   -26669   -26665   -26661   -26663   -26666   -26665 
  -26663   -26667   -26669   -26667   -26666   -26666   -26665   -26665 
  -26666   -26666   -26666   -26666   -26665   -26665   -26666   -26663 
  -26663   -26667   -26666   -26665   -26666   -26665   -26665   -26666 
  -26666   -26666   -26667   -26666   -26666   -26667   -26669   -26666 
  -26662   -26666   -26669   -26666   -26666   -26669   -26666   -26665 
  -26665   -26665   -26666   -26666   -26665   -26666   -26667   -26665 
  -26665   -26667   -26667   -26663   -26662   -26665   -26667   -26669 
  -26669   -26666   -26666   -26666   -26665   -26663   -26666   -26666 
  -26665   -26666   -26666   -26665   -26665   -26666   -26667   -26666 
  -26665   -26663   -26662   -26665   -26669   -26666   -26666   -26667 
  -26666   -26665   -26665   -26667   -26669   -26665   -26663   -26666 
  -26667   -26666   -26665   -26663   -26666   -26666   -26659   -26665 
  -26674   -26669   -26661   -26662   -26665   -26665   -26666   -26666 
  -26666   -26663   -26663   -26667   -26666   -26663   -26663   -26665 
  -26669   -26667   -26663   -26663   -26667   -26666   -26663   -26663 
  -26667   -26665   -26662   -26665   -26666   -26665   -26666   -26666 
  -26665   -26666   -26665   -26665   -26667   -26665   -26662   -26665 
  -26669   -26667   -26663   -26663   -26667   -26669   -26665   -26663 
  -26669   -26669   -26665   -26666   -26671   -26670   -26665   -26661 
  -26666   -26667   -26662   -26662   -26667   -26667   -26666   -26665 
  -26663   -26663   -26663   -26663   -26667   -26670   -26665   -26661 
  -26663   -26666   -26666   -26665   -26665   -26667   -26667   -26666 
  -26669   -26666   -26662   -26666   -26666   -26663   -26667   -26667 
  -26665   -26667   -26666   -26665   -26666   -26667   -26665   -26665 
  -26667   -26669   -26665   -26665   -26670   -26669   -26663   -26663 
  -26665   -26666   -26667   -26665   -26666   -26667   -26665   -26663 
  -26666   -26665   -26663   -26665   -26667   -26667   -26666   -26667 
  -26667   -26670   -26674   -26676   -26680   -26685   -26688   -26689 
  -26693   -26697   -26708   -26731   -26763   -26790   -26794   -26779 
  -26781   -26800   -26773   -26676   -26642   -26786   -26929   -26750 
  -26306   -26126   -26504   -26968   -26867   -26403   -26422   -27090 
  -27621   -27437   -26844   -26364   -26140   -25957   -25949   -26852 
  -28291   -28659   -27683   -26322   -25486   -26026   -27245   -27152 
  -25771   -24900   -25527   -27209   -27980   -26617   -24908   -25035 
  -26797   -28039   -26983   -24479   -23268   -24555   -27135   -30451 
  -32541   -29486   -24965   -26019   -29798   -29479   -24094   -21182 
  -27783   -34056   -30030   -26443   -31151   -34380   -29427   -23627 
  -24952   -28719   -28422   -27459   -27199   -26928   -31334   -35696 
  -29417   -18883   -17389   -21062   -20460   -23869   -34587   -34489 
  -25347   -28008   -33768   -23242   -10611   -15041   -24556   -27159 
  -27421   -25103   -23372   -23441   -15944    -9246   -16997   -28899 
  -29400   -24543   -29374   -33084   -24364   -21604   -32263   -42319 
  -34758    -6120     4870   -27340   -56965   -45458   -20035   -18261 
  -37567   -43464   -25747   -20682   -37076   -39556   -25290   -18107 
  -21536   -25756   -20005   -20532   -47202   -57933   -25097    -5058 
  -29789   -49264   -25146     5467     -942   -24348   -30134   -20181 
  -18881   -38416   -50406   -30477    -8930   -16394   -36938   -49756 
  -50156   -31733    -6640      390    -2373    -6525   -29841   -58847 
  -62946   -49771   -34315   -14735     5024     6975   -18265   -44008 
  -45817   -34484   -21105   -19746   -34183   -29054    -8893   -22870 
  -53843   -53958   -36891   -31656   -28733   -18577   -17119   -23005 
  -22422   -32536   -47229   -26183     3389   -10164   -32679   -33469 
  -46013   -57271   -34184   -10299    -2713     3190      105      456 
    6585   -16965   -61812   -83222   -65823   -36560   -30385   -29677 
  -10886    -6497   -26356   -34677   -23225    -6957    -1266   -30773 
  -76287   -74148   -35353   -21439   -27587   -29072   -25540    -5840 
   30454    48201    15275   -38048   -65011   -75861   -65221   -22150 
   -7425   -30670   -32740   -25813   -29440   -10689    18778    15522 
  -19745   -57931   -71705   -52108   -21185    -6332   -17764   -42570 
  -48473   -30356    -9622    18551    32911   -18319   -78358   -65264 
  -35340   -30292   -14103   -12332   -34546   -35513   -37963   -53596 
  -27778    22377    23377   -21088   -46257   -35316   -20640   -16938 
  -37486   -82359  -102625   -72466   -15908    45137    74171    32706 
  -33328   -55290   -42932   -24065   -21199   -45613   -68659   -75446 
  -50112     5626    13339   -33161   -34696     5144    -5853   -67436 
  -98886   -54681    23453    47179      936   -46087   -54572   -38419 
  -23596   -35919   -63034   -56610   -22859   -21442   -46357   -36227 
    4438    31027    33191     3962   -48142   -85729   -93270   -64922 
  -18326   -12718   -37774   -21265    18997    16124   -17906   -35899 
  -32121   -22897   -23020   -37604   -51475   -58174   -45736     4460 
   28437   -26219   -76835   -69878   -50411   -36771   -26365   -16573 
    9136    18532    -5571    -2349     1015   -56598   -86927   -46575 
  -12549    -9055   -37027   -73961   -56853     2376    39766    30215 
   -5050   -31031   -44147   -54714   -45084   -14539   -19030   -68797 
  -76874   -19872     4055   -42488   -66989   -18987    17784     -444 
   -1960    11327   -10015   -28537   -50738   -97114   -78547     2030 
   28678     7911     1098       55   -15024   -40286   -55148   -68150 
  -64893   -12949    -3840   -62390   -60870   -29033   -52492   -44004 
   46067   120177    86051   -27360  -105653  -105845   -80485   -55629 
  -34719   -47027   -67617   -41462    15687    56079    38472   -13713 
  -29367   -38624   -79423   -87048   -43906     4376    32768     -452 
  -89873  -125093   -66858     3477    51806    74848    34187   -40424 
  -65831   -35872   -11078   -32664   -73484   -69614   -29709    -8756 
    1113    -4554   -62004  -103400   -55420    -2477    -2841    17381 
   37606    -8714   -54777   -68462   -68802   -21209    22491   -10903 
  -57088   -57796   -39815   -30338   -35221   -33438   -12964   -19022 
  -51564   -43877   -18532    -5606    30190    23118   -47023   -67909 
  -47313   -38511   -32212   -43371   -48103   -16218    10875    -3697 
  -44221   -61136   -40011   -23171   -29787   -19264    25003    16040 
  -78969  -120313   -56465    -7630    12934    51831    30838   -59846 
 -107644   -88395   -44410    11288    46468    25077   -18303   -45056 
  -72202   -88987   -64922   -17702    10002    -5733   -27427   -12498 
   14701    16969   -21150   -45071    -5917     -228   -46705   -63610 
  -85862   -77164    -6751   -14134   -62857   -32101    -1949    -9460 
  -23230   -52890   -29114    49048    58471      291   -53851   -84028 
  -69489   -22454     9404     -228   -27957   -34418   -40068   -44559 
  -17072   -12263   -41786   -38317   -16866    -3379     2829   -27253 
  -49983   -15811      738   -37164   -48845   -21066   -35033   -83166 
  -88786   -42094    16960    19228   -40684   -47074    -2635   -11758 
  -13401    25371   -12067   -92186   -84847   -19809      695   -40959 
  -84042   -60949    17718    53306    27160    16405   -23782  -119263 
 -119230   -41292   -33525   -30171     2582   -19994   -43332   -23897 
    -101    19384     3528   -23016   -26022   -55719   -68175   -38362 
  -40671   -22439    18963   -21001   -73025   -49997   -11900    -1902 
   -2683    14558    41408    19510   -48766  -101942  -110816   -65045 
   -3420     9605    -5695   -20314   -34917    -6563    32165   -12021 
  -70954   -49037   -24497   -49783   -61242   -41222   -18762   -12259 
  -32312   -63235   -58313    11547    76079    48109   -27396   -77855 
  -99688   -93077   -68245   -33867     8698    20464   -10596   -48745 
  -72632   -57904    15373    73959     5408  -125131  -127464   -18162 
   18247   -24798   -35796   -20933   -19121   -42383   -72747   -14845 
   77048    15502  -111098  -118881   -77184   -53535   -23315   -12877 
   -8020     9796    13412    12607     4835    -9960   -17271   -47835 
  -62249    -4500    35980    -7659   -80647  -120965   -96156   -42172 
  -45517   -70252     1305    98605    74664   -18549   -50171     4753 
   57991    21271   -70687  -108043   -47997     4122   -35965   -68293 
  -35505   -24796   -41527   -16864    33624    33439   -49005  -123877 
 -101822   -54737   -46252   -15530    41489    61183    35147   -10809 
  -31614   -19233   -61680  -150120  -124603     5958    42430   -32576 
  -66715   -30669    20017    41790     4845   -29037    -7734     2097 
  -42823  -109977  -142770   -73905    72917   144028    57859   -54041 
  -64775   -36744   -50257   -91901  -110686   -73137   -35055   -29083 
    1617    34959    24235     6922    -3010   -27903   -41060    -9479 
    -630   -73487  -131197   -78081    27311    55032   -14882   -52956 
     854    50785    10042   -85614  -128710   -92835   -41697    -7024 
   30318    90721   120324    41801   -82212  -167154  -207628  -144228 
    6478    90093    72468    18473   -49801   -74927   -17362    41145 
   43934    24468   -24316  -129967  -219484  -194474   -85536    33019 
  135548   146730    31117   -85162   -83637     1478    49554    22279 
   -9694   -43973  -111704  -124983   -62978   -40649   -57072   -28609 
   28310    37598     2848    -6374   -18396   -66027   -83266   -64200 
  -31727    22281    41613   -11782   -80473  -126640  -123646   -38611 
   39028    42076    37473    20173   -37203   -92308  -118747   -70798 
   24078    40682    -8222   -34373   -48405   -73612   -83485   -30763 
   62352    79591    20105    -1132   -31351  -127691  -140093   -46403 
    5274    -2142   -23851    -3681    70467    47741   -77229  -110370 
  -67672   -62278   -41331   -10978   -56038   -76569     6008    16366 
  -77895   -87282   -31390     6590    72654    95222     7804   -91579 
 -131850  -106825   -48690   -18874   -12718    -2434    16563    48447 
   40963   -21375   -65686   -84450   -87230   -34757    32254    34673 
   -5289   -47170   -83332   -81877   -78594  -101969   -45191    89129 
  125699    18006   -60039   -11368   -24291  -168891  -199455   -64334 
   71848   148995    92826   -79375  -132093   -17531    32914   -38620 
  -64785   -14779    17280    -5815   -83412  -140728   -80472    30958 
   38087   -33812   -12665    78247    64405   -37157  -108128  -106303 
  -43129   -17992   -39715    -7550    -6204   -84708   -75311    21941 
   68080    72524    28869   -83540  -129258   -82038   -81272  -101682 
  -39708    45342    64162    22590   -48035  -103395   -76978    15688 
   51591   -10045   -47466   -21610   -52092  -107682   -69758   -12204 
   26057    68515     6060   -99073   -42206    49161   -33169  -118889 
  -45013    12312   -34191   -43599    -1316     2201   -30615   -52582 
  -40107   -17810   -18708   -32692   -34654     7608    49296     7524 
  -45111   -46788   -67540   -87948   -64315   -50039   -39617     8386 
   50413    41493     4224   -47567  -103091   -69932    42924    56228 
  -14904   -36636   -67840  -115824   -87708   -13716    55707    83816 
    3454  -118427  -123438   -51047   -38341   -53154   -37192    10073 
   56043   -13695  -118866   -64258    21344    -4288   -14270    24740 
   -1691   -62546   -61226   -70667  -115285   -81118    -9937     9298 
   20979    44313    34722   -17999   -77377  -102784   -58966    23990 
   40381   -21074   -79363   -87199   -42261    -5962   -10866   -15209 
  -20302   -33629   -45647   -49161     2797    46259   -20915   -58691 
     151   -13899   -68494   -42260    -8064    -3574   -21139   -75536 
  -81359   -25776   -35900   -82799   -36761    54243    78428    35359 
  -43182  -111635   -79498    24281    49929    -3709   -55557  -122042 
 -153360   -72335    10925     7800    20703    67983    50967   -15538 
  -76534  -107334   -74630   -11523    22256    24869    -7975   -75602 
 -118251  -114222   -79282     1479    54413    16198    -8991    17965 
    8721   -61647  -124313   -81634    17718    10775   -36327    21433 
   59316   -12101   -66010   -62591   -36552     9097    12719   -50467 
  -89793   -43530    15439   -22257   -93833   -63171   -16914   -59088 
  -54684    35437    66785    44562    37293    -8905   -88134   -89795 
  -18513    18029    20722    43843    27097   -79397  -167113  -106531 
   62942   152127    76018   -19931   -10642    51602    40624  -123580 
 -277553  -174252    38770    91307    28459   -66442  -150425  -124137 
  -39383    -7827    12297    85599   132694    26524  -150928  -199951 
 -120694   -29805    11172   -29162   -88805   -62198    11233    14130 
  -41008   -32517    23737     2053   -48386   -29506      499   -11565 
  -60173  -114285   -77440    24394    19402   -48485   -26393   -10133 
  -78776   -89167    -2363    53941    33539   -53860  -145670   -68326 
  119156   108210  -103891  -215600  -133895   -14978    37231    27452 
   20186    45486    -4468  -139280  -167513   -37504    99802   115011 
  -10351  -132854   -90822    30429    27071   -76107   -82516    14866 
   51958     2485   -44374   -40830    13366    13641   -79921   -59293 
   67849    18750  -105005   -37543    74960    29053   -85685  -128418 
  -81807    19129   108070    68766   -57716   -41143    85029    45204 
 -130904  -198153  -101347    47891   108650    55443    14681    25236 
   26400    14310   -12124   -23676     4838     2586   -42546   -79123 
  -80909   -61323   -90339  -111879   -16667    72696    27164   -57203 
  -90921   -90782   -53428   -18495   -57748   -86019   -20225    22650 
  -18408   -38132    -4461     5491   -29893   -54627   -68176   -96183 
  -79421   -28521   -46143   -93271   -64446    11854    66109    58932 
  -44429  -125433   -29759    90217    47632   -54064   -85556   -54745 
  -46198  -112503  -148849   -83420   -27710   -35316   -33041    -7007 
   20302    27491   -43814  -127849   -84343    15539    50595    78337 
   90744   -13608  -128297  -104454   -29805    -4494    -9740   -51482 
  -95323   -67228   -17568    18895    99285   148894    70540   -64652 
 -179784  -214320  -129161   -35469    -1428    24557    31194     7929 
  -33011   -95098  -107245   -53088   -30465   -28204    16349    39947 
  -20294  -100340   -91039   -21139   -28058   -79072   -44712    20673 
   10297   -53932  -104545   -94053   -19095    39652    18481    -1603 
   28055     9009   -47989   -46442   -21963    -5270    26885    45219 
   33895    19688    12768    -8838   -49106   -75370   -69923   -42697 
  -19400     8257    60567    63001    -6731   -26119     4587    -7491 
   -4861    47429    61264    17560   -24675   -48790   -99211  -138388 
  -79537   -20960   -53612   -58895   -15974   -39191   -62329    13181 
   63023     4882   -39704   -15427   -27962   -82092   -34056    80811 
   72419   -55251  -162768  -197679  -171170   -96357   -13034    26788 
   36702    35186   -15715   -81114   -88863   -75546   -70858   -23048 
   40587    40748    11577    -1065   -23719   -42665   -27444   -25463 
  -71513   -81460   -16741     8587   -69132  -163043  -161365   -75590 
   13767    84414    83226   -11773   -83762   -85536   -70822   -42750 
   14372    93127   120407     2481  -166654  -201928   -94026    41855 
   96928    25606   -74883   -70480      -28    26677    15091    -3454 
  -38465   -74143   -76099   -45104   -39487   -74943   -79076   -44559 
  -10881     9838   -12264   -56489   -81261   -79833   -39749    -4155 
  -19834   -43702   -34483   -29959   -71197   -91893   -13398    84476 
   76820   -11349   -91453  -125606   -95770   -36329    -5356    16443 
   60245    71950     2617   -76042   -84890   -40760    34507   102139 
   74317   -23958   -60234   -32591   -32971   -34898     4853    23075 
    8980    10288     -870   -27978   -28634   -27012   -14831    43750 
   78429    52251    37611    50552    38732    -3403   -34006   -34357 
  -11319    23862    23739   -33033   -85657  -107407  -113439  -110635 
 -110682   -67996     -805   -29176  -101645   -89056   -41431   -28590 
   14905   103820   122831    58428   -11254   -63671   -50437    20780 
   49959    40907    33783    12561   -19921   -71625  -135268  -160350 
 -129712   -53109    37158    83447    63252    11774   -27963   -56354 
  -67579   -49374   -55455  -100727  -109047   -62509   -20822   -31584 
  -75451   -79876   -39934   -28738   -65219   -69034    11007    77167 
   17509  -125383  -200461  -123919     2200    59827    77602    87623 
   61094     3897   -43065   -75423  -117096  -148286  -163786  -188300 
 -166201   -67971     9599    25490    45504    76360    73456    27290 
  -44871   -73708   -52324   -65075   -72728   -49231   -68671   -87104 
  -54796    -4461    20347   -42751  -129783   -96412    -4503    12707 
   13668    44290    38003    -9648   -59679   -67444   -29176    20186 
   60384    25829   -37698   -18403   -22225   -90701   -66723    12337 
   -8118   -80169   -94521   -57342   -19264   -10243    -9684    25655 
   73386    68366     8414   -28107    -7088   -11404   -59424   -44597 
   10407    -5603   -51668   -54842   -19959    29727    39773   -13410 
  -79038  -103212   -78561   -57538   -79409  -107389   -85888   -11816 
   67525   109749    93536    41798    20012    14229   -47583  -142334 
 -196960  -179409   -85625    61115   182698   164454    24892   -86472 
 -123556  -112175   -67963   -27305     1228    18238    26689     7148 
  -70524  -124968  -105853   -64824    -4985    59964   102797   101497 
    8777   -96314   -95058   -39568   -14496   -20613   -50641   -73442 
  -36057    20174    17030   -14778     -994    45624    48652    -6254 
  -45237   -21363     1085   -39703   -84505   -89646   -71109   -13753 
   39582    11122   -66343  -109455   -90556   -34596     7341    -5165 
  -53080   -86108   -80427   -41775    -3341     9958    11884     8737 
  -26023   -96746  -152880  -151995  -103862   -55682   -26223    31509 
  107655   105471    -5846  -128642  -145948   -62417    24682    52384 
   30240   -10887   -74461  -134962  -121431   -74133   -81284   -93549 
  -65726   -45900   -32985   -11287     1529    22368    38348    11159 
  -15427   -15969   -37435   -58931   -35382     1522    15940    -1686 
  -26785   -20814     8122    38344    24327   -47405   -84811   -72906 
