Origin Time       2021/02/13 23:08:00
Lat.              37.7
Long.             141.8
Depth. (km)       60
Mag.              7.1
Station Code      FKS018
Station Lat.      37.3961
Station Long.     140.3622
Station Height(m) 245
Record Time       2021/02/13 23:08:11
Sampling Freq(Hz) 100Hz
Duration Time(s)  180
Dir.              N-S
Scale Factor      7845(gal)/8223790
Max. Acc. (gal)   244.261
Last Correction   2021/02/13 23:08:11
Memo.             
[...]
    1752      675    -2343    -1455     5440    22797    44641    47621 
   29836     7722   -13597   -24204   -20329   -11583     6608    34125 
   56327    64905    54361    33812    24281    22605    16776    11273 
    8711     3789    -7755   -18466   -12568      962      -98    -5119 
    4986    21581    36158    48011    49623    42215    28966     9466 
   -2521    -6574   -22034   -40753   -37689   -10671    26812    57919 
   70040    68338    60579    47447    38646    32460    10084   -18976 
  -29038   -21848   -10870    -1135     7948    20861    30970    29300 
   25882    22697    14679    11730    11499     5880    -2894   -15014 
  -20713   -14242    -2035    22360    51000    58490    46916    28420 
    7604    -4461   -11912   -22897   -21679    -6232    10592    31665 
   49203    50282    43742    39118    37822    31083    10045    -8089 
  -15381   -27739   -38136   -33076   -16401     8411    30624    45362 
   56716    56135    50197    46858    31028     6697   -13096   -24372 
  -19614   -11117    -7366    10114    36590    52029    57291    55117 
   51300    46502    18627   -30622   -69203   -81008   -60493   -11036 
   41588    76844    91520    83207    57561    28421     2593   -12603 
  -16857   -24455   -31600   -22597     -414    27364    50560    56897 
   54236    51244    39075    16960    -4058   -19872   -32494   -39717 
  -35677   -19724     4299    32850    60621    80302    84045    65106 
   27683   -10843   -39297   -55165   -54276   -39248   -14214    16302 
   36030    43193    51398    54660    47120    35197    15091    -9763 
  -26014   -29921   -18454     3454    22438    39021    54665    57996 
   44523    27772    20142    14384      440   -16742   -26825   -23184 
   -7587    15777    45906    69643    71660    54510    26114      429 
   -8537    -7055      999    13871    12746    -1510    -6574    -1121 
    4843     9771    11504    11473    12218     7334     4348    12355 
   10675    -1626      909    10660    20441    44059    67289    71683 
   59721    32630     5312    -7217   -17899   -24198   -11986     -994 
   -2112     2587    14023    20602    21362    20108    18995    14160 
     893   -10656   -10701    -9857   -12510    -8716     3460    19512 
   34272    44350    49327    50315    50261    48273    38025    16190 
   -9250   -25189   -25016    -9648    12469    33841    54823    67783 
   60741    36489     3562   -25532   -34106   -22040    -2257    13374 
   18789    21937    32401    45855    50363    38666    15726    -5130 
  -12789    -7929     2162    10813     9578     4180     8661    16573 
   22729    30919    30491    22640    19876    17991    16997    19880 
   23468    29714    32910    32857    41002    42857    21945    -4918 
  -22022   -27604   -27328   -33905   -40768   -35687   -27129   -15703 
    6961    34950    53802    54814    49566    45754    29744     7006 
   -2408    -1579    -4348   -10381    -9606    -4576    -3831     4083 
   30051    53312    48520    23481     4603     -885    -5437    -7344 
    5053    21313    27599    29654    33093    33682    24467     4914 
  -10705   -11195    -6255    -2174     6899    13578    13328    19889 
   34183    42276    39017    33455    35687    39847    36873    27202 
   15026     9591    12310    10392      -43    -7938    -5517     3439 
   13279    22584    24672    16641    11709    13127    16926    27225 
   30403    20166    19028    29451    36409    35530    24733    10004 
   -2471   -15469   -21905   -17077    -7848     3250    12441    14395 
    9717     5177     6852     7504     1649    -3551    -4567      981 
   13783    22592    19407    11769    11330    15913    12811     1486 
   -5360     1609    16669    25659    26823    28957    35052    36432 
   27301    23676    36882    50047    51768    51054    49692    38773 
   17232    -6068   -18200   -11722     6924    22688    22447     8436 
   -1667     5192    21986    29706    27606    29145    25251     2511 
  -22285   -26925   -13651    -3164    -3673     1134     9078     7566 
   15057    31348    32073    26169    28441    33620    33594    19615 
    2814     7333    25247    33366    28390    19446    15696    13103 
    6450     6326    12783    17533    26666    35725    27282     2277 
  -21261   -23186    -3067    15140    18639    11134    -2590   -13667 
  -16843   -13747    -4976     6253    13317    18886    26796    23643 
    5401    -8122    -8725    -4904    -1456     5922    26580    51187 
   56066    41860    22819     9216    13784    26181    24548    17571 
   17756    17961    16225    17259    21818    28755    31513    27831 
   22133    10296    -3735    -8495    -8402    -2894    12614    24823 
   26632    25548    24178    23907    27291    29496    28435    26173 
   19831     9448    -2984   -14800   -21261   -18580    -3468    15925 
   31930    48617    54097    33929     1143   -23110   -23105    -4421 
    7013    10100    15996    23854    35916    42687    34987    26586 
   22597    16362    10264     3333    -5313    -8833    -7227     1050 
   20121    37987    41759    35457    27672    20185    11722     6385 
    9690    16696    15067     5000      945     1119    -6269    -7095 
   10023    24669    24780    14384    -5636   -22103   -24460   -16999 
    1664    23823    34396    35341    35660    45434    64638    73398 
   63055    40377    10883   -10195   -20088   -36954   -51414   -44435 
  -23615     5302    31939    43482    51640    54445    39656    20773 
    1601   -19489   -22968   -12977    -9124     1476    25996    44394 
   45825    32834    21419    27018    31344    19192     6092    -5036 
  -17906   -19638    -9759    -1582     3593    15045    36556    58914 
   68046    56166    27715    -3215   -22659   -24436   -17178   -10278 
     508    13414    26460    42673    46957    38722    32439    18196 
    3693     5798     4806    -4124    -4644    -1331     1556     7657 
   14816    18603    10609    -9393   -25671   -27035   -18409    -8993 
     201    10332    19163    25049    24709    16966     5636    -6961 
  -14472    -7782     9428    29592    52128    68941    69812    57281 
   37721    22515    24358    39127    55525    59583    39865    15437 
   10345    14493    10461      459    -3333     3334    11168    15587 
   20452    23229    23269    21528    15736    14108    15684     5664 
   -6451    -5385     2458    15315    33741    45285    42670    32077 
   24124    21686    23255    33458    44068    41806    35954    29247 
   16592     8851     6683     7607    13871    17879    26121    40635 
   47914    52112    44432    11155   -21828   -38685   -49003   -52222 
  -53649   -57346   -54241   -49010   -45461   -32782   -14751     1416 
   21824    39510    43009    37474    23623      441   -20969   -35718 
  -42556   -37312   -22864    -1185    22605    38406    48207    52510 
   44105    24129    -3852   -32125   -47625   -46642   -30609    -6880 
    9883    19160    28171    32859    28290    13296    -5190    -9316 
    3493    18068    28239    37411    46882    51984    49014    46101 
   45115    32779     9379   -11692   -24236   -25126   -13960     2903 
   17721    25828    29424    33768    38267    38464    33377    24811 
   14277     2671   -11520   -22385   -18173     1012    31068    63585 
   85730   100830   113949   122364   129339   130296   116434    94180 
   70933    54017    51470    51760    44863    35305    22095     9521 
    3076    -1316    -4428   -11156   -25678   -42012   -59073   -80497 
 -104221  -121396  -127120  -123822  -106635   -71381   -31773     -367 
   25540    46018    60658    77071    94455   107622   115461   112764 
  102068    93591    89688    91280    92788    81259    62302    46130 
   23688    -4500   -24354   -36622   -42584   -35650   -21496    -9497 
   -1640     -383    -9047   -28436   -53744   -77245   -96117  -110116 
 -118015  -115689   -97132   -68650   -43000   -21775    -6704    -1080 
    -342     1355     9186    23345    37189    46770    57183    72004 
   80983    81495    83538    83930    76896    72303    75482    72937 
   57511    40529    31760    28093    15782   -12155   -42277   -57404 
  -52369   -27878    13149    54824    75405    73647    61156    41189 
   15302   -12244   -32578   -35762   -24975    -4438    25068    49320 
   51332    24930   -20686   -59512   -79515   -89390   -84384   -57515 
  -23666    -3669    -7708   -24232   -28225   -13803     8171    32067 
   49962    58997    76954   109472   137328   151509   155877   156230 
  155729   146111   129853   119260   112155   105599    92815    63329 
   28170      202   -25525   -49870   -61881   -59281   -51152   -40462 
  -33238   -41091   -58986   -75697   -88727   -96846  -102618  -108680 
 -112060  -113884  -109960   -86956   -49603   -21250   -19738   -44066 
  -77410  -102813  -106851   -83930   -40008    13362    57659    86019 
  106847   116568   109706    93299    80813    85012   103896   125820 
  142169   151870   159688   161613   151571   137933   131943   129459 
  116113    89414    61052    41485    30816    18191    -4985   -33669 
  -59175   -80824   -98463  -107650  -100585   -68643   -24849     4402 
   11388    -3014   -33608   -66679   -92457  -101412   -97141   -99895 
 -105393   -96461   -83215   -73052   -52735   -25408    -3052    20340 
   44130    61539    80700    99395   109414   115163   108788    79834 
   33736   -21344   -68353   -90058   -91419   -86860   -83184   -77388 
  -64443   -44203   -16783    14122    41284    65632    93287   127664 
  164964   194945   216437   235302   246696   241964   218597   174330 
  106205    23271   -41986   -66182   -67070   -57397   -23480    26272 
   66876    89824    91611    73001    46588    21919      209   -19907 
  -39565   -59898   -84252  -111144  -132923  -146730  -152609  -147037 
 -131107  -114257  -101817   -86556   -60305   -30055    -5929    12827 
   26388    33423    33459    22087      525   -22936   -41472   -49264 
  -45335   -33417   -12677    16150    45927    75406   107468   137047 
  156292   168187   181985   197441   206998   205163   195281   190676 
  199627   217850   236243   245191   239834   225929   208341   182767 
  153559   131649   108186    70267    28530    -3735   -25803   -37814 
  -44012   -51054   -58183   -66320   -79273   -94080  -111591  -135540 
 -155322  -165832  -180188  -197203  -203465  -201648  -199485  -196690 
 -188299  -171528  -151725  -131217  -105366   -70776   -28973     9918 
   39725    68123    98047   120028   124579   106882    67281    17385 
  -24939   -54211   -75718   -92236   -99968   -88666   -53883    -3649 
   49986    91282   109090   111312   104646    85896    64615    49582 
   37214    26292    14770     3466    -2203    -3677    -1891     4502 
   11855    15345     8702    -7096   -15012    -3605    20079    42519 
   50311    41305    28329    20979    19527    18598    11101    -2401 
  -12920   -13095    -6246     2070     8550     6258    -1374    -1669 
    2413     2285     2934    10250    28680    58816    91100   119961 
  142819   157690   162426   147409   103555    44776     8122     3819 
   12287    25269    39590    42754    26734     5491    -3411     5853 
   29980    50021    53369    39379     3565   -42140   -76087   -96545 
 -105250   -97795   -81954   -74417   -82609   -97185  -105117   -99106 
  -70471   -19901    25556    38199    31758    34973    42473    43324 
   41986    31594    10613    -3811    -1541    18701    56266   102369 
  141048   163348   173507   172708   158599   140636   128343   119916 
  113395   109991   110601   113368   111164   100809    86701    69923 
   51987    37565    23961    10397      406    -8664   -15230   -16625 
  -16155   -12714    -9745   -17103   -34863   -58810   -84901  -105888 
 -122153  -138866  -154940  -166403  -162529  -131788   -82956   -39837 
  -16700    -4329     9347    13555     -661   -23112   -45843   -69503 
  -98224  -125909  -131244  -107797   -65423    -8324    45513    65959 
   57269    48034    35815     5390   -23218   -28740   -20182    -2825 
   28806    69498   110794   150215   183089   203454   211404   210370 
  203334   188063   153895    97476    37438     4475    13383    46631 
   83560   120649   146722   143368   110948    67956    27626   -12812 
  -54507   -89253  -116870  -144906  -170617  -181809  -170888  -146793 
 -127381  -117528  -117618  -130142  -144960  -159320  -181269  -192561 
 -168060  -115650   -59418   -13630    27087    73273   116630   150245 
  176065   186787   186880   190740   192326   178965   155563   137702 
  131345   132980   142862   155642   155927   138955   113683    86502 
   58924    34614    21801    24406    29849    24275    11701     1067 
   -5117    -9591   -18615   -35715   -61310   -91300  -117798  -138858 
 -153226  -152192  -130790   -96807   -60628   -26662     2378    26187 
   49422    75685    98039   102967    87655    57527    15481   -31919 
  -68598   -78935   -65265   -39167    -4463    28972    49277    62658 
   77436    94404   111218   120657   120622   110772    90524    71447 
   62824    57611    48424    40942    43552    54945    68723    76462 
   67878    39560     1406   -31396   -56629   -79938   -95497   -96832 
  -88712   -74690   -52725   -25398    -3774     3250    -2033   -12024 
  -21756   -29334   -32189   -25767   -10293     2241    -1679   -19869 
  -42568   -67968   -91295  -100710   -95440   -81078   -53435   -12055 
   29381    61072    89417   125879   172652   220800   255496   270349 
  268809   248475   209150   158826   106267    57901    10373   -36205 
  -74491  -108199  -143221  -172895  -180852  -156448  -107314   -52324 
   -9082    10578       93   -31623   -59979   -72605   -74540   -70050 
  -66364   -70671   -74574   -67217   -48516   -23058     1439    22981 
   47707    72638    91408   105457   112622   112715   112741   110671 
  100137    83624    65479    46512    28296    11388    -7364   -28416 
  -48022   -61327   -63624   -53235   -29566     4472    34122    38080 
   12194   -20259   -41656   -53640   -54467   -46404   -39212   -30584 
   -9721    22522    53149    73431    80142    78565    77161    73461 
   66810    54249    29960     4234   -11832   -15545    -6016    15781 
   47669    75675    82194    65601    34979     4942   -12436   -18962 
  -16463      -67    26169    53284    78934   101052   115898   120113 
  107805    76206    34130     -445   -12906    -2182    23334    52066 
   72254    82128    89203    92911    84454    62209    31843     -769 
  -30379   -53466   -65338   -59665   -40666   -22491   -11279    -5863 
   -5971    -4035     6336    13614     6129   -10426   -28297   -44334 
  -48841   -36513   -17849     -344    19591    40896    57176    69071 
   81498    92539    92242    75807    52420    29998     8789    -7153 
  -17204   -29540   -47730   -69190   -90194  -103141   -99879   -78737 
  -41782     5092    42826    52693    42406    31625    25159    17639 
    3480   -16976   -35502   -43476   -36109   -18412      518    21487 
   45117    64293    72310    70603    69664    67740    50750    25924 
   12212     8641     7647    11056    19723    31028    41743    46854 
   45891    45879    48837    46346    33187    11915   -14048   -39590 
  -58145   -64847   -55656   -28063    12501    48659    66272    67464 
   58112    40590    19410      745   -11820   -20641   -30578   -39533 
  -37045   -13602    26196    60629    72380    63948    44375    18318 
   -8757   -27372   -34179   -36742   -42784   -52870   -61851   -63432 
  -52546   -25150    15300    52678    73939    83365    85899    73830 
   43972     8282   -20119   -35961   -41239   -40039   -28996    -6137 
   18048    35131    47560    56371    56339    44799    27584    13000 
    4012    -1721    -7985   -12297    -9490    -2940     5391    20515 
   39704    57060    74158    89371    99183   104317   102031    94744 
   93101    96530    96160    92246    89995    87525    79451    66064 
   51449    40035    32674    25019    15923     7244     1858     3318 
    9009    15422    19072    14091     4580    -4610   -19020   -37276 
  -52960   -66428   -74343   -69943   -54753   -34854   -16881    -8318 
   -6251     2432    22171    43569    53925    49748    34722     7963 
  -24911   -48486   -60064   -67487   -74175   -82063   -91719  -100591 
 -103887   -91470   -59436   -21921     5607    19773    25469    31334 
   40293    45152    35950    12887   -11803   -28744   -32548   -23464 
  -12051     3288    32641    65732    88596   105094   122180   138133 
  145602   137462   112893    78391    43587    15313    -6227   -21694 
  -28865   -27086   -13369    11967    34140    44486    47221    40629 
   28167    19423    12359     8050    16617    40041    69580    92028 
   99481    89225    62947    38475    28620    23615    18071    13136 
    5923      -27     -430     2079     5204     9927    15488    16074 
    6929    -9120   -24190   -35148   -47213   -61096   -68708   -68575 
  -66550   -60376   -42984   -15877    13429    35456    41755    38480 
   36598    32491    22954    12105     1432    -4135     1428    14918 
   31730    48319    56528    57608    55471    39148    11566   -11002 
  -32479   -52965   -58885   -54616   -47063   -31202   -12015     2425 
   14851    28221    41208    50534    50172    34253     4639   -21181 
  -24035    -9270     8054    29050    56070    79269    89881    87365 
   73226    50733    27618     9904    -2038    -8073    -6539     1578 
   12933    26396    41530    51659    48586    33794    17367     7533 
     945    -9576   -19396   -17317     2535    33158    58762    76430 
   88219    84929    69246    53649    37189    19723     7163    -1701 
   -8465   -11051    -7704     5680    27920    47649    57535    58286 
   49549    31557     9900    -8741   -20098   -24425   -27228   -32417 
  -38022   -38415   -31283   -22083   -14939   -10134   -10119   -12892 
  -11456    -4845     1510     2485    -3634   -11784   -11564    -3061 
     649    -4538    -8167    -2623    10561    27818    41199    42414 
   36826    32776    27747    18133     8461     6320    12023    20536 
   30316    40252    47425    52331    54805    49762    37554    27147 
   21980    16881     9394     1152    -6586   -10656    -4571    15720 
   44923    68897    76557    73315    71834    71763    66199    56708 
   46745    36602    28772    22526    12375     1456    -1628     4514 
   18374    34676    40123    27396     6291    -8220   -15340   -21753 
  -22847   -12411     -546    -2770   -15940   -23583   -20664   -13801 
  -10477   -16251   -27602   -37422   -44756   -48068   -49593   -49882 
  -35090    -4035    25814    46624    56380    53509    43544    28470 
    8405    -4958    -2430     5304     6147     3530     1545    -1436 
   -3678    -5333   -11341   -16487   -11904    -3805     5491    22431 
   37462    43877    50778    57369    60039    60774    55093    44570 
   38051    35118    32206    28490    22829    16900    10714     3114 
     236     2155    -2735   -16591   -27951   -29419   -24757   -17246 
   -6577     4418    14077    20942    25760    33193    36869    33327 
   36086    46611    50973    46457    41350    41327    44976    45945 
   42645    40648    42109    45334    50259    56619    61474    59292 
