Origin Time       2021/02/13 23:08:00
Lat.              37.7
Long.             141.8
Depth. (km)       60
Mag.              7.1
Station Code      FKS006
Station Lat.      37.5031
Station Long.     140.7588
Station Height(m) 472
Record Time       2021/02/13 23:08:06
Sampling Freq(Hz) 100Hz
Duration Time(s)  193
Dir.              N-S
Scale Factor      7845(gal)/8223790
Max. Acc. (gal)   424.311
Last Correction   2021/02/13 23:08:06
Memo.             
[...]
  -12271    29853    64513    76702    61950    24827    -2269     3855 
   13977    12274     6747   -10646   -31606   -35702   -28642   -25361 
  -19915    -2984    16291    30694    41050    47903    49250    37457 
   19762     6169   -12811   -26291   -17400    -2413    14629    36016 
   34929     -375   -48578   -77112   -63846   -21795    21450    55799 
   74895    62108    17702   -28347   -46757   -31228     1127    31372 
   56844    62058    23955   -25390   -35679   -20528    -7236     6786 
   10762     1328    -4891   -11875   -17390    -9618      521    12802 
   35573    51328    39310     4807   -19159   -10669     7923    10482 
   -2205   -26276   -47467   -37050    -3026    27851    54992    58509 
   24900    -5377   -18064   -18756    14829    51807    34236   -21820 
  -75469   -97528   -53632    38171   106978   110003    46508   -44803 
  -85345   -42770    14754    28345    37320    70532    77839    41364 
   -7022   -48028   -59694   -39258    -1092    48401    62795     5792 
  -76675  -121528   -96159    -9109    79409   115730    94373    39090 
   -2546    -2955     5876     6372    13743    20595    30663    48043 
   41520     3624   -51448  -112248  -142688  -112621   -36169    44331 
   90348    86514    42527     5566    18400    40606    29953    29872 
   53280    56195    31980    -3703   -28853   -33544   -37245   -30573 
   -5918     3476   -10208   -33562   -57358   -56651   -23649    18422 
   41374    26977    -7037   -21028     1486    41081    65388    70189 
   68519    58712    45914    44103    50195    45308     7030   -62649 
 -117290  -109080   -54129    -4367    29077    34476   -24077   -96010 
  -85114    -9636    47251    61420    54222    42951    41828    58847 
   69120    61113    53130    25231   -19225   -25809   -13721   -40419 
  -86098  -105200   -84651   -24695    36413    48917    29107     6438 
   -3597    21389    46576    44482    54912    67814    51717    29829 
    9504   -11346   -15786    -5894     6077    -3172   -44157   -75658 
  -80667   -78791   -53545     -562    39783    46830    32070    15433 
   15689    33111    46003    45802    49630    56462    55206    50278 
   23371   -34646   -77696   -78586   -51057     4437    61677    60297 
    -702   -77171  -133759  -114779    -7808   102136   161970   176296 
  116303     3416   -69990   -78641   -43514     7670    35536    47552 
   25917   -47954   -87346   -81060   -92161   -79606   -26559    24460 
   72604   104444   104843    84609    41407    -1597    -7858    10486 
   32490    41218    12515   -33484   -49500   -18149    26188    23801 
  -21308   -68091   -97056   -63890    23109    72268    68307    47047 
    7454   -16816   -12991   -26794   -24985    29108    62880    46161 
   21500    -9576   -43105   -35370    14322    45303    26149    -6871 
  -19603   -13987    -3310     2058    16629    50800    68281    36907 
  -29554   -73381   -43868    18372    52992    58396    22184   -51880 
  -94477   -66519    -8928    31742    55009    60628    41454    30850 
   33342     2999   -38032   -42156   -25978    10979    68731    81434 
   30275   -23199   -41095   -34465   -29116   -30607   -27792   -17254 
    4887    34334    63216    80369    51304   -14544   -54583   -46795 
   -7627    33320    33443   -14771   -60575   -52290    -9116    18334 
   33354    49231    43198    30087    47363    60342    28478   -25166 
  -81234  -111836   -61481    48429   134879   162881   111352   -26869 
 -152413  -155252   -59221    44473   101150    87917    -1761   -90802 
  -68157     8785    23658      816   -27974   -48872    -9054    56269 
   72387    63256    51403     6863   -28771   -12702    -7422   -26628 
  -18046     4853    23141    43487    33585   -15479   -43752   -25336 
    6461    36302    41733     5320   -14029    10322    34113    58109 
   74595    44317   -14204   -66538   -86312   -56205   -16092    -2308 
   -6076   -13830    -5512    17039    33829    53403    53545     1491 
  -44329   -23193    21658    37546    42354    42857    22746    11190 
   12857     -969    -3894     6652   -11360   -34581   -36254   -35068 
  -16645    20474    34319    17516   -14420   -37146   -13510    37700 
   73801    86147    45245   -40039   -75946   -39086     7794    38215 
   40541     2837   -32852   -24430    -4762   -12818   -25066   -29363 
  -37631   -11938    60828   114691   130231   138628    94826   -31116 
 -135367  -150441  -118341   -57092    20016    74568    94363    69547 
   -6174  -104224  -162402  -112997    15352   109422   137964   124518 
   57677   -24381   -63301   -56637    -7213    50683    65817    48440 
   12684   -33296   -52170   -30086    23722    73080    54729   -17537 
  -65254   -59460   -21555    34784   100789   120283    52623   -50330 
 -127194  -139495   -76592     4536    66073   103577    79290    15885 
  -14646   -22623   -19745    17946    52191    59440    63525    43880 
   -6687   -57303   -98178  -110347   -71653    10282    89924    96950 
   31039   -35379   -67547   -66457   -28759    26098    75130   114663 
  114745    54687   -11138   -35822   -26025    11061    36585     1370 
  -62398   -91193   -76589   -44707   -11533     3248    -8739    -5958 
   28792    62433    81311    69350    30627    29484    65782    73468 
   51927    19692   -19890   -36448   -25461   -14359   -26327   -77548 
 -127639  -118431   -64372     9653    87405   111365    58696   -26568 
  -86898   -64778    36432   121544   134042   107501    46282   -31453 
  -32842    25111    48541    39329    -8854   -97020  -121169   -44305 
   29280    37839    17489   -17053   -61300   -54510     5449    30179 
   13086    18468    31252    22914    26354    34018    16632     9603 
   28154    25254    -7645   -23063    -6936    11013    22127    29732 
   17508    -9528   -32309   -56081   -41600    36116    69245    13774 
  -27681   -27070   -16490     4993    10477     5640    34473    64174 
   57474    37039    15072    -5984   -28212   -44348   -20290    16881 
    8075   -33319   -72748   -67803    13802    87805    73768    17022 
  -59202  -128736   -88944    37115   120634   142344   116723    19570 
  -75988   -66355    -2639    41693    81029    66189   -36682  -108853 
  -83593   -26222    30557    72840    50415   -26835   -75991   -52559 
    7392    56571    77527    46930   -19086   -38542    -4807    16854 
   23058    26017    12761    -7948   -18162   -10658     3084     5792 
   -6421   -23681   -16470    16276    30203    18130    14509    26812 
   37484    36067    22889      368   -26542   -33528   -12695    -8145 
  -21556     1746    49250    74067    65804    16719   -52650   -88022 
  -64295    -3931    45376    61946    53273    13834   -50198   -96766 
  -72258    14226    71959    75263    51637   -16483   -74518   -43687 
   38826   108440   122935    60033   -34064   -67774   -17664    26951 
    8587   -20964   -35885   -53283   -33678    13356     3161   -34516 
  -33330   -22481    -2758    40510    67506    69153    59258    37053 
   18090     3932   -15476   -16123    13999    44587    55208    41886 
   10195   -16789   -57469  -133392  -166558  -103808    -4881    86352 
  143586   131404    86960    52101    24247    23650    31542     3962 
  -23930   -21301   -16924   -23622   -28993   -25697   -23406   -45937 
  -89856  -102717   -54884     2752    31110    56299    73836    66583 
   67452    69966    40873     9003    -5274    -6914     9810    14598 
   -2189    -2717     4693    -3555   -17535   -36028   -56563   -52429 
  -22592     3835    41050    89765    73327    -7997   -55907   -37941 
   26092   100441   111530    42804   -29246   -41246    -4592    27703 
   14628   -46106  -108183  -104633   -26144    70430   131383   125212 
   48940   -45276   -92047   -69593     3578    59941    39849   -13794 
  -51968   -76453   -65028   -29496    -5958    31209    74359    52250 
  -20264   -47083   -14936    22778    56899    85583    87278    57075 
   -4841   -72233   -87975   -45976     6160    24510     5227     2520 
   23203     4268   -41625   -63252   -56501   -13130    56766   107414 
  119595   100159    58996    15002    -8695     2671    33076    46705 
   38470    11907   -37222   -75411   -83470   -84746   -73811   -42639 
  -11650    12559    19765     5166     -535    -3141   -26400   -39197 
  -24362     7184    56853   106365   126887   115366    89614    54774 
    4932   -32377   -30960    -9595    16352    46070    53576    10750 
  -54558   -84493   -78089   -67730   -35964    24699    57703    43760 
   14777   -13288    -7673    41199    63520    33551    12819    25629 
   35494    27010    13540       97   -14631   -44867   -94081  -123881 
 -112207   -79251   -42414    -1333    35630    41625    25924    30631 
   50400    60960    76399    96997    98365    79370    48417    12283 
  -18647   -39286   -51279   -72392  -108810  -133130  -127026   -94333 
  -55895   -40446   -44054   -57950   -87885  -100082   -72172   -30230 
   24497    89122   137845   169954   182193   170078   144531    99821 
   36988   -25826   -82007  -114740   -97888   -44802    -3500    -3870 
  -31417   -55813   -57360    -6054    95314   170970   182116   165684 
  150183   151625   173610   185992   160647    86242   -29949  -154051 
 -248722  -286580  -277059  -265990  -247527  -186402  -119269   -73597 
  -14041    34203    32732    51120   116367   151738   154862   172717 
  192770   206055   221185   218224   187878   154867   126812    83936 
   15990   -76341  -180272  -260446  -291972  -282077  -247916  -193936 
 -106562     1225    78100   105089    89934    38078    -5150     1038 
   34005    72145   123179   166579   141652    35078   -68982  -109225 
 -108322   -83794   -44483     7659    61080    27013   -87080  -140269 
 -123550   -77209    22736   107226   123356   115192    80056    25154 
   -3026   -11535   -23259   -37507   -48968   -38881     8403    62903 
   83290    74818    58287    37808    26046    33917    43838    49054 
   71004    98412    87673    35600   -26200   -84912  -139433  -184407 
 -225918  -263664  -268010  -212688  -107441     4078    83138   136432 
  184620   220465   237012   248667   252568   220340   144328    43185 
  -60571  -135780  -162542  -154495  -136769  -138796  -167784  -179527 
 -149550  -101719   -49717    -4504    25166    59355   110573   169048 
  218793   236530   215946   177714   145660   128432   112772    85972 
   42502   -26442  -109154  -182336  -240651  -268185  -235337  -162665 
 -115022  -108394   -92032   -33743    44146   125664   212452   272199 
  264813   202335   136664    92402    49162     3773   -22173   -29914 
  -37918   -51295   -64820   -75099   -79124   -85295   -98466  -109792 
 -128096  -149197  -144232  -109977   -48782    34763    97181   106874 
   82996    45558    11249    22707    92890   167629   197035   190204 
  174924   151021   114966    80157    47687     7485   -33772   -63987 
  -87578  -101611   -94486   -88094  -106339  -143546  -200182  -270548 
 -327832  -348606  -317838  -237393  -128394   -15462    84775   173952 
  255658   307584   308573   288023   287257   283024   231939   143078 
   38785   -71041  -164766  -233643  -291451  -332004  -331761  -288997 
 -212978  -110010    -9363    65241   126696   166095   158171   126389 
  106150   107686   130356   156810   184920   237181   299947   336645 
  338085   300920   220612   114077     2736   -92126  -154095  -200044 
 -231986  -215326  -166846  -150079  -179242  -212511  -227623  -244466 
 -260752  -255078  -235417  -208060  -170688  -127535   -84893   -60605 
  -45453    -1576    74522   157924   220599   248459   264986   292804 
  319003   325452   314304   299636   286961   262678   209187   135365 
   67833     9271   -55112  -128079  -203160  -275597  -338339  -360602 
 -305596  -182953   -49416    31864    54472    70082    91743    93283 
   76977    50515    21816    13994    19313    24783    51251    83092 
   76821    35955    -7996   -28112   -42145  -113279  -217413  -236318 
 -135070    27114   184508   261515   253594   232588   190944   115439 
   75760    60934     6462   -57576   -98733  -119435   -90900   -26793 
    8783     6462      858    -9941   -48123   -91461  -113980  -126310 
 -127326  -114855  -110358  -114534  -104828   -83940   -67466   -46072 
  -19188    -4303     8966    40763    94851   165397   224376   259951 
  289684   296076   258554   191382   113656    55441    27414     8113 
  -12036   -36640   -70108  -106816  -142090  -178988  -221043  -256987 
 -232970  -101742    62199   125166    75968    15665   -11406   -37477 
  -46622    -7141    49360    94041   121171   123330   117171   122550 
  135081   147407   148545   126898    95604    66495    24449   -28597 
  -80599  -147005  -219018  -265254  -285678  -279058  -234590  -173130 
 -129280   -98621   -60662   -36263   -35437   -25440    -4445     4966 
   12870    39966    86509   140007   183100   205929   213456   207605 
  186860   166374   169111   193467   211207   207269   187165   145678 
   86104    30601   -15909   -50325   -63274   -64272   -71354   -95426 
 -135217  -183786  -227670  -251820  -263676  -267860  -253832  -232595 
 -224847  -225293  -204315  -147317   -79292   -30040      442    29234 
   63570   107245   171960   256828   335896   374411   367615   336877 
  282815   217463   183840   190256   211061   221440   191062    98975 
  -35197  -160196  -245793  -292245  -308086  -325926  -371997  -421078 
 -441109  -428128  -387333  -323075  -224808   -78240    83205   195505 
  240837   241587   211798   177718   183259   232287   268743   253343 
  229257   236082   247791   253836   265053   267038   239263   155974 
    2389  -176192  -307670  -359239  -327231  -239279  -172300  -166878 
 -178468  -169098  -158423  -160292  -142021   -97850   -76640   -85900 
  -78003   -22364    68440   155202   228001   314664   402128   446409 
  440313   380257   276616   199606   184071   169969   104718    20602 
  -42553  -106942  -183186  -253069  -311856  -348898  -357926  -346906 
 -332170  -324723  -301059  -230860  -123994   -47328   -41808   -39100 
   13552    66934    90717   116417   152463   176629   187991   202363 
  223712   232860   211534   181417   165118   147441   116387    80379 
   62349    78094    97451    90688    70294    37014   -24580  -100697 
 -162778  -202115  -234459  -272737  -310788  -343561  -363270  -356105 
 -315100  -235827  -139695   -67988   -20569    45293   149721   257813 
  332536   386506   437679   443460   341448   161986    23985    -6833 
   24491    58515    86598   117559   143097   147457   131417    93772 
   24976   -63408  -154681  -243670  -323812  -367506  -337941  -261002 
 -199542  -142518   -50373    37635    73899    88555    96311    68794 
   16938   -41824   -85178   -65346     3620    55864    69633    74023 
   82906    84748    82877    54105   -39424  -151532  -209830  -220482 
 -201121  -128094   -29791    16761    14173    25012    66185   118318 
  171093   217480   245026   254267   263591   280972   283509   234895 
  132524    28594   -26819   -47371   -64444   -75598   -82478   -89172 
  -88487   -89827   -86811   -49968    16692    65828    47976   -25381 
 -102710  -178021  -251905  -291670  -294297  -268678  -189649   -51158 
   85433   156041   183583   211243   203715   131251    45069    -6112 
  -13126    14771    30970    22253    43488    92427   122566   149524 
  191785   220626   209345   144090    28992   -98929  -209505  -291030 
 -311777  -269176  -234875  -234162  -188242   -74436    19908    60471 
   90996   108990    95045    67475    39526    38504    89895   164019 
  210043   203793   168840   126126    71076    30303    19426     -599 
  -45994   -99235  -170896  -245284  -263713  -221274  -150309   -93771 
  -90518   -89962   -33642    40714    92021   114111   107550   103743 
  122980   137326   137578   137266   124911    95682    55883     8770 
  -18663   -17772   -30890   -78507  -121227  -127789  -112471   -79544 
  -15959    56061    91557    88774    89143    90730    56500    -2951 
  -60497  -100832  -107781   -81791   -17502    67228   110203   101390 
   71254    35445    25347    34060    15859   -12657   -22403   -36686 
  -65581   -88487  -106141  -128565  -131442  -100912   -58186     -981 
   63269    92859   101243   129012   150288   130316    91065    61250 
   41435    31833    32090    27525    12980    -8359   -35866   -57996 
  -71775   -91029  -120807  -161720  -201964  -192700  -103099     7514 
   56701    54234    44386    24042    21975    75670   140682   182248 
  209653   210123   176918   121001    50102   -10234   -35723   -40957 
  -59008  -102716  -155182  -200055  -232970  -220747  -132667   -33895 
   -4066    -1746     9001   -17159   -39349    18141   104868   153717 
  174426   169757   127484    90802   103253   141134   170633   174438 
  135664    47582   -66692  -146834  -161968  -130090   -62357   -13726 
  -48423  -101324   -99447   -84414   -72227   -34655    -1182   -15684 
  -70390  -109463   -88888   -22970    60789   131969   153064   133116 
  109926   103307   116683   136125   136073    93316    13115   -62878 
 -102660  -103470   -78916   -58692   -66066   -89530   -98361   -79335 
  -50275   -40612   -60588   -87003   -72501    -9648    37218    50010 
   70889    75172    44405    39314    75735   111700   138576   159232 
  146527   101052    60995    22599   -35054   -83721  -103210  -122609 
 -147876  -148991  -132124  -126632  -127422  -123558  -120857   -88690 
    5607   104106   131510   102230    58760    21868    27951    75648 
  105366   112004   139027   173911   169732   127684    89256    78579 
   83052    82221    79855    63119     2197   -64679   -99061  -139750 
 -177350  -161900  -127190  -111607  -109163  -128769  -158464  -157327 
  -99331     7438   100963   130272   127228   126846   106517    61506 
   30819    29004    32047    18096   -14877   -40676   -26815     3262 
    3126    -8835     4097    34172    67072    84842    52891   -24406 
  -90424  -115688  -122440  -110022   -69264   -51829   -83551  -110385 
 -101520   -60188    18158    98969   132160   132241   127784   106666 
   79416    81101   107161   130326   132673    97046    32524    -9138 
   -6550     1877    -7499   -30686   -70866  -117027  -145598  -148166 
 -112162   -45654    -7750    -7488    13562    59679    92502    99265 
   80514    51938    41261    46575    38244     1946   -48805   -82958 
  -78602   -46288   -14906   -10129   -12730    15873    38680    14042 
  -20128   -37274   -45019   -38292   -19885     2578    37129    80632 
  109494   119218   123966   123049   119014   117354    93576    33929 
  -27167   -71170  -120312  -169160  -187479  -171200  -132339   -91243 
  -64693   -39218     2925    53547    94000   117228   124216   118925 
  113590   109857    94824    72985    56533    33011    -9859   -58970 
 -106594  -154056  -185255  -186300  -155194   -94242   -30514     5116 
    5636   -25732   -62606   -58814    -3604    62044   102662   126220 
  139391   118558    55736   -15815   -46749   -12027    52964    88992 
   82768    50750    12822    10687    51992    82128    79398    51054 
   -8235   -64926   -81487   -62622   -21915     5738   -16573   -54672 
  -50112    -9277    32643    56146    45088     6980   -28007   -52888 
