Origin Time       2021/02/13 23:08:00
Lat.              37.7
Long.             141.8
Depth. (km)       60
Mag.              7.1
Station Code      FKS017
Station Lat.      37.2842
Station Long.     140.3689
Station Height(m) 263
Record Time       2021/02/13 23:08:11
Sampling Freq(Hz) 100Hz
Duration Time(s)  237
Dir.              U-D
Scale Factor      7845(gal)/8223790
Max. Acc. (gal)   160.706
Last Correction   2021/02/13 23:08:10
Memo.             
[...]
   14285    23032    66656    86814    56575    -2033   -36594     3206 
   70100    63042    -8347   -34956    19030    74723    67594    31218 
   14569     6914     3569     2108   -24017   -34678    14939    64590 
   62549    37134    22912    26451    36994    31460     2181    -2712 
   37390    40046   -18457   -38520     -469     8055   -18913   -12509 
   22692    31720    17464    31450    67162    52941     6377    10926 
   38163    24989      687    -4021   -16413   -32741    -5250    36960 
   33066    29492    66132    82243    60659    49183    40535     8436 
  -13455      692    10543    -9830   -17371    11115    25749     3312 
     -44    30462    38011    34654    60737    71562    44069     8469 
  -23125   -16364    29478    31641   -13743   -17128    19468    28355 
   19572    27391    38064    59940    97684    74191    -5702   -20140 
    6920    -6556    -2860    22819     -781   -34458     2023    74198 
   72638    20675    37885    68874    25205     -494    25897    32335 
   28286    22810     4012     6214    12727    -2918     3331    35895 
   52798    56533    70066    76763    43021    -7442   -28611   -23885 
  -16474   -18759    -8900    19554     6843   -35206   -10577    71996 
   96488    33376    -8557    19556    48123    43592    25242    23287 
   46317    41569    -2515   -17172     7727    11604     1117    24460 
   53123    56710    46560    20009    10432    33619    38003    31369 
   32132     3515   -23480    -7939     7099    15479    44709    53248 
   23500     5711       71   -14817   -17350   -10777    -8742    15468 
   59252    62545    26522    32032    58820     8704   -74094   -76250 
   -8478    47205    53118    31807    26886    50656    63564    43789 
   23634     4461   -19315   -18786   -12097   -12819     9477    31733 
   27596    21689    18354    28387    56014    35885   -17356    -3825 
   30233    16480    37493    87538    57946    -6131       56    48208 
   44057   -10694    -4884    70488    93255    44433    -5019   -27803 
  -12793     9143   -11141   -28757    -6023     6508    18092    70883 
   97961    58973    22026    12592    19631    31588       99   -39688 
  -11137    20123     2732    17930    66644    63603    18863   -11827 
   -7383    23662    25740    -4533     3225    29327    34568    65497 
   86015    15715   -73670   -74529   -11880    22102     9119    16044 
   61157    81460    64347    62737    72577    50238     8619   -27540 
  -51483   -19433    68602   116166    98510    71737    34915    10185 
   23504    -3260   -55224   -40405   -21054   -23130    21801    46789 
   11923    11597    36761    19758     4477    12768     -143     2492 
   36028    28156    16542    58718    77128    26708   -45855   -65286 
    6721    71215    38367    -8085    15595    52062    44793    40957 
   59493    43484     9401    20395    47745    34095     1501    -5387 
   -1101    16082    61603    46801   -42668   -47910    33130    50940 
   14585   -12214   -31183   -14305    21685    24460    22670    30874 
   23348    25790    41154    16212   -24582    -8071    32440    29330 
   13860    32682    54611    49796    47719    46024     -730   -48220 
   -8190    62271    52378     3061   -15471   -19244    19138   104303 
  114589    23298   -38584   -22307     7105    14112    10889     7539 
    6222    24760    63566    78143    51800    30555    56928    83863 
   27816   -48378   -35229     6728     6983     1275     8016    37226 
   70093    38874   -25533   -32884     8490    31356     5373   -41601 
  -57500   -26975    19334    58869    74372    39268     -967    24744 
   62523    40747    16146    27681    16391   -15349     3030    48215 
   43692    28667    75625   108599    39599   -34078    -5120    47804 
   30881    -6000    -9289   -11365   -14675    14875    51383    50091 
   22134    12826    29108    33637    26962    29376    33134    51830 
   69074    25632   -37760   -43464   -13265    15160    46317    64457 
   34423    -9084     7388    54228    55371    27484     9745   -27345 
  -76342   -49270    38076    64908    21076   -17865   -15600    28892 
   58924    19469   -18152    16132    46820    22758    17086    56323 
   69136    28470   -15538   -20052    26052    79394    63188    -2319 
  -13767    50426    98416    63599     -500    -9521    26041    45981 
   46880    37390    12469    15233    39492     9652   -42978   -36217 
   11973    32591     3538    -2011    48649    43417   -30042   -41925 
   -6304    -9639   -28362   -26468    12110    54889    26698   -10092 
   40108    95916    67791     5868   -29403   -27035    19068    53046 
   17994      583    40375    43152    31741    52003    47433    57272 
   82300    14341   -46666     4776    24254    -9814    10428    27052 
   12567    40170    65148    19360   -36026   -21157    41735    68497 
   34339    -3051      390    34315    61771    60813    40957     2505 
  -39540   -44624   -22505     1680    35959    62838    48467     6384 
  -18847    -8328    18068    29278    32564    61103    78136    32630 
  -21080   -19395     7464    -2682   -33999   -15880    28305    37423 
   40576    64701    89410    97734    71412    23036    -5557   -20713 
  -42496   -44049   -23241   -12475    -1737    38234    96809   126558 
   99451    52539    40289    52438    36428     7385    22341    40451 
   10035     8248    54630    37114   -29261   -32381     6470    23527 
   27009    25617     4005   -29600   -19276    32297    27738   -26998 
  -26886    22362    41580    24088    13309    20509    39869    63351 
   53450     8614   -10561    28899    72982    29045   -62607   -60157 
     903      345       93    51889    50938   -12621   -29181    -1181 
    4004    12174    56941    95111    80023    29631     7659    14743 
   -6099   -35725   -17915    31040    57955    44709    12891    -7272 
   11361    56023    56158     1302   -38094   -47675   -42114   -12544 
   18365    40891    55934    36807     8152      874    13636    74151 
  115102    49187      657    48606    63235    12961   -15515   -11913 
   22970    80531    69140    -5647   -13105    36628    38538    -8181 
  -38443    13817    97285    72846    -1875    18223    76495    64975 
   -1108   -45175   -13995    33303    -3492   -70395   -51958    19951 
   57843    58612    50935    45125    36674    15063    -5440    -4098 
    4806     4121     2980    11982    25300    38900    69660    87184 
   33092   -17892    19838    56469    23143    -6177    12738    29039 
   14669     6488    10026    -6378   -26136   -14434    25689    65435 
   61630    26847    28246    46502    34573    15940    -7601   -22951 
   10197    48363    49248    40622    13570   -30184    -6532    65614 
   59197    11647    22096    36563    25384    36360    47416    26978 
   14077    30862    29124   -15606   -48740   -26920     8907     -230 
  -15441    32441    79837    45405    -5059   -16209   -31880   -34704 
   14710    27776   -26770    -6000    82595    87625    52967    52366 
   28032   -15425   -18495    28799    62861    28414     4040    42580 
   68119    53824    31841    21456    37297    50874    27237    -2176 
    4939    27186    29596    25166    18297    -3115    -7538    18735 
   19557   -26914   -48050     1192    57904    58124    14451   -11105 
   14349    28633    -3993   -20463     6903    50758    66847    20879 
  -15990    19143    47328    22639   -13394   -38838   -27252    11210 
   19126    -1738     2440    65005   115838    58423   -23703   -10971 
   32243    39241    53446    56593     6901   -12035    40026    62086 
   31421    19170    31205    41474    29841    -8133   -13481    21774 
   28448    18607    25085    22729    22727    38732    34940    12243 
   10590    29296    39025    39276    48952    48951    29462    34877 
   39401   -11219   -51540   -35529   -17740    -4029    35599    56046 
   29180    16737    15781   -29760   -55590    -5201    39378    39792 
   49675    53298    15799     7782    57956    64211     8330   -14026 
   -9644   -18897    12096    62927    62086    54271    60189    33525 
    3045    15157    50724    52830     9915   -15439     -571    35001 
   66511    39297   -17748   -25994     1930    32252    38410    11234 
    2569    26289    38905    24989     2101    -4440     7763     8671 
  -16864   -30277    -2328    21502    16244    26138    49963    48289 
   38092    33925    27013    33925    34076    18484    26852    19661 
  -15529    -6146     9236   -26087   -49585   -17682    38920    51938 
    2323    -5148    51089    49046     5144     8345    20623    31529 
   77083   110332    75745    17065    17577    34163    -7280   -26801 
   18571    43775    26542     5971     3929    15294    20283    36810 
   54243    17536   -32242   -14145    41516    55305    29006    28115 
   55286    42361    -5526   -16528      -22    -1344    -1698     8094 
    9597    19579    45339    50295    19816      391    22624    34477 
   10003     6116    22802    14230    24455    84900   129949   119268 
   48150   -42164   -45184    19697    34757    16591    17946     8537 
  -12189   -21224   -14898    11785    25520     8040     1518    10442 
    6157     3376    22230    37440    26755    18111    22446     8023 
   -4342    17213    27812    25786    43708    23815   -37652   -55880 
  -21570    43364   109880    97671    20302     4043    58037    64806 
   20441    27199    61919    29307   -30917   -41119    -8172    46448 
   66881    17037     4341    64261    59495   -10683   -22211     2984 
     224     5289    28610    34326    37395    42360    23387    25517 
   60615    37903   -25049   -19529    33126    41782     -166   -27665 
     791    46930    40369   -25818   -47875    38549   100519    48698 
    8910    39830    59115    34842   -22647   -63832   -30576    14246 
   11448    -7589   -26989   -16395    22975    22022     1557    13775 
   14237   -10586     4903    59876    72442    22933   -33735   -57453 
  -40456    -8822    15826    36536    32167     4095     9810    62571 
   98590    74235    26766    14750    29133    13787   -24829   -28911 
    1849    38072    72442    88060    79624    56471    36373    59594 
   84277    34003   -11273    10841    15330    14114    43173    10775 
  -52654   -25174    46307    49077    -3379    -4108    54326    77870 
   68928    60619    34408    22184    40306    37797     3886   -12058 
   21219    67383    79793    58735    19066    -5988    29220    95620 
  109732    63329    27997    36055    36306    13595    24160    39556 
   11983     2112     7290   -33118   -61025   -26590    -5324   -27996 
  -15654    34724    29502   -25971   -38560    -7334     6964    20555 
   37420    -9580   -62398    -3223    75983    40558   -30260   -25050 
    3133    -6789    -1825    24092     4496   -26138     5244    59954 
   78061    63274    20707   -22588   -11362    29774    59598    94267 
  100106    56228    28645    28512    15769     6166    38956    82233 
   47445   -36171   -53732   -20547    -5705    -1992     4349    13852 
   17775    -8552   -35573    -5459    45874    41563      521   -10206 
   27410    75450    65179    -7161   -43985      391    42688    30877 
   18443    20385    21541    59779   102702    71070     6642   -13765 
    9151    44872    58927    47541    47626    55421    53298    68640 
   69658    -5452   -72921   -30298    56747    94207    66811      396 
  -24799    36940    99436    68497   -29376   -93606   -77575   -42248 
  -34906   -30229   -36575   -47345    -4602    54603    58999    32363 
   14065     4372    -6613   -12807    -6203     2531    26588    72457 
   99357    99148    93441    87712    92743    97484    75393    23598 
  -40593   -64326   -25910     9007    15159    18212    -6943   -26411 
   28390    69515    37165    26094    30130   -14604   -31608    23107 
   41049   -39027  -113548   -80109     1472    26746    23990    57184 
   79216    54826    52517    98749   130372   126546   122450   101788 
   46631     8409    -8228   -43704   -57882    -5409    49601    29783 
  -29343   -41187     8280    56633    57892    41053    32066    -2686 
  -69126  -116769  -108480   -64076   -40645   -40082   -22437   -18083 
  -32621    19445   106699   105687    56828    46917    20059   -28769 
  -13803    23094     9174    -5688    11523    29407    58444   104606 
   98523    35019    18272    65246    98271    89783    39366   -31585 
  -53059   -10624    31112    29853     7851    21595    65885    65057 
   19946    -5526   -19673   -54737   -77634   -47787    -4698    -9929 
  -34037   -22192     -849    -8446   -15832    -7609   -26951   -52690 
   -9078    75579   112164    89193    62811    80385   119877   114797 
   71045    57083    72169    73179    66742    60269    53574    77128 
  110752    84223    20607     6633    19781   -28439   -94034   -55300 
   41818    48610    -8197     6386    85897   117441    67219    21562 
   37991    56192    49446    50055    25714   -13860     3554    42284 
   38199    24560    35737    39010    13842     -714    -2401   -33652 
  -76118   -98567  -102616   -78024   -39583   -13228    28247    81731 
   72844    15415    17805    63612    48716    -1235   -18380   -33660 
  -57520   -52910   -53944   -92743  -105336   -67613   -52579   -70471 
  -42387    39035    95638   101515    85541    70879    83566   103989 
   85958    64338    66102    39006     1491    20942    56697    54727 
   74398   152963   188314   126948    87250   116421   112166    70123 
   68732    77919    38827   -18810   -48535   -54341   -64369   -67058 
  -28732    11510    10091      136    -7179    -4396    36026    58384 
   31671    23103    41612    57366    66549    35537   -23453   -44668 
  -41775   -57319   -60512   -18015    22358    13142    -4099     9177 
   33045    48325    41870    19818    15804    31752    30879      193 
  -19387     5282    46043    55837    19691   -12692    17440    70173 
   80064    50156    11691     2579    19842    25605    35137    54081 
   39793     4973    11442    48938    37808    -8228    -7615     9246 
  -12503   -33389   -29934    -9369    46728    93853    69836    34699 
   42913    53034    43127     6210   -51952   -66316   -24906    -9553 
  -54513   -95860   -80626   -38622   -17123   -14748    -3869    10577 
   -3439   -19569     5695    27824    11839    -4199    -9076      868 
   38348    51252    20707    22365    63718    77008    54081    25569 
   27513    69337    78336    35982    20876    31733    35765    54174 
   62407    36583    10525     3005    22983    56122    61106    65489 
  104093   123060   111631   130199   149122    92523     3435   -15986 
   25253    42959    26842      940   -42681   -72104   -56145   -38510 
  -35766   -13514     5085   -14127   -29766   -12591     7172    14878 
   13343    -5103   -21361    -6880    16216    14547       41    -7900 
  -25857   -60826   -60651    -9290    18337     4691     7769    14766 
   -7585    -7997    31920    33438   -10507   -12506    34636    77113 
  102899   100896    61137    11242   -18612   -17057     2728    14334 
   11508     8583    26289    61786    73005    40319    10874    22777 
   49123    76746   102790    73626     5189    -2883    46657    74776 
   73805    69053    47440    12649     8495    26518     8387   -29047 
  -16162    30485    34034      859    -3642     -521   -34688   -40900 
   17892    48806     5891   -34281   -16433     5458   -25848   -51000 
  -18816    -4726   -47228   -66171   -19820    33887    45927    36996 
   38149    52328    59638    33824    12842    36493    44861    26835 
   38828    45048    14426     4278    34746    59148    52050    44712 
   52570    37802    11500    33111    78746    89464    82544    88010 
   93201    81379    50683    17363     2682    -1129    -7770    -3778 
    3231    -4916     4101    34942    35889    14559    24749    54583 
   47054    10272    -8542    -6867    13724    21207   -36271   -75404 
  -11553    47900    21845    -4947    24038    61770    56195    18041 
   -6538   -28629   -63166   -52311    -2620     5451     1105    48789 
   80634    50647    45069    74237    50280     2385    10968    29390 
   -5641   -39073   -11179    27870    27811    23265    38317    61848 
   86844    79164    20405   -27174   -15199    25816    68866    94976 
   77164    48393    51860    77610   103388   100616    70159    51700 
   46314    35912    29397    34084    31861     1641   -20320    14299 
   62193    61010    24483    -9394   -22763   -32337   -78321  -130476 
 -123398   -91551   -85708   -76457   -39532      352     9856     7747 
   23510     8843   -29471   -14122    -6655   -65464   -87018   -39432 
   -3076     -970    -2214    20688    53030    62117    58001    55011 
   56785    77823    98343    93137    91201   104242    94447    49003 
    6193    10041    40259    39028    19311    17234     3245   -32104 
  -34751    10589    40913    22221    16110    42595    37581    18315 
   36562    51834    34055     7670    -3196     6737     3582   -14257 
      17    25158    21670    21066    29562    22958    33810    66900 
   78984    83531    77619    37851    21439    34924    11419   -25731 
  -19106    13879    38304    57855    71714    59135    32930    24231 
   23396     6328    -9595   -15990   -46693   -65759    -5684    61744 
   49761    19206    29523    51240    61530    63543    58549    45535 
   29284    36288    79755   105958    76091    44678    42601    39204 
   37876    39121    25764    20264    19550    -8671   -31193   -17359 
  -17659   -48374   -42552    17979    69499    73018    42633    12125 
   11631    22750    15838    15045    18457    -7167   -24776   -10277 
  -12691   -36976   -41089   -29139   -33335   -26365    28514    69338 
   50506    13614   -23253   -32185     9265    34275    16286     -772 
    5551    34848    39488     7599     4966    18571    13186    19099 
    6656   -44281   -57931   -24934   -11745   -13381     8903    31966 
   32664    39845    58291    54261    30329    16586    21486    46739 
   84119    89486    44618    10192    28525    63837    87345    88211 
   62253    51719    53604    19413    -3063    24397    26755   -16104 
  -23745    16279    25641     -252     1842    17080     8232     -469 
    3774     -664   -13375   -10756     3551     9782    16826    22068 
    6835    -8147    -4106     8230    14353    -7396   -39151   -34134 
  -14339   -19624   -24031    -4719    23326    49554    69398    72077 
   49125    26392    28579    34437    45242    59212    34794    -5082 
  -10505     1374     4179     6237    25469    47765    31957    -1393 
   11030    38457    22287    17940    60567    83435    80069    82404 
   62708    33627    41813    60114    52713    55000    83127    77832 
   31415    17986    45968    48007    12312    -3657    15431    30537 
   47838    81708    78503    37153    31963    49249    38631    26792 
   24907     9340    -3241     7717    15890    -9444   -49472   -68889 
  -62068   -45566   -52884   -85900   -76077    -4923    31677    -4990 
  -25542    17541    58224    37793   -11308   -30748   -22261    -9089 
    9248    14428   -11758   -30427    -5435    21725     5039    -7011 
   28255    47225    22095     7796     3376   -18092   -22999    11705 
