Origin Time       2021/02/13 23:08:00
Lat.              37.7
Long.             141.8
Depth. (km)       60
Mag.              7.1
Station Code      FKS017
Station Lat.      37.2842
Station Long.     140.3689
Station Height(m) 263
Record Time       2021/02/13 23:08:11
Sampling Freq(Hz) 100Hz
Duration Time(s)  237
Dir.              E-W
Scale Factor      7845(gal)/8223790
Max. Acc. (gal)   317.516
Last Correction   2021/02/13 23:08:10
Memo.             
[...]
  -44007   -24723   -12791     -288    10143    11789    13593     6131 
  -12884   -12725     2494     9873    22509    28034     3038   -12753 
    1902     3125   -16313   -14362    12079    18036    -6655   -16671 
   -4213    -2438    -3836      267   -11101   -24263   -17795   -15581 
  -30504   -43200   -52463   -54963   -33289   -10604   -11214   -15213 
  -17298   -21725   -17135   -17425   -32352   -32132    -9841     2778 
   -5840   -19128   -19099     1059    25253    34614    33677    28890 
   23770    26281    25253    15491    21077    40937    44128    24676 
    6247     1857    -9390   -36408   -43861   -20972    -3589      148 
    4032   -13082   -57492   -75911   -50584   -39604   -53561   -44614 
  -25132   -22914   -20271   -26250   -43746   -40063   -26534   -10710 
   26346    49890    44706    53640    66449    50261    34512    35700 
   19537   -11573   -29142   -40090   -37651    -8938     8669    -6134 
  -28032   -38803   -34892   -28728   -31140   -27562   -21390   -30122 
  -35140   -21581   -12688   -16318   -13622   -11649   -27085   -36906 
  -19440    -2020   -13782   -28630   -14179     1431     2658    20957 
   27616   -16151   -46367   -21918     1664     3032     6247     4437 
   -5633     -309    22597    32019    12703    -8456    -7701     1259 
   -2127   -13493   -16008    -7692       75     2644     1111    -8414 
  -21023   -18025    -3956   -11256   -35024   -32146   -15207   -26196 
  -32562    -9556   -12792   -41516   -30600    -3902   -21709   -49631 
  -34277    -6567   -13942   -28027   -16150   -13074   -25698   -14959 
    4851    -4658   -28243   -23085     9138    18480    -4020   -17605 
  -13994      760    28344    36593    11994    -6135    -4720    -5590 
  -12035   -10677     3804    19989    26632    29509    30531    20974 
    9724     7065    -4720   -27915   -31652   -23388   -42839   -69375 
  -60693   -44517   -47947   -38045   -15911   -28312   -58086   -45619 
   -7155    -4199   -28316   -29690   -14115   -14490   -17329       60 
   14323     6104     3809    25682    39050    25027    16826    23404 
   13778     -257     5715     5032    -8001    -2864     6991    -3947 
  -14289    -5691     3979    10365    23877    23788     1200    -9683 
   -5587   -20398   -44153   -38645   -22067   -30754   -38152   -22890 
  -12438    -3508    15137    10810   -15917   -24243   -18276   -22339 
  -26091   -18902   -15088   -26018   -45767   -60142   -49319   -17238 
  -10797   -43957   -63894   -45540   -25397   -21934   -11992     9049 
   17001    10993    11726    11935     3238    13190    33199    19203 
   -2646    16104    46541    39676     1661   -21720   -11415     1927 
    8683    22420    15037   -18040   -27351   -21007   -36387   -50120 
  -41937   -25069   -10057    -9034   -20175   -26850   -32221   -42336 
  -38762   -17686    -3697      417     -629   -17856   -31808   -22033 
   -9151     2647    13274    -2493   -19484    -3609     6826     2056 
   10879    10561     3194    24329    36813     4625   -25432   -19098 
   -2936      253    -1035     1355    -3862   -21158   -30024   -21134 
  -11385    -5470     4607     2241   -26586   -48335   -34449   -13892 
  -19734   -36312   -29933      -72    22372    16418    -5994   -19986 
  -19723    -9659    10442    28456    29637    18476     8830     6103 
   -1089   -12617   -14322   -21330   -36533   -20880    18866    29254 
    6882   -14735   -31426   -51394   -63938   -54865   -30905   -12479 
   -4492    -4924   -17740   -33130   -36620   -31410   -27643   -20475 
    1243    21969    20444    12839    15581    16378    22426    45536 
   53030    31523    14490     2064   -28314   -52366   -37030   -14647 
  -24212   -21849    15210    17890   -24177   -44744   -40142   -40038 
  -24224    14778    25022   -10719   -33735   -12950     8413    -9397 
  -31274    -3476    31932    11662   -21227   -26879   -40756   -57942 
  -47443   -35665   -40333   -33519   -18910   -32312   -64840   -73997 
  -52812   -29539   -15908    -1760     7622     1232    -9477   -15915 
  -21740   -15425    14959    49478    57392    44987    39825    34589 
   13479    -2124     4957    23133    38246    38433    24746     7636 
  -11485   -19581   -21151   -45409   -60656   -35166   -18789   -28915 
  -35579   -50001   -65326   -47937   -32485   -49867   -52240   -32103 
  -37690   -58132   -49169   -12775     8807     -648    -1574    11981 
    6434     7415    37660    59163    59929    53622    35735    11442 
   -3416     3141    32563    55009    46272    29889    22878     6886 
  -21487   -41099   -38248   -16989     5599     7015   -18840   -45755 
  -46704   -37912   -48455   -55530   -29656    -1534     2373    -4941 
  -21541   -38807   -26584     6264    16120     7820    20258    31082 
    -565   -37818   -37139   -18755    -6921    -3956    -2424     4392 
    -886   -20116   -27446   -29096   -39131   -43387   -39143   -33073 
  -22761   -24437   -44099   -42672   -19915   -23593   -37909   -23508 
   -6130    -4854     7231    26731    20684     4977    18508    43814 
   40536    15178     7913    27118    35613    24444    18959     6011 
  -26607   -35094    -8212    -4787   -30429   -24339    -9494   -39280 
  -51754   -17354    -6320    -9983    11947    17871   -16942   -46313 
  -28745    -1695   -15527   -25878     3732    21701     8398    -4121 
  -14793   -33076   -36969   -10660    17093    15928    -1976   -10173 
   -4523    -2398   -12280   -20061   -16652   -11535   -12033   -13694 
  -19280   -33166   -39645   -33196   -31117   -31819   -18127     3357 
    2184   -29016   -46407   -20777    12339    20513     7705   -14939 
  -22453   -10449   -11492   -25159   -19660    10733    31018    11499 
  -10002     1485     7607    -9250   -20964   -33601   -52513   -40545 
  -10031   -20021   -42827   -16953    18964    14428    -2513    -6072 
   -4533    -1553      907       59    -4047    -6921     1019     9942 
    -940   -20798   -21691    -3225    10423     7204      702     -507 
   -2454     -529     2173    -2925     4109    21035    11715   -14102 
  -21517   -20706   -27128   -24497   -19701   -28441   -19857    10682 
   15260    -7747   -21370   -28475   -41582   -33466     5356    29081 
   21267    11512    -8622   -46796   -57181   -35748   -22989    -9799 
   10174     5363   -13817   -17107   -19292   -42080   -64160   -52749 
  -22855    -1537    12158     8082    -8023    -6411     3360     5661 
    8344    15306    30279    40891    31009    17024    13899    13986 
    9409    -2586   -17716   -22306   -13729   -15329   -38871   -57568 
  -54126   -42935   -30249   -20723   -26778   -33092   -25569   -16243 
   -8598    -9279   -19161   -22813   -32101   -45914   -32358    -4213 
    3977   -11095   -31110   -27992    -9963   -10565   -12989    -3370 
   -5386     1582    30217    30492    -3496   -19279    -1016    10161 
   -3572     3543    30429    20233    -7410    -8191    -9406   -22819 
   -4283    42020    48749    17332    22281    54128    43159     4612 
   -7383     5707    16406    16352    17300    20159     7693   -14887 
  -30437   -49493   -69550   -58745   -28439   -27603   -57501   -73315 
  -61221   -53195   -58425   -54600   -53928   -74522   -80624   -56868 
  -45824   -52490   -47083   -34707   -26227   -22042   -21096    -7427 
   15859    25775    27392    30042    30187    39098    57215    62958 
   51663    34477    21047    18882    26476    32250    25267     9957 
     363    -1112     1981     1318   -18824   -42321   -38838   -27804 
  -28339   -17813     1105     1314   -17941   -41157   -52609   -44356 
  -27043   -19766   -25308   -22582   -10768   -20321   -40491   -30647 
    2119    32557    48810    37655    18941    19089    18276     8575 
    6856     6021     3892    12775    20769    15390    12353    13230 
   -1532   -15287    -4556     7458    11885    23762    21528    -8101 
  -34134   -35951   -23807   -16659   -22297   -32814   -35095   -26968 
  -32054   -59425   -74742   -73399   -83693   -90347   -79253   -71166 
  -64708   -57034   -59717   -66226   -64080   -37332    10319    43220 
   60754    82873    93166    85777    85151    94653    93409    77149 
   59915    41106    14395    -7862   -12814    -4274     1628    -6592 
  -18659   -25092   -34543   -45558   -48062   -47235   -51220   -63248 
  -80711   -92107   -96336   -97802   -93307   -90013   -91146   -81049 
  -55452   -30310   -29091   -52230   -49181     1853    44919    61231 
   75050    67197    52405    78665   111223   100932    69758    53617 
   51934    42939    33037    35915    31557    23473    34272    42016 
   23194    -3819   -11907     1771    13409     5906    -8748   -14920 
  -10451    -5429   -17161   -39949   -50689   -53330   -67757   -93283 
 -109764  -110677  -109992  -102637   -85411   -83841   -90424   -76054 
  -57466   -50622   -31367     1279    13859     6004    10125    28348 
   37346    45100    71660    99701   120059   154892   189612   190486 
  176662   181388   187053   157994   102297    48072    -6161   -61506 
  -95392  -110867  -144238  -198181  -234156  -240723  -241690  -251993 
 -267867  -275368  -271729  -263110  -232968  -176913  -126243   -91824 
  -62880   -45986   -44382   -35321    -2307    40803    80611   120708 
  157443   177056   175211   159304   137880   122750   123057   123873 
  112976   107183   108473    98598    77506    52428    29567    21451 
   25334    23526    14337     2519   -17712   -42133   -70070  -115842 
 -161469  -172752  -159584  -150735  -157941  -182366  -211075  -226466 
 -220085  -186069  -133914   -84059   -27770    48913   116212   143276 
  140120   127966   128144   157354   199498   222928   223510   224019 
  242111   266380   270120   250303   220779   185942   161067   158611 
  154776   134690   110442    76411    21142   -42259   -97228  -142527 
 -178194  -200835  -218701  -238077  -251945  -266838  -289242  -304365 
 -307962  -308130  -309127  -315301  -319054  -305721  -270406  -223547 
 -191070  -173724  -146539  -118357  -100951   -73634   -33475    11164 
   68115   130717   173809   182622   166492   148698   136983   117682 
   90117    78727    90362    99149    94321    83608    55741    10395 
  -12694     4067    25644    35225    51000    70605    81646    91702 
  108068   129238   154901   181211   200707   211252   210118   191081 
  155822   109933    58989    18323      793    -4139   -16916   -34946 
  -32285    -4459    19456    32108    46849    41943     6925   -19589 
  -34631   -63433   -82528   -77899   -81340  -101005  -114527  -111901 
 -100048   -88439   -87174  -100091  -109850  -105084  -106616  -129627 
 -160629  -181588  -183751  -177763  -189579  -222397  -246946  -234566 
 -185992  -134072  -105699   -88402   -61214   -27498    12324    71878 
  135310   165142   160529   146373   129189    98442    51267     7180 
  -19066   -35719   -35625    -4001    32098    38219    25987    20695 
   22704    22910    21363    25996    37245    42917    40302    35579 
   26647    13795    -5026   -41889   -84461  -103832  -108936  -123481 
 -132740  -111446   -74166   -58828   -58692   -24725    41661    88808 
  106382   122466   141543   143405   123310   100349    77159    45177 
   31133    57383    93186   110601   120156   126457   119913   103248 
   80763    48593     9039   -27772   -53009   -65977   -76265   -88045 
  -88708   -74779   -68628   -79662   -78424   -44540     -788    32335 
   59734    79542    85927    87727    88893    78599    56681    39413 
   32958    26704    10251   -19735   -64466  -117628  -159579  -180658 
 -186406  -177205  -164647  -165496  -170141  -168261  -155335  -122469 
  -91540   -83309   -76388   -68181   -83255  -109981  -107725   -70349 
  -44324   -57173   -77187   -84250   -93355   -95434   -70838   -35495 
   -7894    19726    52219    69587    51052    15619    -2223     -363 
    6334     7553     9215    33629    71297    84877    72246    50970 
   26334    11596    17694    40321    69564    84604    67686    29141 
    -831    -9613   -16534   -37000   -63235   -79886   -76532   -59225 
  -44393   -37268   -27178    -1837    34878    70835   103920   136163 
  163760   176192   169512   156678   146705   141446   147237   157496 
  157774   142480   106890    59355    27035    19377    16353    13362 
   24769    26194   -16391   -68987   -78000   -49986   -21798   -19746 
  -56695  -109231  -139833  -151433  -158704  -160681  -166926  -179374 
 -183505  -182935  -185475  -181090  -164979  -146188  -131824  -120183 
 -107164   -98151   -99319   -94840   -68095   -37740   -25331   -19017 
   -8814    -2812     -838    -1428    -5810    -5401    -5134   -21911 
  -39766   -28989     6519    45438    67097    65820    70637    95728 
  118494   134825   145134   130680    99713    81662    88403   112783 
  131908   131519   121517   104056    74166    47806    34020    15268 
   -6592    -6160    10093     8382   -18057   -47764   -70942   -88245 
  -88794   -72694   -62075   -66831   -81656  -100854  -112001  -104565 
  -80276   -53581   -45376   -59186   -77946   -83245   -68169   -40022 
   -9242    16221    28227    21358      203   -20524   -34191   -43564 
  -39912   -17217     6266    18131    23257    11206   -14619    -7510 
   42580    82845    92325    98779   117242   142785   163965   171471 
  167448   153678   130569   104248    76381    43962    11997    -8093 
   -9761     5505    23625    24251      -49   -51291  -122408  -180544 
 -210911  -238403  -271576  -296040  -314728  -333814  -342196  -334920 
 -316820  -275167  -199524  -124630   -85436   -63447   -40392   -27529 
  -19195     4006    41870    75304    83617    66814    46252    36805 
   38254    52952    78865    91301    78798    71586    87115    99434 
   96268   104097   130207   147089   150832   160474   179945   204874 
  218945   209873   197490   193207   183887   164702   138434   106060 
   73699    57231    64088    68831    41403    -7005   -47980   -80427 
 -113373  -138738  -146804  -142160  -135228  -129787  -120032  -104237 
  -91833   -85368   -83300   -87709   -76079   -29315    13236    16290 
    8449    19156    33971    33601    19415    -4382   -35195   -70949 
 -114512  -150006  -149698  -126728  -120739  -128073  -120158  -112036 
 -129136  -154450  -164438  -162214  -158159  -150090  -138775  -135507 
 -127190   -94474   -64390   -54217   -30375    10304    42115    79245 
  133276   180033   199752   188453   159904   137438   128475   133926 
  151231   162575   156389   137434   110220    83713    71556    64785 
   43556    11352   -24752   -65854  -103505  -131622  -149293  -157538 
 -166881  -183143  -208292  -241358  -257848  -231072  -169080  -104895 
  -61136   -35237   -22785   -28661   -39186   -28985     -259    27780 
   47526    65034    91562   119102   124406   108900    92157    82817 
   81922    96022   131075   162120   159533   147448   148270   139306 
  118482    98308    67918    29034     2149    -1298     8583     6349 
  -10785   -18932   -14080   -16551   -37812   -72553  -108621  -137343 
 -153763  -150309  -124838   -84973   -44448   -24078   -33544   -57025 
  -78902   -94690   -94720   -76859   -57736   -48373   -39501   -25686 
  -25500   -45698   -65202   -80268   -93838   -83326   -45873   -18605 
  -26115   -51035   -67130   -78324   -95318  -102797   -89426   -63864 
  -28710     5513    13991     3919      190     5668    24958    53118 
   66151    70208    83481    96191   101058   111204   133386   154549 
  164822   172534   183038   182687   158441   125012   107932   109142 
  118056   123682   107627    68304    24019   -21003   -66474   -99226 
 -116127  -126894  -136221  -144084  -145465  -136125  -127445  -125509 
 -119113  -108081   -97594   -84312   -73630   -71709   -72833   -71730 
  -63112   -43756   -26497   -21501   -11052    23855    70020    99154 
   97448    72515    46318    32398    22283     7101   -11979   -34993 
  -52234   -53339   -54078   -64258   -66047   -54036   -43946   -40485 
  -38114   -47520   -78036  -109058  -124710  -129258  -119823  -101279 
  -84277   -62546   -37368   -18397    -4608     4544    12869    24522 
   31729    30545    17899    -9031   -29894   -25485    -8557     2046 
    6415    12356    23484    40748    56965    59162    51197    49975 
   60220    77967    97897   106049    90740    60411    36128    33285 
   54785    81560    84775    75035    83782    96422    82047    44274 
    1345   -28611   -34317   -29133   -33284   -36212   -13104    20572 
   27135    11315     4384     8127     3075   -14925   -31865   -35102 
  -31904   -43713   -75957  -108247  -121289  -116378  -105237   -99543 
  -99835   -90243   -67509   -47576   -34319   -26516   -30213   -38036 
  -34638   -18183     -801     4226    -4070   -20320   -37492   -47675 
  -52708   -52289   -41756   -32265   -34231   -38514   -37453   -38221 
  -46253   -50384   -39056   -27464   -33867   -40162   -31317   -29142 
  -36722   -31178   -15905    -5317    -4124   -16561   -29654   -22445 
   -1984     5776    -3160    -7533     -876     3366     2722     3330 
    1493    -9666   -25770   -36698   -41955   -39414   -15255    23984 
   52783    70129    85747    95250    97355    95681    93329    93380 
   93977    91945    87295    85467    89283    88971    82563    83355 
   87783    82189    78881    87905    86817    64755    41909    29612 
   16609    -7955   -36491   -58575   -79243   -96965  -101865  -102610 
 -113452  -127619  -128644  -122670  -128680  -140606  -141822  -131067 
 -110127   -82080   -60681   -57954   -66326   -69395   -65618   -59815 
  -46188   -19236    11815    29153    26509    13159     -533    -7214 
   -6084    -5082    -7978   -11539    -7465    10395    23769    15016 
       6    -9134   -15180   -11902    -1247     2860    -4307   -13041 
  -10149     2894    13198    16698    23230    34646    31807    10836 
   -1741     5053     8934    -4957   -17755   -12228    -2895    -2369 
   -2095     1300     3522     6756    10339     8252     -774   -19306 
  -46098   -63013   -57666   -41932   -31386   -27483   -22227   -14031 
   -9736    -8629    -8428   -13014   -15620    -4433    14291    24707 
   23741    16185     7269     3499    -4129   -23873   -35229   -27654 
  -12401    12884    41499    47695    35014    26873    19156     2731 
  -10929   -22053   -32733   -24881    -4553     2803     -473    -5192 
  -10994   -12321   -14119   -26168   -38202   -41072   -41989   -42456 
  -42071   -48482   -56694   -54510   -45230   -36072   -29434   -31899 
  -48228   -66760   -67363   -53377   -47557   -50361   -48887   -42550 
  -24760     3801    21255    29617    47387    64893    68127    64739 
   64989    67157    65101    58970    44676    16860    -2284     8194 
   25590    27517    21122     9510    -8433   -25332   -34642   -31793 
  -20625   -15333   -20875   -27198   -28340   -32476   -43293   -52866 
  -62260   -74147   -77039   -64766   -45300   -32057   -32879   -37034 
  -40112   -53006   -59463   -42720   -28815   -27384   -13900     9196 
   22720    29350    39494    54382    63900    58133    43382    29215 
   20879    26210    39025    43158    40922    43059    45576    38087 
   20641     -448   -19309   -26913   -23872   -24025   -29116   -31368 
  -31484   -29808   -25814   -22574   -20960   -24055   -29984   -28036 
