Origin Time       2021/02/13 23:08:00
Lat.              37.7
Long.             141.8
Depth. (km)       60
Mag.              7.1
Station Code      FKS003
Station Lat.      37.7613
Station Long.     140.4799
Station Height(m) 64
Record Time       2021/02/13 23:08:09
Sampling Freq(Hz) 100Hz
Duration Time(s)  195
Dir.              N-S
Scale Factor      7845(gal)/8223790
Max. Acc. (gal)   208.937
Last Correction   2021/02/13 23:08:09
Memo.             
[...]
   38584    -2497   -38190   -16156    29137    43320    17433   -25321 
  -51094   -43437   -21907    -8402   -10624   -35785   -60847   -44990 
    2546    41828    52839    30241   -17743   -58901   -63466   -39680 
  -15553   -10416   -26566   -34087   -10562     7396    -8812   -27082 
  -26869   -22023   -19063   -20891   -26111   -21820    -7145    -5130 
  -27511   -43117   -17805    35314    60966    23099   -34831   -49621 
  -24563    -2142    -4287   -10111    -1721    -5520   -24680   -19286 
   15133    45403    46558    12870   -35696   -68031   -59135    -7084 
   35002    22161   -16518   -45609   -53271   -35397    -6231    18931 
   17860   -13953   -31245   -20221   -18229   -33380   -44111   -41176 
  -34923   -32780   -20744     -124    10358    16546    17822     7380 
    2103    -8668   -40207   -58842   -43706   -15083     7277    23904 
   27483    -1821   -31726   -21335    -9321   -36452   -75928   -79664 
  -34639    16927    36632    32688    17670    11782    33872    51555 
   40099    20363     1578   -19330   -31784   -26018   -18154   -23809 
  -23976   -19799   -32761   -41215   -24364     6886    38638    48262 
   29299    -6247   -50423   -60296   -11059    36408    34611    -5765 
  -60089   -86887   -64292   -21996    -4962   -32279   -63671   -42801 
   10399    34685    22199     3464    -1304     4606    -1367   -16200 
  -22108   -37843   -65303   -71842   -50047   -14800     6172    -3067 
  -18604   -14547    15126    46743    43773    11024   -29775   -64327 
  -70910   -51861   -18010    20756    24236    -3993   -14800    -8614 
    7291    39167    46836      194   -61477   -88069   -70900   -38708 
  -18069    -7728   -18631   -55617   -69919   -37887     4074    20962 
    -592   -20541    11757    57229    63148    39850     8633    -7269 
   -1413    -9119   -39864   -48122   -11153    28513    22507   -15592 
  -29478   -12417    -9769   -17791     3438    32300    16143   -30537 
  -54904   -38965     9163    46184    14511   -57273   -81730   -46556 
   -7334    18974    39361    32695     6129    -6085   -10714   -20521 
  -25211   -30639   -40447   -36728   -21536   -14098   -11577    -8484 
  -16800   -28784   -22863    -6763    -1992   -18411   -46480   -57312 
  -43283   -29184   -23878   -14141    -2300    -7670   -23687   -17909 
    8541    25594    25459    22022    24521    25002    13809    -6347 
  -24695   -26890   -16262    -7631    -1094    -6164   -30723   -44756 
  -33357   -20124   -12603    -2667     6747     3821   -12752   -15121 
   12619    43777    51578    31588    -5823   -39085   -53711   -56999 
  -60300   -63337   -62611   -43885      715    32957    14904   -30084 
  -45662   -11677    27247    31936    22603    19492     9472    -8158 
  -14482   -18122   -37442   -53168   -50460   -40328   -24772    -8226 
    4695    14999     5146   -28490   -49798   -31299     1817      -76 
  -39287   -68126   -50669     6295    51707    31070   -19473   -10651 
   37351    41135     4784   -25807   -42711   -57686   -65226   -50190 
  -37153   -50276   -53522   -23500    21656    63765    66904    23259 
   -8637     -653    13108     1534   -27525   -42075   -42662   -46984 
  -41440   -28154   -29188   -33949   -20744    11263    40348    37971 
   11183   -14825   -36938   -38095    -9296     4567   -10854   -10197 
   12376    14492    -6575   -10579     3613    -7615   -43842   -55009 
  -33586   -17012   -16951   -16025    -9526   -14893   -29835   -20835 
   14539    36023    21428   -10951   -28699   -17377     6624    11990 
  -11173   -29350    -9447    23885    26778     8602    -1615    -7948 
  -10415   -11643   -40645   -78273   -63717     1737    56404    60768 
   22890   -28351   -46584   -14278    13049    -5329   -46252   -74043 
  -70771   -51067   -42828   -50130   -52906   -32599     2172    28594 
   34308    20052     -687   -16767   -26744   -28416   -21327    -9332 
    -413     7007    20252    20795    -2824   -29455   -52324   -68060 
  -52606    -9674    27009    35287    20001    13568    15604   -14168 
  -52301   -43382    -3991    17802     4739   -26434   -47190   -46776 
  -24719     4170     7762    -7627   -10390   -10309   -17768    -2968 
   37245    62212    45168    -6924   -47834   -28034    25829    41372 
    4638   -29756   -30257   -30952   -42579   -33245   -19901   -35968 
  -57500   -57456   -42196   -12040    25934    36995    10265   -19411 
  -31471   -48427   -70803   -56879   -13918    -5007   -38016   -54503 
  -30252     2718    23134    25756     8344    -4855    -2027     2736 
    6905     2114   -17146   -36085   -40315   -20102     7680    14997 
   12194    15439    16125    10397     4118    -5061   -23275   -43164 
  -43626   -23148   -17479   -39664   -48035   -26395     -954    29289 
   62703    67497    42928    16987     4962    -2860   -25191   -41682 
  -26730    -9410   -11692   -19487   -34087   -49476   -38776   -10651 
   -2070   -21446   -34778    -9984    30080    48344    51241    40834 
   -1012   -57210   -93907   -89588   -42678    -8691   -31981   -67180 
  -61654   -15541    38977    59614    43969    14458   -29533   -62467 
  -51817   -33200   -38682   -46310   -49125   -61462   -76554   -69832 
  -42003   -38207   -56505   -23215    57246    94433    61581     3041 
  -36850   -30269    12649    46199    34246   -11041   -32055    -6493 
   24541    30673    16286     6534    11249      380   -25284   -29590 
  -12812     -525    -7661   -20947   -19739   -11248    -2369     6920 
     226   -31617   -56863   -36003     2496     9313     2536     1611 
  -12887   -27199   -11377    12499     5593   -26271   -48737   -38637 
    2160    39193    33786    -5756   -35147   -25154     3879     2254 
  -34788   -55856   -34981    -8957    -3315    -2736   -17475   -51368 
  -58072   -30002    -7749    -2212    -7186   -19118   -20397    -2003 
   14936     4317   -23576   -35253   -27966   -10782    19676    36946 
   18280    -9354   -31679   -53229   -56312   -40383   -26824   -17126 
  -10191   -10782    -4344     8931    -1070   -18007     2484    32679 
   21498   -24034   -59806   -40961    16182    46946    30055   -23471 
  -72527   -62226   -16532    18079    37746    33617    12002    -1493 
   -2212      233   -11345   -37201   -49052   -33474     7994    59459 
   60970    -8862   -71377   -74100   -53145   -42053   -40296   -31888 
   -4768    18702    15768    -1200   -10003      457    18415    11257 
  -31595   -70613   -70584   -36016    20605    56454    23272   -29828 
  -30694    -9209   -10912   -24592   -44151   -57411   -29066    30366 
   64513    34319   -33458   -67860   -57114   -38159   -27726   -38388 
  -53345   -45906   -28884    -3257    27441    31587     3154   -28096 
  -25145     5510    14076    -6723    -9390    26257    58440    48996 
   13174   -20027   -36084   -31267   -22497   -28071   -32459   -10470 
   23731    24864   -28048   -89374   -97243   -55458      899    45202 
   46870    12058   -15840   -11619     8005     -795   -38017   -58691 
  -54141   -38137   -13909     5319     7014    -1192      513    16170 
   30700    31035      294   -57982   -94316   -68588    -2863    39592 
   25292   -15811   -42958   -51942   -54783   -45993   -14175    27388 
   48111    35276    13757     5818    -8499   -39640   -55240   -29019 
   15907    25250    -5880   -25880   -11070    26863    67246    87566 
   80276    36069   -27076   -52662   -37795   -19788    -5109     2971 
   -7458   -32682   -54186   -57969   -52058   -43592   -22239     -935 
   -8280   -31757   -37531   -18667     5981     7311   -31321   -82013 
  -98716   -81441   -59302   -44431   -35125   -22495    -1807    19186 
   31846    33679    18706   -22689   -65911   -63355   -15094    34156 
   49936    25317   -26273   -72752   -75751   -31118    27660    68256 
   64887    13539   -37924   -38090     2605    34831    24607   -23557 
  -63189   -41771    32050    83601    53325   -31662   -82852   -57465 
   -3611    16781    -3705   -38978   -55121   -14071    57574    73379 
   19268   -41619   -61014   -36783     3620    31621    18485   -33106 
  -65522   -37755    28668    73488    52724    -9100   -50900   -43374 
   -8367    14169     -341   -42665   -58691   -28339    -2250     2382 
   16926    48706    61870    23820   -36190   -70704   -65641   -34064 
  -18351   -25914   -12567    13598    -1830   -51950   -61294    -6764 
   40051    40298    17745   -23654   -69319   -75720   -50174   -39240 
  -47980   -47528   -22071    21038    53719    43376    -7398   -47603 
  -37539   -10343   -11530   -20021   -16529   -20449   -13081    25640 
   54540    42870     4213   -35613   -56851   -71662   -88954   -91318 
  -91432   -87934   -36381    43178    81167    65200    32044      503 
  -42664   -88839   -98521   -63269   -17755    18798    43544    27456 
  -16853   -30272   -14033     6400    30939    49110    34246   -38180 
 -132510  -158836   -89914    -6412    11110   -22794   -66784  -100186 
  -94475   -46570    12808    43922    35534    25099    22378     9267 
     854    -1406   -15489   -17744     7662    17872     3676     7446 
   23368    26535    24910    10200   -24216   -43484   -31665   -14860 
    2725    33562    63235    73057    63047    48089    36117    18318 
   -7626   -45054   -82961   -77373   -25555    28575    65720    74800 
   47742    18050    22276    50305    69700    52423   -13205   -96781 
 -139638  -108264   -22546    64997   104093    64565   -33450  -112225 
 -115636   -71776   -42742   -53079   -75622   -75717   -63664   -64638 
  -67863   -49131   -18175   -15674   -53252  -102384  -134954  -123975 
  -69568   -18276     2660     9418    26125    50036    45774    10785 
  -25362   -60185   -86427   -82227   -50139    -9090    20501    22439 
    -205   -25228   -40184   -46017   -30473     8174    37982    40296 
   31162    22435     9587    -4591   -13733   -22069   -33925   -52983 
  -70707   -58236    -3839    72033   127930   130241    94404    57990 
   33697    16096     2317    -6089    -9370    -6097     5012    21612 
   36096    38146    30947    15844   -13078   -36864   -28402    11882 
   55310    66899    43582    18454    18087    35995    47893    39895 
   13896   -23909   -55297   -56533   -35803   -20769   -23137   -43417 
  -70553   -88330   -88037   -61848   -20349     9043    11936   -14740 
  -50905   -59764   -38801   -12401    -1019   -17869   -50144   -70978 
  -72304   -57823   -35475   -14257     2322    16213    43141    87860 
  118783   112576    74829    17946   -29226   -36063    -7661    28170 
   48330    42449    12663   -32748   -71344   -82586   -87426  -107265 
 -124989  -126407  -106114   -64285   -20941     5865     6855   -14701 
  -32778   -29554   -20883   -30619   -53919   -70239   -75300   -63934 
  -22002    27245    26310   -32281   -94421  -131881  -144254  -113540 
  -55239   -24649   -39430   -74008  -106204  -137524  -169099  -176624 
 -151393  -122805  -102093   -73449   -44984   -38107   -49180   -64446 
  -79751   -94432  -107221  -111915  -105480   -98022   -86327   -51957 
   -1880    41882    72075    81314    68598    56895    58056    61935 
   71446    90128   104423   113498   131218   158363   180833   183790 
  167981   156779   166236   184403   194806   187790   166955   152471 
  149904   143174   123160   101270    96873   107388   105781    82113 
   54121    37858    43713    68218    82408    62793    15967   -28942 
  -53276   -66567   -71328   -64774   -59848   -54900   -41640   -36143 
  -54475   -84384  -103698  -107842   -93841   -58814   -19222    10743 
   17359   -12962   -59509   -93029  -104890   -93598   -70873   -59386 
  -64100   -66299   -57007   -49692   -51078   -53380   -53877   -57107 
  -64531   -77205   -92392  -100630   -94505   -63821   -10223    33997 
   37449     4136   -34669   -57496   -64380   -56570   -46735   -55568 
  -67991   -47212     6689    52596    60930    41575    18191     6424 
    3203     -109     8835    35579    71211   103561    93043    25891 
  -41474   -60663   -34484    12927    47781    40211    -9801   -71046 
  -98404   -72222   -27024    -8424   -21906   -49191   -76833   -82309 
  -42030    27129    81746    91328    53019    -1729   -44155   -78815 
 -107391  -125338  -139572  -145585  -136057  -119682  -109215  -107512 
 -104130   -98460   -98593  -102255  -112552  -131581  -151627  -165400 
 -149646   -85149    -3424    38592    17822   -33238   -59717   -46457 
  -14562    23992    55513    65248    64624    69763    84892   112639 
  145678   161230   139193    87990    43004    20371     4507    -2022 
   18893    56999    92242   113992   104827    64482    22503    -5495 
  -22160   -22422    -4699    19248    40759    60358    73757    73645 
   65672    61798    61994    63890    73908    88412    95839    89006 
   65550    42260    33655    35991    51806    70772    70737    48911 
    7429   -43713   -93357  -147113  -188788  -197046  -189823  -178109 
 -151344  -117570   -87615   -64417   -64651   -86208   -99503  -106505 
 -121205  -126337  -109104   -67841    -2331    67018   110030   100101 
   34596   -38549   -62415   -27240    33273    73869    70002    35868 
    9936    22292    67535   109753   114357    66609   -14997   -92751 
 -141488  -147806  -124869  -103300   -86435   -61375   -26562      -27 
    4135    -4814   -29567   -77129  -127739  -154363  -137833   -67686 
   40073   121805   122559    67841    14600    -4349    25019    90242 
  161144   207370   201187   146133    81760    33003     -660   -20726 
  -40670   -74413  -100091   -92244   -68242   -53576   -44350   -31345 
  -25960   -52870  -108369  -156240  -175705  -162567  -129884  -111157 
 -115674  -130792  -150859  -164470  -153679  -117931   -73869   -40601 
  -32428   -41931   -50932   -57298   -58633   -48624   -38068   -39550 
  -43251   -29504    -1090    22573    40225    61087    85753   106741 
  110110    93808    68011    37808    20925    43078    89086   116953 
  115700    97580    73504    58754    55062    39625     6546   -16833 
  -12214    14674    51930    79875    75170    35125   -12781   -37625 
  -35746   -17223    12187    41693    67236    96890   122627   121528 
   87863    44798    16672     4569    10287    41897    80870    96368 
   80770    50494    27340    20089    31334    53623    58159    27638 
  -29014   -87534  -115284  -104706   -79586   -70023   -93793  -129350 
 -145536  -143568  -128044  -111299  -114181  -127508  -144805  -166422 
 -166653  -129624   -62320    14943    64990    59167     6297   -49395 
  -75070   -74358   -63536   -63794   -82425   -99993  -106598  -103331 
  -78418   -31700     6031     3771   -30676   -65182   -83747   -77747 
  -45144   -21436   -48546  -112248  -160934  -165647  -120163   -36458 
   35432    52770    27722    -9261   -30289   -11751    25170    42480 
   43785    34285     7488   -11503    -2802    18484    42052    69357 
   99679   125240   126783    99515    67606    43911    22154    11996 
   19464    31496    44215    54506    52316    34884     9171    -9355 
  -14806   -11889    -3550        5    -4398    -7530   -13468   -29286 
  -43533   -48421   -57289   -70498   -65515   -41327   -23238   -21894 
  -23299   -14420     7875    41693    78451   112712   140313   152193 
  151463   144065   123849    89912    40277   -33478  -112783  -155313 
 -147082  -113420   -77484   -42778    -6952    22279    20771   -17502 
  -61516   -89834  -106095  -110037  -102525   -88132   -58310    -7028 
   54310   101040   101549    56673    11870     -191    24271    70883 
   97000    81961    54780    45889    69784   115226   150322   154240 
  116390    52795      868   -38596   -86182  -135611  -168894  -179818 
 -175344  -165866  -153694  -129980   -81206   -14482    35788    35502 
  -17847   -79411  -101511   -84792   -57742   -42404   -36099   -26955 
  -28404   -44458   -48185   -29689    -5439     3010   -16200   -48196 
  -60485   -43600   -24790   -26461   -48226   -78579   -94787   -85965 
  -68941   -65734   -78409   -87700   -77272   -49006   -19066     1922 
   19201    27994    15556   -11325   -34217   -37471   -14470    24119 
   54847    63320    59000    57009    58572    57935    53158    42915 
   20340   -14516   -49638   -77197   -89889   -77195   -43384    -2122 
   38033    65464    67841    47972    25080    15665    15685    11134 
   -4510   -26361   -42512   -49114   -57591   -81321  -111797  -115389 
  -76644   -17732    41639    90579   102658    66371    14243   -19961 
  -25743    -4191    16687    12205   -10855   -53114  -103917  -125051 
  -91831   -16694    35953    23581    -7709   -21080   -32649   -48971 
  -70432  -104485  -146311  -169376  -137729   -53103    37766    98470 
  122513   119480   105123    82250    54378    35895    18586    -5575 
  -16430    -8397     1663     9772    29231    60319    82375    87075 
   80121    64746    47561    31260    16858    16029    31909    49792 
   56300    47387    27415     6428    -6516     2019    39861    79867 
   88345    71193    46911    21147    -3057   -29571   -57496   -70945 
  -65735   -55491   -45396   -26199    -5584    -9135   -24310   -15726 
    1999    -8025   -42273   -74807   -95512  -109009  -117436  -117648 
 -104633   -78152   -57465   -67150  -103446  -133852  -122644   -61935 
    9802    35908     -584   -61939  -102244  -109123   -95989   -78757 
  -67420   -58797   -45199   -29366   -17853   -17155   -25228   -34636 
  -53283   -81259   -97175   -95057   -84819   -66428   -36675      939 
   33131    40566    26875    16668    14976    11819     7565     5910 
    6752     6798      930    -4492     5297    30337    60257    89004 
  108163   107823    88867    59568    26130    -4916   -34840   -71802 
  -99481   -89163   -42905    11936    49470    59401    44247    18315 
   10385    28975    54004    74320    86181    82539    65862    46892 
   26762     1286   -12426     6677    46057    73751    67431    25249 
  -27433   -59755   -68971   -66405   -60172   -59355   -58450   -48448 
  -35499   -18337     4436    13883    -2602   -32120   -52803   -55578 
  -48150   -35479   -15753     6196    31386    64216    82885    65591 
   31286    10685    11888    21841    17147   -13788   -61284  -105768 
 -122181   -92319   -28493    32476    63200    57426    19396   -34514 
  -78686   -95608   -88919   -77562   -68123   -55664   -47490   -50452 
  -57032   -59649   -57418   -48548   -34196   -22670   -17166   -15576 
  -12825    -3365      -90   -19130   -51875   -81415   -96878   -93966 
  -82547   -76107   -76719   -74706   -57905   -27939     1009    14013 
    -542   -38286   -72146   -75101   -49324   -20378     -820    18353 
   37552    41126    25721     5960    -9987   -18557    -9562    11967 
   27888    36362    42971    47555    48649    45300    48458    69947 
   99306   118226   117756    97929    63212    21678   -14380   -39816 
  -53757   -54372   -40803    -6801    35765    60543    69167    70044 
   61639    54788    53744    47251    29146    -1360   -35282   -52384 
  -45729   -29467   -19310   -16976   -16907   -22146   -33353   -39016 
  -30364    -5996    22991    32822    12847   -24151   -59721   -87431 
 -108247  -113638   -98890   -76994   -59065   -44508   -31286   -24429 
  -26902   -26180   -13510    -1786    -3491   -12714   -19666   -27510 
