Origin Time       2021/02/13 23:08:00
Lat.              37.7
Long.             141.8
Depth. (km)       60
Mag.              7.1
Station Code      FKS009
Station Lat.      37.2778
Station Long.     140.6349
Station Height(m) 440
Record Time       2021/02/13 23:08:08
Sampling Freq(Hz) 100Hz
Duration Time(s)  166
Dir.              U-D
Scale Factor      7845(gal)/8223790
Max. Acc. (gal)   132.757
Last Correction   2021/02/13 23:08:08
Memo.             
[...]
   -6031   -18447    17778    49674    50221    35872    14947   -18593 
  -10933    30381    25740    20873    36243     4109      411    61345 
   63320    29497    11014   -50803   -53441    30704    27313     4970 
   60940    49104   -24317   -34765    -6322    31185    54534    25131 
   11607    34128     9988   -26293   -12533     9485    25061    29948 
   12650    30025    49049    -1024   -14484    41392    35279   -24057 
  -27074     8461    19322    45225    77924    19500   -53465   -14800 
   41335    30233    16497     9105   -18719    -4428    31482     7923 
    2100    31441    17775     6462     9730     -406     4369    16545 
   24174    21995     2118     6642    49323    55448    18203     6305 
  -14056   -33818    30612    84647    46917     7184     5713    12085 
    6164    16460    44074    20773     -677    27433    15916    -9829 
    8004    10573     8903    26509    16893    23935    57813    13387 
  -54086   -15592    39854    26852    42349    56311   -23819   -46754 
   22697    20810    20935    51466   -31195   -97582   -21114    55969 
   77855    70279    13489   -26698     3345    20308    -3088    23957 
   73089    38614    -9455     7177     1779   -12841    53886    88763 
   12031   -29936      645     -481      -75    39820    32150      446 
   21313    36575    28609    22171   -17568   -37006     1591    11340 
    8306    47341    47482    -1305    -5066    16124    35405    67887 
   35490   -38165   -44339   -17848    21859    74209    60534     5212 
  -23949   -39100   -17963    29571    37820    34925    33952    16941 
   27662    21589   -15604     7014    23298   -10037    18890    71035 
   57739    36776     6097   -51004   -19087    55979    22959    -5162 
   38942    12803   -26805    33575    64404    10347       51    10168 
  -21402     2701    38904    -1221     2700    44311    11630    -7731 
   39621    47397   -16895   -60963   -27280    19857    26786    41062 
   72692    45789   -18427   -17837     -750   -20617    10588    53511 
   27787    24116    40266     2424   -14534    22863    41987    31688 
   36780    46495    28522    27433    30175   -26705   -56153   -15630 
    1420    17594    64945    56705    -2004   -11321    17803    26771 
   38789    38954     2245   -20663   -21829    -3025    27313    26276 
   41183    74552    39646   -10300    -4033     1730   -11573    -6029 
    2174     1426    31355    56871    17416    -3478    37211    40714 
    3832   -30294   -65225   -30199    65931    83933    43078    43968 
   29218   -13988     4517    17323   -40930   -65866    -6029    74815 
   80017    31168    39779    40491    -3743    13319    27071   -19557 
  -29205   -13205   -10813    22287    64943    51726      580   -16075 
    2023     5514    10488    41794    52258     9092   -20856     9464 
   35036    30666    25930     4911   -15464   -12259   -10444    23868 
   88848    62428    -9054    37193    81822    13007    -7992    13670 
  -25490   -15287    44748    20827   -31363   -28912   -11767    25431 
   77745    58934     7404    12259     6866   -18662     7519    15789 
  -20610     6342    75629    52465   -27951   -12765    25664   -19148 
    -832    50930   -19689   -32962    69711    74609    38113    47348 
   -4135   -49310   -19602   -15569    -9042    55880    82703    41590 
     498   -32572   -30423    32476    62251    11368   -44157   -44208 
   13207    84981    92487    34005    12482     7264   -51127   -45118 
   32271    45654    42979    44980     2365   -11480     5040    16927 
   45851    40726     2064      388    22088    40896    47669    13300 
  -22451   -20540   -21946       85    56590    53489     4716   -19658 
  -34857   -12945    65560    82783    11171     6999    48968   -13887 
  -49793    32402    48751    23635    30801   -41570   -76276    25724 
   77530    51875    30835    -8432   -31101    -7727    30784    71575 
   59366   -21983   -50426     8059    37368    29987    39229    20943 
   -8402    15458    33593    25911    49063    39388   -13760   -11186 
  -11051   -38939    31888   114972    69192    13625     -421   -38153 
  -35814    17045    52091    52963    15279    -4850    -4077   -40752 
  -35865    23247    33596    40730    70861    47302    15390     8140 
  -17026   -22026    -7063      -17    15732    10411     8750    59906 
   92562    38340   -44352   -52353   -12375    -8727    14463    87893 
   80239   -17424   -33426    19545    16933    23356    40089   -10724 
  -14091    37976     9236   -17037    41500    51468   -18503   -11206 
   74939    71672    12239    12136     2712   -17296    13173    31580 
   17848     9441    15601    17917     1825    17392    51372    38067 
    6650   -19560   -35581   -15917    34531    72709    29979   -18488 
   12162     4167   -10528    49966    51684    17316    31585    13595 
  -15481     1674    19507    12733     3646    21130    28489    -7045 
  -29554   -16513    19961    43618    19614    23963    46360    13903 
   13185    23884   -43355   -62974     8914    39885    28331    35511 
   29560    20756    38562    26943     3164    18535    14970    -1264 
   22605    36055    25789    22590    -6411   -42718   -15647    28709 
   20102    37774    93162    45272   -42406   -17632    13875    -6710 
   31776    64725    16659     -669    21478    16332    12826    15201 
    6724    -1367   -10107     1790    47646    58186    11487     3426 
   26345     3750     1405    44662    50222    21497    -8764   -31202 
  -27446    -9045    32383    71932    43222    13968    32776    -4428 
  -67811   -18814    65653    51989    17570    18280   -14365   -27865 
   32740    57446    20403    11450    26770    19322      700     2457 
   15071    16721    20297    12399    -7079    -6042   -10038     6907 
   60439    32668   -32485    15622    69862    14520   -15653    28962 
    -768   -64710    -8868    50703    48551    94070    73253   -28923 
   -8395    29967   -15874    18200    65345    17138     1823    19743 
   28642    68312    60431     4731   -12982   -26300   -25691    10246 
   42547    75739    64843     5428    -7049     2808   -14049    -1684 
   37771    33235     3828    14890    17151   -31531   -44621     9819 
   64075    71636    41188    20476    15180   -10831   -36840   -16032 
   25330    12432   -36795   -20810    36678    37169    13405     9514 
    -487    16425    68022    60025    -4988   -13201    18831     1729 
  -16637    14008    34645    35301    51976    43792     2783     6022 
   12803   -15103    21255    55525     7786     7599    43865    25370 
    8708    -2339   -18912    13571    30408    -9472     5784    49404 
   31768    43254    68423     3060   -25864    24850    20217    20337 
   35195   -28883   -26782    41264     8804    -4514    47827    37088 
   27638    72519    73045    25402    14673      614   -51268   -21589 
   56141    50280    27828     8947   -46719   -34620    26188    16120 
   21469    81041    55694   -19163   -27288   -28518   -35247    20772 
   72540    50299    32636    50430    17791   -24741     1509    13282 
    5310    36876    32914   -10706    -4779    21153    -6615   -42966 
  -14966    16749     5223    27139    45177   -22307   -37060    41924 
   34415   -22815   -15450   -22036   -35006     5090    25415    -1984 
  -19696   -19453   -29909   -16168    47702    54715    -5433     7970 
   48097     9157   -19160    18347    42080    21573    10118    23016 
   18002     9153    43276    66864    22388   -14187     7140    19921 
   11438    32930    59005    33686   -14378    -9979    23778   -13906 
  -47227    26827    56390     2635    -2538   -15353   -55093   -15638 
   58792    66133    24115     7466    21759    39885    60496    53258 
   25327    32525    67211    83754    64343    34346    16209    -9613 
  -29242     -220    39839    30346    15878    48419    74660    68697 
   77700    80187    37960    16432    40815    38793    10027    13493 
   54739    68220    14634    -4492    45990    35892   -13085     5751 
   19892   -13450   -31206   -31951   -32956   -47073   -67895   -47050 
  -22130   -32233      751    34067   -36629  -102875   -70958   -12093 
   24543    32772     7519   -24071    -2971    56500    57959    20397 
   24945    26846   -26377   -65988   -12961    70578    62359     1566 
   11886    56880    47447    36398    50603     7901   -46110    -1692 
   49945    36481    66931   102610    35590   -12861    10617   -19739 
  -46975     6477    -6781   -55834    28966   106614    59387    39872 
   41489   -29631   -44189    35638    63599    42670    42800    58445 
   75377    33075   -28067    22160    85822    56984    32196    29474 
   14388      363   -23882   -38105   -25276    13529    78310    82182 
   22563    24559    21394   -65784   -90178   -42476   -31575     4563 
   56012    27172     -626     5543   -32463   -47202     6782    37210 
   44415    59441    23029    -1873    76802   104607     -831   -46278 
   34276    62756    -9860   -14431    36891    -4453   -24950    50248 
   56898   -11075   -36736   -33867   -45886   -39725    10393    43764 
    3169   -47125    -7294    72809    79512    47283    31190     1269 
  -18689     5844    57797   100693    72968     9711     1391    11888 
   16945    39557    41920    49403    76542    61114    41072    58753 
   70200    61531    54548    46943     8991   -25416    -2965    26387 
   23483    -1313   -37019   -36760    -9552     8598    34333    29752 
  -17909   -49945   -62534   -32556    44786    63779    11430   -16506 
  -12440   -14158      175    33710    36119    21126    30812    34412 
   15920     1363   -21729   -68677   -87135   -39811     2677   -18424 
  -40767    -7414    33062    40406    36134    14670   -20514   -13917 
   36167    61284    27245    -7757    22075    65770    62037    53411 
   52627    27699     5089     1711     8467    38464    48805     9105 
   -6142    -7766   -38821   -15850    34041    18206     7707    45562 
   54147    -9100   -49789    22424    62380     -518     7485    30041 
  -64077   -90602     4384    24605    -7060    34967    74071    41247 
    9050    18542    29114    21976    22401    21568    -3898   -52011 
  -98269   -53192    79359   128661    75323    55598    56629    13390 
  -26158   -11547    54276   100843    74781    63598    74935    25338 
   14593    69021    61288    44099    32937   -32444   -27928    30198 
   14084     8576    14455   -44220   -66401   -27730   -24799   -39838 
  -17582     6775    -2444   -12931      144    13514    26788    58892 
   74695    54233    32918     7430   -29385   -38298   -24540   -19892 
    6490    50137    25683   -47212   -58453   -27689   -17211    17720 
   71143    80023    68743    35311   -32876   -47930   -11244     -186 
    3537    15018    22854    32398    28744     8376    -6810     6847 
   49045    83452    79101    57817    70949    80586     8618   -70235 
  -51359     6180    32570    78470   142431   111148    19319     5794 
    9477   -41046   -33427    48246    79697    42236    10929    13316 
   19070     4765     5641    46357    60045    18723     5860    38244 
   29344   -28975   -44091     6427    24584   -36387   -88807   -59833 
    9501    40231    26889     8649    -9674    -8783    22910    42822 
   26311   -17262   -38531   -13362    -8546    -7754    33745    18330 
  -43359   -20758    55594   102501   112348    83033    34947    13802 
   26484    29037    10366    12725    24263    13030    -2259   -23157 
  -54589   -64733   -25068    43302    72762    66104    68924    68697 
   53121    15348   -21681   -15244    -3011    -7641     7785    20687 
    1412     3719    45824    54550    28148    27221    29949    14758 
   11348     3759   -29134   -57393   -52569   -24571     9123    60897 
   92650    49114    -5192   -10824     8816    29874    23838     9070 
   20657     7531   -29212    -5489    51748    65483    51035    27932 
  -21362   -45763     9728    46444    13506     2292    -9153   -10511 
   78228   113119    18921   -32934       58    23776    20804     6813 
  -10131   -10762   -10369    -8017    35480    87952   111902   104500 
   36915   -19822    25172    61072    -9262   -66491   -36331   -30439 
  -83570   -81199    -9512    34064    50580    78457    60191    -1227 
  -12480    -1174   -34952   -54274   -30520   -11920    22083    65109 
   35661   -17759     -795    21728    16503    31190    29116    14905 
   22804     9178     3732    25856      681   -37948   -39287   -53018 
  -39893    44273    71734    10345    -1638    11963   -39344   -80013 
  -47883    39561   126064   125190    85907    95619    78406     3233 
  -15091    27602    27603    16052    48294    56855    43067    61832 
   72027    46722     8762   -15230     7555    27623   -13880   -35035 
    1362     8708     2242    18058     3337    -8064    12177     5630 
   15634    74056    68681   -19290   -58391   -19203    -2763   -33455 
  -41278      787    36227    22569    16349    41260    33492   -19535 
  -77053   -73579     1107    46222    30424     7211    -4218     2737 
   34997    82425   101083    64852    12858   -16372    -8334    36127 
   77386    68805    31464     2690   -20777     5911    67840    58445 
   18173    -7952   -67030   -81614   -17255    21022    13973     -684 
   -6216    -2698   -33635   -57715    17585    94536    68156    34169 
   24753     1013    19426    44282     1174   -19792    27480    60859 
   66764    82437    86186    27333   -78900  -124407   -74910   -35405 
  -13671    72497   132401    58251   -35634   -33270    21046    53580 
   43330    31872    62448    76127    19167   -22488     1628    15249 
   11504    35433    41393    29524    66386    90139    29891   -20382 
    1468    17190    13883    39368    24386   -64750  -115071   -81257 
  -24583     7129    -2516   -13907    32844    88466    73059    55431 
   63431    -6087   -82240   -37898    32097    40751    34700    25231 
    4830     1927     5098     3497    24707    38272    24775    30307 
   24491   -16275    -6930    52995    62552     6207   -29847    11195 
   64836    61404    28610     6937    16629    36329    29651    27596 
   35653    16425    -2610    16456    38353     2512   -54143   -35338 
   28605    57561    68022    67977    22176   -54143   -78734   -15522 
   38821    34191    31332    24935    -4850   -14736    10844    35604 
   21820     5617    40660    68998    24629   -30632   -24845   -12279 
  -41530   -32539    43472    83940    38867   -19876   -11700    29376 
   14266   -26740   -11871    33224    39480     8834      -64    21193 
   17217   -13714   -11726    36173    71324    70653    69516    39777 
  -33388   -50997    13051    60485    45551    23737    28167    12178 
  -12515     8476    31653    33318    52517    52802     7639   -20421 
  -14103   -10733    -7492    10592    29975    44157    45785     3863 
  -51387   -34730    22428    29312    33286    71007    44779   -36139 
  -39629    26720    53535    31421     7854   -12730   -34844   -26546 
   39733    85299    47073    21014    21547    -6889     2778    16236 
  -16474     8586    42869    10122    26086    74584    46504     1377 
   -4132    13080    35325    26964    16521    29597    14262   -10554 
  -17450   -30300     3213    78340    80713    33755    26584    12738 
  -22831     5074    57674    25389   -24476    -2145    14948    12858 
   47139    38616   -17452   -12094    22565    27484    14289   -13751 
   -8363    39060    42928    16021    36502    53758     6465   -31518 
  -13621     1138   -13625   -34916   -39248   -12453    17005    23121 
   21837    15974    -8260   -38445   -31221     4958    -1863   -11391 
   48978    75926    25618    21003    52779    29223    -4881   -10963 
  -20749     3127    75227    96286    27456   -37265   -20467    18061 
    1348     9571    78559    73778    -2521   -13335    24634    26048 
   19872    35484    32501    22887    36340    53987    52239     9005 
  -31907   -10012    39384    74097    72516    40073    12496   -43605 
  -82355     1837    73164    34547    29893    51480     9073   -19886 
    2463    22570    13198   -19662   -16025    11564   -27286   -55239 
    9670    51799    34896    38372    19344   -62144   -84018    -4891 
   45829    35696    18554    -3227     6058    45750    38711    17018 
   39125    38186    -7493   -24980   -29288   -51397   -10561    77715 
   92986    56532    20919   -21558   -18449    33889    57888    36895 
   -4662   -30464    -9495    10351    -1830    12669    43198    37814 
   25763    14291    -8613   -21084   -15830    13417    40787    24818 
   -3626   -18721   -30180     6200    82741    90988    28476   -17655 
  -28649   -10377    27216    56917    61766    29874     3040    18203 
    3300   -33924     4307    47923    22052     4317    11276     7946 
    2767     4599    29722    49138    23472      552     4391     7030 
   20349    44662    40764    11553    13423    41484    24696   -10347 
    5467    25528    13259    19865    44749    44100    18438   -16359 
  -21033    28178    53802    21925     2243    -7318   -32066   -27994 
   14149    58618    72725    46629    26951    34280     9822   -44953 
  -45013    12162    35576    -3064   -14994    45682    60963    -3824 
    2898    58738    18235   -38325   -11067    20282    17990    18306 
   15049    15489    23110    14031    14782    18889   -15510   -28251 
   12035    33467    27276    32841    49459    47247    10527   -12575 
     862     -368    -5485    26632    33920    -2917     4453    45593 
   57115    45277    11106   -20449   -21478   -21865    -6207    27082 
   28559    34319    41616     2205    11581    87145    90169    27966 
   -5680   -11909   -13360    -8718    10585    32294    33735    31176 
   27870     2705   -11159    17112    41273    27460     6686     9065 
   26106    26430     5931    -2575     1833    -3963    -3391    21124 
   43505    33918    -1952   -28537   -20703    -2849   -16642   -40517 
  -17435    27931    35037    33779    54598    51297    14165   -20252 
  -29467   -12860    -3612    -8573     6296    38967    53121    33604 
   18631    27183    17340    -3408     2608    17948    18033     4630 
   10341    40672    44371    41789    62144    36302   -18149   -11353 
   19577     7649    -8953    16814    35407    -2425   -31580    -1710 
   32216    48649    66981    55534    22231    18812    11049   -12186 
    8947    18856   -10266    20529    55429    13903     7614    61088 
   58199     1973   -16930    -9909   -30623   -30703    18114    38362 
   32748    61578    74252    29822   -11651   -20417   -26195   -23587 
   10627    42511    36026    12283     1881     5155     1385    -8941 
   -2893    15161    29609    36373    32151    25427    21872    18704 
   23730    26561    -7325   -48498   -21602    31313    25034     7406 
   17483     1621   -20629    12850    63693    65839    35783    17444 
    3720   -12663     1915    24584     1800    -7902    19566    -3238 
  -23074    40922    65130    10112     6469    38612    25438    14820 
   19629    -3430   -13158    10334    10924     9127    45902    51879 
   11711     4232     2805   -16767     7589    21042    -6239    29285 
   71555    23205   -13594    10839    25475    33065    45616    28486 
