Origin Time       2021/02/13 23:08:00
Lat.              37.7
Long.             141.8
Depth. (km)       60
Mag.              7.1
Station Code      FKS011
Station Lat.      37.0911
Station Long.     140.9035
Station Height(m) 165
Record Time       2021/02/13 23:08:07
Sampling Freq(Hz) 100Hz
Duration Time(s)  206
Dir.              N-S
Scale Factor      7845(gal)/8223790
Max. Acc. (gal)   340.495
Last Correction   2021/02/13 23:08:06
Memo.             
[...]
   72391    56419    50469    60253    91354   131259   150318   153956 
  154383   138612   106663    68818    29650     6119    18337    54799 
   86147   111748   133675   130671   111010    98104    83338    64967 
   52506    38237    33885    64929   104542   112027   102856    95013 
   76944    55772    49655    57578    73480    96863   119819   131699 
  129622   110392    82452    61557    42354    21694    18396    43293 
   86231   126986   145882   143039   133458   116028    83968    44131 
   10296     4095    32111    71960   104171   121498   124700   114112 
   85992    63410    64242    65664    65531    77646    90725   104812 
  116977   102439    77739    78808    93406   103592   104233    88709 
   77433    80207    78457    76719    83678    84464    72574    68922 
   89075   111010   110602    97491    87781    76539    56918    45554 
   55669    75609    97515   116737   119152   104719    90163    82807 
   82367    93251   104587   103897   101410    94593    80314    73074 
   59736    32189    26199    50525    66870    70506    90157   110467 
  103851    88840    79772    68034    58869    60093    67652    75687 
   79050    77291    80866    93055    98212    92452    90153    91547 
   79173    62889    79192   104441    96415    96284   125413   136290 
  128178   123826   103960    65963    37713    31318    42552    66035 
   95299   116799   124546   122771   105935    82772    72733    69291 
   70726    87643    99358    82594    59630    56578    62843    64050 
   64127    70584    81977    93118   107632   121460   117783    97671 
   78074    71070    76168    83261    90243    89262    64134    35800 
   35830    49412    57269    72150   102377   135607   148880   124313 
   77814    47776    47784    62445    84636   109394   112521    95098 
   86560    89405    91773    90050    83030    78340    79124    78023 
   82405   108378   138341   136713   118551   119431   119863    90150 
   49867    28976    25057    26053    40454    71365   100757   128266 
  163732   182941   156944    94683    29039    -1595    14289    45508 
   73333   103516   125832   129011   116083    93367    76804    71899 
   55020    28698    38572    82139   105079   105587   118517   135526 
  128710    96045    59074    45635    61080    78445    74888    60785 
   54283    51322    57100    90877   123256   107154    61381    38269 
   52888    79871    93406    88573    77908    86313   112828   118968 
   94132    73029    80115   103690   113981   105351   103781   114328 
  125817   136250   121936    67003     6027   -17729    10755    70702 
  111109   110447   107064   117081   115152   101929    80649    47052 
   31375    54371    81058    79481    78738    98401   107885   108841 
  112455    93046    64134    62051    78605    99549   114841   107025 
   91255    86741    77112    71795    96641   117391   103246    85278 
   75104    56812    49721    73859   107060   113378    86011    54063 
   43152    48509    50319    52427    74848    97783    90995    73452 
   75767    89175    97667   112332   114034    69198    24510    33328 
   72819   110772   139187   152235   135194    99801    92716   108214 
  103557    82084    61495    45013    35938    39721    65334   101498 
  114508   102753   100344   112261   113965   106863    97731    72153 
   47899    55514    69491    63591    61819    85171   118068   130157 
  121524   114323    97421    68801    61785    67504    63418    67281 
   79662    86054    84919    67464    44672    44713    62519    73527 
   78575    97204   121166   127728   123273   117931   107698    87088 
   53743    29749    40294    65963    80266    99382   133839   154947 
  140143    90067    39688    35451    55378    68004    95110   119869 
  110385    94204    79994    49536    39407    79115   116569   116689 
  114894   118362    98876    71343    61173    51135    39953    58309 
   82448    81206    86559    99231   101198   111292   113475    90520 
   71938    68737    62199    49160    59269   104163   146693   157885 
  139082   101218    58970    25018    11911    32883    77036   102798 
  103885   109683   100026    56496    26415    38276    65196    76288 
   77049    95023   117004   111497    96034   103416   117165    90825 
   41405    36293    70850    96739   107381   112611   124317   146605 
  153840   124067    80221    59420    58029    67670    88522    92375 
   82942    85718    80595    74872    90262    87839    61688    55337 
   68605    83851    94151    92519    88091    77079    52726    44489 
   55117    57299    62881    81592    88843    84832   105348   151514 
  170912   140919    98286    77164    68689    50993    45620    68655 
   81436    83751   116546   152169   133983    75878    26765     4680 
    5763    25397    58968    89548   101891   121022   154633   145127 
   83994    42577    41416    40536    37405    60779   102949   131295 
  138519   140364   143372   120375    60373    21257    27758    37640 
   50531    74877    83783    89949   113717   123538   108319    95885 
   85147    63871    40591    27449    45763    93981   125012   127803 
  134987   137272   109144    66505    34992    23900    33855    65322 
  112297   150969   170864   173273   141875    91552    63458    59459 
   63969    65962    61684    65496    74152    77700    91660   106035 
   87053    46164    21455    23666    48065    88071   122079   136216 
  132927   102609    51887    16156    13131    42252    87490   123967 
  152240   169026   148940    91798    38449    26982    49365    74209 
   86703    93364    94055    72123    49527    59911    76688    75838 
   74109    77384    79324    82198    93005   109884   119774   116850 
  104078    81631    58774    59494    88577   109486    95509    83193 
   98443    99025    88022   114000   142946   130931    98755    59316 
   31214    41871    69838    93688   113166   105979    76646    65542 
   68220    56421    40205    43869    69202    86120    78163    78152 
   97194   109146   113425   119797   104453    46980     -414    19548 
   72496   103578   110631   114741   119206   111551    95530    79462 
   66233    68096    77348    76813    81002   102667   126983   134023 
  122841   110806   111721   127052   132723   104379    61030    34618 
   40207    70087    95083    97009    84073    81441   101367   120247 
  106550    67153    47023    53962    54287    50279    53657    62070 
   82181   101109   117034   150190   175117   156199   113659    83330 
   62540    37782    30618    60826    98679   105085    92604    93360 
   97777    94753    93839    82038    57013    45894    55557    71783 
   77565    72856    86574   110479    97722    63882    55003    67860 
   88010   103504    98620    77932    46049    19423    37027    82177 
  104364   112745   126380   129709   119241   100514    73703    40945 
    5258   -18913   -21452   -18702   -25093   -20526    23607    85884 
  124295   146323   159025   140946   116029   118380   126596   130077 
  146084   161258   158101   146153   137215   138350   150067   162243 
  152288   101796    42522    17058     8810     1063    14238    40842 
   53100    55822    65412    89604   130431   164496   174528   178804 
  173722   141828   103430    73487    46687    28755    18496    10270 
   10970    12224    -5954   -27432   -21678     6717    46757    89664 
  112669   124047   147955   162537   139170    94054    56933    33849 
   29694    65380   127477   166012   170900   164385   139943    86377 
   23900   -21166   -36960   -15703    33704    69267    70667    61465 
   52251    52407    80393   120217   147599   150618   121436    86197 
   83555   111723   137489   138156   119167    96257    83957    89036 
   99424    98042    86900    84865    86779    69503    55998    79096 
  117814   141486   136614   108195    84628    65308    41281    54410 
  109170   138865   138331   154510   159887   118515    78142    73103 
   69435    52034    47259    51032    41239    33613    41040    55957 
   76743    79336    41181    -8718   -42755   -58226   -35469    34618 
  120594   176531   185998   186598   208670   234586   251298   262580 
  255750   216048   162399   127105   107302    88088    81565    88053 
   83542    54511     7792   -28120   -38242   -36274   -22346     9864 
   44698    71027   106250   151430   169942   152946   127261    99976 
   72482    61310    66748    75224    82765    82309    64378    35143 
   13001     8468     3169   -13535   -18655   -12271    -3634    17671 
   37764    54506    88445   118395   126083   121890    90526    42849 
   33120    50309    45544    31608    39145    71874   126906   191342 
  240113   249559   223412   203612   210513   207135   169723   126050 
  103609   101598    97078    70876    35410      -13   -41974   -73629 
  -69241   -32086     4249    23853    57981   115798   168790   210362 
  235449   231029   211037   191189   168694   147656   124177    74178 
   15176    -5728     4066    17315    39101    78629   139769   209208 
  251580   247594   199924   124341    50044    -6690   -38670   -28294 
   18523    58090    60790    48574    51247    55937    46143    44656 
   76797   122251   137331   124930   119554   109077    68351    23953 
    5379     5914    23400    68659   133732   196371   227018   196646 
  118496    34326   -36848   -87632  -105722   -99133   -87196   -57083 
    7427    88956   162059   196218   181010   146396   114642   105852 
  132007   156875   164960   191667   238362   265866   252240   184054 
   64920   -41725   -89309  -109539  -120503  -113551  -116002  -134975 
 -127931   -68320    34449   142142   214745   248378   251186   220509 
  165375   117242   104021   117940   133228   143186   137583   100156 
   55792    31193    18920    21718    33332    27220    17892    43443 
   95904   136647   151557   157538   181889   224008   239116   209727 
  172102   146385   124924   103696    79967    42967    -8058   -43475 
  -44074   -20545    24572    79346   115323   132768   152949   174486 
  160593    89444    -1100   -65299   -92905   -78992   -23245    49432 
  119248   180650   213017   201337   156238    92080    26239   -26724 
  -61782   -64041   -39773   -27888   -31932   -18081    29157    88213 
  130222   163098   202597   244587   284755   307770   301414   265422 
  197321   115929    47294     9302     6042     4656   -14482   -37374 
  -52625   -54535   -54754   -50274   -14141    39132    79006    99630 
   97475    86379    81186    72777    86363   156020   246160   310960 
  343245   349159   344542   317841   233082   111296    19822   -17086 
  -30032   -25914    26554    96587   106034    64666    53495   100187 
  147006   140867   119577   138640   184994   236676   289083   307409 
  260315   181828   127761   102080    76299    36310    -9855   -39653 
  -44409   -45630   -60536   -76130   -78300   -73761   -57969   -19951 
   16567    36864    58151    81600   113621   160280   183330   164617 
  139916   127635   105109    58361      256   -63082  -123338  -155584 
 -154549  -126287   -63823    23180    97179   137212   163015   186147 
  189163   172026   147852   117513    94714    91701    96755   115541 
  151051   169366   164779   161217   150827   122485    85347    42593 
    9613     1961    -5574   -20943   -18912    -8614     1401    26077 
   43495    25860     -688     4585    42488    95193   162337   227422 
  259436   276577   296377   274599   202630   140236   112826   104537 
  106249   107831   100545    84862    77291   103424   149161   167073 
  138177    87910    46024     2276   -57283  -100507   -96160   -50531 
   22628   114532   205150   254719   234508   179814   154880   157839 
  149465   129983   107585    78382    60579    86718   144451   164582 
  129389    91655    66077    39333     8136   -35839   -68237   -43895 
   39841   148247   238551   280162   269106   222694   174132   152266 
  141478   101833    34148   -30916   -74324   -79554   -43081    17431 
   79334    95118    41114   -27504   -71118   -92304   -62232    29469 
  128605   199929   260074   314236   330574   275898   176966   116027 
  112311   105148    77824    59826    47197    13872   -40302   -76222 
  -81515   -94174  -107320   -91023   -58607    -7669    78297   192700 
  314928   389742   387756   365114   338118   259924   155169    69507 
   -5358   -54248   -47814    -4614    42257    90412   148140   195571 
  208904   186295   131704    63988    22230    22385    24295    -9047 
  -59154  -102802  -127720  -114165   -62181     5485    65456   102344 
  108141    91659    86688   106878   127712   139649   142383   127354 
  107165    90886    71899    50730    19762   -27994   -84435  -135423 
 -162098  -156309  -121649   -72112   -37797   -13149    38326    99782 
  142063   187755   251075   299786   293224   251725   233879   217884 
  159532    97767    60072    29357     8171    -3967   -15361   -25219 
  -24119    12850    88526   170118   225809   242512   229640   206433 
  188990   167209   115327    49897    -8568   -64810  -103277  -111438 
  -93118   -55474    -8846    44582    90293   116480   132221   133560 
  135236   169904   213256   218353   186987   137520    65259   -15429 
  -66559   -75886   -28568    85699   212423   295346   338743   345656 
  304014   232233   145647    39542   -78750  -172980  -190044  -134034 
  -52868    20100    61720    87104   111970   133523   169881   205083 
  213367   219726   250047   315235   397587   441520   424603   366857 
  288978   203215    97391   -26426  -122305  -168327  -176102  -156937 
 -132993  -112413   -78723   -37227   -15500   -15979   -11487    20514 
   90166   196072   316697   403752   405334   328220   214351    79589 
  -51796  -150141  -209077  -215399  -159921   -55310    72536   182065 
  224579   172400    65848   -25694   -91162  -130504  -100742    11974 
  139001   212508   247021   266240   253666   218043   183384   142786 
   97456    71027    79394   115550   150927   172431   185202   192100 
  203767   214496   202863   160118    86956     9310   -43625   -79359 
 -110459  -118571   -72630    18995   107615   159652   176732   171838 
  151515   139009   159349   191988   211557   212151   176999   109993 
   46620    -1229   -50043  -100610  -135477  -138179  -101216   -41573 
   15776    62915    96844   127480   170704   206494   219570   236497 
  245124   203917   146882   124748   106207    62656    29828    12517 
  -16079   -34600   -20029     9660    28632    27880    17537     1556 
   -7159    24451    90375   149548   180157   177016   139846    89330 
   56416    45631    48190    61385    75504    81357    78597    78547 
   90126    94282    69873    28456    -5597   -29077   -38155   -13975 
   27621    47775    48516    56370    77388   103740   121244   112253 
   90009    90514   122759   168393   201911   208894   200974   186696 
  162506   141114   130246   116191    96458    74856    43371    15898 
   27237    78200   140510   191065   209182   191897   162120   135791 
  115484    94608    63532    40841    47868    74412   113346   161337 
  194188   189159   148752    98153    65975    58517    57207    49423 
   38292    27078    29284    56957    94682   117703   104323    54467 
    6999    -8799     3119    37261    84769   137523   202703   263028 
  279022   247850   183770    96103    26203     4811    -1231   -15529 
  -12584     9516    25103    39657    62449    69106    49586    21771 
   -7159   -21280      552    36138    60685    87303   114459   127579 
  135584   136439   121258   102760    85672    73241    82382   103715 
  107210    95168    94678   105406    99987    73985    52246    46772 
   43260    32020    36047    75120   123421   157177   180708   183971 
  151891    99499    59987    43731    34025    30292    38713    45840 
   43208    27810     2195   -15414   -20911   -21996   -11557    11348 
   27874    27453    23654    33093    56462    90950   139321   194221 
  233960   245978   242342   237375   225173   195459   152504   116291 
  100761    86564    54247    17649    -1148    12719    46128    58873 
   44590    28213    15267     3692     6336    35579    78568   107404 
  121560   134206   134156   117057   106289   113845   124918   128028 
  127870   124187   107958    83069    66534    65523    79375   114201 
  160924   184844   175221   155673   128576    91095    75096    92811 
  106930    90583    61059    38539    17670    -9844   -43626   -69808 
  -71670   -52801    -9707    65061   141471   188057   208642   209434 
  185797   146291   112715    94460    89156   102820   131120   150645 
  151514   137756   117198    95515    62032    14629   -31522   -69520 
  -88353   -75077   -45477   -19480     4156    21775    27905    35023 
   55622    82270    95924    98265   108895   126416   136782   142626 
  158728   178611   172265   140468   103812    60620    21265    12282 
   43487   105598   166286   194741   202058   214574   226840   217966 
  183077   128640    74866    54109    74389   109125   127785   117076 
   85772    56037    40632    37173    42800    52146    60241    72249 
   87988   102504   112916   118366   128926   141496   136948   112671 
   74981    37771    19087    14897    19903    34688    43586    42557 
   45878    49316    35762     4846   -23483   -23677    14197    68247 
  106685   123076   121639   102909    90274   108090   132424   131650 
  110197    78734    51738    46350    55100    66831    81099    92686 
   96778    87396    60812    28231     3600      677    25111    56602 
   76675    93293   118912   150372   178241   195685   191667   166008 
  142473   138407   142696   141929   142649   142792   129335   113049 
  100122    78262    55615    45702    43796    41260    44023    71528 
  118953   155422   166255   155861   127944    84235    42750    27899 
   28318    20839    12295    17636    39116    60137    64706    65475 
   69059    58253    36109    23737    22211    27349    49283    90969 
  132179   141974   120795   106489   108305   106182   111284   133216 
  146866   150257   166000   182029   164920   116456    69075    40846 
   38055    61497    90451   108328   113124   109792   109923   106523 
   96003    88479    75450    61581    58467    51148    40138    41476 
   55193    76265    98617   113208   102667    58743    16302     3811 
    1115    -3473    -1412     2828    12096    39170    77589   110836 
  135392   154064   150246   114048    87382    92747    95592    92433 
   95983    90900    85874    94778   100404   100484   107327   113036 
  110149   105921   101328    94144    97090   117566   134482   128359 
  103855    69418    39271    33588    48228    64581    79752    96522 
  106786   100861    84337    74850    73072    63934    59733    75190 
   88933    97430   109949   107589    95524    96118    96932    85558 
   66987    43437    29162    42931    74186    95759   100294   105405 
  124094   144512   152676   145569   118505    79783    55000    48369 
   43220    35469    28957    26254    27422    27685    25861    27622 
   40212    54295    57269    59454    58839    49042    55367    83600 
  105900   107177    89365    70094    72715    95148   118918   136668 
  149690   157893   158666   145381   118003    93555    83170    83820 
