Origin Time       2021/02/13 23:08:00
Lat.              37.7
Long.             141.8
Depth. (km)       60
Mag.              7.1
Station Code      FKS005
Station Lat.      37.6385
Station Long.     140.9849
Station Height(m) 16
Record Time       2021/02/13 23:08:03
Sampling Freq(Hz) 100Hz
Duration Time(s)  300
Dir.              E-W
Scale Factor      7845(gal)/8223790
Max. Acc. (gal)   579.438
Last Correction   2021/02/13 23:08:02
Memo.             
[...]
   -1857    -1694    -1252    -1105    -1706    -2181    -1898    -1363 
   -1116    -1476    -2027    -2031    -1842    -1688    -1493    -1867 
   -2289    -1713     -669       91     -272    -2169    -3557    -2716 
    -604      461    -1088    -2799    -1692     -126     -753    -2141 
   -2100     -513     -167    -2060    -2825    -1885    -1598    -1613 
   -1332    -1156    -1034    -1467    -2053    -2079    -2432    -2486 
   -1181     -598    -1705    -1351     1489     2180    -1325    -4341 
   -4336    -3349     -897     3181     2296    -5926    -9927    -2652 
    4271     1555    -2273       54     2552     1057    -1794    -5071 
   -6643    -2812     3522     4943     -535    -4942    -3558    -2956 
   -3240     -450       95    -2045    -1803     -294     -751    -3982 
   -5535    -2899    -1521     -623     3408     2272    -7348   -14844 
  -13587    -4457     5235     5232    -2305    -7425    -7010    -2250 
    2315     -835    -7507    -6783     -378     5406     4604    -3916 
   -6621    -2100     -953      689     1262    -3589    -4120     1661 
    6867     5090    -5927   -13859    -7897     4228     9585     5525 
   -2670   -10409   -12310    -5512     3755     5725    -2374    -9146 
   -2979    10540    13413    -1885   -13927    -7470     1301     1541 
   -3788   -10141   -10721    -5864      623     7597    11962    10631 
    2153   -10077   -14887    -7654     3064     9864     9832     4587 
   -1444    -9116   -16482   -16659    -4522    12768    14667     4588 
     116    -6448   -13392    -4819     6789     8538     9066     5441 
   -5738   -10467    -6261    -5509   -11200   -10887     -197     4899 
    4761    10567     8939    -2728    -6816    -4904    -3310      197 
     167    -4199    -7487    -5697     1528    -2378   -10238     7794 
   23641     4032   -16976   -11295     7488    10593   -14944   -32655 
  -14273    13909    22439     6737   -12260    -9567     5019     9329 
   -3549   -26553   -29515     1509    28478    16615   -19819   -33566 
   -3014    26026    17693     -305    -9701   -16903   -13632    -4600 
  -13252   -20443     3701    16667    -8113   -18918     1557    15545 
    6717    -4203    -1993    -1822    -8729   -11664   -14563   -14156 
    5598    27081     9132   -29160   -23515    13983    17901    -8888 
  -20849   -11068      653     6987     9366    -2393   -20900   -13177 
   13389    17987     -761   -10590    -3445     2864     8478    18546 
   10476   -25521   -50931   -28779    19587    42908    28152     1421 
  -16285   -12272    13298    26266     -387   -41339   -42012    16478 
   63489    28993   -33081   -45735   -20286     9423    21782     7530 
  -12903   -19406    -6463     8073    -1709   -12249    -1540     2674 
    1223    14162    25016    22273     1864   -29357   -29353     2928 
   18922     2951   -20129    -7939    31158    27136   -11620   -20822 
  -13471   -14872   -10963    -1656     7904    17428    27000    29255 
    5479   -24459   -23947   -11152   -11373    -2390    21541    22804 
   -3875   -21348   -12101    -4619   -24102   -33974   -14453    -5108 
    3935    36387    42400     1579   -30723   -25567   -16488   -21105 
   -4461    31180    35806    12788    -5494   -23025   -37588   -23332 
   12827    24447     7350     8163    23488    12866   -19689   -45192 
  -45654   -20642    14700    35202    16915   -25124   -41548   -23141 
   -7051     1212     8869    -5923   -25774    -9250    30046    55468 
   47892     7794   -39274   -61381   -52137   -22034    22650    41867 
    5703   -21843    -8718    -8143   -18588   -13142      329    25124 
   45684    43483    25971   -17825   -63223   -47405    12217    39887 
   19797     4868     7879   -17423   -50836   -42057   -18216     -174 
   15565    18407    26426    29282     1977   -13494    -6990   -11804 
   -6814    22002    27201   -14543   -42045   -11815    10567   -18793 
  -39586    -4305    49188    53233     8498   -35823   -58684   -39837 
   19021    53950    22658   -32880   -43089    -4297    31249    33440 
    7194   -15113    -8733     1318    -6808   -13070     1328    20347 
   17232      710    -4580     3134     7238   -11924   -27176     4409 
   39872    23672   -14650   -29546   -33712   -52444   -40733    27664 
   62368    20699    -8352    12611    13014   -26150   -29538    24618 
   52601    12005   -26937    -8494    18558    -4264   -35914   -27118 
  -14647    -9875     3982    -2543   -16271    -9904     2432    27390 
   39224     4185   -29027   -19095     7948    15152     2089    -6137 
  -13961   -33921   -35637    -7882    11913     9744    -2403   -16594 
  -16241     2508    10843    -7183   -34038   -43140    -8729    40752 
   39050     8190     5871    17524    17288     3003    -9657    -6944 
   -9994   -16274    -8796     7133    38199    39501   -33903   -88890 
  -48213    21644    47479    17274   -32913   -33793    15353    33220 
   -8777   -39711    -6781    23831    -3582   -16151    15398    22909 
  -10183   -42697   -23939    32541    46635    18949     2571    -2147 
   -5271    -2870     1773     2708     1601    14856    40660    20443 
  -56443   -82125    -7430    64966    44676   -27820   -52355    -6866 
   24156    -8510   -31831      400    19153    -5860   -18605    -4631 
    6354     4811   -19947   -46877   -19199    33712    43221    17070 
  -15484   -25038     8473    42209    33417     5653    -7865    -1328 
   18377    17058   -20738   -48563   -44166   -20526    12316    16453 
   -3423     3095    18671    14004     3782    -3543   -11491   -33632 
  -59255   -43432     3078    26696    23939    11907   -12313   -25937 
     -89    14080   -32162   -62077   -16897    33324    48443    59456 
   42217   -20478   -59991   -36882    11758    33839    23847    23649 
   31749    13379   -18993   -28891   -11920      997    -1845    -4374 
   -9771   -17078    -5140    11061   -11735   -57007   -58468   -12752 
   22755    27062    23955    24630     9545   -15163    -7996    11623 
   -1431   -13608    12376    42580    23484   -26557   -33644    -8677 
    -982    12456    34731    29419        0   -20849   -12575     6042 
    5265   -11102   -23317   -14351    16158    39012    20394   -36603 
  -68088   -19415    61558    78036     3006   -74679   -63694   -10774 
    9107    -1555   -22319   -20236     7230    18129     8758    -8266 
  -17190     9612    38707    32837    26709    24335    11003     5813 
   -9343   -24734   -11542   -15762   -34981   -21084    20101    61742 
   50940   -11770   -49671   -54124   -39941     2211    21173    -7620 
  -14596    34030    69210    17730   -76045  -110979   -70958    -1443 
   63458   100032    67738   -34126  -100063   -64449    11198    56783 
   45241     4085   -31471   -60228   -43686     8492     9063   -27183 
  -29201     2189    25537     9402   -18389    -4885    45684    76624 
   50531     8561   -24929   -92407  -135122   -61376    31062    43434 
   41054    28278   -52444  -121161   -81838    23653    97127    74997 
   -6430   -46583   -43621   -36066    13852    61973     4857   -87347 
  -82956     3415    76947    72854    12685   -27251   -37789   -43947 
  -25721    13089    22449   -12843   -33461      151    23353    -9189 
  -37174   -36927   -44469   -26207    27041    44194    28530    10855 
   -8905     7551    42358    23564   -28853   -48058   -33536   -34628 
  -42647    -6465    50895    87469    80499    10627   -47047   -21878 
   17783    17300    18654    34946    24619    -9582   -21078      599 
   15165   -16297   -49137   -15048    44130    73242    77475    33160 
  -48412   -71182     1941    80983    62189   -28922   -83889   -77951 
  -49593   -12702    10524    -7136   -55790   -86802   -46098    44555 
   94639    70992    39433    47429    28633   -46510   -49632    48350 
   78175    13652     2633    36845    -6775   -87636   -63292    32614 
   35849   -23314     2285    53557    17022   -56725   -66237     7458 
   35252   -47528   -66426    26464    48509   -19569   -39789    19315 
   72593    34352   -47043   -69256   -53323   -29608    22099    71038 
   67760    -1320   -72852   -63732   -18990    -3736    15792    34013 
   10929   -24293   -29224    10971    46670     3542   -48332    -3595 
   54502    10597   -72674   -79589    -2983    66006    40147   -19731 
  -21891   -41251   -93316   -56142    39864    67433    15167   -44413 
  -48316   -20653   -16610   -15017     9144    22006     6643      583 
   18612    30198    20868     -337    -7778    -4153   -18459   -25348 
  -13720    -5711    12476    17836   -10712   -14273     6440    -6477 
  -13281    30159    63327    47730    20687     6046     5695    27191 
   60100    85455    91795    64026    22172    -1111   -24638   -42637 
  -20565     9525     4363   -16900    -4230    32244    13527   -45775 
  -56863   -31117    -4827    32462    55097    28210   -40084  -101283 
  -91565   -17031    47148    52776     3001   -60165   -90525   -93162 
  -84003   -54881   -27970   -13898    21467    59184    48509   -14478 
  -88939   -85745    15130    94208    91227    60853    27950   -18858 
  -63454   -43510    45874    89996    57229    45605    75011    72243 
   10332   -46650   -47201   -30094   -35654   -50228   -52434   -51752 
  -62255   -48659     9096    70274   101583    80464    14953   -51174 
 -105093  -100927     8419   121317   112402     4514   -87161   -91822 
  -51592   -23568      616    16808     -199   -28521   -19269    17034 
   10889   -30291   -34735    -9076     3330     3357    11412    44263 
   89718   111380   104537    93195    85680    85468    90624    81738 
   67487    48481    10640     9302    44556    40219    11061    -8324 
    3867    66857    96330    46927    20278    69238   129415   142298 
   95359    12285   -58206   -98821  -104973   -73001   -64230  -103893 
 -123322  -125119  -157561  -162700   -87415    -7538     1934   -35243 
  -64457   -64899   -72931  -111349  -114696   -59910   -39707   -93397 
 -141305  -102552    -4907    41496    23676    21168    48830    76204 
   55732   -16262   -41327   -17842   -32655   -23315    58027    88870 
   23330   -51363   -76936   -46338   -18130   -39262   -39052    -1042 
    1613     2169    32332    37206    57763   121073   125035    73639 
   26003   -73344  -183047  -155764   -26115    57262    87366   133785 
  166571   101109   -45844  -134709   -80157    24601    56802    44733 
   34616   -41207  -152640  -167529  -114473  -100471  -123020  -116336 
  -58757   -15102   -34115   -77376  -112120  -147243  -172832  -143014 
  -55512     -224    -1726    48720   154676   182480   102429    -2215 
  -55462   -49503   -56116   -90463   -85746   -48458   -33605   -44305 
  -48427    -1162    72603    99600   115484   148726   153897   164849 
  196356   205389   204128   174730   106888    65421    30955   -25038 
  -34480   -41193  -119082  -172228  -128503   -22222    83056   111287 
   94841   120555   160984   180706   209029   234604   223519   162538 
   49829   -40992   -40135   -13686   -27541   -35646     7998    38310 
  -32525  -155023  -241494  -284769  -271498  -190995   -86945    11570 
   93804   126420   118562    80167   -45863  -195509  -190750   -35218 
   87420    75131    11311   -13493   -35721   -66116   -37041    52276 
  113116    95486    76851   112095   134168   113105    70490     7365 
  -50604   -68019   -41728    -6142    -4789   -37941   -77683  -117236 
 -169446  -204564  -167189   -82729     1919   101216   185575   172461 
   51638  -100838  -192592  -182702   -92265    14357    32366   -42469 
  -85522   -88407  -111049  -127696  -154399  -201101  -196514  -109093 
   35456   151575   160645   106516    47127     -572     6593    66563 
  111468    93677    10740   -90836  -147332  -141353  -124270  -140510 
 -121801   -25625    22365   -48937  -135649  -146016   -91019   -27621 
   27658    82767    82629    14759   -22902    -3559     4972   -19604 
  -64233   -92610   -68378   -32745    -3651    50639    93960   115611 
  147704   150719   109325    65641    49338    79991   116758   108742 
   75327    37083    29677    74634   105837   109406   121085   100533 
   40302     3326    15484    54288    80576    86371    93900    92722 
   79203    89534   112945   102500    52644   -13528   -41928    -3732 
   32838    34493    53559    84550    88456    90162   110046   137110 
  173286   194981   174968   138038    88684    -5921  -121528  -180696 
 -141143   -34321    52066    47389   -41173  -175267  -284370  -260383 
 -118027    24910   131959   208136   241933   235110   198999   182776 
  250249   366233   405257   326925   185857     7206  -149577  -215912 
 -226932  -190819   -89290     1560    40514    54201    11399  -115697 
 -251708  -311480  -304749  -244686  -102433    55019   108522    55784 
  -47483  -158215  -206323  -153547   -47703    35730    62604    59294 
   49411    16268   -32028   -60700   -66814   -65881   -66654   -74147 
  -89694  -120712  -166919  -201575  -218516  -224388  -187552  -115342 
  -72026   -66528   -65925   -86432  -159648  -233668  -217848  -120108 
  -19390    51954   103172   115237    56458   -25227   -47466   -25778 
   -7811      515   -25747   -80438   -95461   -61545   -23174    10501 
   32204    39754    54957    59059    51486    86840   156151   203180 
  204341   164394   110951    65973    49264    70860    81896    35523 
  -58045  -170951  -260725  -276894  -242484  -260432  -369601  -502760 
 -598113  -609052  -472509  -178426   151659   340533   414049   509062 
  498625   276952    97229   100395   141205   196380   258618   182660 
   37389   -39301  -134410  -237890  -243307  -174509   -66575    33883 
   81643    94138    67824     3568   -87536  -205893  -290884  -277300 
 -169480    -6297   131206   185961   212781   244962   229062   151549 
   43021   -42573    -6766   137232   230296   249851   306387   363785 
  339614   273827   171960    -6754  -202381  -316039  -299924  -183656 
  -76381   -12181    90391   209132   221329   135560    40753   -33324 
  -44174    13749    77436   156830   249224   292130   287578   219383 
   72924   -45607   -75556   -79806  -100198  -115111   -77973    -6674 
    5890   -53300  -118863  -136494   -81244   -29515   -50175   -60678 
  -19907    -8205   -45727   -83324   -93414   -67907    -7222    47684 
   37246   -13743   -44343   -57310   -35721    39198    79084    14409 
  -73904   -91222   -71887   -63809   -24540    60655   143127   190908 
  183307   121051    40563   -24163   -46206   -11491    46036    46473 
  -23230   -74532  -113328  -220039  -332580  -367240  -343244  -269393 
 -162413   -83517   -83284  -154336  -185757  -107550   -27388   -18405 
  -17559   -15009   -37397   -53171   -57561   -56523    -9838    73687 
  131359   157432   170002   164064   167540   188893   176982   113741 
   17024   -98167  -192384  -224704  -192029  -121774   -70028   -67651 
  -70335   -59624   -68879   -65919   -10108    53731    88808    98659 
   82956    70000    86155   125509   193823   233308   146832   -18837 
 -156590  -264092  -372821  -456780  -452811  -344731  -198666   -82324 
  -12652    14620    17280    17689    14750    23475    71965   122586 
  128930   105673    68179    25702      924     9532    58862   118755 
  158571   213991   264643   194679     7339  -147232  -185361  -150057 
 -107400   -78309   -40625    19645    80123   125258   155659   160177 
  148414   147658   142126   112110    90379    99210   108394    80689 
   27106   -11318   -44633   -88227  -112410  -120933  -134919  -148132 
 -141841   -87328     4646    85568   134130   143434   105599    50078 
   39572    94336   168305   223295   245122   200136    94826    21535 
   23072    34886    32471    51398    85047   109476   123215   121143 
   95760    61111    27612   -28494  -101171  -135702  -123390  -113301 
 -116573   -94645   -55040   -44788   -51952   -17039    67159   145412 
  196304   249528   302435   283072   151507    -8617  -116708  -176494 
 -193990  -179771  -144745   -85013   -52505  -101574  -182891  -234527 
 -256077  -213733   -73962    76923   131045   104699    87525    73989 
  -16403  -114768   -79278    53742   143425   118706    21455   -76539 
 -169223  -235896  -225273  -147576   -29841   109532   226174   294710 
  335396   361845   348124   260590   101969   -57919  -136965  -164458 
 -211528  -243714  -235646  -239596  -229635  -169017  -137446  -143559 
  -94321   -15425    16800    23022     -351   -94894  -213784  -288339 
 -303573  -269462  -189959   -37662   161840   304030   337104   292820 
  229508   167385    70445   -51784  -116449   -75951     7596    46746 
   56754    73766    69920    34195   -30869  -105463  -122561  -102479 
 -131553  -182309  -180565  -131476   -80551   -45520    -3057    62746 
  100021    54773   -10015   -20137   -10859    -5359    41725   133965 
  198244   190718   147745   106604    88874   105339   118513   108810 
  114204   145088   171769   180592   153837    52398   -87801  -148500 
 -101848   -26161    41594   109628   144429    89896   -24655  -120195 
 -208936  -326932  -433389  -472853  -409301  -270513  -159875  -112494 
  -95143  -117585  -137281   -74864    25940   124279   226461   244576 
  146944    34643   -31918   -43082      639    80109   158665   166725 
   93150    17838    -1490    49242   130835   170005   167397   158845 
  139472   119699   110937    73651     6766   -43749   -81623  -104572 
  -95100   -89581  -100909  -116455  -164119  -234648  -278586  -282237 
 -235931  -152366   -80154    -8025    83801   146838   156439   122928 
   48235   -28780   -58056   -48051   -13525    53104    90612    32057 
  -56301   -94005   -95777   -83154   -49006    17821   102671   145366 
  125146    93366    30858  -117464  -232698  -185589   -79394   -34703 
  -26630   -40641   -96731  -134617   -75562    47908   163151   230742 
  211401   144671   136556   200700   273121   298474   245520   118457 
  -54209  -210980  -250530  -152146   -47483   -12727    50826   156940 
  177971   117352    42847   -66846  -159229  -149667   -97193   -76735 
  -69867   -53828   -42415   -53531   -83972  -104797   -94274   -58843 
  -12133    26824    30496    -2103   -32624   -19911    32205    69228 
   63054    52807    67594    68076    22685    -1887    61427   158490 
  197460   155061    67263    -4012   -17689    -4518      642    34227 
   96552   107604    41146   -53805  -133623  -159208  -112194   -40883 
    8993    58606   124166   170511   170174   126748    61804    16922 
   -1476   -15859      359    66139   129755   124108    38407   -47556 
  -56982   -23863   -14546   -38323   -77512  -124042  -174607  -208939 
 -202795  -143945   -35121    76959   137413   143560   119607    84908 
   44664    -5336   -53713   -84589   -96098   -85488   -56026   -34393 
  -42773   -70391  -106467  -163964  -230972  -260986  -230783  -147326 
  -17909   135438   253335   280215   220148   116599     6627   -75548 
  -84103     6774   143672   222355   219180   178303    80900   -66334 
 -159902  -171680  -138989   -54120    46813   109749   134245    88770 
  -39583  -178066  -261522  -266897  -214898  -174151  -166588  -112866 
   15707   110853   114997    65028   -21767  -103095  -129327  -101402 
  -35738    24364    46774    46934    29577      997   -16726   -28051 
