Origin Time       2021/02/13 23:08:00
Lat.              37.7
Long.             141.8
Depth. (km)       60
Mag.              7.1
Station Code      FKS007
Station Lat.      37.4061
Station Long.     140.9632
Station Height(m) 70
Record Time       2021/02/13 23:08:04
Sampling Freq(Hz) 100Hz
Duration Time(s)  195
Dir.              N-S
Scale Factor      3920(gal)/6182761
Max. Acc. (gal)   415.524
Last Correction   2021/02/13 23:08:05
Memo.             
[...]
  -40507    -3714    22121    -8147   -64628   -79959   -14734    59807 
   14872   -71593   -32419    36234   -16070   -67577    -6471    38064 
   -9547   -53145   -35797   -11543   -20136   -22456    -7507    -9475 
  -23124   -29663   -31883   -27470   -10062     2688    -7476   -23160 
  -34918   -42148   -13862    21620   -10971   -71898   -65255     1290 
   51391    26518   -42188   -48099     -148     8819   -15684   -25776 
  -17210   -12167    -4192     2197   -21646   -23291    10093   -10409 
  -51382   -13935    29204     5178     6528    19448   -41064   -56452 
   15681    14038   -67321   -76948    16332    69617    11017   -51407 
  -57166    -9212    58975    39352   -48371   -65721    -4642    30007 
  -20642   -97009   -77585     6403    20522    -7974   -34354   -61172 
  -16939    42674     2113   -64315   -59186     7723    76998    52666 
  -53993   -79265    -7227    -2100   -48983   -10199    36676    -9793 
  -29336     6140   -31667   -59599    31731    59733   -47975   -65833 
   25618    20069   -34823   -23077   -37988   -61462    -5978    32291 
    5334    -9237   -33808   -86308   -58214    23306    18390   -47519 
  -53400     2272      -69   -41197    -5409    30814    -5047    -8470 
    7842   -79964  -103850    52246    58489   -88216   -47403    41384 
  -23450   -51014    20495    13824   -42349    -7479     5017   -69399 
  -26136    98004    13460  -157998   -66672   120101    31999  -158529 
 -107169    54849    58348   -42704   -67595   -23002    -3583    14583 
    7846   -86028  -134438   -42139    61828    45262   -63306   -91222 
  -16436   -16730   -26841    70064    78078   -59851   -96164    41591 
  105614   -37424  -153532   -68958    49301    48281    11272     3868 
  -20938   -32032   -14806   -32648   -39550      -82     3424   -43399 
  -54307     9075    38327   -72755  -149856    25633   199329    45872 
 -167773   -88264   106844    79658   -96833  -107398    16798    54628 
   12445   -31666   -31307   -13047   -46870   -42364    42528    51352 
  -39608   -71486   -26679      957    -1037   -52501   -98146   -22679 
   76659    45737   -47461   -41703    33822    38872   -35189   -91407 
  -28343    73991    18830  -109979   -97726    -9512    -5446   -16275 
   45324    60430   -40761  -104523     4191    94632   -29956  -139875 
  -54039    39792     5904   -51053   -16616    33912    13864   -33659 
 -100291  -114106     2873    70988   -32728  -110344    20438   143422 
   -4246  -160197   -68492    17683   -39968   -43893    -1230   -28807 
   -6152    51706    -6026   -56708     7609    92332    78315   -56150 
 -102469    26956    67273   -79533  -143167     5716   104852     9132 
  -50068    17836    48427    13292   -62981  -142847   -57408    89162 
   47944   -77752  -124818   -31528   113972    57710  -107797   -90300 
   36938    54089   -45454  -112597   -26071    99519    52026   -65121 
  -79334   -56353    -6939    51544   -21092  -101370    20986   124660 
   22486   -50825     8889    73355    42044  -105432  -163352   -14027 
   74770   -39552  -115549   -21488    41753   -19766   -56548   -53990 
  -53040    33670    94326   -29335  -101696     1495    22301   -38881 
  -25154    -9128   -26847   -54490   -54413     5162    31005    38533 
   52569   -23523   -80522   -34533   -58214  -135248   -38326   117550 
   78057   -23455   -65025   -65592    28608    57431   -88320  -146299 
   -8901    64896   -26275   -93117   -67307    -5736    56931    38511 
  -70832  -135801   -65277    43608    69034    34991    -4931   -37697 
  -46080    15217    67516   -67127  -196894   -33240   160800    80996 
 -100091  -146867   -64288    34756    88450    49371   -75039   -95488 
    8023   -35106  -136689     1776   136361    23182   -69368   -22261 
   16463    11590   -13036   -20287    12430     -841   -65223   -43716 
   19469   -34826  -105131    -3332   120780    31312  -104225   -46491 
   89661    89835   -47718  -101510     4701    44183   -70141  -123745 
    8335    84614   -40667  -101640    15135    90660   -18329  -122281 
  -12646    80131     2783    -6320    57810    12950   -91944  -141121 
  -83587    27436    30173   -64793   -92997    -9024    98051    70031 
  -77547  -114776    10141   114054    55832   -65125   -94500   -92476 
  -46299    91840    81558   -95340   -82963    98890    66515  -149002 
 -130498   115650   132707  -117851  -192996    -9882    82883   -22453 
 -104746   -87581   -20356    95944    65172  -152305  -175988    37778 
  100631   -60895  -156963   -43868    83752    25942   -64548    20648 
  131600    45415   -88781   -35544    73411    44950   -37921   -32952 
   34534    29304   -59264   -75161   -13780   -48007  -117437   -45295 
   42393   -35214  -139100   -57386    89722    64300    -1953    73064 
  105980   -14650  -162733  -149779    80643   160857   -58491  -182729 
  -48850   105939    13300  -212699  -196769    52899   171417   -34234 
 -215025   -18309   202665    66762  -120924   -20421    94638    -8711 
  -70595    -6803    -5130   -37839   -15011   -51327  -115178    -3115 
  130363    60591   -64935   -93167   -50039   -14710   -35319   -47379 
   22038    91372    27546   -82631   -71799    34198    86528   -16152 
 -105860   -58682  -102710  -200057   -89656    68987    40471   -53781 
  -15648   106486   133263    28058  -115778  -142621   -36654      740 
   16885   129207    86208  -124572  -119966    66737    66155   -61908 
  -69173    -5426    47052    49478   -18245   -49947    -1810    40838 
   25699    10582   -17247  -130132  -160631    -2628    69620   -60789 
 -105230    -2396    40110    79812   130838      621  -144372   -20812 
  136308    38867   -93673   -69686   -48271   -61717    14270    81076 
  -26489  -147402   -74391    26045    -9375   -72136   -50071    66895 
  106932   -18205   -29659    68744   -35944  -171363   -61514    88302 
    4783  -215787  -194804   110696   206689   -48525  -181968   -53392 
   42124    35544   -29282   -85850    10881   104858     8063   -69248 
   14523    75924    11397   -33342    16425    19553   -48019   -85685 
  -97713   -36018    32554   -65897  -119963     5474    67774    33256 
    9694     5526    14552   -18090  -102045  -125770   -19895    43084 
  -90967  -141056    56304    95597  -131387  -148085    70024    70458 
  -39472    33987    75246    20680    31138    35290    19638    19849 
  -41652  -117395   -88664   -40841  -110334  -136785    33152   211764 
  221137    71281   -67819   -19194    14825  -134372  -120067    94758 
   40842  -154921   -79453    28392   -58421  -115354   -68287   -74505 
 -123822   -77335    -7533   -17294   -15371   -44065  -101592    71924 
  287325   100231  -191855   -95664   152601    89691  -171343  -180749 
   32623    94289   -27701  -114427   -22276   145183    98351   -78511 
  -47315    49530   -30407   -71034    49073   102413   -10336  -129913 
 -115796   -19566    24697   -12692   -35790     4547    -7054  -105381 
  -57988   148673   113816  -135172   -98515   126697    50848  -161850 
 -116836      882   -21072   -16413    56437    40486   -49828   -56858 
   -8897    -2141    29708    42845    -8284    -5983   -42797  -162250 
 -125017    64318   137088    39121   -23088    20845    22647   -48426 
  -50014    14948   -28436  -120478   -73486    29301    42562    -2122 
  -25667    -6415    30247    25152   -46028  -104919   -72496    19823 
   69208    60243    56308     2000   -88999   -66057   -62458  -187693 
 -150465    52065   119180    85925    35902    23507   168092   187412 
  -86470  -215147   -84197   -18354   -55943  -131102  -203022  -129285 
  -10027   -32538   -49818    45921   104134    35474   -84468   -59580 
  115671   103743  -100665   -91886    63774     6141  -105039   -22796 
   27687   -63567   -49165    45740    47928    25977   -70421  -173355 
   -1226   180210    31637  -130817   -51577    14219   -73051   -71813 
   63649   116180   102655   120265    64371   -99577  -175220   -88228 
  -41787   -82225   -38481    84828   187262   207107    39055  -178834 
 -126316    59948    41631   -42823   -19748    -8291    46670   119761 
  -13306  -177923  -152998   -65477   -21801   -42833   -69083   -44898 
  -18440    45290    84431    -7479   -30894    66879    66894    31493 
   67092    18751   -98197   -95801   -76598  -162992  -180499  -103262 
  -34795    27167   -20619  -187456  -276198  -200120   -75907   -68822 
  -93610   -13951   -16136  -104200   -19366   154819   238105   207331 
   36756   -83679    34625   118175   -43326  -121882    49261   107225 
  -85597  -227457  -184772   -81037     9161    67395    68514    26250 
  -22947   -65054  -121375  -152580   -78638    10261    18985    24296 
  133024   264530   134647  -136435  -146910   -41790   -73958   -76532 
   66157   197242   125939   -48979   -28370   111100    54553  -106029 
  -74631    71887    74534   -57640  -120327   -15300    69595   -32124 
 -125100   -51055    35589    -6637  -130799  -190344   -90127    -4894 
 -108876  -100038   212670   378885   127787  -141871   -76216    60316 
  -75235  -202876     4868   220188   101126   -99890  -136731  -150761 
 -170861  -124047   -12820   212310   309004    68222  -158195  -179440 
 -198959  -249296  -202444   -55121   113887   239329   216141    76263 
  -27461   -70138   -41153    50363    61093   -36986   -31333   133397 
  194046    73469    -3640    15221    16465    -4991    31761   138491 
   89099  -111248   -41251   203982   163301   -90942  -198259   -49901 
   71450  -108603  -348952  -318923  -181099  -198049  -193908    65704 
  303039   152951  -170193  -162946   171835   240642   -91292  -216514 
    2172    67724  -136423  -202576    17040   178115   146868    72702 
  -35158  -123379  -121096  -161369  -266222  -251890  -118780   -17235 
   21456   -24078  -122026  -136131  -122309  -139819   -59774    38666 
      11   -57177    -3376    80055    93322    92290   101794    84208 
   99676    54422  -201159  -375597  -183878     3929  -131632  -206647 
   -5980   129491   153292   225057   159245   -80331  -221826  -239090 
 -213763   -75294   117938   289565   469929   480586   208067   -71863 
 -163302  -158007  -106799    16164   160993   256685   172258  -110064 
 -179200    96766   169073   -69145   -96922   116858   200068   143444 
   73178     1126    -3725    10420   -43426    -1065   124914    37158 
 -160932  -166721   -99140  -101070   -87068   -56489   -26461    21608 
   70230   135294   119061  -110269  -345308  -291128  -101979  -162610 
 -401469  -396704  -149439     8287    39635    44020      655   -44562 
  -19963    12332   -38156  -126340  -175706  -162531   -43915    57479 
   24565    43981   104273    29220     1053   111682   145140    75011 
   69215   127560    55635  -127850  -133250   106807   392336   555942 
  472141   195019    33194    42534   -22312  -128057  -132413  -117534 
  -35963   173108   286134   198812     3101  -209264  -312973  -337692 
 -392615  -381189  -193903    63186   197865   141116   -30897  -141016 
  -71713   -18822  -138761  -206364  -141464  -126609  -123341   -42667 
   -2015   -49709   -69675    33536   181689   211190   130395    28727 
  -86238  -207351  -324741  -358738  -200125   -10402   -46547  -195165 
 -184652  -111084  -172159  -213746  -125912   -68747  -114559  -214203 
 -277172  -226036  -142491   -87893     9776   153822   235667   153923 
    2662    23168   187450   203564    28121   -92772   -47634     2011 
  -78866  -104775   100619   271490   128978   -95711   -80487    99961 
  244691   291300   240488   127473   -22931  -168860  -120694   141077 
  272699   160014    55295    85427   132644    33450  -134002  -114138 
  124035   365165   415317   309505   231740   223569   200461    68377 
 -162698  -226747    -7284   184294    99622  -162388  -270484   -72184 
   24300  -238557  -405460  -213094   -45089  -139927  -265627  -182421 
   78845   238373    88138  -107855   -41261    93430    68778     6755 
  -13210   -56816   -65670   -18771   -38072   -93888   -49112    42993 
   34024   -26947   -74481  -174875  -230547  -190487  -234140  -302977 
 -164237   117224   302090   316514   218008    62727  -101218  -224504 
 -237128  -173185  -153895  -175432  -226564  -261134  -163132   -14936 
   95401   169368   149749   119283   193112   328092   405322   276826 
   26365   -85830   -83125  -129615  -208889  -203369    18300   310116 
  246930   -37907   -28360   133268   138095   126226   155102   138774 
   28214  -134019   -74415   146917    79486  -177958  -236918  -191793 
 -230596  -312611  -358880  -235609    15281    24909  -213976  -264483 
 -125100   -55562    30436    92981   -89193  -278245  -164185     5287 
  -21833   -57917    -8121    21774    40859    25884    -7654    56637 
   93003    15930    24903    47188   -94006  -206693  -174010   -78701 
   18735    12337  -107154  -181390   -47066   243035   360805   139475 
 -132269   -94196   164686   240777    23107  -201964  -158638    30297 
  -32772  -351092  -504373  -270529   122711   183539  -112037  -104666 
  279695   302193   -49499  -124271    78217   152957    39398   -50537 
   -3350    28807   -42315   -93230  -112087  -105088    41460   189868 
  124402   -10929   -15384    81587   105701   -56291  -249658  -224986 
    6686   101262  -120589  -270806   -53229   309416   555535   544258 
  356777   261522   221909    92195   -76503  -317366  -499327  -256969 
  228814   419486   280490    76413   -21565    32823    51045   -92592 
 -268720  -316843  -167723  -124320  -456240  -670790  -298899   280917 
  423046    64646  -217377   -59447   248267   316744   141567    65708 
  205167   157251  -180162  -363464  -231022     8669   143779    86640 
  -17388   -34638    -8416    54509   121643    25474  -169211  -173789 
 -100519  -211525  -285338  -120555    65125    78444   -76442  -245420 
 -234039  -117081  -114321  -196598  -159571   -38088   -86792  -228150 
 -160746     -407    -6799   -33675   140421   379770   396143   140097 
 -210616  -493926  -564368  -374560  -118959    65034   178076   143312 
   63798   190799   386926   324522    66786   -65617    39852   222331 
  333358   377469   389756   381014   329778   148684  -125607  -254267 
 -216924  -215402  -140025   129185   286930   186399    11618  -146395 
 -156647    -5695    13563   -43432    29495   -24467  -260346  -413473 
 -510315  -517988  -304873   -88317   -66679  -132597   -83050   161044 
  340635   160934  -139988  -154124   -53544  -169409  -339888  -376094 
 -367504  -299673  -113618    50087    81386    55195    72332    84590 
  -13883   -73099    46826   156303   136847    54944    12809    81671 
  146679   147091   104455   -50502  -139501    -2740    55567   -74237 
 -101693   -79808  -281913  -509893  -372636    81166   447631   450350 
  288424   284764   289091    96928   -98271  -178960  -191897   -61567 
  132820   178708   132263    97177    41455   -32529   -86861   -77617 
  -58770   -88987   -70172    -3588   -38801  -149779   -97743   189865 
  445662   388562    25286  -293066  -222529    -9713  -115158  -321444 
 -193041    54478    76919   -49136  -154388   -59333   191512   164429 
 -144189  -263854  -131140    -6696    22852    53916   125911   126478 
   59813   101558   188630    17880  -304854  -295500   -23649   -21077 
 -277413  -393847  -287702   -81475    37988  -133457  -378783  -296161 
  -62764   -35376   -74977    27052   180680   243211   205153   138453 
   85794    71600    55143   -23401   -73615   -69437  -112347  -148104 
  -66906   113122   278300   310824   255369   200213   110447    19013 
  -26612   -79419   -89439   -26053     1599    -7864     5506    69571 
  227429   340214   228118    81424   109652    93145   -80148  -110157 
   52614   120887    32155   -14560   119616   239424   103517   -59077 
  -16699     -173  -180125  -360605  -344233  -196157   -58548     4998 
   21659   126322   237057    90039  -175289  -240442  -170659  -144063 
 -138739  -101229   -65050  -145939  -344867  -408168  -283169  -219737 
 -242221  -248738  -206967   -61070    12804   -92224   -66805    75954 
  -22881  -232595  -243698  -127562     2586   122487   131980    42964 
   10777    43573    10821  -111123  -225626  -216385   -52427    86111 
   33369   -44743    47735   161702   139307   129892   254480   375365 
  293826    13866  -178772   -80790   138025   164501   -54091  -152913 
   87916   277912   102884  -125589   -93841    22715    17394   -28973 
  -48355   -77511  -114894  -127569   -76114    24489   125794   223823 
  254492   183787   107797    27641   -46355     4979   132678   173894 
   56141   -62681    47594   150373   -42497  -199016   -46059   106742 
  -29545  -249732  -200437    57556   213057   171759    -8843  -181678 
 -138354    -4898   -79583  -235168  -211621   -85269   -32361  -143434 
 -345207  -377605  -172415    36933   112190   131824   116969   -28016 
 -221480  -247368  -132226   -67479  -120346  -189685  -119536    70647 
  143055    19990    12189   233188   272736     -770  -166122   -32288 
  154338   167628   -10131  -180272  -169363   -75785      778    29754 
    8259    71690   170790   126042    70981   164623   254274   188821 
  104876   139194   168225   140716   155175   160365    75942   -79128 
 -208537  -133965    60440    63400   -78124   -90851    15658    22440 
 -112055  -144634   -15665   -14250  -166460  -226012  -204949  -182521 
 -118096   -71031   -66083   -58659   -78688   -86905   -77915  -140924 
 -214663  -224458  -150590    16260    71411   -81191  -150961    16128 
  191289   149101     1241     9599   153697   207767    74461  -128691 
 -220384  -176968   -92091   -53723   -91337  -141520  -116323     9558 
   93092    -8086  -116625   -23468   114614    86069   -34880   -78426 
    2055    85867    16514  -114511   -87244    27702    37144     1905 
  -21931   -89735  -111403   -81540  -130101  -183865  -146668   -87158 
   -6981   110697   140345    94675   144106   209233   110925   -90432 
 -184338   -52019    80475   -13109   -80847    77544   230516   215416 
  139527   125679   186276   227367   168194    36442  -107248  -166234 
 -132181  -156593  -188898  -109645   -31768    24301   105477   132342 
   42707  -172932  -354883  -294300  -101548    12252    15759   -79388 
 -208983  -196383    13482   166285    64040   -79565   -63716   -32202 
 -121682  -240796  -235798   -98852    -1464     7217    74841   131239 
     121  -149293   -73916   119040   184925   132195    94526    71889 
   39897   -41618  -180618  -194499   -13746   139231    95759   -57432 
 -104208    19045    94137   -37627  -165843   -46835   162752   176171 
   31514   -29769    52931    75884   -50529  -117127   -65670   -34799 
   -4951    14873   -44847  -106793  -123399  -113333   -99070  -119349 
 -122853   -62788    36254   160618   211867   145836   152575   261529 
  228414    56815    -9064    51346    88649    61300      646   -67440 
  -94111   -82372  -120959  -187307  -160561  -113215  -158638  -134789 
   60431   190223   102246   -39502   -72203   -54671  -106166  -107200 
   29450    42834   -76086   -46384    26031   -79148  -256833  -260663 
  -31570   153129    69036  -105878   -73967   117805   128913   -52623 
 -107392    -5182    79944    92639     2816  -129864  -163167   -96333 
   15643    95947    50209    -4804    44528    45205   -71849  -116994 
