Origin Time       2021/02/13 23:08:00
Lat.              37.7
Long.             141.8
Depth. (km)       60
Mag.              7.1
Station Code      FKS031
Station Lat.      37.3364
Station Long.     140.8132
Station Height(m) 399
Record Time       2021/02/13 23:08:06
Sampling Freq(Hz) 100Hz
Duration Time(s)  176
Dir.              E-W
Scale Factor      7845(gal)/8223790
Max. Acc. (gal)   333.123
Last Correction   2021/02/13 23:08:06
Memo.             
[...]
    8897     8186     8384     9566     9913    10832    10658     8991 
    8885     8789     7429     7507    11151    14427    13348    13367 
   13898    10262    10378    15739    16704    15025    16302    17423 
   18430    19255    16744    15506    16514    15758    16780    17393 
   11454     6774     6744     5356     7079    10670     7812     5269 
    9837    12530     7344     4569     5508     3562     7497    13136 
   10407    11346    16393    15981    14220    13798    13356    12355 
   12699    18000    22314    19057    14959    15188    12507     4654 
    4938    13563    14031    14400    18173    10760    12035    19834 
    9535     8510    15003     5298     4957    11969     6563     4569 
   13890    21601    19207    15477    15349    12297    13144    16305 
   11075    12528    23650    21821    13396    14972    17270    16646 
   18709    19805    14679     6448     7250    10297     3161     2895 
   10675    11927    13653    11118    -2417   -10805    -7180    -3103 
   -3796     3622    19237    26461    22315     8221    -1601     3060 
    3882     7631    23889    30441    30630    33088    25751    19136 
   19307    15475    17763    21092    11300     3793     -994    -4622 
    6940    14445     6474     9520    18296     9518     2376     1004 
  -14993   -10677    18504    15718     9261    26308    18612    10288 
   20555    -1185   -24115     4051    29835    12024    11300    36015 
   18916      201    26680    25575        5    15782    22771     2269 
   17959    25829    -1197     9039    22123      390      576     6825 
   -2482     2938     9144     4365     6243    12576    13421    16781 
   25483    27006    13563     -799    10397    21350    16262    26734 
   21379     7619    24479    17020    -3144     8544    11920     6708 
   15233    19300    12576     9405    16140    17382     5205     1390 
    8233    14073    27684    23481     1217     7751    11897    -3442 
    5190    14423     1841     6280    28804    33484    26391    27220 
   29542    29589    30541    26055    11105    11511    24511     6488 
   -8195     4954    -7360   -16465     8818      129   -26161    -2920 
   15739     6581    20873    15157   -15331     -322    16692    15670 
   36975    38151    19407    24513    34619    24931     7704    14544 
   21957     3657     1941    15028     5859     2077    25292    22823 
   -3287    -3936    -7877    -4974    17339    10806     9760    22736 
   19562    28806    22153   -10752   -10740    12066    19699    12846 
   -1649    -4361    11496    22852    23716    17563    14519    24147 
   26654    19865    14377     6338     6224    16646    16656    11207 
   21072    14671    -8324     6585    15364   -12372    -2878    18171 
    2305    12006    33737    11275    -3624     6555    -2115   -11029 
   -4322    -7616    -5697    21014    36909    33417    40566    32184 
    4033     7096     8567   -14698    -6828    20514    31395    27689 
   19859    28075    31491    15618     7005     1657     -534     5155 
    1858     6836    13991    -3032    -1321    17481    15993    19410 
   18276     1609     1699     7360     -496     3986    29139    34518 
   25687    32962    28914    16077    11284     3291     6534    12503 
    6647     9675    23290    26354    13852     9032     3711   -11178 
   -1039     9715     8850    21560    17334    14793    16224    -8495 
    6160    40927    25367    14813    25392    18507    18432    32175 
   23020     1404      540      988     2011    19437    17776     5803 
    7473       -4    -9818   -17012   -11423    11377    11824     5744 
   18435    28263    20202    -7723   -19928     4622    27958    24493 
   18472    19753    17001    28880    22968   -11983    -9184    17436 
   30528    29016    24059    29162    21741     1012    -8723     9563 
   18307    -4432     2655     8706    -9470     1669    21316    39795 
   33878     6991    19859    11106   -17722     3019     8502     5020 
   42606    46669     9062    13946    15142   -29520    -9447    35502 
    3437    -1597    31278    18477    13224    36003    40851    13284 
  -13198    10719    25240      795    10447    26369    18225    18462 
   10154    -4406     -693     9533    16374    18688    -5290   -24052 
   12488    34211    28752    46111    28687    -4187       -2     6637 
   15219    10997    -7835     3396    14229     5553    14959    26280 
   32722    43395    29639    12024    12556     6110     2490    16044 
   22887     2131    -7103    15565     3460   -17590     5775     8964 
   10897    45696    47968    21629    -1243    -9409     7623    13400 
   -9369   -22180    -5414     6527     1885     9217     4945   -15538 
    5861    28035     1128     4777    34635    16495    10704    53149 
   57195    21043    16783     8627   -22563    -8159    18681     8314 
   13263    38138    40778    31135    24846    11118    -4654    -5435 
   -3585   -14238   -13770    13089    32032    28259    23674    17055 
    5867    -1012    -6490   -17023   -11986    19326    15498    -3869 
   31414    40123    13693    44923    57210     -372    -9571    32310 
   17321   -20371    -7196    18623    13286     5775    11186     -220 
   10748    38940    14435    -8699    -2782    -7129   -15661   -17730 
    7781    27318     5792     3738    28919    18428    -2802    16348 
   17890       21    30304    47706    24649    29054    43893    33035 
   12244    -5036   -14312    -9621     6079    16810    18048    13421 
   10635    11338     2994    -4950   -14747   -12911    21732    19147 
  -11669     5252    25990    43713    47306     -535      251    38807 
   19317     3218    14615    19772    33670    33786    10693    12258 
   23113    18929    31718    15311   -34308    -9042    41798    20726 
  -13343   -24846   -16093    16977    22337    -2111   -13176    -1556 
   18875    18689    11550     8583     5800    21660    22905     3369 
    9312    20434    13171    22401    45192    42303    38153    40252 
   10851     1066    25127     8473   -18107   -18133    -9811    11831 
   11735    -2905    -6062   -10800     6934    14157    -8426   -10343 
    7763    30915    18353    -9811    12811    16243    -6164     6095 
   15307    27757    46380    31876    22427    43078    35012     1680 
   13743    28464     3828    10261    21270   -11701   -11435    16312 
     857   -17003    -9444    -7152     6991    23180     3701      517 
   21541     2115    -9300    12609     1918     3971    52636    58564 
   27276    37223    52301    26042    17637    35351    15849     3661 
   21717     9223    14570    28426   -12256    -9080    28297    -7963 
  -41476   -14131   -13952   -33724    14759    54380    25982    21209 
   33693    20718    10484     3881    -7754     2455    21725     5410 
   15102    48203    23344    29627    64497    34346     5188   -23364 
  -41377      332     2686   -15414    28435    36459   -19468   -13529 
   37287     7075   -17586    32379    33828     3042    -6690     -504 
   40099    50633    53356    67257    23105     3778    23903    31811 
   41044      726   -23364    22194    14625   -38415   -32730     2654 
   -7573   -21949     8097    18010    -2042    19615    44258     4090 
  -16995     2739    -2435     9617    15781    -1377    17181    24381 
   11604    -1019   -13724    20613    46306    30865    40976    30384 
   -9848    10534    50976    39187      758   -13343    20382    41917 
   14316     2830     6451   -19434   -20498    14937    10539   -14719 
   -9178     9296    28663    40981    38095    15029   -11631     3882 
   19712     3543    20279    42476    30616    33706    35387     8351 
   -6561    15086    26885    -7283   -10716     6558   -33893   -27773 
   28574    16749    12576    33863     5398     -249    20942    -4981 
  -14432    15341    18395    17286    27878    22918     6542   -16371 
   -8733    25678    14841   -14017     1436    20611     3723     3942 
   41060    29616    -7724    39035    66987     3856      415    25253 
   -3526    -2436     7358    10150    43299    49422     8964    -3804 
   29343     7103   -53936   -35618     4450    -7709   -13869    20664 
   21833   -22761    14602    68675    24745    22180    40675    -3904 
   26333    64571    -6462   -17760    43051     -531   -35681    34167 
   14848   -31367    15786    17814     8622    27946    24042    40578 
   44500    13637    -7322    -6991     1953      751    13983    43309 
   38770     5625     9157    38448    27750    11165    14823    25191 
   39164    16235    -7080   -13180   -20121    19114    44776    22547 
   11746    15391    24563     7992   -13605     3937    -5242   -33208 
    3321    32826     6268     3816    10617    10224    26678    23587 
   26856    35403     4869    -7025    23112    39946    17632    -4681 
    3025    10882    19244    18900       94    -2293    10554    33511 
   37640     7978    -7618     -585    15190    12145    -1609     8648 
    9616    10854    26086    12594   -13242   -11145    20615    30129 
    1713     4144    17351     1339     4789    16038     7952    24063 
   49951    33311    19282     7535   -44764   -27853    49472    32416 
   -7069    15878    18199     2029     6721     3600   -10485   -19083 
   -6615    15624    12529    18608    40378    25181      -75   -19662 
  -30447     9863    53447    37192    21076    47224    28757   -20100 
    3580    32755    13868    -1890    -3878     5945    11191    19558 
   21433    -8087    -7870     8375     5772     9103    -1105     6891 
   31779    24198    10008     -731     2774    27406    29227    17510 
   25417    26669    25942    40063    33370    11709     3682    10484 
   12915     -475     6458    11002   -10085    -7634    -6484   -11227 
    7501     6876     9999    31028    27126    34403    29747    -6652 
   34878    92689    29324   -26824    17196    40273    29609    52265 
   67212    43006    26361    48706    59952    27403     1746     -105 
    7612     7121    -8294    -7620   -10416   -26626   -28732   -25243 
  -27600   -39683   -34084    -2982     4313   -16777   -33149   -50367 
  -54592   -17343     4576     5782    27151    18810     8989    35128 
   28127    -1877     2884    37265    46603    34311    56328    46080 
    7491    31820    32165     2759    23251    21384     3241    28622 
   38396    17280    23784    27278     8302    38631    45351   -13055 
   -1201    29058    -2431    -6529    11414      176   -12221     8965 
   42429    38186    18736    28838    41064    32464    26995    20202 
   11566    33388    53867    46110    65206    86782    44636    20730 
   56988    47331    25300    75361    81187     7666    -8260    23895 
   14485     2371    27994    39653    20461    11873    12582     7670 
    -657   -17626   -25683   -30065   -55679   -63709   -45512   -56388 
  -82147   -89972  -100237   -97664   -64714   -34071   -14100     4202 
   13574    11820     3628     3802    13455    29188    50935    42849 
   28478    45635    24799    -8546    13261    12502    -8128     7295 
   10777   -10648   -30566   -31507   -29826   -47429   -40396   -17675 
   -7800    13506    18052    -3883   -18652   -26006    -7461    14488 
   -8193     1152    53794    42635    26470    59190    42090    10454 
   38596    56976    39568    20044    -4023    -9714    15163    10856 
  -22304   -11803    28440    39051    25076    21435    40549    62846 
   67730    81846   106748    82416    46539    54379    38475     4800 
    7495     8868    -2296   -21697   -38126   -24823   -37274   -47402 
   15241    35492     1591    36535    72098    56303    61911    61221 
   53573    77546    72846    41350    24331    25375    67436   110990 
  115739   101669    68748    40076    49351    74097    76215    70630 
   99223   134322   135558   134796   137270   108895    77429    55020 
   10867    -7217    19271    -5946   -66175   -64266   -77616  -144582 
 -155229  -155201  -200678  -202333  -183280  -190084  -160157  -112207 
  -84739   -52774   -44998   -50935   -54083  -107113  -142199  -115057 
 -107616   -93051   -40836   -15614   -21860   -25089   -15795    -3958 
      -9    17830    43086    50982    61183    74852    79038    76435 
   71690    81811    98196   102456   100988    99801   102382    98352 
   84658    77647    60345    19739    -7080     3469    32374    46203 
   44162    59113    70529    42017    13122    21292    33227    25648 
   35390    59235    55705    45594    39359    30460    51220    68095 
   41476    34685    63605    66009    59200    96255   117653    81427 
   73561    94770    73572    40292    24999    12499     9941    22450 
   28406    22712    22198    14400    10439    27222    15340    -7275 
    7168    -4654   -35036   -27008   -58482  -122544  -125351  -124332 
 -128302   -68312   -31506   -58843   -61677   -60907   -77812   -54129 
  -33629   -57345   -63811   -50778   -58122   -69465   -76744   -93978 
  -96948   -69593   -54868   -50161     4257    68808    89212   103920 
  100454    65871    54773    54390    40626    34156    28539    31434 
   48940    55509    57339    60400    47692    34400    44564    63792 
   68763    73292    98304   122157   132436   148248   162247   166688 
  180991   206855   221140   214466   196380   182452   180800   165056 
  142241   157360   172944   157700   152782   151256   127363    77664 
   11165   -30176   -48427   -81361  -123207  -164293  -203238  -231904 
 -265107  -308796  -326508  -314953  -322652  -337247  -303898  -258466 
 -254934  -242106  -191478  -164544  -154869  -124610  -117278  -130810 
 -119832  -118674  -142350  -131919   -91098   -73033   -41937    13455 
   16275    10686    54499    78247    89941   120349   133130   156666 
  192292   194198   194310   194219   162598   149856   165819   156276 
  144653   158926   153648   127807   124912   123847   101009    94957 
  108643   111672   121756   138357   123075    95692    99809   102965 
   57531    10029     2968   -22449   -76519   -99770  -105611  -112841 
  -90733   -35905    27059    51587    20217    -4182     6212     8086 
   -1652     1382    -6826   -46429   -77064   -79459   -75702   -52045 
  -25786   -31788   -13159    31905    42681    43447    30314     2577 
   29651    81785    89019    70525    65119    68821    52807    36381 
   31808      943   -15726    11287     6957   -29677   -48211   -55267 
  -48193   -17928     6608   -10805   -36981   -18581     -815   -14731 
  -15965    -1287     9163    10025    26050    73197    72600    17961 
   -4838   -30496   -77784   -92369  -102851  -119348  -110932   -88735 
  -66866   -52955   -27835     9364    32640    60901    72887    49833 
   41459    45169    41153    37114    30748    27403    36529    60324 
   66699    47602    52157    59850    49688    66988    76126    57726 
   71074    88101    76311    70924    73498    73314    62436    35260 
   11712    -1215     -826     1618   -16571   -16490    12820    25458 
   40257    60713    57275    56452    42862    -3456   -24414   -14771 
   -3190    13470    16205    14744    31135    29894      502   -10035 
   11522    17061    -4468   -10770    -9385   -21431   -21755   -18742 
  -39895   -49682   -32888   -32131   -44732   -59663   -86682   -95575 
  -81695   -75535   -74956   -72862   -67171   -35861    24240    59787 
   52960    61631    86836    91012    95048   105699   110367   110323 
   87061    66904    85059    84252    43695    21405    17194     4878 
    7214    29458    37189    32027    54927    91980    89106    70437 
   63589    29343    10998    51131    54378    10010    12864    26643 
   -7435   -15314    14264    -6115   -41202   -16717    21114    37083 
   46946    48336    46993    24696   -28065   -58453   -64011   -79316 
  -91663   -94367   -88790   -70112   -59668   -70372   -87899   -99438 
  -90274   -60863   -45057   -56473   -44616    12777    53184    71437 
   93646    83008    88422   145127   148046   115705   123144    80657 
   14278    53438    75940     -777   -13697    21315   -19003   -64161 
  -70858   -67240   -31834     7562    32351    69685    84940    67691 
   71502    99257   100813    58504    14800    -2110   -25057   -61873 
  -49087     7156    11707   -18836   -15724   -36464  -110879  -139043 
 -108973  -109263  -122659  -110899   -97978   -82115   -65670   -36818 
   11915    37157    54920    83072    75232    43445    34296    55923 
   86205    98585    96900    78179    58779    71894    76765    55968 
   48897    50310    38627    17057    18705    54652    67801    49241 
   56327    53532     9472     8186    33995    27711    38306    50934 
   28624    -3308   -39467   -47163   -24560   -26327   -41145   -60714 
  -81005   -46673    -4814   -13925    26338   106326    93275    59975 
   78564    36643   -34956    -8133    39167      433   -62066   -84586 
  -94157  -102616   -72010   -15738     -355   -14886    -9339   -16340 
  -55995   -42140    44851    95335    83566    70216    41083    -5236 
   -2392    33481    49010    53179    53376    44278    15364    -5393 
   20368    37242    29492    48864    74526    90070   101795    87281 
   70962    85386    97467    75207    40873    19481   -10031   -42244 
  -40756   -38223   -52010   -34759    -6440    -1775    10422    16059 
  -18447   -54232   -60502   -48892   -51965   -77691   -47667    28495 
   29737   -11084    -5339     5004   -16212   -36914   -33662   -16195 
    9263    51304    89496    95474    73234    50310    54521    62920 
   42427    30942    53366    65801    52574    41029    32665    22777 
   30187    52913    58816    26434   -24201   -38099   -14793   -14276 
  -15732    16920    18277    -3254    29493    70213    66993    54395 
   43870    31969    25254    20336    18272    16216    19418    23588 
    2473   -24938   -18592    15168    37675    39096    40232    28989 
    6643     2668    -8947   -44598   -53310   -30262   -30888   -51707 
  -48479   -33303   -28929   -22810   -20602   -25465   -22843   -28314 
  -46163   -44595   -22599     4592    45989    78086    84380    96492 
   75146    -5256   -42947   -26061   -43698   -65788   -47206   -25174 
   -1826    26434    46500    72144    89476    82988    74860    73379 
   64215    38011    26488    48085    37936    -2315    12785    24471 
  -27272   -35613   -14725   -57836   -84894   -57088   -51464   -47441 
   -3694     3303   -36975   -11786    14068   -45619   -22806    53608 
   12494    -8706    40003    30528     5277    15417    31000    36382 
   48475    98323   122627    85449    78854    90297    57523    45072 
   56380    37999    46059    79401    58311    25828    25161     7393 
  -16821   -27498   -51624   -66548   -47164   -17686     8089    22056 
    5059   -21132   -20434    -8348    -1024    12087    29550    28467 
   10686    21078    44359    32478    13531     6743   -21181   -56311 
  -43646    -9414   -11681   -15049     5003    19369    37717    53846 
   51599    64881    77909    51557    33740    48899    43097     5116 
  -12249     6443    14320     4666     2686     1436     5549     7770 
   10006    36825    46055    34028    38604    23423     -244    -4151 
  -16179    -6454    22338     8949   -17444   -14974    -4201    -4341 
   -6424    11353    30766    21363     7030     9857    13606    16715 
