Origin Time       2021/02/13 23:08:00
Lat.              37.7
Long.             141.8
Depth. (km)       60
Mag.              7.1
Station Code      FKS011
Station Lat.      37.0911
Station Long.     140.9035
Station Height(m) 165
Record Time       2021/02/13 23:08:07
Sampling Freq(Hz) 100Hz
Duration Time(s)  206
Dir.              U-D
Scale Factor      7845(gal)/8223790
Max. Acc. (gal)   236.281
Last Correction   2021/02/13 23:08:06
Memo.             
[...]
  -32312   -50441   -31908    -6481   -10862   -36621   -50973   -30094 
   15642    44779    36506    13905    -7173   -33709   -57325   -59094 
  -34111     1989    21212    14652     3886     5967    11337     7516 
   -4459   -20401   -32595   -28367   -10570      727     -658    -4774 
   -2451    13849    33577    24094   -28283   -85880   -88080   -20056 
   62244    91093    58671     4224   -45966   -80184   -83177   -58110 
  -18609    32117    65294    47819     3585   -38175   -73942   -77148 
  -31666    29575    69731    65855    21146   -19985   -38445   -52373 
  -49821   -15071    29204    52385    43534    14391   -11842   -18434 
  -11676   -12472   -27552   -42229   -33470    -2614    19414    20127 
    3754   -29250   -54194   -43341    -9543    17967    23483     7404 
   -6520     1256     7643    -6323   -25084   -42326   -44470    -1506 
   60237    72308    27163   -22816   -44420   -32244     8279    46948 
   54260    36270     8384   -27711   -61763   -68929   -41748     1615 
   38114    45804    26337    10274     1799   -21325   -42662   -26036 
    5629    12973    14215    15286    -9508   -38246   -37374   -22651 
  -14044    -5351     1269    -5319    -9757    11439    36027    20065 
  -24732   -45793   -26677      233     2421   -16237   -31221   -35078 
  -37342   -29123     2601    33324    29490    -8861   -46421   -40896 
    4585    37660    20629   -30430   -67579   -50949    14710    69134 
   57801     1471   -47212   -72535   -68864   -34237    -6258    -8233 
   -2384    34465    59479    26538   -46414   -91291   -66560     1165 
   59034    73549    37451   -28086   -75073   -65979    -8919    51867 
   61105    10654   -35383   -33636   -13363    -9894   -24127   -37415 
  -19782    44243   110073   102548    19722   -56481   -75103   -65380 
  -55661   -29335    12106    34323    34659    38921    43841    16582 
  -46662   -88476   -50080    38638    78367    30002   -40703   -62079 
  -33174    -4561    -8114   -17860   -12514   -22484   -42942   -14585 
   35078    15500   -43197   -42795    13860    61184    64642    28530 
   -5433    -6384    -5356   -28161   -40797   -12631    31496    47556 
   21809   -36529   -99582  -114324   -66642    -9092    19943    25714 
   13938    -7627   -14284     1215     8829    -7375   -16379     3314 
   21097     5644   -15526    -3761    21153    29482    13575   -34643 
  -77876   -60959    -5763    30191    32051    12024   -12490   -16991 
   -3700     4599     8490     4658   -12258   -17410    -2112     6180 
    -248     2246     8176    -8716   -30570   -36779   -42319   -41931 
  -19678     5155    11279      855   -16648   -27144   -29010   -31858 
  -14257    30477    36139   -23406   -68451   -51220    -5746    38610 
   62618    49276    19357     7029    17793    29987    15839   -22149 
  -38608   -10793    14813    -3674   -42930   -58891   -40046    -7612 
   15673     7929   -31576   -43171     3102    40641    26742     3855 
    1449    -8426   -21203     9925    49381    23969   -36304   -58857 
  -29457    18862    41434    10195   -58413   -97391   -56454    22071 
   55332    27436   -13139   -35742   -44039   -26546    21388    47675 
   19214   -17550   -16121    15853    42496    35862    -6539   -61145 
  -76292   -33492     2859    -6941   -19354    -4226    27288    50013 
   29115   -24457   -48544   -25650    -4010    -3744     5992    20930 
   11732    -5657    -8000    -3246   -11488   -42218   -69565   -57777 
  -10222    39060    61003    47312     7927   -40913   -84531   -93800 
  -40797    42357    93255    88693    30613   -46024   -70252   -41733 
  -31388   -33812     4012    50476    59192    43425     2435   -56805 
  -72347   -27450    18094    30508    18515   -20480   -63479   -59811 
  -27645    -9980     9482    37008    43617    11840   -52799  -109939 
 -102567   -20063    70430    97337    68396    25782   -17636   -61909 
  -87322   -62283    10401    77797    87571    55722    25400   -20845 
  -81184   -87137   -27139    33303    36391    -5238   -20605    -3499 
  -15469   -49721   -50861   -26561   -19336   -20007    -2890    13481 
   19411    26439    15392   -17316   -30649    -9984    13077    17722 
   13787     6373     -909    -2050    -6594      463    32435    49966 
   39334    13494   -35017   -66919   -47074   -28624   -30790    -6203 
   32795    35252     2411   -23658   -18292   -13786   -37102   -45017 
  -16495     2724     6490    35360    64106    28036   -42942   -63593 
  -27989      511    -9944   -25902   -24964   -19781     9618    64142 
   64620   -17126   -89343   -88446   -50583   -16773     3651     5648 
   -5294    -3231    35627    73522    42499   -24190   -38884   -19664 
  -32637   -56180   -37700    11693    51277    55678    18810   -34499 
  -69388   -70703   -39307    -1270    19785    38866    50040    25016 
   -2547    13686    38387    27449     6709    -3912   -22661   -44685 
  -51382   -38001    -8996    11813     9107      499    -2431    -1219 
    -884   -16951   -39923   -36644    -2440    39101    59683    42506 
   -5795   -57892   -70610   -24834    36790    51009     6940   -30530 
  -11596    19126    16546    -3865   -36629   -83064  -110404   -89164 
  -29791    30917    61453    47952     2002   -35595   -43549   -38724 
  -26060     6419    52547    80061    71211    49169    23832   -21456 
  -72751   -85760   -42990    18172    49936    42242    12789   -23350 
  -57893   -67795   -40483     1753    39648    54957    28856   -17714 
  -40589   -21316    14102    32390    39491    42931    19290   -27480 
  -48413   -31091   -29147   -68948   -93384   -58973    -7549    25348 
   44551    23106   -44080   -86919   -62866     3094    76547   114678 
   83712    18052   -19221    -8633    23274    26590   -12523   -43363 
  -26985     7541     1181   -51196   -82429   -55723   -11213    18482 
   32879    11171   -44024   -65808   -32768     8067    37405    46399 
   27707    11109    12424    11268    -6451   -32071   -42673   -24715 
    7129    30028    27567   -16031   -78502   -91612   -35811    27387 
   46472    16297   -38203   -65797   -44722    -1640    29389    17425 
  -29204   -49486    -9038    46836    47050   -15593   -69454   -47632 
   17937    38064   -10951   -79987  -107032   -68943     -837    65888 
  107485    80682     4272   -37793   -18299    15153    30365    37039 
   35842    11221   -21390   -18735    19431    40601    28422    16144 
    9720    -6340   -18353    -6193    17366    24340    14073     8819 
   -1490   -46036   -92514   -83660   -30969    15561    30728    12510 
  -29852   -73192   -81480   -38873    12302    26982    25974    35221 
   39609    31372    19862    15711    24760    32914    26794    13452 
   -9644   -52983   -85837   -69882   -36880   -21995     1210    21778 
   -1887   -32190   -27626   -15668    -7319    11178    17821    -6616 
  -35310   -42950   -30823    -1869    26165    17435   -26968   -50662 
  -23791     8233    12391    14640    22833     6770   -34263   -64358 
  -59391   -23039    14428    24389     4432   -42144   -88458   -88099 
  -44051     8164    51456    71486    61420    33875    -5112   -45654 
  -48918    -2717    35858    24185   -11107   -28031    -6328    26878 
    9560   -56050   -90228   -58707   -18550    -5429    19263    58950 
   61954    30118     3369   -15718   -34607   -43240   -38848   -23751 
   16657    69264    67656     2582   -48072   -42545     6720    70065 
   82468    10515   -84055  -116035   -59273    40593   109134   104882 
   47972   -12210   -51283   -53268    -5725    39016    19145   -34122 
  -49370   -19257     6077    14273    38308    69553    65884    16552 
  -45021   -71675   -61032   -40431    -7303    29614    31533     7418 
   -4896   -18665   -41623   -28614    13896    18808   -10891   -18538 
   -8495   -12105   -12560     5827    24151    26315      727   -42792 
  -58047   -28576    13938    39484    29119   -11792   -46472   -44964 
  -10665    16860    10558    -4569    -5154    -6984   -32081   -63059 
  -62131   -33910      288    38692    64458    53079     8591   -38697 
  -62452   -67378   -61052   -35874    -8874   -11896   -35831   -38902 
  -16918    -6336   -12468   -17305   -22381   -25440   -17216    -4199 
    4330     6941     2605       60    21901    70487   102425    77641 
   29605    10800     3553   -18405   -44224   -65080   -59822   -24954 
   -1543     1379     4357     3096    -3357   -15908   -60569  -112270 
  -95794   -20730    42996    81888   100807    75312    10285   -36336 
  -21871    27645    50881    28723     2076     2322    12399     2004 
  -28001   -48613   -50350   -43750   -36054   -34412   -40964   -59142 
  -74540   -55925   -22898   -11626   -11673   -12852   -12718     4735 
   36244    61739    78243    86300    73610    49079    30491    -2184 
  -60282  -107067  -103586   -45245    31163    67664    29789   -61514 
 -142593  -162008  -109817    -8275    93356   138341   105937    26065 
  -51370   -90421   -92429   -76418   -27518    63903   134131   123718 
   75112    46705    11352   -48301   -73843   -40844    12110    58144 
   78533    50055   -12883   -64424   -81463   -77723   -70618   -51410 
  -14979     3774   -22388   -56943   -44516      426    21289     8140 
  -14499   -20848    -2771    11213     -881   -34126   -61908   -39019 
   29448    76820    65857    23577    -9529   -12838    25628    80395 
   88808    42777   -15623   -73608  -117117  -106385   -39491    44165 
  103252   108391    67051     9327   -51505   -98008   -93279   -36420 
   17304    32757    33482    36933    25272    -6112   -46687   -79388 
  -68918   -30805   -27610   -52694   -58637   -42801   -16386    19298 
   59198    94983    97984    36320   -59472  -113590   -94065   -25188 
   53725    94027    61786   -11408   -60106   -74866   -87872   -93339 
  -77908   -58156   -26775    26175    60342    42268    -2380   -20980 
   -3416    11522    15846    29590    51853    86994   124775   115487 
   41335   -51247  -104734   -99392   -53877     6022    52247    45307 
  -16407   -65156   -48988     4055    36171    29080    10957    -2567 
  -18327   -37366   -62336   -68405   -32184     9294    27089    30759 
   29766    23132    -5224   -44194   -55748   -31639     9852    35851 
   33662    27496    21182     2060   -37170   -91746  -121194  -113440 
  -90134   -27028    68858   120005    99208    42446   -13705   -62363 
 -128995  -195723  -193895  -100367    33975   123426   126395    73107 
  -10049   -92907  -112293   -67464   -23499    -4899     9292    34985 
   58881    57565    38460    16968    -2736    -2047    24821    47525 
   44591    24051     2768    -7186   -13359   -36355   -70897   -81330 
  -48621     3541    51545   101196   134662   110077    44948    -2759 
  -12729     7250    36876    40884    14823     -194    13671    23687 
    6180   -36585   -92898  -124205  -102818   -59514   -30777   -17370 
  -15998   -29982   -40475   -17594    19083    23226     -940   -24750 
  -30141     2986    59753    92210    91366    79517    60594    40039 
   26526     4500   -25859   -33087    -9923    17239    22410     7160 
     970     3538   -20633   -68018  -113841  -156258  -178351  -148537 
  -70613     3439    31191    33720    42044    59367    90240   112716 
   92626    62089    68499    85252    62067    -4018   -77256  -121228 
 -129184  -100724   -27868    47875    59967     7935   -53721   -85970 
  -94103   -84553   -44803     2253    22666    27067    27515    12199 
  -19905   -33902    10930    81175    92932    30496   -55420  -127264 
 -166203  -151453   -76453    11950    44840    29853    13293    -7307 
  -28833   -30088   -17541    10925    58283    88700    79766    53339 
   28674     1313   -34971   -61635   -54022   -38815   -58473   -91589 
  -90813   -54148   -16321     1513    14284    34492    43420    34361 
   17614   -15253   -37369     2203    66399    90495    91628    99921 
   93013    44263   -27927   -75471   -78148   -58634   -35063    -5238 
   20788    23132     3038   -16075   -22520   -46453   -98610  -125621 
 -116430  -106847   -83207   -42997   -13537     6826    12785     7010 
    8058    -1776   -13136    16823    61300    70424    55143    43098 
   27791    -6679   -37014   -50479   -85577  -127253  -116803   -65944 
   -7075    51992    89577    89166    61996    37411    31347    33366 
   36748    37674    31162    20614     4159   -16807   -24025   -15799 
  -24725   -63300   -99694  -105471   -65175    18324   101279   142908 
  126067    38785   -83690  -154368  -122111   -20127    76545   109880 
   63771   -24316   -85716   -99860  -103638   -98150   -52853     4255 
   26685    38909    84932   134685   124050    61836     9247   -13111 
  -19340   -17587    -8827     2624     2691    -5551    -8194   -22482 
  -52573   -61803   -39320    -4174    30933    45881    20976   -30049 
  -63860   -52578    -7037    47542    81427    69668    15804   -57181 
 -126102  -174862  -193652  -172693  -104159    12947   142080   207459 
  186536   125787    49665   -34052   -90726   -91767   -36894    51595 
  119789   108279    28354   -52130  -108764  -140051  -123309   -76735 
  -36915   -10230   -10027   -30754   -39756   -33153   -15264    22076 
   58232    49966     5259   -25058   -32687   -30909   -12796    16494 
   43642    57870    54102    45943    37376    23545     1318   -34580 
  -41183    25195   108367   139533   122370    72048    -2193   -86150 
 -176180  -246460  -253455  -193791   -99920    -5454    70289   110265 
   86576     9405   -58488   -80967   -68966   -24337    57154   144123 
  194409   198265   161379    89586    -1971   -84970  -122238  -114925 
 -102365   -83300   -33845    21355    39067    20325    -6058   -30334 
  -46953   -50118   -51590   -45045   -16572    13736    27565    18520 
  -23742   -78258  -104807   -98791   -77041   -40100    13678    72061 
  110513    99821    37763   -41746   -84808   -56799    12399    76204 
  116760   117661    70363    -9008   -83664  -115747   -97336   -48217 
     -72    29350    50085    65107    64031    44973    13194   -13556 
  -16931    -7801    -8762   -19788   -26427   -19260     6239    41766 
   61693    46090     3053   -32166   -42669   -53765   -66842   -52524 
  -22536    -4993     3580     2189   -25326   -63582   -76171   -66181 
  -55325   -37528    -7974    18121    28721    31973    41712    52272 
   59823    66479    51544     6922   -37771   -59184   -54672   -27457 
    7267    22464     -992   -46079   -63497   -42425   -26393   -33091 
  -40041   -31145    -8677    18794    41420    45851    40765    49343 
   56327    28875   -21401   -56072   -69194   -73830   -66923   -44455 
  -10806    16434    19383     9369     2196      864     9436    19157 
   15579     4625     1051     8264    22558    36853    40684    39042 
   46365    60392    68736    57175    17907   -39015   -94880  -124406 
 -110930   -74031   -39869   -10663     3063   -20607   -68956   -96360 
  -74475   -16779    37045    51665    27880      843    -1255    14836 
   21587    13691     7680     -862   -17778   -26248   -25301   -31278 
  -44794   -49333   -24225    24646    56193    50391    27792     3299 
  -14600    -3532    28347    36459    17455     6540     8901    15010 
   30299    37272     2609   -59344  -106911  -121189   -91885   -34037 
     270    -2343    -4873     1035     1275     5926    18979    24457 
   19438    15435    20025    29597    34291    23276    -2451   -18389 
  -13828    -3118    11965    20159    -7330   -62808  -100468   -86418 
  -34121    16298    47046    57750    43746     7931   -29824   -45814 
  -36439    -9779    29297    54874    39448    -5016   -52924   -80859 
  -69587   -30057    15190    51374    52668     7820   -43546   -51147 
  -21290     -634    -3134   -11597   -17192   -15213    -8514    -5601 
    -310    13626    26296    26635    19352    11049    -4450   -14061 
    6917    39067    39390    -3064   -56987   -81344   -77399   -73041 
  -69592   -57514   -39418   -25907   -29323   -36884   -32355   -33156 
  -45026   -48116   -40544   -27452      558    38176    52483    25758 
  -17570   -40851   -31973      189    40794    55633    20619   -21845 
  -26276   -15079    -9483     7973    38992    60523    61607    55776 
   51580    38840    17015      373    -2698      646     2393     7704 
   13906    17880    40320    81689    96422    55966    -7315   -45964 
  -49368   -26840    17477    62446    71724    44724    14381    -2778 
  -16224   -36599   -54598   -62229   -68247   -61279   -27634     7130 
   22144    26343    20753    -1993   -32107   -52164   -64748   -78104 
  -71563   -37453   -14430   -17520   -13327    12433    23446    -6411 
  -44937   -67134   -80798   -74042   -42803   -13103    -1194    -8999 
  -27511   -37292   -35407   -39414   -54619   -61831   -46813   -15580 
   19537    37399    20479   -10118   -16356     5294    29110    37188 
   30381    17593     7967     7487    13261    21168    33615    44178 
   48089    55383    57627    35507    -1530   -31611   -45835   -45902 
  -36031   -18519    -3333      456     6500    22296    25497     4121 
  -21088   -28575   -21608   -14816   -12704   -10228    -5404    -1686 
    3889    17217    27757    17362    -7708   -28112   -43262   -47632 
  -31812   -13298    -1377    14494    32606    36046     9994   -30651 
  -59908   -70461   -54149   -17844     6158    11379    15850    19689 
   15140     3528   -10855   -17354    -5582    17018    29766    20798 
    6597    10593    20432    15965     4735   -15807   -50769   -70177 
  -57856   -38213   -25864   -11900      985   -11078   -48513   -68049 
  -45338    -9196    10154    15118    16731    15210    16602    33492 
   55213    57265    38080    23334    29855    33818    12676   -13143 
  -20896   -10584    15133    45322    51983    18941   -29581   -51528 
  -45948   -50155   -60193   -41254   -15747   -19630   -26453   -11441 
     587   -11275   -32259   -47521   -65190   -73028   -49179   -20414 
  -10004    -4315    -1966   -10532   -29408   -37562   -13760    18554 
   33195    25859     1715   -11535    -5811    -2101    -1486    10314 
   30962    32265     8243    -1710    13598    26090    23847     3619 
  -25513   -30294    -3298    24973    28809     8239   -17890   -37828 
  -43929   -24325    -1510    -1155      240     8932     2867    -4338 
    2508    12849    23402    29925    21000     3538    -5834    -9412 
  -13324    -4725    16083    21130     3711   -18501   -42348   -57586 
  -42178   -15093   -12357   -22297   -18385    -7257    -1026     3674 
    8947     3924   -15029   -19291     1934    14769     8347    -4537 
  -17292   -14193     -106      199   -12154   -21651   -18291    -4891 
   -2342   -24293   -56670   -69885   -47861   -10233    12309    18291 
   11778   -14442   -42211   -48130   -39064   -26249   -14963   -10285 
  -11647   -17968   -23606   -22458   -19147   -16356   -14208    -6315 
   18488    39839    35614    24765    19689    13770     9346     3307 
   -8729   -15734    -6053    13890    26871    35834    53244    59174 
   28378   -20856   -50831   -47262   -18827    14760    33257    34348 
   21996    -9022   -46349   -56462   -27602    11095    29791    29802 
   15753    -7781   -18233    -9981    -2660    -2517    -4264   -10230 
