Origin Time       2021/02/13 23:08:00
Lat.              37.7
Long.             141.8
Depth. (km)       60
Mag.              7.1
Station Code      FKS016
Station Lat.      37.1228
Station Long.     140.1914
Station Height(m) 375
Record Time       2021/02/13 23:08:15
Sampling Freq(Hz) 100Hz
Duration Time(s)  197
Dir.              N-S
Scale Factor      7845(gal)/8223790
Max. Acc. (gal)   566.102
Last Correction   2021/02/13 23:08:15
Memo.             
[...]
   45536    53133    45060    29307     3996   -22971   -34434   -28271 
  -12494     4661    12787     3136   -16914   -25272   -14607     5432 
   21367    13547   -16422   -33976   -21458     1661    13450    11321 
    4880     1659     4579    13662    18141     6937    -9256   -20407 
  -36302   -52907   -53717   -38464    -8517    31950    60593    65291 
   56511    43236    30909    18985     1212   -10860    -8405    -6173 
   -7061    -4410    -7268   -15273   -19453   -28313   -40143   -38666 
  -21477     8824    40495    55968    56205    46757    30998    17778 
    6421   -14161   -45154   -70758   -76442   -67205   -56963   -47218 
  -24966    10295    33853    38385    45625    61722    71231    59737 
   30195     5706    -2208    -6791   -14285   -14781    -7522     -450 
    1599    -8270   -21884   -21670   -14219    -3298    15649    20227 
    3758    -6297    -6362    -9181   -10469   -11295   -21489   -30414 
  -19155     1129     9346    14910    28922    40327    47025    51983 
   43525    19843    -3196   -18288   -31565   -46269   -59054   -61732 
  -42117    -9609     4450      -24     5724    28271    52812    67219 
   69205    61123    47160    34299    21131     2713   -16160   -28021 
  -34580   -47869   -67421   -74583   -60735   -31024     2081    23299 
   35683    51695    66912    67608    53514    39213    26084     2517 
  -25550   -47682   -64258   -68457   -54164   -30130    -5356    12448 
   13608     7180    12703    26415    31383    21421     1379   -13741 
  -14361    -9533    -8888   -13458   -17591   -14913   -14993   -25691 
  -35621   -39460   -35364   -16641     1764     6305    14963    32462 
   34423    17170     7190    13594    19579    21099    17591     -845 
  -21554   -26820   -23278   -15349     2265    20147    20110     7236 
     629     -669    -5235   -10910   -12209    -5984     2891     8680 
   11745    10543     8874    16630    26391    18324    -6535   -26308 
  -26894   -10790    10604    21751    17640    15431    26015    34052 
   32418    35290    45605    50487    42195    19059   -15402   -46835 
  -65248   -74515   -72036   -52558   -27869    -2852    29543    54720 
   53457    34245    19903    23076    33681    36540    30148    15053 
     -63    -7064   -21328   -44861   -56280   -51321   -39360   -26501 
  -18030   -14577    -5305    15468    31390    31804    25855    15763 
   -2189   -17285   -17135   -11896   -18693   -30785   -28409   -10114 
    8950    25461    45875    63155    65043    45639     9229   -24266 
  -41337   -48379   -49599   -41527   -32393   -34277   -39406   -32429 
   -9252    20358    37647    38163    34917    36510    37000    23132 
    2255    -4577    -2443    -6554   -15053   -25718   -39680   -49742 
  -52617   -50587   -35181   -10008     4418    14378    33809    48802 
   52828    56220    54151    39989    26142    18627     7601    -7102 
  -17035   -23579   -29837   -30145   -20456    -3407    17402    36597 
   46954    46117    34217     9483   -21405   -42573   -45102   -38020 
  -37562   -34040    -6228    24969    28684    16947     8282     2700 
    2342     8908    14283    11920     9285    12895    13733     7279 
    1894       12     -670     3345     7847     2300    -7092    -6535 
    4469    15003    14331     3006    -9844   -17193   -18812   -20029 
  -24624   -28348   -23654   -12806    -2569     8185    19986    30896 
   36803    26943     3485   -14550   -16571    -6170     2220    -6054 
  -21011   -21884    -9942      784       24   -12021   -20860   -17820 
   -9730    -4229    -1807     5769    23661    38623    33434    13663 
    2952     7680    12374    11755     4295   -17595   -39087   -40323 
  -32587   -28109   -15253     5647    18222    28198    43029    45778 
   32582    21057    16202    15716    23342    27997    15363    -2608 
  -14068   -22917   -29848   -40756   -59806   -67689   -48951   -19595 
    1769    21988    42982    50033    48128    48100    44618    38865 
   32455    17532    -4671   -24572   -40151   -55518   -66490   -64041 
  -50291   -35220   -18744     5486    26863    33176    33083    32757 
   32610    36599    35766    26507    23971    25628    18339    12066 
    9899    -6963   -32655   -45976   -51679   -52218   -37170   -14172 
    6534    26703    39201    36749    30420    23886     6637   -11198 
  -12592    -9664   -20914   -37400   -36045   -13086    12185    22354 
   20368    23746    35602    34919    13000    -7712   -10540    -8479 
  -15862   -27448   -32162   -24229   -10913   -11213   -23367   -23128 
   -9899     -176    10644    29412    45121    47869    38923    23433 
    3325   -17788   -28510   -25126   -18824   -15522    -7298    13096 
   40171    61281    64825    43853     9771   -17054   -37099   -56258 
  -62155   -46597   -23033   -10216   -11557   -12796      550    25914 
   44417    40666    19195    -1833    -9066    -6635    -4557    -1337 
    5643    11036     9899     1433    -8650   -11475    -1221    19846 
   33049    22924     -338   -18630   -22829   -16750   -13140   -15171 
  -17177   -17815   -19261   -21370   -16272     3411    30705    47359 
   38014     7110   -22489   -32042   -18783     1738     6798    -3753 
   -6332    11407    31807    30163     5638   -19805   -25443   -16573 
  -15990   -26244   -29889   -10149    37461    81635    83660    54707 
   27723     9445   -11094   -39938   -62160   -57519   -32171    -8370 
    1351     3584    16760    40223    46990    28818     9007    -2112 
   -7512    -3461    -3964   -20127   -27650   -13636     4807    16004 
   16337     7411     2809     6012     2574    -4418     5572    26283 
   30468    17159     9225     7497    -8525   -34870   -49812   -50261 
  -39615   -22491   -14420   -15731   -11898    -4257    -1644    -4282 
  -11650   -22762   -28759   -21540    -4241    14723    29407    36404 
   33840    22480    10486     9745    17016    16821     9433     9020 
   16735    21057    17208    10064     9059    17263    17876    -5297 
  -38410   -50854   -33501    -8310     7704    20056    30920    35248 
   31672    15110    -8834   -19422   -17907   -18393   -18793   -20214 
  -21770    -9933    10245    17535     7971    -4480    -9984   -10089 
   -6529     1746    11535    23572    41605    52602    47618    40967 
   32753     8035   -25127   -47578   -55742   -54822   -48136   -39862 
  -32063   -20441    -8001    -4710    -6735    -2675    10727    28143 
   37422    34362    27125    22110    19462     9150   -14615   -37504 
  -47160   -48020   -51547   -58662   -55308   -36440   -14980    -6092 
   -7456     2459    31244    61803    73959    59204    33527    19437 
   12020    -6011   -33939   -55580   -53079   -20991    17014    29052 
   22015    25431    42444    56088    51989    30416    13495    14501 
   19522    15877     2004   -15799   -22480   -17898   -19475   -29389 
  -33646   -21992     7036    40427    61977    74528    81745    77580 
   68319    57065    35209     5557   -22948   -42265   -44934   -33297 
  -23373   -30497   -42807   -38850   -28641   -31970   -41744   -41736 
  -25988      -68    13925      541   -24649   -37662   -36447   -38469 
  -53017   -66228   -56436   -20322    16077    29285    29806    30635 
   28996    31954    31918     3114   -39960   -65010   -71066   -67593 
  -58770   -46892   -33623   -20854   -12278   -19093   -44768   -66685 
  -59925   -33135    -8931    11232    30477    52570    86564   114400 
  108210    72727    31941     9013     6489     3412    -3603    -1657 
    9791    27990    43695    43598    32451    22576    15777     2644 
  -19388   -33293   -30203   -16652     6388    35098    64176    94467 
  116796   120754   110560    90362    61763    35430    14559   -12636 
  -40792   -46657   -25326     4075    21195    23620    18411     7892 
   -3901   -22272   -56401   -87504   -93185   -73849   -40729   -18712 
  -23350   -29076    -6517    32107    52624    42595    22393    17172 
   27128    29512     8537   -20461   -33581   -31622   -33004   -51767 
  -78931   -86128   -64791   -43633   -38599   -24159     2872    15055 
   19194    25544    20088    10678     7357    -2046   -20665   -39395 
  -54220   -72783   -96927  -115788  -126381  -120954   -91023   -46341 
   11163    76046   128185   165127   185556   182079   163362   133602 
   88037    31669   -25760   -73600  -101675  -112468  -118234  -118416 
 -107156   -93295   -80971   -66556   -50666   -25701     9856    50525 
  103570   160232   201888   231516   249764   250323   229979   182258 
  112348    35395   -47132  -137405  -218500  -263713  -258380  -216021 
 -169771  -124529   -57330    20880    78332   114474   132943   133158 
  133072   126145    89831    41777      442   -39908   -69097   -78165 
  -84214   -89124   -70262   -29112     5134    14563     8905     9671 
   14588     5960    -6812   -11330   -19356   -26611   -18238   -12094 
  -21215   -26022   -21633   -14424    -1983     1426   -11857   -22451 
  -24625   -30956   -47572   -67749   -74268   -57889   -23090    16582 
   43407    60091    77997    92272    89519    52266      519    -9919 
   14598    29212    40311    58422    69755    80235    95106    98632 
   84712    63396    41422    17109    -8506   -29388   -46554   -63390 
  -71876   -62835   -36841    -7379     4965     4405     6486     -232 
  -16002   -23346   -34676   -60340   -86590  -110749  -134700  -152902 
 -148400   -99848   -31666     4428    14536    36273    62340    88344 
  135542   170895   153048   105290    49644   -13826   -88126  -177592 
 -247266  -254992  -203702  -120195   -52739   -31056   -15935    30565 
   87139   117886   116170    97152    66387    29866    17086    44705 
   96942   155187   210242   253064   268913   244556   171894    55111 
  -81476  -210205  -303049  -329094  -269563  -137146     1937    90054 
  148981   187365   167934   115919    70345     9753   -61616  -108992 
 -127365  -116695   -77658   -29540     6463    14341    -4052   -21342 
  -24255   -25326   -32551   -51267   -76910   -84321   -66991   -36857 
     367    23556    15873    -4990   -25564   -54166   -85488   -95351 
  -81380   -62162   -32032    14735    56720   100699   160926   207453 
  235981   270788   296356   298621   284116   245768   177931    88407 
   -1200   -70202  -116856  -136559  -126202  -125402  -193059  -299982 
 -341977  -312986  -275918  -223623  -149266   -58089    67470   185681 
  249980   266907   253065   251367   258912   195555    56250   -70055 
 -135976  -165851  -160983   -90751      676    27888   -28514  -127184 
 -204465  -238761  -237217  -169400   -49869    57905   138322   187065 
  202626   217598   247020   261908   219964   111038   -24548  -152535 
 -279119  -377711  -377447  -293496  -243743  -265349  -242846  -124912 
  -21020    42940   136013   217891   251536   281514   311242   321251 
  298360   219979   101564    -6034   -85260  -154086  -200965  -196029 
 -133030   -30067    28355   -35032  -120352  -107546   -79598   -93021 
  -49524    38650    91984   147536   211226   240605   253590   250412 
  208743   138777    51267   -38978  -110327  -151946  -130459   -29322 
   41238   -40487  -162909  -142638   -63632   -62176   -43988    36533 
   79770    91439   106424    85388    34238   -14854   -52868   -73190 
  -86084   -81992   -32242    30076    38898    -5718   -48494   -72543 
  -95814  -101212   -79378   -55216   -28080    -1490     8290    20436 
   45388    68320    82730    94683   109827    95902    24034   -66866 
 -126430  -138680  -116482   -99289   -92368   -51175    21124    81986 
  133037   182657   225166   260339   262849   216557   141745    38824 
 -105887  -270877  -403735  -451966  -393823  -268347  -152281   -68520 
   18990   102729   155996   209317   264857   282216   285349   297245 
  273870   202979   109753     1827   -97815  -159337  -185517  -185260 
 -159418  -113300   -58774   -22634   -17158   -30200   -67153  -113691 
 -130389  -124981  -112791   -87076   -52150    -4156    48143    83585 
  110571   129652   135562   138758   117015    60153    12020   -24216 
  -70063  -101169  -110701  -108773   -84852   -46483    -2446    38092 
   38033     -538   -30483   -42304   -49829   -46168   -28016      461 
   49964   116448   162938   168748   144763    97815    27130   -52501 
 -120896  -178908  -221837  -218727  -149762   -35811    65794   123192 
  157270   165150   143229   125329    85375    -7357   -92250  -137457 
 -157828  -129770   -53345    35556   126640   197159   217632   211346 
  194028   141967    68959    -3662  -104863  -232416  -317587  -323779 
 -290329  -241664  -145075    -7256   111299   195941   260352   286681 
  278032   260172   220093   137118    22042  -100013  -207569  -275363 
 -260662  -159305   -37119    46962    73437    61538    64104    79126 
   65888    37909       51   -59281  -107474  -134568  -148640  -129450 
  -80871   -22688    36038    76007    79105    38942   -21674   -51007 
  -31504    18914    86769   145141   174476   189213   187829   154198 
   99505    33983   -45731  -127545  -197017  -250859  -274311  -238717 
 -151622   -94450  -107565   -88271    12064    85133   110473   151595 
  161153   116827    90130    79022    43619    13922    24156    51166 
   60546    51156    28544    -8233   -40919   -63782   -95069  -104240 
  -54958   -13302   -38122   -60021   -33760   -12604     2909    41575 
   75886   112993   178416   235638   257985   269036   278937   268790 
  237790   190872   107616   -23168  -198580  -397993  -552260  -592863 
 -530039  -436224  -330979  -165473    31523   161233   214311   234061 
  219469   184708   138527    57634   -22189   -80279  -149404  -193959 
 -172077   -85218    66449   195968   184207    77020     2039   -51826 
 -153358  -243265  -260478  -253687  -227912  -139095   -15793    90452 
  170843   219789   227277   227557   245095   226412   153045    90332 
   63753    46642    45065    85449   148886   171805   117074    19808 
  -82957  -202390  -304384  -315937  -250796  -181049  -139922  -105455 
  -44393    26131    79030   125833   148840   117984    71070    50940 
   48749    49829    38117     5810    -9323    12401    33280    46346 
   81021   122532   147842   167574   160744    89438   -26464  -137756 
 -203289  -199558  -148225   -91110   -38489    27264   105979   162951 
  178235   169507   143592    85083       99   -80535  -133880  -149496 
 -132541  -115722  -126301  -154427  -180316  -187515  -152081   -72887 
   19558   105034   181292   240395   269136   269623   247295   186900 
   84739   -34202  -154356  -267601  -336629  -319083  -227863  -116743 
  -29851    11329    22358    37820    58741    62775    56268    60586 
   62793    47181    24614     2151    -3414    16447    20476    -3404 
  -15774   -28328   -68434  -101110  -105020   -84913   -33579     7703 
    6474     1433    -5560   -24267   -15982    13887    40181    69963 
   77874    51112    40035    60158    80968    95378   105393   105699 
   83674    35596   -14135   -50796   -69017   -63379   -50949   -36409 
   -8318    28094    66823    97943   106386    92958    55838    -7746 
  -75726  -124459  -150134  -154483  -136815   -96693   -45226    -9522 
   -3076   -10320   -12777     5620    52475    96982   106231    90737 
   71618    55198    40057    29824    37570    53686    46992    18625 
   -7858   -33390   -59109   -72754   -85109  -103898   -99528   -54780 
    -162    29177    41281    55683    64585    73097    88816    84553 
   55495    19125   -24763   -54369   -50457   -37280   -23348     5838 
   46400    77807    65882    13861   -19151   -30119   -52381   -52420 
  -28462   -27017   -30298   -28252   -46286   -62780   -62347   -66657 
  -70248   -46164     5436    51534    60104    31614    -1247    -7528 
    1584     4126    17381    45932    60953    59594    50187    33831 
   28026    41995    59044    56918    30231   -10557   -65137  -128245 
 -171661  -180982  -160837  -109528   -40670    15499    62380   114421 
  145615   144802   143395   143174   120908    90636    77827    73041 
   61318    55777    61497    49075     1491   -63070  -125537  -177036 
 -212053  -223326  -197799  -143973   -91304   -39174    20641    57812 
   64674    75614    89137    77990    45835    14547    -5904   -21303 
  -29270   -22675    -9267    11232    42520    70006    81093    73772 
   49956    20345    -1335   -16893   -36466   -51907   -52378   -47204 
  -43104   -35249   -25693   -23882   -31776   -37450   -30319   -14170 
    1738    14508    26869    39629    50068    47448    18297   -28557 
  -67589   -85738   -85676   -74515   -51656    -8711    49142   104877 
  146612   162171   157960   160386   159093   128611    84160    35793 
  -24565   -77700  -108615  -129961  -144468  -144383  -125706   -91563 
  -65823   -61661   -55356   -39582   -28621    -9803    29300    79103 
  134241   182617   201594   182765   134707    75760    21609   -28715 
  -82019  -136032  -177657  -173271  -100391   -25498   -43499  -112002 
 -135126  -143162  -147009   -80176      153    31307    70202   113609 
  134908   166302   196285   199141   183648   151762   101325    31603 
  -51058  -122581  -169361  -197908  -213857  -216299  -195319  -146788 
  -88776   -32204    27098    85068   137506   180916   207451   216225 
  209406   190229   156227    97483    29698   -24294   -72944  -113895 
 -126802  -123414  -126158  -119604   -85734   -56835   -58756   -63246 
  -58972   -54045   -30341     2693    20233    34739    45166    46444 
   60912    78721    73160    57307    46661    30969     9109    -4903 
   -8070    -2432    14553    33030    31356     5694   -22086   -39796 
  -49844   -40918   -11442    16935    31461    30785    22125    18156 
   17828    15884    14158    14601    20524    29970    32744    25355 
    7546   -24451   -58668   -74124   -72625   -60539   -27980    15942 
   49476    77122    95594    82152    43729      526   -45473   -89086 
 -120715  -134631  -123885   -92367   -55057   -22036      480    10111 
   12326     8654    -4568   -17945   -12047    15039    44023    60446 
   65020    63644    61743    64346    71444    69390    48189    24290 
   10947    -3774   -22094   -30262   -30759   -35797   -44982   -51505 
  -47017   -24734     5548    24668    28362    25856    21460    12521 
   -5080   -36339   -73782   -92481   -78129   -42213    -4158    27399 
   56524    81476    88890    76022    53069    26686     3334    -7531 
   -8129    -6683     6743    44520    87643   103592    82537    34080 
  -24459   -73368  -108033  -133753  -142707  -124382   -88226   -54348 
  -20498    34291    96674   131841   146685   157226   154917   144499 
  128475    90472    35622   -15349   -60735  -100870  -122192  -126152 
 -128452  -127094  -111029   -82601   -51754   -20757    13899    47632 
   73295    87862    83430    60944    34589     7699   -20856   -48119 
  -76346  -100364  -107414  -100566   -93522   -91331   -89043   -69736 
  -23688    26867    64870    98424   123419   128808   113063    71284 
    7311   -59690  -113047  -147029  -161900  -148641  -103689   -52517 
  -17325     6891    28944    47710    64249    88182   114872   128110 
  133968   142172   143478   136453   128444   114245    86613    49393 
   13036   -12668   -31746   -61190  -103956  -134489  -125007   -94990 
