Origin Time       2021/02/13 23:08:00
Lat.              37.7
Long.             141.8
Depth. (km)       60
Mag.              7.1
Station Code      FKS004
Station Lat.      37.6799
Station Long.     140.7346
Station Height(m) 488
Record Time       2021/02/13 23:08:06
Sampling Freq(Hz) 100Hz
Duration Time(s)  201
Dir.              E-W
Scale Factor      7845(gal)/8223790
Max. Acc. (gal)   343.152
Last Correction   2021/02/13 23:08:06
Memo.             
[...]
  -49755   -30758    11286    54118    24050   -53716   -63547    -5991 
   45100    55660     8168   -43451   -14511    33648    13342   -22680 
  -25347   -31309   -54049   -49103   -16461    -3262     6265    15495 
   -6498    -5849    27476    19622   -10191   -11689   -12854   -38869 
  -50739   -28309   -12592   -16498   -22341   -19630    -6654    -3765 
   -7851     7823    29504    20132   -14625   -31232   -22086   -27895 
  -56296   -48747    14598    59221    27022   -31629   -26123    15993 
    6295   -16804    -4186    -7214   -17107    16002    35243   -19114 
  -89982  -102421   -45925    23369    11770   -54631   -50923    22596 
   73596    47285   -19330   -34759   -24017   -41593   -19090    46993 
   33006   -59275   -88051   -33667    21105    31615   -23876   -69257 
   -8367    63189    35661   -12758   -19267   -26553   -38028   -35827 
  -31718   -35476   -28540     1105     9016    -8571   -15225   -26246 
  -31945   -38326   -63274   -13169    78077    67396    17205    -3032 
  -13140   -12127   -16335    -1163     5814   -48933   -81488   -49450 
   -6897    17801    -5063   -62943   -63771    -5487    14686    22169 
   44964    19649     2593     4687   -27043   -25375   -20212   -30149 
    2226   -25417   -78409    -8120    62734    33771   -14270   -55273 
  -58399   -16407     2775    15549    32305    -3522   -61862   -74409 
  -36560     -746    -8969   -19507    -4525     7699    29803    57632 
   42091    11151     6349   -15905   -50765   -49958   -21694     5699 
  -19348   -84397  -101154   -52042    20845    39085   -11195   -13787 
   37725    52498    52118    34923   -38727   -61869    15728    25267 
  -71003   -87624   -22850    -6471   -13876   -33334   -56223   -16831 
   35113    37908    10666    -5233    -4995   -15998    -3136    32105 
   47495    42194   -24106  -102454   -74899   -19353   -26704   -24850 
   -1860    -1692    -4858    -9489   -16808    -1356    15546   -12951 
  -39401    20787    69106     5991   -40463   -23122   -35537   -44664 
   -9261    -8764   -52882   -48840   -16916   -28067   -16042    31077 
   32082     9960   -19589   -49447   -22443    19759    31257    19435 
   -2775    24516    43255   -21409   -57040   -38415   -19036    21810 
    -761   -85650   -70576   -21346   -52304   -75932   -68334   -63229 
  -28881    38244    88951    72314    35255    28740    -9471   -28188 
   36309    25153   -83060  -105548   -42641    -3076      264   -17921 
  -36108   -30252   -22688    -7339    52586    85149    28030   -25659 
  -16652    11716    31513    18396   -32668   -82125  -110992   -77544 
   29943    57372   -47255   -88331     6195    67594     8098   -28933 
   17836     3748   -59016   -30861    50521    59275   -24899   -73859 
  -17099    21010     8272    10091   -26025   -64791   -40373   -26638 
   -5375    20225   -22520   -40436    -4934     5161      203    -7067 
   11179    17639   -52643   -61993    19915    32734   -12842   -57739 
  -84154   -18415    71065    43580   -30681   -47306   -41805   -33839 
   -7766     7612   -20187   -43309     9437    69419    33389   -36964 
  -33366     5729   -15276   -56683   -44298    -8614    15327    13483 
  -21282   -42005   -10489    29882    19623   -18115   -29411   -10605 
    7283   -12411   -37847     1509    67695    69407    16019   -27295 
  -36493     6490    63286    22486   -81225  -107204   -61267   -29074 
  -22754    -7009    23187    12145   -39241   -32819    42503    85656 
   25623   -57978   -17955    59454    23357   -28659   -19766   -15025 
  -41345   -89318   -98685   -41945    -1605    -5202   -47241  -106316 
  -69421    63351   143664    90163   -17301   -28957    27927    13518 
  -40949   -21467    36231     6759   -80364   -95274   -40756    -7662 
  -53256  -113208   -80262   -16989    -4892     8888    65456   128676 
   96844   -35521   -83656    -6137    30929     4147     3476    22978 
   16794   -12563   -30400   -38172   -77734  -126196  -106921   -20441 
   62159    62630   -18168   -45102    12124    13876   -36931   -14810 
   42325    16873   -49418   -76666   -66633   -12633    42815    49675 
   29965   -25834   -79184   -49547    -3935    -9803      981    31290 
   13622   -22094   -15545    23125    34788   -18863   -82699   -74248 
   -2887    59377    36724   -83660  -154770   -68254    55956    93158 
   31382   -70752  -107125   -33999    82804    72554   -62113   -54608 
   46418     2862   -52375    -6606    17926    -6062   -42862   -78692 
  -77735     1595    90261    45863   -54931   -69246   -43741   -15020 
   13248    18216    24128    32644     9335   -53831   -95481   -59919 
   13024    76435    86186    17513   -36717    -3659    41654    35704 
   10181   -34292   -89630  -103964   -98500   -70958   -12195   -14895 
  -56577   -27733    37187    55661    28464    20584    36031     9680 
  -22785   -12218     3376    23751    30269   -22246   -76203   -83932 
  -66881   -36219   -25124   -24811     8440     1201   -39128    18252 
   65692    -1861   -32692      702    25922    37103    28266    24572 
  -12006   -55058     2192    35675   -42634   -81953   -52532   -66440 
 -111268   -80299    28796    91519    10872   -87733    -3678   113336 
   28969   -99870   -74117    43910    99293    24649   -52462   -43102 
  -29486   -19411    15932    33755     1579   -41119    -5143    52141 
   18381   -43665   -76769   -71350   -15832    13347     8287   -15167 
  -82429   -39160    99361    61346   -53902   -36667     2533    -2871 
   -7361     9034    27113   -17555   -79375   -69407   -26765   -22593 
  -31580     1969    54676    65665     8830   -10257    62681    29100 
 -110785  -127480   -25659   102332   118737   -99839  -249659   -67857 
  132618    66849   -95924  -114658   -12333    40510    26091    42240 
   66613    52609    34186   -13655   -77098   -33138    35565   -30157 
 -105313   -95311   -55981    10822     3940   -85617   -75371    -8374 
   13617    49046    78876    55417    -5611   -58112   -46387     8298 
   52803    40882   -31222   -53272     2647    18982   -15909   -21675 
  -12793   -28626   -32417   -22239   -23047     1661     7774   -41629 
  -30761    27766    31877    -6963   -78472  -103796   -29849    35915 
   63404    50692   -26551   -59556   -18191   -32472   -87511   -36131 
   83794    75452   -34986   -29408    39241   -28448  -147205  -131371 
    3493    89128    41914   -12499    14125    44232    22690   -23607 
  -48633   -44675   -49890   -61825   -25336    57264    84103    28352 
    5680    -1300   -83003  -124762   -86611   -85587   -85540   -29579 
   43146    82640    34879   -42280   -57589   -12082    62961    72396 
  -14933   -47329    42430    99449    34604   -32740   -57873   -80584 
  -51225    -3863     4198    -6685   -43513   -45453     2412    19595 
     951   -35911   -48757   -21382     3562    14072     1090    -2096 
   23936    18274   -14235   -14732   -12550   -35325   -17621     7140 
  -17216   -12194    11097    23556    36109   -22577   -77535   -30272 
   23503    32946    11969   -27716   -30573   -16335   -47781   -74322 
  -78055   -91876   -34483    69391    64261   -12606   -35356    -5709 
   39330    65881    27969   -23062   -21547   -32641   -65009   -46238 
  -12280    -9556   -31671   -44390    22500    74116   -21489   -88184 
     152    61958    39407    42099    37766   -37515   -84437   -30422 
   19307    -1178   -31598   -34159   -20736    12765    46306     1298 
  -91558   -75411    68094   123804    -9944   -76832    37336    73012 
  -34669   -82260   -44926   -32205   -50159   -66812   -29454    54710 
   53779   -21332   -78993   -86761     7889    91577    54897    16908 
    1845   -34844   -17826    49447    55713   -13863   -57622   -24825 
    4024   -36200   -71528   -57921   -51549   -38786   -21762   -32339 
  -14573    20557    51752    81406     9128  -123630  -162808   -95096 
   31700    78007   -39087   -96315    37683   135051    58888   -35328 
  -57431   -61107   -31947    51227   118154    92402     3854   -70557 
 -137828  -163688   -98388   -33524   -26050   -59086  -116303  -105565 
    7290    91652    47677   -44011   -38267    54444    99542    87435 
   99705    89098   -10396  -105884   -76184    34285    65782   -19562 
 -107258   -90297    16768    62727    30850    65259    83826   -33188 
 -150839  -151167   -37450    71050    19229  -104862  -105533    25334 
  129213   101123    22835   -20818   -33728   -34800   -60694   -78185 
   -9396    61526   -24213  -163206   -99902   102984   152915     9042 
 -106219   -71563    14970    51327    56544    60544    35028   -24260 
  -70741   -49249    34414    29671  -103981  -141949    -3735   135450 
  127769     -873   -70806   -23573    21263    16930   -18364   -14341 
   87100   113817   -30734  -161179  -201873  -135075    50012   111743 
    3978   -11896    37170     7453   -44015   -77804   -44093    41904 
    8748   -85822   -67178   -13691   -43501  -114127   -85727    25223 
   47102    18369    12723   -22072   -35750   -11645   -12691   -44824 
  -80117   -67398   -45659   -70544   -51748    23506    64493    67379 
   33019   -23934   -25753    14443   -15009   -86967   -38086    63084 
   59300    88086   168322    94709    -1922    56170    49249  -104737 
 -178590  -140431  -100947  -108913  -154788  -115481   -16729    -8806 
  -64076  -117296   -67243   101175   135950    22292    24192   124681 
  139878    85648    45489   -19462  -106512  -131485  -110097   -51271 
   31621    -2756  -117053  -112094    -7168    87265   147248   128996 
   32053   -36609   -33771   -10323    21371    -9166  -178382  -299218 
 -224942  -132966   -91041    18748   141269   173125   120586    34847 
   31855   111487   109337     9729   -58660   -13362    96024    64762 
 -126135  -229447  -190966  -131099   -89317   -68708   -27850    45079 
   83797    79813    61875    46641    35496    14774    40579   137813 
  174181   102813    68141    93532    72758    32611    20773    -5595 
  -48087   -89920  -146635  -200271  -204530  -133857   -11685    81197 
   93908    88088   134859   183211   148938    60347    -7890   -37143 
  -48725   -78142  -109780  -119811  -175392  -257544  -264147  -241138 
 -214338   -92599    94454   228931   264357   202743    79852   -43291 
  -91027     1989   103603    20491  -118839  -142812  -118327   -99800 
 -119387  -168550  -131869   -51548   -46827   -42518    50526   164070 
  186925   107549    53134   122403   189723   121664    29454     -345 
  -42587  -119942  -198699  -239882  -207269  -102856    28471    74522 
    7708   -10609   106829   231523   211443    60443   -63117   -95557 
 -133334  -189954  -184635  -119331   -43279   -31256  -129521  -208334 
 -127683    74120   230763   160261   -48581   -81506    91002   197642 
  130778    45590    -8897  -144957  -257470  -155129    51992   122472 
   -4280  -153185  -128494    -6469    18154   -23156   -24799   -33347 
  -39050    15099    31047   -17266   -25424     9146    42587    49836 
   28507    36482    53987   -13405  -116901  -120621   -28335    45300 
   56134    36911    21651    48540    75223    44385    63439   145443 
  141216    85503    64984    40369    20946    34011    44162    38242 
   21304   -47362  -160186  -204330  -136863   -36705    37102    70796 
   65468    71722   138434   193849   132663    21109     9563    60137 
   44631    14987    18488   -33910  -107931  -122045  -126202  -144454 
 -146952  -138859  -149377  -184361  -187629  -153459  -160412  -181670 
 -141974   -76173   -10431    58982   115129   181160   229479   195976 
  166495   234773   267966   138989    -4338   -24745     7865    50415 
   74524    26025    -7177    44466    74467    21726   -59537  -147082 
 -224621  -242316  -218038  -197394  -180378  -202383  -254961  -226770 
 -120685   -37435    31168   118235   168582   140454    65470   -33064 
 -150647  -205767  -134711   -63200   -95365   -82968    72640   215352 
  259436   271070   217161    46202  -128594  -164389   -79250    -4901 
  -32466  -158939  -272593  -241726  -110643   -43281   -84620  -145114 
 -122932    33222   219936   250030   133690    25174    13888    67007 
   39457   -42931     -642    73137    45948    10451   -30348   -87453 
  -96298  -109044  -132316  -115781   -59697    53460   119394    48350 
  -10551    25188    86499   128767   120384    74116   -38083  -202481 
 -192437   -27804   -20209  -142770  -185811  -170896  -141782   -95148 
  -85352   -72613    41335   195754   251191   174415    67651    68721 
  130734    78435   -18590    22550   112372   101696    33539     7936 
   51714    74379    -7404  -129412  -174028   -90132    17010   -14854 
 -115728  -123762   -96515  -131306  -166310  -135349   -78046   -24254 
   68976   190582   260679   232501   103365   -34406   -61210   -28144 
  -21789    28779   154607   242028   222332    94595   -81048  -154118 
 -125371  -138709  -185885  -183213  -111030   -20538   -39463  -163058 
 -213767  -141336   -60027   -29774     1359    93433   211516   236071 
   98146   -94136  -145034   -28525    91555   123020   108098    67961 
   13941   -26631   -52625   -23372    36196   -30612  -203436  -282299 
 -218103   -78601    50026    48149   -25749   -11560    10008   -49735 
  -71926   -40103   -33579     2374   106016   192662   203702   109833 
  -85688  -235751  -222903  -139334   -89025   -62521   -59903  -119988 
 -205457  -185468   -63045    -6785   -23176   -11439    15091   100570 
  266552   348840   282513   174907   113620    96931    29897   -93602 
 -144617  -120163  -115082  -133201  -151189  -148317  -105354   -72596 
  -71188   -47174     7839    60548    74466    28263   -38311   -77139 
  -74358   -48581   -27056    23780    83216    75471    67896    82391 
   67311   112977   176245   121605    39885    -9047   -81145  -150244 
 -158645  -110650   -79344   -65605      336    78764   113798    90389 
   -6988   -76827   -37461    15087     9630   -41787   -88615   -47699 
   -5926   -95882  -166392   -64724    75101   128953   127689    71467 
  -30339   -88095   -64720     -958    35152    20834    35866    73526 
     652  -156003  -233895  -197495  -130765  -103671   -98783   -35563 
   86908   171994   181545   166513   136833    43100   -86383  -159317 
 -165731  -121617   -43268   -32709   -55894    58630   210763   219422 
  176878   145022    29169  -152351  -278378  -315111  -275124  -112760 
   90026   146574   140884   222971   230652    57578   -87016   -58413 
   18306   -14921  -123827  -149260   -67649   -39596  -101295   -71868 
   90312   200770   179698    98163   -12274  -111076  -154650  -191064 
 -231448  -219296  -100622   119192   247217   138793   -30927   -95875 
  -98147   -63518   -25501   -10554    97420   242064   222921   113080 
   15066   -47626    -1842    26578   -53064  -103852   -96418   -34812 
   89785   152454   124382   108623   111334    97958    60168   -25536 
 -144333  -228382  -225968  -187123  -178841  -155444  -114713  -110466 
  -97680   -37046    33434    42697   -22207   -50604     9629    81342 
  112297   148520   217318   200745    69624   -24983   -42692   -42545 
  -71992  -141548  -133620   -33779   -17120   -59697   -17374    56268 
   97677   105177    17659  -141654  -247278  -205605    -6158   174973 
  147108     1229   -85395   -69207   -22809   -86610  -221034  -258743 
 -235878  -212148  -106813    64116   197374   252828   216854   137613 
   85544    14972   -44770     7312    73288    98524   130902    55547 
  -93785  -100472   -17284   -10212   -78217  -109449    24853   219757 
  195593   -22689  -150580  -120336   -90992  -100410   -45019    56235 
   99732    82105     2189  -104047   -75797    50750    40628   -69445 
  -49111    91045   178815   155702    50869   -51575   -28451    84246 
  137712   112599     8854  -178588  -291649  -276667  -278239  -295350 
 -280134  -292550  -290402  -190293   -56651    -8185   -29473    18496 
  140576   180840   145173   179955   236741   204426   148645   111869 
  111424   198467   250211   161465    -2315  -202732  -342011  -348421 
 -345517  -349442  -262442  -144312   -67147     8241    61091    24264 
  -40763   -22593    86636   210460   236467   107812   -68794   -91570 
   67601   189378   181475   150792    77039   -40999   -60570    -1242 
     495   -84441  -172947  -132633     7680    63622    13463   -18997 
  -21949   -34902    14770   120187   128167    58572    22671   -45337 
 -143977  -100221    38988     3298  -170676  -207428  -143062  -130875 
 -115094   -93631  -102123   -47197    71950   134134   130331   147780 
  174653   124883    22345   -59786  -138850  -214785  -220924  -188468 
 -203503  -180040    -9821   168273   189567   110322    44852    -1925 
  -64845   -75031    12783    68893    81464   149612   168443    88723 
   21979   -39970   -97248   -80015   -36867   -39876   -64883   -50554 
   37633   106894    18766  -110096   -80844   -12502   -26607     9423 
   91219   105930   103908    81965   -33790  -126470   -70001    26152 
   30558   -11607    17047    94649    39189  -123441  -162037  -111488 
  -97781   -77495   -58714   -16718    81720   124079   118516   131333 
   75574   -32117   -18900    99966    82355   -81028  -139442   -91260 
  -76293   -80287   -67459    -5355    53901    16812   -26817   -38875 
 -103153  -152649   -85595    50479   105167    29371   -22107   -20336 
  -86640  -126138   -48934    -1499   -18989   -17679   -23826   -11088 
   83729   155688    87829   -61165  -143136  -111601   -73202   -90385 
  -96075   -54272    -7859     5135    24031    96256    93410   -52452 
  -93455    51349   122515    57592    -6970   -50220   -23233   120708 
  177877    34562   -62904     -317    69025    88827    52778   -48050 
 -134720  -176530  -191022  -167506  -153204  -173360  -122227    49032 
  202574   180345     2906  -115958   -33593   101653   113607    75840 
  111249   190485   219622   144184   -18940  -193257  -264089  -172007 
  -55996   -64103  -102783   -80704   -69691   -99948  -152342  -191398 
 -131390    29257   204985   312322   285264   148297   -17099  -137847 
 -141346   -53046    15383    43622    77754   107709   103084    37642 
  -85888  -178410  -176721  -108976   -34881   -11209    15766    98725 
  112815     7673   -96043  -145459  -137236   -47567    39360    24993 
   -4614     9431   -11214   -17455    45793    56234    -8974   -46052 
  -50475   -53177   -43270   -24273   -14299   -21373   -24391   -25633 
  -62568   -76397    -1952    39082   -68654  -160782    -9416   209302 
  129668  -110555  -114025    48676    96731    62230    69423    68451 
   21421    -9022   -36748   -99304  -113711   -40022    25224    10669 
  -71066  -163102  -160953   -45495    43451    61685   101931   157295 
  169946   152694   116426    60353    41836    73236    46278   -56600 
 -150174  -210126  -201563  -155314  -190611  -246613  -195758   -97447 
  -43306   -20077     -319    -5826   -54487   -77066   -18295    37966 
   50274    84267   107227    56228   -15954   -26258    54824   126986 
   91778    50342    41735   -15313   -53298   -36377   -33470   -39259 
  -72446  -123475   -84196    33858   113805    97106   -16829  -106425 
  -18308   113629    76472   -17228   -18750   -11421   -34717     1188 
   77556    67725   -24104   -71687   -35586    -4692   -56901  -125061 
