Origin Time       2021/02/13 23:08:00
Lat.              37.7
Long.             141.8
Depth. (km)       60
Mag.              7.1
Station Code      FKS011
Station Lat.      37.0911
Station Long.     140.9035
Station Height(m) 165
Record Time       2021/02/13 23:08:07
Sampling Freq(Hz) 100Hz
Duration Time(s)  206
Dir.              E-W
Scale Factor      7845(gal)/8223790
Max. Acc. (gal)   304.165
Last Correction   2021/02/13 23:08:06
Memo.             
[...]
   12752    -4078   -19808   -51061   -50676     3079    47318    43834 
   18434   -12623   -51948   -66496   -19944    43240    54808    24637 
    -835   -15888   -32374   -35950   -20572    -2327    25243    61754 
   62214    17772   -17035   -35372   -66784   -65086      707    51294 
   46078    24588   -17509   -70983   -63950    -3967    18793    -7514 
  -23126   -15399     5194    34612    35723      517   -23080   -18458 
  -10673   -13995   -20290   -17604    -6632      -89    -6297   -11402 
    6093    36247    41875     4311   -47513   -56640   -16614     8419 
   -6046   -15020    -3789    10326    24935    23913    -3921   -39343 
  -67626   -63151    -7337    48247    45299    -1250   -42804   -52110 
  -30215    -7630   -12656   -11959    20191    28317    -9413   -41435 
  -50469   -46612   -14202    32648    53165    48721    21539   -28755 
  -62850   -60497   -32004    10625    40374    44496    34326     6230 
  -34657   -52305   -33886    -4037     6612   -12191   -23552      163 
   20787    13633     5776      884   -11977    -3192    29820    35294 
    9400   -19727   -53265   -62490   -22275    24952    43860    29262 
  -12193   -30226     6423    36983    11433   -26569   -38068   -32163 
   -1054    42400    39553    -7597   -36720   -39384   -49422   -56376 
  -27800    23670    62622    62511    19036   -20599   -20078   -19099 
  -45175   -51962   -19121    11934    31032    43433    15997   -39181 
  -47223    -8027     3902    -9016     4234    16614    -8741   -24989 
   -4139     1983   -22684   -38341   -33817   -12468    24428    36992 
   -2956   -46754   -50719   -28764     -445    11757    -1570   -18432 
  -35340   -52127   -35916    21568    68598    49893   -25043   -78393 
  -43092    43066    71339    19364   -33624   -49099   -34464     4941 
   20175   -19583   -46819    -8823    44686    52122    18728   -23923 
  -55039   -44595    11681    54561    36433   -22007   -70777   -73388 
  -21460    55067    94100    59877   -17550   -76327   -72281   -15932 
   33752    22933   -28948   -29126    48725    93663    28683   -68195 
 -106126   -86391   -33983    24761    52119    39557    17429    15068 
   18149    -1582   -27259   -40305   -42940   -16808    28651    41345 
    3956   -49794   -67198   -15674    67871    98902    58552     1016 
  -45377   -59327   -34177   -23407   -28647    -3470    23494    26049 
   40261    51104     6142   -60183   -75215   -46124   -27495   -27278 
   -9752    32185    58290    26573   -47877   -83944   -38398    19797 
   12712   -22119   -11408    12019     1583      734    23797    23803 
    5678     7280    10126   -21015   -54310   -47480   -29866   -12086 
   34165    54133      861   -47299   -30214     4305     9769    -5020 
  -27319   -35283    -8195    18326    16271    10331     4351   -11622 
  -15061    -7796   -15369   -13370     8644     4885   -18231    -9868 
   11504     1888   -11685    -3277       48     -349     6867     -288 
  -15881   -20224    -8862    32443    66707    27383   -44054   -66100 
  -46581    -7877    44560    57326     4191   -47524   -41226    -2076 
   14794   -11063   -40608   -29770     1386     8833   -11622   -32221 
  -31626   -10795    21726    31806   -21702   -86173   -64577    10597 
   28674     1021     8955    22401    -1729     -513    34128    30213 
   -7568   -39864   -65611   -57975    15315    85563    49329   -54348 
  -87444   -13271    63324    49673   -15863   -53370   -54159   -28884 
   15647    36583    13381   -18225   -30593   -32481   -24406    11335 
   40425     4193   -59497   -58583     4340    37469     4518   -38588 
  -39966    10956    71682    56623   -22833   -50927   -12545    11620 
    4349   -12006   -24771   -14964    12197    23199    13932    18809 
   29286    -3204   -58473   -65280   -10369    43569    38298    -6917 
  -38090   -36382    -1148    44724    55381    38430    10242   -58338 
 -112564   -59395    23561    22154    -3828     5541     7350    15939 
   37042    -6382   -77063   -58630    22307    59981    30073   -27851 
  -74866   -70718   -13398    25051    13643    11318    31936    20860 
  -30414   -80960   -92840   -36937    58212   107663    81850    28337 
  -12078   -41723   -72295   -89343   -69959   -15722    36359    44280 
   15996   -14372   -29681   -14801    22351    34639     8958   -14204 
  -22287   -35098   -49646   -40779     1910    35155    20335     9306 
   34179    23307   -27645   -21001    32702    30942   -18432   -28075 
    8704    32832    19263   -16652   -38099   -19256     1260    -8722 
   -7049    20561    30532     9470   -32395   -70437   -57349   -11375 
    3315      213    14126    20389     6173   -11792   -25744   -27988 
  -20383    -6295    13581     7790   -21606    -2155    55790    47785 
  -16746   -43507   -24894    -3391     3642     2656    -8243   -41274 
  -48566    18328    77846    36028   -40319   -49231   -19807   -12313 
  -10798      467   -18835   -64655   -49557    30029    60377    15506 
  -13305    -2871   -13594   -46303   -56150   -42797   -13414    37449 
   66656    29315   -26154   -33820    -6790     -469   -43792   -77874 
  -35430    13691    -5509   -20711    17428    44585    37656    12195 
  -40068   -77646   -66432   -44836   -19839    25388    54336    43097 
   19271     3545     -773    -1701   -17629   -40375   -40228    -8957 
   33481    57349    50213    19746   -19858   -32973     3241    35691 
    3890   -58422   -81068   -47136    16715    60535    46958      -74 
  -25088    -6004    16576     4545     -387    19213    -1448   -59028 
  -78293   -47466    -5425    21767    24989    10681    -2079    -3393 
   -7339   -19519   -26732   -26935   -18427     -514    15404    15682 
   -7551   -33525   -36791   -16125    14407    25103    16086    19107 
   19070   -20544   -62357   -38124    21030    30246     -379    -6596 
   -1004   -31012   -64720   -48159    -7263    10180    10686    18674 
   23595    20166    35432    37756   -25203   -82575   -55390     2173 
   36531    57528    42539   -20067   -73819   -78081   -34495    30376 
   51300     7423   -30578   -14544    14096    -5725   -58325   -71246 
  -27248    37678    87157    67707   -22265   -81538   -59857   -21730 
   -6686     9477    30511    29959    14592     9549     5562    -7263 
  -23099   -36811   -36412   -11203    30235    39506   -16540   -69851 
  -44991    25582    85415   102143    45868   -43158   -82841   -53923 
   -6301    -1705   -41274   -69098   -36396    41334    88287    63448 
  -10625   -75523   -66820    -1561    34159     2855   -56752   -81265 
  -32818    52041    89185    62812    15572   -31495   -53921   -45918 
  -26711    17772    61653    36826   -25528   -31942    17005    31757 
  -13741   -43812   -29862   -23896   -25648     1171    25972    13001 
   -6623     4606    25544     7385   -41027   -62673   -42261    -8945 
   18736    32058    14520   -27449   -48911   -17113    39032    58661 
   37357    21327    13251    -6357   -12069    10569    25130     7501 
  -24514   -44494   -52029   -69527   -87366   -66857   -24795    -7029 
    9456    43278    35681   -14526   -27148    -1395    13765    43421 
   95553   104944    72208    58496    61045    55918    56297    48505 
   -2705   -59675   -57843   -20085    -4502   -12835   -18053   -27652 
  -54591   -70239   -73113   -84640   -70006   -13533    24552     1811 
  -43746   -49287   -11022    26303    39433    39862    34145    16004 
  -15687   -65880  -109016   -86379   -20055     7773   -17028   -58132 
  -73485   -31283    28618    28579   -17855   -20931    35149    83997 
   97556    88075    61821    46326    64858    75695    38418     7624 
   31407    40734   -16073   -68342   -60408   -44832   -64126   -85563 
  -77714   -19846    66085    69234   -42672  -146225  -142595   -34026 
   97390   134991    81481    27083   -19602   -55637   -32301    27367 
   47047    10462   -25729   -36039   -50654   -61676   -51667   -51367 
  -69299   -78907   -83628   -97285  -111541  -116337   -94564   -46903 
  -25655   -46811   -44394    -9667   -13698   -30275    10759    43492 
    6844   -28059   -24144   -19881    -1648    47034    68067    41210 
    6693   -43256  -112077  -139036   -96438   -21882    30523    20625 
  -31507   -53052    -6643    64978    95702    77278    62033    77527 
   83408    56825    35113    36333    45731    66957    98790   103512 
   61614    17764     6821    -1597   -22400   -26082    -6898     7356 
     325    -4121    16073    40080    54437    68436    69691    44115 
   21253    28564    34896    13630   -10330   -16938    -9435    13724 
   41530    34317   -12043   -45528   -49392   -40162    -6428    35662 
   44941    43117    56529    54550    30191     -101   -31765   -38533 
  -41230  -105003  -184809  -186494  -122119   -46903     8383     7882 
  -51871  -117906  -146010  -138591  -128479  -132706  -118304   -60288 
    6660    51918    87011   115165   119303   101738    90047    96719 
   98008    67490    28327    35797    80928   102344    94771    83343 
   51771    -5406   -42880   -41229   -23623    10944    48537    49894 
   32890    15985   -36371  -121806  -195906  -237146  -222220  -140660 
  -57628   -46089   -82622   -96300   -58729    23822   117132   159657 
  135388    84642    38583    11358    -1629   -16405   -16177    18430 
   51516    36085   -10795   -46947   -85437  -142893  -176281  -167093 
 -161673  -163432  -120854   -55850   -47325   -79860   -76820   -41295 
  -18129   -15147   -18439   -11603     -626    11603    42738    69658 
   64658    39884    -6147   -73359  -120895  -111356   -63618   -39592 
  -71852   -99362   -36455    81201   154435   174424   166480   120937 
   73576    81814   110374    98635    74839    71382    57080    34658 
   47830    85884   104998    91123    47767   -17293   -89059  -140576 
 -130955   -53401    31607    62268    57337    73114   103574   115481 
  113648   107534   107341   137903   185635   200727   173299   125086 
   74417    42535    21946   -13288   -60451  -110138  -166896  -226530 
 -259077  -235948  -150453   -20094    70391    34213   -67398  -101096 
  -73738   -77523   -99090  -104977  -104257   -50156    48031    91794 
   69653    54799    71263    72736    47957    19484   -25101   -68998 
  -61362    -8089    20645    -9917   -43661   -40765   -14588    27716 
   51609    20634   -37667   -84846  -104458   -84123   -38869    -5761 
    1219   -18370   -62719   -99725  -109223  -109047   -90470   -28198 
   72031   178873   240876   221452   142585    60716     -522   -56106 
  -90576   -80542   -53478   -28166    -8282    -9531   -13988   -13998 
  -32621   -62191   -86358   -84489   -38944     8121    10683   -12822 
  -27330   -31810   -42331   -49461   -39123   -17316    20260    45922 
    9389   -56658  -111801  -185095  -250219  -217755   -88017    30659 
   66842    65612    70073    46248    -1451   -19456   -14164   -11605 
   15222    77415   120974    94721    18667   -37714   -43987   -25861 
   -7766    11145    54789   114837   137358   118515    91386    48593 
  -13694   -63292   -90414  -110635  -108310   -77233   -71454  -114687 
 -150095  -141370  -101595   -40779     -546   -15246   -22848    28903 
   93174   115372    95247    45956   -19851   -46174     3033    68249 
  100001   106852    84393    36458    -3352   -33829   -80624  -123280 
 -131364  -113611   -61152    17466    54429    40878    35777    46228 
   38418     8499   -10224    13848    66684   118694   161079   174247 
  134150    65977    39993    62480    44539   -30500   -87475  -108378 
  -88449    -6813    68500    73932    58330    60151    52158     6227 
  -82063  -179712  -245088  -250668  -161130    -9127    76698    35588 
  -58307  -118797  -149376  -182040  -168010   -83856    -5042    41268 
   80183    96893    67308     7730   -22972     7851    54049    62532 
   42981    20957   -10076   -41454   -19611    61237   105316    66267 
   19076    -9675   -60172  -107099  -119195  -115279   -80941     7160 
  106026   157322   163584   160913   148221   107508    52251    -4276 
  -65037  -118439  -140798  -122472   -79686   -31178    24945    68635 
   49999   -14115   -53642   -73315  -109980  -119966   -51857    47094 
   99954   109247   115403   124106   130320   138885   143472   123901 
   74144    16729   -19089   -31152   -45261   -49531     1363    71906 
   80056    38426     4895   -26501   -73249  -104853   -91201   -55578 
  -39548   -32634   -12005   -11476   -52834   -91403   -94724   -92781 
 -118941  -145727  -150399  -172534  -192446  -141399   -63197   -33623 
  -26203     5107    42693    60714    67640    60045    30555     9355 
   24502    66785   112862   140238   126455    77355    23133   -26619 
  -61704   -54213   -18697   -10724   -47866  -107712  -166071  -182457 
 -132381   -52263    16723    53534    33430   -25479   -57694   -33480 
   27232    99825   146144   130581    94377   111811   165125   190077 
  195180   197052   151195    48389   -42390   -75494  -100503  -159197 
 -200140  -206253  -220059  -211810  -129031    -6968    62606    26747 
  -50475   -67695   -54608   -93266  -136783  -109675   -30538    59212 
  118158   118330    75375    19400   -14231   -21501   -31834   -47183 
  -53493   -48436   -27839     4041    18974    19683    46672   109424 
  185005   219229   170557    86805    23849   -33575   -90757   -88979 
   -9235    85104   147456   139795    33081  -115534  -234473  -309120 
 -324147  -235273   -57172    98109   176413   191636   103677   -28179 
  -73674   -83654   -98702   -57330   -14227    -9013    15047    44240 
   35815     5340   -14473   -10573    25247    93436   150897   162041 
  134920    56288   -67533  -163215  -202741  -215431  -193162  -126779 
  -55123   -19407   -23820   -49612   -87527  -125625  -135585  -104491 
  -41964    32900    85101    87978    68478    74252    98046   115231 
  151858   210722   231392   181788    88609     5512   -40250   -87110 
 -141245  -140679   -92211   -56921   -21932    40466    79351    42681 
  -28266   -63524   -68245   -61091   -18681    27808    27544     6848 
  -17207   -48886   -60053   -49482   -36016   -17743     4148    19236 
   17049    -1011   -21406   -38198   -58043   -86054  -111673  -111715 
  -69993     3316    73773   102408    81055    52388    49239    54776 
   69897   110307   142078   139691   121092    86701    33149    -7299 
   -5721    15669    21975    22493    31452    31387     3681   -48581 
  -98678  -116098   -92142   -51143   -39772   -60029   -53653   -13151 
    2479   -17828   -33184   -28065   -14796     6338    25853    -4330 
  -82019  -131269  -130234  -113495   -93289   -74763   -70969   -74367 
  -48181     9012    54247    92457   137682   142839    86235    11169 
  -43274   -65078   -44431    11078    50080    33529   -10146   -29232 
  -11610     6833     7843    13126    11950    -4329     1398    19445 
       4   -42368   -50882   -30994   -24956   -22750   -15807   -23515 
  -29829   -16047      463    -1263   -18505   -32622   -39226   -44883 
  -41526   -15022    21821    38473    35676    32660    31324    33485 
   38615    29910     4012   -17196   -21253   -19838   -30478   -61850 
 -102199  -129018  -124942   -79151    -9823    44153    70700    79899 
   71301    43178    20380    25536    39128    44305    48370    44433 
   41960    74545   130516   165485   157640   112569    59157    28093 
   19967     4779   -32976   -63625   -62658   -38009    -3646    16907 
   13041      561   -26590   -64805   -64565   -31726   -32150   -54633 
  -46148   -20893     7446    54912    81967    37048   -49553  -123786 
 -165005  -145389   -77637   -37284   -35166   -36252   -51652   -68731 
  -59925   -59772   -89244  -111064  -102105   -69822   -22746    22145 
   41362    40297    36790    27438    19103    24696    25213    -3800 
  -47791   -60041   -22707    27002    53036    58845    51386    17938 
  -28849   -50151   -45893   -36726    -7711    46307    82363    72778 
   38573    11874     6376    15088    27518    35232    31888    14538 
  -19462   -46759   -40166   -16460     2581     9416    -3726   -25786 
  -36414   -29617   -17861   -16137   -18871   -15086    -4104     9024 
    8827    -5779    -6156    13676    21490      -16   -31590   -41386 
  -17331    27175    75211   110335   115443    79508    15211   -32104 
  -41877   -39637   -32957    -1807    47344    65816    32837    -6556 
  -26677   -57379  -109354  -151583  -167294  -155360  -105856   -46126 
  -32818   -65780   -82235   -48393   -10446    -3859     -573     3747 
   -4284     6211    49235    85629    91662    89100    94824    89954 
   56901    21482    12464     1611   -29890   -35465    -3672     9617 
   -9971   -23456   -24806   -35212   -38225   -17861   -13169   -45427 
  -75618   -75011   -58361   -42612   -16251    25159    49866    47236 
   54270    83354   100206    89738    75911    64473    35230    10547 
   14879     1337   -42718   -54859   -30626   -24582   -35486   -24561 
   -7388   -19512   -39718   -44285   -54005   -66606   -42206    20424 
   60365    36286   -10515   -30612   -34823   -45420   -64422   -78969 
  -68686   -38638    -5476    24123    24416   -10929   -30546   -11183 
   10511    16621    14084    -1393   -22847   -23614     2884    39726 
   83903   122258   123677    98068    69719    30692   -20768   -59356 
  -65426   -43078    -1401    48487    81222    71278    26304   -10484 
  -22509   -41553   -77519   -95893   -80437   -51764   -22913    -3190 
  -11850   -36859   -48486   -46600   -45106   -57586   -81310   -86047 
  -66064   -38430      864    46016    70783    66970    50889    32692 
    4745   -32644   -71365   -98238   -86701   -32892    25867    51395 
   44139    36155    40062    31375    -2612   -40370   -61045   -56041 
  -28745    -8560   -14844   -26229   -18405     7142    34470    45925 
   24382   -22397   -53241   -58908   -74455   -95440   -86044   -60243 
  -50768   -43879   -13088    36169    78992    97681    88121    42763 
  -29027   -65371   -26852    27276    35058    25226    41381    64798 
   58596    29374     5857   -14068   -35406   -34283   -13841   -15079 
  -44259   -55602   -21045    24754    38765    32749    24402    -9802 
  -56835   -60552   -32362   -23787   -14682    26352    44540     5597 
  -28313   -22199    -8297    -2536     7908    21860    19718     9967 
   18234    29689    24102    10543    -7304   -28756   -39884   -26887 
    5625    36190    56620    65686    52451    24514     -749   -21474 
  -30726   -19630    -5853    -7354     2631    47906    88418    81421 
   39988   -11145   -59548   -72937   -42009   -26646   -41197   -28132 
   -1324    -4349   -10882   -14343   -39730   -60426   -58793   -62195 
  -61709   -38033   -14675    -3793     2149    -3920   -20169   -26743 
  -30653   -52905   -65722   -42114   -16644   -14627   -18538   -16252 
   -4495    23345    60712    79735    59034    26339    26773    41489 
   28340     9528    12152    17842    24567    37042    30134     2408 
  -14971   -11380     6594    21481     4483   -33347   -44157   -13078 
   27584    41824    24717    -8634   -41570   -52555   -39251   -30119 
  -29254    -8951    20515    23067     2199   -16582   -22391   -23387 
  -33993   -43028   -22384    22068    50881    47255    25024    -1717 
