Origin Time       2021/02/13 23:08:00
Lat.              37.7
Long.             141.8
Depth. (km)       60
Mag.              7.1
Station Code      FKS005
Station Lat.      37.6385
Station Long.     140.9849
Station Height(m) 16
Record Time       2021/02/13 23:08:03
Sampling Freq(Hz) 100Hz
Duration Time(s)  300
Dir.              U-D
Scale Factor      7845(gal)/8223790
Max. Acc. (gal)   286.735
Last Correction   2021/02/13 23:08:02
Memo.             
[...]
   27454    27454    27459    27454    27440    27437    27445    27448 
   27444    27444    27448    27452    27453    27456    27460    27460 
   27448    27437    27436    27442    27454    27456    27448    27446 
   27441    27442    27459    27456    27440    27446    27456    27448 
   27445    27446    27442    27442    27440    27442    27449    27450 
   27453    27449    27441    27445    27457    27461    27453    27446 
   27442    27440    27441    27448    27454    27450    27442    27446 
   27446    27442    27453    27453    27433    27437    27457    27450 
   27436    27438    27448    27450    27446    27445    27445    27450 
   27459    27454    27444    27442    27445    27450    27453    27442 
   27436    27448    27463    27459    27450    27452    27449    27445 
   27445    27446    27446    27441    27437    27452    27461    27450 
   27446    27450    27449    27444    27442    27449    27457    27450 
   27440    27442    27450    27456    27454    27441    27440    27446 
   27446    27449    27450    27448    27446    27442    27442    27446 
   27446    27449    27453    27448    27441    27446    27456    27453 
   27444    27438    27441    27453    27454    27442    27448    27460 
   27456    27449    27444    27437    27434    27441    27453    27457 
   27448    27446    27453    27452    27446    27444    27442    27441 
   27444    27449    27456    27463    27459    27449    27446    27446 
   27448    27442    27440    27448    27450    27445    27442    27445 
   27454    27459    27450    27449    27448    27444    27442    27446 
   27448    27441    27442    27445    27441    27445    27452    27456 
   27465    27460    27444    27438    27440    27444    27449    27452 
   27450    27444    27441    27449    27454    27449    27446    27449 
   27450    27459    27456    27442    27444    27441    27436    27448 
   27452    27444    27440    27441    27453    27461    27452    27452 
   27453    27442    27437    27441    27452    27465    27465    27446 
   27430    27434    27442    27446    27449    27452    27459    27453 
   27438    27438    27449    27454    27452    27449    27446    27444 
   27441    27438    27437    27448    27454    27448    27452    27463 
   27459    27444    27441    27452    27456    27452    27444    27434 
   27437    27453    27461    27453    27438    27438    27453    27449 
   27436    27440    27449    27450    27454    27456    27449    27444 
   27445    27452    27454    27444    27436    27440    27448    27453 
   27452    27446    27446    27449    27449    27450    27452    27449 
   27446    27445    27442    27440    27446    27453    27448    27446 
   27452    27453    27446    27442    27450    27457    27450    27453 
   27448    27426    27430    27452    27463    27459    27436    27418 
   27445    27480    27472    27432    27411    27446    27476    27452 
   27429    27450    27471    27452    27423    27429    27454    27465 
   27454    27433    27438    27467    27463    27437    27427    27438 
   27454    27459    27445    27440    27452    27456    27446    27444 
   27450    27454    27456    27446    27437    27446    27454    27449 
   27452    27456    27446    27445    27452    27446    27436    27436 
   27442    27446    27453    27456    27445    27453    27464    27445 
   27433    27438    27452    27459    27448    27444    27450    27442 
   27441    27449    27444    27437    27445    27456    27457    27454 
   27453    27450    27450    27445    27433    27446    27454    27436 
   27437    27453    27450    27453    27460    27456    27441    27432 
   27438    27448    27450    27459    27456    27442    27448    27448 
   27430    27442    27469    27453    27433    27450    27459    27445 
   27446    27452    27446    27442    27446    27448    27449    27454 
   27463    27459    27444    27438    27456    27453    27436    27445 
   27450    27437    27446    27459    27438    27436    27465    27456 
   27429    27442    27457    27450    27445    27438    27442    27450 
   27453    27459    27449    27429    27427    27442    27457    27469 
   27476    27459    27432    27433    27442    27440    27449    27463 
   27452    27433    27434    27448    27452    27452    27452    27448 
   27448    27446    27442    27446    27454    27452    27444    27442 
   27446    27446    27444    27444    27449    27457    27461    27454 
   27440    27436    27448    27453    27444    27437    27441    27446 
   27454    27464    27459    27445    27446    27445    27434    27444 
   27456    27445    27442    27444    27438    27448    27464    27457 
   27445    27449    27449    27448    27453    27452    27454    27457 
   27438    27434    27457    27453    27436    27442    27452    27452 
   27448    27440    27442    27449    27442    27436    27448    27454 
   27446    27453    27464    27453    27440    27448    27459    27450 
   27445    27440    27432    27446    27467    27453    27438    27445 
   27453    27448    27440    27442    27452    27452    27444    27445 
   27449    27444    27446    27452    27445    27434    27440    27456 
   27457    27446    27446    27448    27446    27445    27442    27445 
   27448    27446    27454    27460    27449    27445    27452    27449 
   27452    27454    27441    27433    27442    27448    27446    27450 
   27449    27438    27441    27450    27453    27453    27449    27452 
   27453    27440    27436    27449    27454    27449    27441    27442 
   27454    27467    27468    27452    27434    27437    27450    27456 
   27446    27438    27446    27457    27454    27448    27454    27456 
   27445    27441    27440    27436    27440    27440    27441    27459 
   27461    27450    27450    27449    27442    27440    27444    27453 
   27459    27454    27449    27445    27438    27438    27449    27448 
   27444    27450    27453    27448    27440    27445    27452    27453 
   27452    27437    27434    27459    27454    27434    27441    27448 
   27445    27457    27467    27448    27430    27436    27437    27426 
   27422    27407    27399    27417    27415    27395    27368    27299 
   27264    27321    27290    27066    26913    27145    27600    27780 
   27585    27414    27540    27839    27980    27788    27442    27006 
   26426    26153    26709    27907    28884    28467    26806    26125 
   27232    27996    26990    25138    24559    26527    28860    28945 
   27765    26855    27126    29354    31194    30118    27295    24830 
   25251    29118    31428    28954    25790    27591    33839    35614 
   27433    16976    14311    21510    31518    33810    28561    24428 
   25169    29803    32217    27076    21775    22859    24997    24354 
   21057    17142    19161    25888    27741    24655    22680    23369 
   27919    33652    31569    22060    17813    24313    33690    39063 
   40522    35816    22766    12760    17737    30538    40501    44417 
   36213    20491    19356    37586    51719    46503    33702    32371 
   42881    45127    30249    15151    15584    31415    46915    40833 
   19271    10338    22100    37833    40790    29346    11804      476 
    8766    27869    34021    27996    20124    12912    14904    20108 
   17656    18760    19174    10899    18624    39985    43479    36775 
   28559    12503    18516    47391    50041    30109    14594     3169 
   16629    51104    56725    33411    18207    16154    21856    35741 
   49427    59759    67344    53299    10624   -27390   -32387    -6739 
   30946    58305    62446    35625    -8095   -20387    17003    58770 
   61777    34408     8665     8725    36441    53158    31704    10667 
   15705    17401     8260     1981    -2616    10231    47825    67649 
   46971    27461    35711    52092    62577    46109    -2562   -18643 
   26314    65542    53298     9113   -23908    -9807    43800    83895 
   68338    20345     1266    29276    63166    52799    -1520   -35036 
  -11651    22788    30915    22235    13587    29354    73998    92373 
   41368   -29525   -50018   -10562    62181   106578    50488   -55437 
  -60346    44598   118847   100917    32181   -19894     5579    65256 
   58205     6939      313    39630    78413    81368    41035     7931 
   20444    43376    38188    21307    31830    54787    32387   -15122 
  -14418    30466    59652    27001   -43127   -43812    50201   122108 
   92153     1744   -50148    -2145    74534    62010    -6961   -19442 
   22910    64705    83106    40512   -42466   -42886    61527   110949 
   25543   -58942   -28853    63197   124087   104544    16059   -52435 
  -15847    89860   136679    72948   -22323   -67815   -52421    -1817 
   40718    27743   -31153   -50043    21381   111299   118365    55777 
     727   -31201   -24263    44149    93348    48285   -25925   -35681 
   34686   119884   114767    15881   -77036  -106662   -49879    68824 
  144621   120235    46253     4352    13478    24867    13603      236 
    5815    34314    63019    52092     5011    -2205    70777   125757 
   66954   -28453   -48060    -6303    42799    69830    53289    16703 
    3113    12160    24830    31600    35495    59427    80102    31648 
  -52128   -86962   -57091    39729   147850   153956    75730    18810 
     615   -22958   -61164   -65989    -5744    72419   113738   106693 
   54463    -5499   -20197     3234    30352    55642    65574    36606 
   -9582   -12056    48980   103971    88388    29799   -26353   -57242 
  -31035    49415   121714   127666    72430    12496   -19407   -29146 
    -290    61889    73813    14841    -8667    20282      668   -33960 
   20699    97798   104211    86687    54884   -27395   -57226    28823 
   88414    37895   -39874   -73114   -39401    36521    71841    47812 
   27176    20414    23383    65905    94171    54251    23009    17294 
  -29107   -40050    56971   135630   102944    18742   -65411  -106219 
  -43602    83006   160729   117393   -14050   -67039    27151    93996 
   56170    23568     8568    -1090    43021    69353    17930    -7150 
   15205    11144    15425    35085    13713    10104    55074    46043 
  -10320    -5200    44250    74652    74209    19149   -49906   -45724 
   11408    53955    57612    28647     6539    25224    50942    14504 
  -44990   -11948    69543    81785    62591    65873    52659    18608 
  -10322   -34912    -1917   137128   232833   110146  -111360  -155559 
   15230   151237    96484   -36578   -96483   -45489    40297    65064 
   38593    29835    50950    61931    32463   -37685   -70463    12256 
  102517    76439    18970    27517    53909    34284   -10960   -13184 
   31091    49397    48697    74977    65955     8959    19545    92460 
   95539    42137    38978    50521    16490    -3221    25361    57322 
   69390    62379    31051     1111    -8680   -19016    -7018    28285 
   16802   -31000   -43206    -5852    46325    53896     4557   -13976 
   57952   141490   107025   -55810  -159401   -34159   178177   213304 
   62037  -100175  -156639   -72755   104091   221441   175922    38057 
  -77191  -108661   -28514    95409   130125    68099    17443    18258 
   47096    80785    58957   -27163   -78304   -43573    27372    62364 
   11182   -92375  -122721   -14235    97557    62344   -22071   -18698 
   28769    94174   168295   145255    17514   -89469   -79957    25636 
   96007    78733    44863    20293     9003    41108    79343    76045 
   64951    53030    30836    39352    50866    17689    -6455    13829 
   39480    47456     3419  -108139  -134352    29035   184798   166583 
   79828    32112    15063    34788    76302    62646   -13996   -58126 
  -14673    40606    35658    13016     2049   -14571      573    62299 
   92709    71127    40992   -19417   -65017     2766    93028    82240 
   13894   -31226     3927   106289   129783     9273   -94624   -73287 
   -6755    55169    96272    60174    -7958    -7306    47036    74714 
   46870    -2974   -29002    -4332    59805   106159    99094    62178 
   34191    38857    32269   -25338   -20949    69812    54785   -42553 
  -38997    -4279     5890    78657   103769   -20933  -109205   -42646 
   55239    89071    70976    38458    33210    54859    54718    14951 
  -35529   -71427   -92699   -86657    -1034   142258   220888   184106 
   67046   -72094  -116614   -31050    27025    -5848    43282   175525 
  140404   -17421   -32356    31261    26196    32520    58518    41543 
   29960    49003    78597   101259    70997    14254   -18709   -96800 
 -176512   -59718   155101   189757    89046    -3739   -84434   -64424 
   68913   112120    23184   -16048    66532   143880    78061   -74355 
 -127919   -16546   124877   117331    -2396   -53524   -20958    34805 
  116407   140873    59042   -12665   -10912    42533    83203    37083 
   16110    96334   118219    51464    -1765   -67209  -110201   -29170 
   79841   123623   174415   180886    16703  -180854  -170529     8561 
  145328   147050    34064  -110810  -165994   -54261   120833   121751 
  -32472   -87405    20969   174843   258971   194319    12421  -114862 
  -50113   114693   160373    21321  -143480  -173519   -75390    80218 
  225574   256558   125791   -62680  -111608    34368   145588    71247 
   -5526    30777    26136   -68978  -103014   -46731     -643    21293 
   29976    20262    56317   124573   122176    66761    11639    -3881 
   55985    72162   -31934  -126158  -117159    13899   221668   293214 
  134206   -67570  -192797  -182777    63661   328023   287382    78160 
  -55194  -146704  -163012   -34913    52004     5541   -16684    33642 
   85658   109748    75886     5768    -7195    12718   -27180   -62131 
  -29116   -22481   -53662   -18847    51374    49932   -15763   -88263 
 -113607   -30418   126110   227686   195303    85850    50342   119889 
  133960    17903   -93033   -94776   -17286    95222   159883    77342 
  -71544   -99871    26900   157944   134609   -22141  -126285   -42300 
  135768   216552   150007   -14785  -173484  -167840   -12741    56728 
  -65389  -187050  -112936    89688   209891   151465    25026   -18206 
    7973    43167   105852   126119    27014   -85206   -98134     -106 
  143779   179907    79132    -9212   -35793    -2290   137227   234823 
  110620   -64031   -39413    92098   102929    11986   -24606    -5751 
  -14373   -40055   -49572   -42610    -6099    47151    93433   114625 
   63516   -24862   -46835    20650   103334    91793     5452   -53325 
  -55869    51378   197861   139132   -48230   -53052    80021   119342 
   66977    18434   -11445   -23190   -11379    14496    28154     6897 
    1047    41162    43140    15117    20865    13429    23761    84281 
   76936     7481     7076    50647    57130    45196     3176   -35965 
   46079   131040    54976   -25770   -13971     -438    38184    91901 
   80530    24123   -40895   -43538    66622   154877   117477    46473 
   16389    17868    45104    36062   -52763  -104638   -34776    71822 
  141453   146194    31259  -137357  -158558    37247   254595   225680 
   -6481  -150735  -137366   -46259    80414    89195   -43212   -80302 
   21527    72740    35328    22866    60026    89482   109352   121544 
  100425    60120   -11766   -87318   -35579    92249   109026    21729 
  -81376  -137612   -68103    82846   182699   180092   112378    36327 
  -32314   -51908    40439   135557    83057   -20453   -59220   -94062 
  -94633      -97    52290    -9085   -39376    31735   103925   111700 
   67428     -600   -26627    13348    64042   101167   114138    82543 
   28972   -13845   -17118    10999     2405   -41542   -59410   -44788 
    4693    39249     4072    17755   113448   115460     8208   -29269 
   29268    53743    36848    41079    44143    30284    28255    29901 
  -15471   -74656   -28113   122818   248082   270070   178706     6242 
  -79640    50226   213607   200010    42790  -122797  -143922   -19554 
   55578    17890   -36830   -54394    -8024    79645   137138   135198 
   57377   -63001  -122878   -87740   -11461    37511    31866      402 
  -23143   -46035   -82308   -66949    28005   100035    95700    49326 
   17871    46071    65033   -12823   -98037   -30592   128837   162179 
   51231   -44926   -50498     4253    57958    61585     6204   -47854 
  -39591   -16603    10450    83729   106056    61909    89704   123805 
   70128    42114    15199  -100475  -132209     9987   114278    65394 
  -30285   -81194   -55181    35891   122183   143289    53256   -97749 
 -113043    62468   234175   251600   146335   -11754  -158923  -164296 
  -11190    94257    70524    36952     3458   -36656     8931    75722 
   38556   -38373   -65203   -22503    67421    98479    41467    29991 
  124251   173719    81454    27558    80076    27739  -105884  -104326 
   11627   125923   187531   146962     2308  -162787  -203135   -65159 
   97987   141894   111461   111964   131922   103585    79016    89058 
   35428   -53455   -56925     5166    44165    10312   -35689    40684 
  164671   126362      805   -38755   -56988   -91916   -64851    38407 
  184451   281808   215784     7408  -146425   -78202    85676   106753 
   13594   -45520   -40470    33307   123255   111022   -10199  -133778 
 -161292   -68935    81553   166754   120915    34055     6489    43710 
  102636   109964    38708   -65978  -116283   -13618   162000   191617 
   60759   -44319   -12526    79932    65894   -65256  -148509  -105521 
   22042   167070   210101    76886  -112797  -173880   -77988    66163 
  128904    74629     4166   -19649   -20871     1885    57003    72166 
  -37683  -126033   -10798   133608   113799    45210    30179    11788 
   -9555    22577    61173    43306    16976    39017    83224    66158 
  -31423   -78387    -2323    95901   157090   158103    52508   -59503 
  -46340    45801   130378   154283    39521  -136359  -165410   -76788 
    4568    99945   141571    45667   -81012  -102805   -13257    88973 
  160373   162272     7832  -129512   -11704   171309   139024   -19105 
  -87269   -78537   -85541   -25891    95750    99495     6748   -17057 
   62390   154553   180827   159864    79712   -51869   -69790    72038 
  170640    81912   -82498  -111132    30495   168948   143260   -17415 
 -139259  -117784     1638   138935   231730   207543    55463   -64828 
  -22707    41423    30055    48566    80042   103729   182096   168997 
    3451   -74605    -8915    49931    65429    26882   -32354    -6905 
   66935    88376    74320    90525    82278   -60669  -190271  -103736 
   67066   173387   229996   156459   -60272  -211399  -177418   -63811 
   16687    64899    63261   -32279  -100711    27081   238742   257075 
   66135   -87178   -83571   -26775    14677    49150    50669    53383 
  103927   122091    49036   -66549  -154191  -160760   -59881   119801 
  237267   163490   -21374  -136123   -91193    48176   101646     3006 
 -147136  -249841  -173470    77549   214108   130986    16294   -50545 
  -59294    18111    74622    23546   -27371    22577    97497    93919 
   49316   -11515  -107088   -99333    54211   128511    56004    23576 
   84622   110196    68343    29805     8326     1147      873     2334 
   59193   106799    28320   -63657   -53206      496    55925    86572 
   60451     1192   -49198   -25797    44552    33250   -29884   -18690 
