Origin Time       2021/02/13 23:08:00
Lat.              37.7
Long.             141.8
Depth. (km)       60
Mag.              7.1
Station Code      FKS003
Station Lat.      37.7613
Station Long.     140.4799
Station Height(m) 64
Record Time       2021/02/13 23:08:09
Sampling Freq(Hz) 100Hz
Duration Time(s)  195
Dir.              E-W
Scale Factor      7845(gal)/8223790
Max. Acc. (gal)   270.761
Last Correction   2021/02/13 23:08:09
Memo.             
[...]
   50787    67292    39822     8985     -811    -8656    -7944     8087 
   14351    11480    17051    26694    39314    52398    43090     9809 
  -15052   -16332    -5528    10282    24949    25022    11284     5459 
   19079    29409       12   -59988   -84036   -47980    -6307    14308 
   35874    52420    40437     2002   -37611   -39252     4693    42047 
   31228    -6372   -28925   -26353    -6845    27696    51167    39488 
   21702    20561    24322    27984    35804    48614    48897    23203 
    -900     3330    20687    18540   -10706   -32012   -16560    16247 
   31884    12938   -25829   -50153   -51480   -37089   -12596     1397 
   -4212   -13541   -17247    -7241    29054    70648    69114    16079 
  -40644   -53690   -17946    34284    63190    51340    19480     5530 
   19786    46048    57619    41361    28394    32377    24046    12673 
   29189    51804    43582     9936   -19815   -20387     9235    42607 
   57090    44254    12858    -3920    18848    61379    87297    86206 
   62028    33440    27406    41389    64810    86107    72819    25760 
  -11662   -21123    -4602    40348    85198    81854    28777   -23789 
  -34090    -8199    26175    46997    38562    10681   -16983   -37092 
  -29517     -434     2953   -16769   -21467   -15201   -11071     3640 
   36859    72594    79509    41897   -12811   -45546   -51567   -44356 
  -21614    13954    29648     8216   -25574   -45574   -39476   -15076 
    1748     1768    -8282    -9991    15959    47868    47214    13027 
  -21784   -24355      542    16649    10156    -4305   -16243   -23157 
  -19215     5103    34875    36416    13597    -1887     1289    17626 
   43051    69853    74722    42180    -5192   -39935   -59140   -55493 
  -26407      406     8742    11796    23797    47167    65500    65996 
   56799    44689    34790    31942    29513    17383    -7815   -29631 
  -17356    30635    68278    56747    22470    10758    18562    27195 
   34975    35977    23260     3304   -12382    -9583    20772    50274 
   37820    -4853   -35897   -41264   -29867    -1424    44625    73319 
   53543    16443     4318    15669    27599    21533     7184     1289 
  -18754   -49746   -32174    30582    59621    26553   -26210   -45729 
  -10443    42272    72316    81862    71531    46152    28057    23279 
   21516    12310    -6833   -23841   -30091   -32780   -22245    16173 
   46484    31039     -945   -14901   -19859   -21639   -14056     -241 
   15126    23868    13506   -14276   -28721      378    50822    69973 
   43752     3257   -20271   -12359    24651    60943    68250    54263 
   34538    10346    -8368    -5944    11028    23913    20339     1406 
   -4793    19611    40872    30785    12950     5028   -10540   -36458 
  -50086   -47723   -48074   -53990   -50063   -28794    -1120     8503 
   -3990    -5910    16092    34138    38595    49509    63358    59709 
   49014    49388    49302    23417   -28117   -56706   -32109      491 
    6894    18642    53179    79157    79184    65426    41422    13042 
   -2872    -7778    -7798     3865    21455    29000    19688    -4554 
  -25143   -25255   -15128    -5431     4704    12981    16779    13054 
    3547     1065     5467     3434     6932    29771    45669    35955 
   21548    20606    24511     9633   -21008   -25726     6238    35185 
   41106    38583    28988     8307    -8972   -17275   -16455        6 
   13707     2513   -10656     8739    53399    89490    92931    59275 
   10759   -17388   -18544    -3584    29327    65616    71433    44390 
   24340    37311    52429    33554     -864   -13977     1530    27739 
   49619    63271    47590     1305   -21045      693    11708   -23326 
  -54180   -30897     2596      793    -2110    25721    64860    80524 
   61269    36660    32483    26423    -5580   -32624   -20849     3289 
   15730    35249    56979    47682    10705   -25108   -46870   -48593 
  -36645   -24767    -8614    11041    16582     3279    -9737    -7717 
   -4467    -6970       28     3578   -13154   -15341    12522    27683 
   20371    20035    22871    12706     1167     -225    -3136   -18729 
  -37277   -34568     5171    52621    52741     2566   -41824   -37303 
    6355    52189    72497    60870    30252     -753   -17541   -11194 
    4904     2566   -17058   -21654     1532    35834    68871    84531 
   70807    49299    32564    14189    10482    34834    61464    56990 
   35046    36018    54630    50639    14723   -20625   -19487    11330 
   30666    25932    16078     9622     7524    11371    14801     9420 
   -7082   -28633   -38596   -20737    15462    42273    52452    48157 
   19302   -21824   -36358   -12010    11372    -1767   -18306      646 
   36477    74281   109917   114993    82486    28769   -42844  -103060 
  -92604    -9834    71014    92041    62363    16613   -18613   -19920 
    7661    18007    -4048   -32368   -58245   -62355   -25567    25308 
   61258    67161    46275    19854   -13521   -44082   -37909     -186 
   37003    59907    64814    50804    34973    32728    28609    10091 
   -6480    -6859     1086     4261     5996    22522    51426    55694 
   17464   -28559   -60239   -83478   -75956   -20158    39502    52312 
   22896   -18436   -44263   -30226    12572    38117    29349     9794 
    2524    17875    48579    70356    68463    48554    26248     8625 
  -15271   -35328   -12795    40059    60736    37030     7179    -3346 
   12302    35444    27530   -12441   -39476   -31426   -11950     4008 
   24495    44470    39660    -2964   -47413   -40759    10902    56209 
   60363    30288     5852     9949    29879    58151    80115    66725 
   37979    31611    31716    27129    43818    79266    89833    38612 
  -48849   -90680   -56809    -4283    24714    48980    82513    94999 
   69475    35475     -596   -48127   -63686   -29185    -8769   -38727 
  -71216   -59162   -13925    36104    74085    86012    68975    27846 
  -29664   -69835   -46828    22257    70704    79378    61649    21757 
  -18480   -36459   -35519   -34125   -36177   -17180    26624    66536 
   84046    75907    49981    18519   -13359   -37489   -38330   -18638 
   -5972    -5643     3601    18985    23247    17531     5611   -10228 
  -12789     4094    13271    10019    30480    60139    50082    25575 
   19778     1641   -29197   -27538     6268    40404    73512   100413 
   94801    62654    25083   -10003   -24012   -14710    -6381     1490 
   27936    64353    81931    77041    60435    16752   -43699   -59491 
  -17853    26117    45222    51409    41975    14820    -5871    -7418 
   -9402   -22513   -32514   -36572   -43592   -44136   -22489    16927 
   49430    49034     8521   -53759   -94435   -81974   -32751    26268 
   68546    62580    26666     7253     8888     7618   -10800   -36663 
  -43285   -12152    36883    59220    42408     5981   -25431   -20075 
   23427    55674    46558    17477    -9108   -22910   -12987    16271 
   45495    55480    39201    13602    -2025    -9382    -1661    37008 
   78645    78687    48986    26956    19951    27261    48682    62984 
   52872    34350    30870    41905    51401    38214    -6331   -41447 
  -17820    39166    61188    26782   -23803   -42360   -24252     2377 
   18820    27480    33010    33785    36737    39541    31824    32520 
   44818    31239   -12795   -39758   -20074    16141    36212    46429 
   52208    50452    42822    28443    18022    23193    24628     3608 
  -21109   -25548   -11376     2386    -2826   -23955   -39884   -37062 
  -13639    20549    43441    37689     7325   -18917   -18158     1915 
   20902    20714     6143    -4442   -16920   -37164   -59266   -77712 
  -68231   -14850    56519   100722    92491    49708     6342   -22149 
  -30048   -15857     5988    12877     2566    -1587    11017    29701 
   41412    26523    -9513   -20880    13911    54992    52375    15604 
   -4444    11060    36401    39888    13313   -25606   -49059   -47763 
  -28633    14185    59837    64912    40082    15593     4766    23969 
   62920    86447    76081    49910    47046    72285    86418    59509 
   -2300   -53931   -45598       39    21270    13232     4612    -1740 
  -19422   -31752    -4212    47965    69940    27336   -55189  -105931 
  -94460   -61353   -33605    -5166     8542     4641    17329    48932 
   68114    66773    54128    34523    15407     2158     -376    19457 
   52918    68762    58839    43887    24101    -8081   -21415    -4949 
   -1305   -13721     8637    65740    94479    64505      332   -62083 
  -90387   -81912   -62675   -34796     1108    12224    -1078    -3576 
    7267    11561    -8063   -41497   -43583     -623    52635    87251 
  100515    90548    50787     8829     2943    16347    11136    -1540 
   13416    39395    41277    50866    92512   117217    92924    32481 
  -36336   -72611   -53272     7484    74289   113711    94501    12259 
  -62059   -66576   -24332    27912    59054    38826   -17975   -52686 
  -16468    56590    81367    48591    23155    38697    62907    56459 
   35927    32922    33300    17263    -6203   -22648   -26894   -33924 
  -61530   -81638   -56833   -16201     1566     5528    -6835   -38009 
  -46184   -12048    21895    15346   -15120   -26952   -12976    10125 
   40934    74835    95474    89770    48604      369    -4514    32152 
   76087   105263   108317    83695    34677   -17001   -33983    -6195 
   40022    70546    53358   -17921   -83371   -91891   -67468   -28487 
   19974    43710    25905    -2863    -6528     5076    14030    25895 
   20765   -26461   -92186  -122624   -91930   -25247    44587    95121 
   97623    45260   -24058   -60691   -41902      454    -2169   -59953 
 -101677   -81828   -30956     7005    13855   -17834   -64061   -79558 
  -64370   -24915    44917    90915    66484    14515   -10534    -3109 
   19781    44986    60288    52197    25671     6974    16371    51827 
   94101   116337   104974    78719    60053    49979    50350    63231 
   75984    76577    66316    52505    44452    51907    66650    73668 
   77710    78506    64485    45130    40429    51301    63169    65290 
   63759    73174    95200   116325   115298    82931    37000    -2322 
  -13473    10659    24336     3207    -7947    16163    47100    59900 
   67124    86927   108681   109686    74213    18571    -8939     7299 
   34894    47733    46689    38834    26177     4870   -29344   -63875 
  -78908   -71212   -51902   -38790   -38516   -43168   -50442   -47673 
  -24289    -7468   -17729   -33967   -30397   -17967   -29855   -68482 
 -108479  -131399  -135207  -125190   -97260   -53154   -11757     3834 
  -18218   -50541   -52528   -19369    25928    50458    35279    -4492 
  -39139   -58116   -70649   -74088   -66195   -60270   -54573   -45523 
  -50197   -74744   -98957  -102539   -86746   -78337  -101124  -128592 
 -114805   -66251   -24935    -9915    -3632    22203    66818    97618 
   93621    66862    38488    14303     -893     8433    39055    71181 
   92697    97740    92200    78732    58930    55636    64925    57001 
   41409    36809    41762    64160   101217   128645   138218   140502 
  140157   133872   120789   102946    79940    55946    48635    64511 
   84796    99176   104332    85321    44983     8706    -3153     8977 
   23409    24090    16335    11296    16048    35812    66077    83269 
   69888    37127     5179   -12992   -12514     -696     4700    -8318 
  -28047   -36486   -32918   -20005     3789    35209    62554    71173 
   64706    54414    33682    10531    18850    59031    83984    65894 
   32879    21031    33952    62357    99291   135576   159597   167863 
  174942   190399   198547   177601   124798    67973    49210    76647 
  113755   127290   109911    75516    40130    -6606   -69780  -125406 
 -156648  -172482  -192771  -220569  -245398  -255096  -234482  -197337 
 -172870  -160510  -152474  -142560  -110910   -48712    21824    61650 
   53315    17255   -27469   -80333  -128957  -151298  -149817  -146020 
 -145428  -143287  -145189  -148818  -139962  -121009  -108622  -106872 
 -106780  -104529  -100538   -92788   -88030   -91227   -90668   -79030 
  -58320   -38499   -36721   -48016   -52126   -41489   -16587    17197 
   46063    55366    45677    32277    23411    11793    -5200   -16389 
  -13799    11753    64288   123707   170390   201291   220464   221630 
  185614   124613    78659    59471    58336    73109    97434   121176 
  138493   140275   116218    79618    66090    85124   113741   143121 
  183135   230200   263479   278325   283957   263966   203376   127587 
   72624    44444    16931   -20873   -43614   -29874    17290    73113 
  106705   107750    83916    53034    34689    33820    41566    37575 
   10971   -17045   -29320   -33979   -31735   -25057   -34589   -65731 
 -107478  -143009  -150399  -128702   -95242   -70588   -61824   -53399 
  -41602   -30152   -19400   -15572    -1983    31820    61911    77499 
   76612    57696    39330    32830    33224    35789    29025     8031 
   -6635      525    17968    32391    46102    66108    91195   107515 
   90649    31808   -38416   -69947   -34703    41848   103508   121188 
  105985    80188    45774    -4537   -53412   -79471   -82344   -69508 
  -51174   -35807   -24949   -16756    -9352    -6957   -13470   -19481 
  -14222    -6127    -9130   -24246   -40003   -27171    25871    82628 
  108855   104168    90769    89164    81164    32614   -69438  -198153 
 -270994  -251382  -204082  -164135  -118326   -75273   -35799    -8621 
  -24723   -75103  -127527  -165539  -170370  -150603  -142204  -140651 
 -119388   -68445    11892    93083   138738   136598    90786    38476 
   21196    25566    25497    25050    31445    49983    81815   112252 
  138951   173541   198680   175370    80906   -51171  -134608  -125564 
  -49346    38546    78190    83255   111663   153414   170502   160902 
  124862    44155   -63765  -125482  -109321   -63279   -25600     1264 
   11327    11306    25694    59163    97699   125691   126511    93182 
   43735    11134    22711    80473   140617   160876   142122    85822 
   -1219   -79647  -108309   -75805    -6131    64366   111287   129220 
  126736   116641   109512   101299    87674    83943    95504   106006 
  104031    85189    54006    28872    24594    45990    80751   101815 
  100197    83988    57057    20999   -24984   -70744   -94319   -90489 
  -68037   -40162   -10860    32606    71918    71369    40644     5509 
  -19642   -19553    -1337     8094    -1759   -19970   -22555     5539 
   48697    91756   129791   138218    95287     9763   -90111  -169165 
 -206938  -212846  -200156  -166700  -119975   -82939   -67967   -65979 
  -57740   -38770   -18550     3406    34376    65190    68054    34929 
   -8733   -49380   -89008  -113157  -114474  -111742  -116041  -114431 
 -100570   -92148   -99000  -103820   -86622   -39174    31606    86359 
   78370     9980   -69404  -106249   -87420   -44340    -1617    27765 
   26438     1657   -20002   -25895   -22046   -11646     9036    29033 
   42259    54549    62190    73799   101147   126161   123890    87249 
   31654    -4249    11537    69242   128182   163304   186310   214385 
  242860   248466   214375   161411   129602   137004   163690   168841 
  150156   143149   149874   147568   138978   131068   109008    60343 
   -4642   -59189   -85434   -84291   -61865   -33025      126    52806 
  108386   144610   162072   148602   103233    50261     5250   -21027 
  -25213   -16835    -5626   -10135   -40728   -75096   -96287  -110004 
 -113857  -106012   -97375   -94243   -98232  -108595  -121423  -132981 
 -130291   -96858   -35947    23456    45512    19475   -37039   -97174 
 -136393  -150280  -144668  -119936   -97988  -108225  -139607  -167367 
 -192947  -208830  -188929  -144572  -112708   -96354   -75847   -39398 
   12015    62124    95046   105831    97428    83255    78737    88765 
  103713   114081   117397   102282    63000    20837    10412    34674 
   46558    20117   -14968   -24244     9890    83042   164394   207515 
  174387    87772    16482   -13360   -17957     1891    37363    55883 
   62885    83293   100418   100130    89378    68976    49474    41368 
   48875    80846   126292   158895   168478   160486   149571   154678 
  176165   187830   167512   124722    86123    69079    72913    81364 
   83438    77384    54400    13417   -33394   -70067   -76499   -52089 
  -18616     1004    -6596   -23942   -25956   -20900   -26113   -45040 
  -78453  -120623  -157789  -188526  -215040  -224040  -203219  -151174 
  -86992   -49241   -48722   -61870   -70947   -70012   -59636   -46003 
  -29191    -1116    31963    42078    19919   -14631   -44019   -52667 
  -30469     9092    42842    57875    53653    41532    31460    15681 
   -8382   -19506    -1323    33885    56209    43995      858   -47750 
  -72029   -56515    -9796    38277    55792    39129    15704     4990 
   -6019   -34834   -64069   -54035     6999    90385   158178   188676 
  185346   166976   148000   134991   130439   131133   126681   109618 
   83984    61352    63906    98176   138766   171121   181811   145385 
   68245   -19832   -80163   -84015   -59197   -46487   -48587   -57167 
  -64127   -57834   -35691    -9305    14979    50561   100059   134233 
  129805   100372    69259    48205    42622    43330    36543    19481 
     307     1098    24935    35731    12530   -23458   -52961   -74098 
  -77550   -62129   -46449   -37606   -40657   -60907   -73569   -59674 
  -29955     4666    32339    38083    16494   -29012   -87392  -133743 
 -143012  -118191   -84576   -64519   -58644   -49318   -32077   -21170 
  -31141   -51703   -40803    16611    81272   103717    55493   -42624 
 -123379  -143185  -113277   -61080    -6482    34445    43889    21132 
   -4662   -10122     9146    42188    57713    37866    -9998   -69903 
 -107014   -90243   -36220    16297    51808    69411    70978    69369 
   76253    90308   112869   138273   134833    85133    19211   -15149 
    3539    54768   101969   128506   137656   127797    98435    67915 
   53055    50912    47463    40101    45787    64528    73238    70596 
   72810    84053    97796   100966    90664    82825    82282    74547 
   54475    31043     8418   -14042   -32159   -40818   -41611   -40986 
  -42279   -41445   -35101   -27075   -16762    -2228     7963    10427 
   11028    12020    10173    -2488   -28850   -58232   -73915   -69495 
  -57111   -52254   -58992   -69319   -67077   -39861     7333    50376 
   61446    32246   -18229   -61041   -78564   -72362   -55810   -36909 
  -20830   -18457   -29278   -40666   -47969   -48797   -33613    -3561 
   21207    20204    -4587   -21247    -7982    20143    53133    83856 
   82764    49059    21587    17247    19788    17563    20302    38342 
   68338   103833   135298   152008   147776   116060    60968     9537 
   -8085     5089    20228    29921    42900    51775    45472    24563 
     130   -12580    -7924     4345    13369    25818    48038    67479 
   74055    71648    70370    74472    73398    53820    14994   -28459 
  -57195   -60381   -35392    10066    54256    71146    45339    -6998 
  -44076   -44722   -24019    -8406   -12830   -30651   -43337   -35722 
   -6116    27201    36289    13624   -12339   -15279    -5772    -3319 
