Origin Time       2021/02/13 23:08:00
Lat.              37.7
Long.             141.8
Depth. (km)       60
Mag.              7.1
Station Code      FKS002
Station Lat.      37.8449
Station Long.     140.6013
Station Height(m) 42
Record Time       2021/02/13 23:08:07
Sampling Freq(Hz) 100Hz
Duration Time(s)  300
Dir.              N-S
Scale Factor      7845(gal)/8223790
Max. Acc. (gal)   512.636
Last Correction   2021/02/13 23:08:07
Memo.             
[...]
   -4212    12725     5359   -28281   -39727     8036    56133    36194 
  -23577   -59314   -50741   -19946    12623    35540    21903   -19680 
  -24502    26578    65109    28977   -51282   -86984   -46735     -642 
  -13559   -42781   -19510    31388    52338    52720    51973    24582 
  -29137   -62182   -53049   -23614     -895    -5009   -25547    -7781 
   42480    38979   -17377   -47337   -37061    -3460    37578    36270 
  -13844   -50319   -43429   -13521    13138    11338   -10207   -11180 
   11597    23819     8434   -11647    -7099     5252    -1466   -10455 
  -11722   -21294   -28495   -13948    13691    22580   -10538   -44177 
  -32243    -7618    -5410    -9278     1991    13548    -1027   -17528 
   -5290    15426    18802     -772   -24376   -21433    -2806    -6752 
  -33316   -38508     4984    53711    50407     9431   -33087   -63024 
  -50499     6504    43206    22739   -18049   -44494   -30727    32833 
   66303    21718   -22315   -28210   -29670   -40032   -55367   -51525 
  -20015    25591    68677    63981    21220    -2322   -15803   -25681 
  -19751   -25195   -36983   -28907   -13740    -9420   -15568    -7766 
   18936    25246    11569      923   -23868   -44587   -14823    40633 
   57677    15202   -46141   -62309   -15965    36474    17813   -59657 
  -82127   -21897    19993    18118    24246    32437    19441   -10952 
  -37627   -29720    -1050     1275   -17371   -11599    11106    10353 
    2754    12472    14935    -1134   -24981   -50346   -58456   -25871 
   30616    41543    -7993   -31718        8    25056    14949   -21952 
  -49519   -11098    53557    58371    20341   -21702   -59020   -56559 
  -15543    14756     7987   -18509   -26387    -7808    26361    44709 
   -8527   -80373   -62293     6145    38010    34731    15819     5335 
   29424    53343    18871   -62719  -113933   -83729    -5942    50789 
   52029    20730     9463    12564   -13281   -43772   -37006   -12240 
   -9414   -20703    -1084    40247    53034    27280   -19878   -61873 
  -65834   -24871    19287    19935    -1282   -16983   -34771   -19055 
   31234    51173    31922   -12914   -61885   -56517    -4733    18358 
  -18330   -59826   -31666    43114    75190    43880      757   -22222 
  -31679   -38254   -49185   -43452     5163    45594    27982    -5077 
  -20440   -28880   -29074   -18480      122    14960     4229   -35618 
  -64762   -39298    13753    52720    65453    27014   -26041   -25529 
    2758    16507     8016   -27695   -67431   -75956   -25401    65364 
  103326    49183   -22499   -50193   -37315    -3150    21111    11454 
  -18034   -45534   -57728   -48695   -19516    25285    45840    11541 
  -24294    -7651    29328    29621     5215     5223      336   -45681 
  -60538   -19710   -12205   -43220   -25080    49468    86123    21074 
  -73542   -69769    35829   106523    53889   -41389   -75070   -64172 
  -59481   -56556   -30531     1285    -7462   -23291    21334    83760 
   92284    45114   -24979   -63760   -55946   -56022   -73186   -55120 
    4615    75412   121574    91665     8237   -42259   -56022   -74224 
  -83768   -62565   -21982    13716    23476    14025    29022    70576 
   71451    11191   -50558   -80964   -97048   -84132    -7809    86848 
  100762    30959   -12984     3280   -11070   -78817  -110493   -51903 
   42907    64543     9593    -5463    38075    58008    30693   -15869 
  -39953   -37471   -35974    -2592    46186    26790   -19496   -17145 
   10085    21466    -6119   -42399   -19021    34268    31117   -17019 
  -44622   -33932    -4985    -2104   -34607   -44667   -28321   -26192 
  -33736   -40803    -7643    73904    94648    42483    19269     8561 
  -31218   -52332   -35440    -5688    15943     3690   -33083   -35590 
    9254    44532    36078    -6056   -46903   -39482    -5717    -4102 
   -7688    20231    23870   -35644   -74746   -12901    59599     7091 
 -104506  -108475    -7971    78706    93533    35059   -46026   -73634 
  -36613     3936   -10489   -26736    26635    70995    45289     8891 
    1181    10226    -7204   -42601   -29879     2496     7913    11568 
   11603     9648    24472    20717   -19851   -50684   -42759   -13109 
   11002    12519    -2729   -14929   -12816    -3152    -2058   -22551 
  -60504   -67855   -18850    28448    37881    19309   -16129   -19732 
   20846    42178     8626   -62723  -118557  -104932   -35950    19480 
   11619   -29261   -22823    46156   104410    86046    -2374   -81225 
  -63829    19257    70029    91589   112040    91017    19608   -62014 
 -110983  -114453   -93294   -43949    28393    85714   102324    49754 
  -44388   -86232   -72148   -86078  -147195  -164673   -59587    98911 
  176156   137425    59367    12100   -19147   -59302   -92095   -95040 
  -45422    38171    84249    66131    23716    -7778   -15232   -17221 
  -48616   -74287   -38925    23569    60826    53284    -1539   -46710 
  -34516     2759    43363    58488   -19818  -129080  -118173    -9942 
   67738    92651    76245    10372   -38406   -15390    15450   -10233 
  -69304   -90776   -29390    50778    44296   -26600   -39621    42093 
  108002    55822   -50184   -75602   -19511    13923    -6502   -29489 
  -42099   -66328   -63266    13941   100353    99266    29369   -27043 
  -53272   -63587   -46654   -25706   -21188    -3570    14798     2242 
  -15055   -16021    -5780    19954    27746   -19047   -58499   -27583 
   25452    27171   -11260   -17323    11846     9298   -46935  -108731 
  -89035     2647    43833    24772    26921    53455    74150    72944 
   42930    -5212   -60411   -90019   -52062    20493    39947   -28020 
 -111657   -97727    13144   104099   103933    33875   -32934   -26410 
   23298     9076   -82559  -124564   -35838    87286   111022    40828 
  -29976   -66692   -85739   -79456   -41864     5621    31757    15319 
   -5024    23199    52623    20564   -22134   -24152   -27854   -35329 
    9807    62510    32881   -47922   -72054     4402    81918    48097 
  -34326   -63483   -48508   -25790   -21633   -26203     7140    72015 
  117055    94784    -2007   -94486   -97312   -40162   -16220   -29139 
  -17502     9765    12241    -7221   -22785   -15894   -16865   -46899 
  -54160   -12615    41245    58201     9235   -60261   -82188   -46152 
   15384    44194    33820    41345    46558    -2519   -45671    -6500 
   62789    59163     7342    -5688    -6627   -30646   -39596   -35384 
  -39056   -38136   -20942    23569    73083    57030   -16039   -34978 
   14681    22358   -43200   -88820   -61693   -26823   -22800   -14011 
   -7468     5964    47171    35032   -41411   -71023   -27194    36498 
   54687     7582   -10773    46511    86923    46276   -37816   -91925 
  -76994   -25166     8584     4733   -19128   -28588     4244    69861 
   92530    17798   -78090  -108248   -92315   -57600     6303    75178 
   96160    54596   -17039   -65071   -62561   -53588   -65223   -38672 
   39924    82429    44153   -15219   -28279     9710    31301   -14034 
  -63425   -58558   -11581    61659    92472    32177   -38149   -53948 
  -38303   -23409   -33183   -52177   -46924   -29623    -1182    55065 
   95314    65288   -13601   -77275   -84295   -33758    33667    58185 
   16036   -46975   -64176   -35523    -7647    -4576   -19847   -18667 
    6669    31854    71496   105943    70353   -22523  -103073  -106605 
  -26924    41197    25439   -32954   -46174    14582    60590    19421 
  -52663   -92614   -86529   -29755    43785    86024    94844    87984 
   51264   -17105   -68013  -105987  -156848  -148937   -54549    44355 
   95246    95696    71923    55566    37666    13945     7169     8048 
  -28487   -96283  -108800   -19869    99571   135549    45446   -80547 
 -111638   -38395    36244    34057   -40155  -104225   -66116    31599 
   69198    36151   -28863   -98058   -92148    -4558    58216    67822 
   62872    38853    -5594   -50071   -78186   -74799   -34985    12475 
   25620    20873    30217    17934   -19418   -11307    20476   -21227 
  -93310   -74046    25315   112328   125726    50835   -51957  -101748 
  -95368   -81062   -73808   -50153     9386    99279   170455   162060 
   64702   -62116  -119716   -80565   -17428    13293     6669   -11769 
  -16112    -3079    39513    74331    37416   -21972   -29242    -2848 
  -11632   -76144   -96098   -15363    75694   114844    90742    -5316 
 -115236  -150709   -89453     4918    48350    10540   -73053  -121544 
  -70748    44031   104234    41463   -79159  -120673   -25261    82011 
   51470   -63364  -107072   -48643    23004    37403     2185   -31236 
  -28086     8699    57703    68327    12614   -35788     2305   101976 
  158971   100515    -9196   -72461   -85052   -81492   -81356   -60866 
    4025    64250    74058    35986   -36714   -88724   -68515   -32675 
  -39505   -46851   -41868   -36058     6068    33868    -6887   -17799 
   46521   112742   140030    84477   -64142  -192977  -217177  -158275 
  -45852    81931   184222   248192   218990    67375  -100967  -175479 
 -141820   -48681    23776    43339    49643    59590    51167    40332 
   43255    11449   -69518  -139072  -158814  -102338    48107   184167 
  169450    48282   -67984  -131854  -101464   -12598    28242    30361 
   65010   103979    90316    36726   -29847  -100197  -136134  -101424 
  -38746   -12976   -18631   -12314    32922    80851    58606   -15691 
  -64345   -67721   -46041   -14253    20005    43526    43872    31368 
   16607    -8109   -45507   -86967  -115520   -92144     -294    82309 
   70609     9224     3672    67470   123152   122111    83454    27792 
  -37143   -88437  -105902   -95345   -72188   -31356    27592    54274 
   11564   -32852    -5320    38549    25335   -20931   -64037   -97741 
 -108685   -78198    -6362    56825    32410   -82653  -181055  -190084 
 -163204  -158514  -158306  -121205   -26234    90666   173884   204496 
  150242    18500   -77029   -68656    -2443    56273    52984    -3036 
   -2968   107098   214882   185078    26755  -142979  -228098  -206572 
 -118519   -19662    42454    43633    26843    35316    58905    75618 
   28987   -84082  -150303  -128420   -57985    56866   146084    96699 
  -59790  -179255  -172933   -51657    99000   136713    18453   -83142 
  -17551   143083   269154   320226   279855   140463    -7260   -54440 
  -43210   -60237   -68678   -19953    31210    16578   -67524  -149665 
 -139703   -70213   -51162   -74839   -62062   -28210   -31266   -43123 
   -4143    53912    40420   -55566  -136136  -129514   -67486    16483 
  116120   168670   138950    76165    -5582   -84971   -96766   -59490 
  -42808   -85125  -161203  -156867   -25785   131075   198988   127893 
  -16491  -106008  -103407   -57747   -31467   -43972   -40517     7547 
   45154    40181    24202    20309    27028    28371    -8213   -81712 
 -128162  -101017   -48586   -38153   -55885   -48537     -113    58650 
  106490   169628   238000   232754   140503    41276   -12402    -8268 
   58449   125599    92184   -17578   -84121  -100522  -130053  -163736 
 -174806  -148517   -86476   -43069   -40084   -32703   -15346   -31631 
  -78559   -96210   -70013   -24278    73503   207619   270534   233994 
  126048   -23136  -122203  -115643   -27518   103885   194316   177723 
  110632    40486   -57511  -142744  -160177  -126563   -54140     9729 
  -32287  -155760  -205800  -106104    67039   188789   176515    32562 
 -154502  -250018  -190210   -51482    75836   126090    42768   -99678 
 -176237  -173908  -114809    11326   177483   270774   219406   117937 
   79882   109323   144471    95821   -44267  -179487  -269543  -312790 
 -245540   -56000   133447   197004   115453   -37026  -137454  -125343 
  -55748    47302   181591   259497   261736   209634    33768  -207139 
 -335873  -303893  -156327     1224    48551    21902    12372    -5182 
  -48456   -55043   -15678    15574    41407    83459    87874    18773 
  -55212   -54091    26067   138195   211621   154036   -63259  -315939 
 -438457  -402484  -263301   -70726    60285    65954    28733   -24565 
  -89276   -91875   -40954     2022    -9015   -98983  -190147  -171859 
  -32530   119450   147190    42061  -103215  -198099  -167255   -51529 
   28969    63165    79461    60558    24007    29506   110781   211597 
  268415   314101   360174   350865   267034   137874    39225    28016 
   26545   -52200  -173218  -282087  -353825  -365855  -306861  -179409 
  -18323   121743   194009   157804    12474  -172947  -309229  -363870 
 -330783  -165948   101403   321219   425629   476506   489634   398713 
  174603   -51571   -91986    28000   170464   284376   324666   309893 
  316237   301533   202949    58094   -53863   -98633  -105437   -70009 
    8568    26343   -76566  -208684  -299764  -383960  -451287  -422408 
 -284721  -106124    55740   185652   272501   297097   246601   112418 
  -61474  -190044  -261187  -312645  -329409  -262820   -92156   144933 
  353475   444299   397479   231665   -27565  -285765  -420576  -413104 
 -307085  -153481   -42970   -36170  -106853  -183772  -199210  -154041 
 -109117   -93765   -90714   -87361   -84924   -58733    24583   126900 
  189714   231314   251183   189623    77799    34560    85918   119434 
   54476   -59670  -163240  -226785  -202294   -68319   118056   224540 
  175944    33107  -137150  -272876  -302945  -223242   -36040   207139 
  359116   379734   345714   285385   191848    54770  -127494  -318180 
 -473520  -542744  -483031  -273905    64008   340351   354514   172527 
  -38801  -169599  -194518  -197077  -160319   -24514   117498   210801 
  272203   288543   259877   171660    35843   -68154   -95426   -80295 
  -89861  -135380  -142987   -66171    43776   107674    81722   -33338 
 -174056  -234979  -170868   -19074   176405   331932   338578   200908 
   19325   -86687   -45009    82344   183995   202023   140694    74603 
   65149    97352   120737    73541   -57203  -189814  -267162  -310000 
 -271804   -82502   153451   252992   180272    19950  -139681  -200620 
 -154012  -120588  -114408   -60088    31356   119535   157724   113864 
   20329   -74039  -146261  -227356  -316755  -286456   -77430   142719 
  193526    90085   -35137   -94744  -105502  -120675  -112174   -13805 
  145874   268324   287585   229485   140188    14253  -117213  -197707 
 -222619  -187154   -60933   133409   289113   338465   292739   139144 
 -103549  -318672  -428001  -464825  -457479  -360845  -166213    26021 
  122335   124640    67703    -4834   -31099    11101    94605   150828 
  107628     6621   -25752    41694    85104    16864   -71598   -80823 
  -10997   101764   195320   244904   275161   273298   222933   136237 
   13838  -130017  -249682  -304211  -263453  -115161    74704   192103 
  212456   168650    59798   -72878  -167050  -231163  -267277  -242316 
 -176268  -120590   -71393     5746    94167   131468    83521   -11569 
  -76713   -78548   -61892   -75180  -103709  -114453   -80793    32695 
  192229   273985   210312    51201  -100873  -163054  -166976  -180172 
 -165163   -96934       81   146828   313636   397110   345566   189473 
   31473   -42207   -71896  -122102  -192946  -274433  -308612  -177792 
  133126   428245   496107   346135    69720  -252688  -456875  -474483 
 -372396  -177804    33948   168262   245088   238419   104095    14986 
   94757   158418    80269   -56687  -213217  -336468  -274904     4939 
  311469   422632   331747   190007   118332   176551   266133   225270 
   98801     3530   -37729   -50877   -73699  -105204  -145968  -195710 
 -217085  -207188  -167306   -97542   -78086  -139820  -179059  -156851 
 -147468  -174390  -199312  -195521  -153397   -84114    -6764    80003 
  176157   247537   235755   132952    46596    65465   103815    51844 
  -47803  -109451  -117918   -77336    -6929    13265   -77629  -219647 
 -305449  -301487  -235275  -129519    12384   165847   283830   355444 
  376516   311080   158004   -30487  -202431  -327388  -366492  -259524 
  -24401   198821   314398   331168   213572   -50959  -295061  -381037 
 -372860  -333622  -204412    47233   300199   378078   229587   -36468 
 -186452   -56398   190150   309258   277522   143155   -15367  -103886 
 -152709  -199218  -161863   -22391    77437    54923   -30703   -98076 
 -101324   -78349   -85421   -83785   -33408    41874   127822   200507 
  214886   147756     6471  -133000  -188254  -165898   -94232     2295 
   74807    94655    64705    11078   -47140  -133192  -241299  -303740 
 -265877  -122628    66949   195021   208750   140181    37045   -38200 
  -33718    18333    50932    42265    34418    99031   220241   281901 
  227179   116060    30717    32942   119353   174017   124140    24510 
  -81735  -179760  -246697  -257142  -156285    37515   186817   221236 
  182935    95378   -17856  -100462  -142925  -157783  -146599  -142758 
 -155717  -132148   -36953    98313   189132   154835    -1728  -197352 
 -320599  -319698  -266657  -222540  -172791  -105241    13945   176096 
  303766   387575   458303   501507   453262   248479   -41283  -247126 
 -332343  -346329  -240867   -22319   162234   242489   230138   108336 
  -93413  -271285  -364894  -399647  -371216  -250025  -116343   -57616 
  -23664    37409   113884   201137   271678   298988   282621   215504 
  117340    26138   -34878   -57595   -57526   -52020   -34645    17470 
   99827   153426   146836   123854    90509    -9277  -150269  -231132 
 -232904  -209187  -180019  -152262  -127595   -74572    24100   147432 
  233809   186499   -30160  -304804  -466258  -475997  -401637  -260868 
 -111337   -54653   -69388   -80777   -47749    43487   157223   248576 
  293075   283637   229197   146452    68318    20950    -4356   -18701 
    -972    70255   156783   187269   139909    52207    -4637    18960 
   78447    87330     7645  -128614  -240665  -301569  -326574  -246429 
  -42898   123387   138600    68121     4286   -26959   -36877   -59103 
 -115557  -172797  -181957  -130288   -40410    40628    83031   102698 
  119553   132943   116133    50345    -5147   -10349   -18412   -23437 
   36489   124823   175385   203767   221354   187242   102843    28460 
   -8039   -30821   -40620   -11896    27711    26649    -1578   -13536 
  -21028   -73602  -171414  -261993  -318976  -330825  -242609   -47286 
  129296   185045   162461   119335    62299    -6400   -94338  -164466 
 -144682   -41931    62268    75940     7543   -15209    60957   165250 
  231056   231534   158402    50016   -15620   -25439   -33547   -44485 
  -32674   -31109   -86350  -168108  -212380  -217031  -181884   -66275 
   59857    69766    24683    27607    14108   -62812  -143945  -182090 
 -169727  -122736   -54973    34668   144459   241563   272508   223344 
  108211   -39683  -138283  -114049    25876   167115   165807    39868 
  -59431   -89780  -110068  -117022   -83018   -40540   -12947    26995 
   68380    83222   104388   132106    90556   -36791  -155872  -193881 
 -172241  -116256   -33058    36572    71088    99220   127928   119052 
   52103   -22299   -32964     4279      753   -77668  -174745  -219248 
 -183991   -98352   -16679    15461    -7852   -33818   -23460    16846 
   81760   139002   132709    55684   -40945   -96028   -89182   -29384 
   61469   115352    98107    72397    49481   -18743   -81224   -76462 
