Origin Time       2021/02/13 23:08:00
Lat.              37.7
Long.             141.8
Depth. (km)       60
Mag.              7.1
Station Code      FKS019
Station Lat.      37.6030
Station Long.     140.4368
Station Height(m) 235
Record Time       2021/02/13 23:08:09
Sampling Freq(Hz) 100Hz
Duration Time(s)  213
Dir.              U-D
Scale Factor      7845(gal)/8223790
Max. Acc. (gal)   164.794
Last Correction   2021/02/13 23:08:08
Memo.             
[...]
   -4401    -4399    -4399    -4399    -4399    -4401    -4402    -4401 
   -4399    -4399    -4399    -4402    -4403    -4398    -4396    -4401 
   -4401    -4399    -4401    -4399    -4399    -4401    -4399    -4398 
   -4398    -4398    -4398    -4399    -4401    -4401    -4401    -4401 
   -4401    -4398    -4399    -4402    -4402    -4401    -4402    -4402 
   -4403    -4401    -4398    -4399    -4399    -4399    -4399    -4399 
   -4398    -4399    -4401    -4399    -4399    -4401    -4398    -4399 
   -4403    -4399    -4396    -4401    -4401    -4401    -4402    -4401 
   -4399    -4402    -4401    -4398    -4401    -4402    -4399    -4399 
   -4401    -4399    -4401    -4401    -4401    -4399    -4399    -4399 
   -4402    -4401    -4401    -4401    -4402    -4402    -4403    -4401 
   -4398    -4398    -4399    -4401    -4399    -4399    -4401    -4401 
   -4399    -4401    -4401    -4398    -4398    -4398    -4398    -4396 
   -4398    -4399    -4401    -4399    -4398    -4399    -4399    -4398 
   -4399    -4401    -4399    -4401    -4402    -4402    -4398    -4401 
   -4403    -4399    -4396    -4398    -4398    -4398    -4399    -4399 
   -4399    -4402    -4402    -4399    -4401    -4403    -4399    -4398 
   -4399    -4398    -4399    -4402    -4399    -4399    -4401    -4399 
   -4402    -4402    -4399    -4399    -4399    -4398    -4401    -4401 
   -4399    -4403    -4402    -4399    -4398    -4399    -4399    -4396 
   -4396    -4402    -4402    -4398    -4398    -4399    -4398    -4398 
   -4399    -4399    -4398    -4399    -4401    -4401    -4401    -4401 
   -4399    -4399    -4399    -4399    -4401    -4402    -4401    -4398 
   -4399    -4402    -4401    -4399    -4399    -4401    -4402    -4401 
   -4398    -4399    -4403    -4399    -4396    -4402    -4403    -4402 
   -4401    -4398    -4398    -4402    -4402    -4401    -4402    -4402 
   -4399    -4399    -4401    -4401    -4402    -4402    -4399    -4398 
   -4396    -4399    -4401    -4399    -4398    -4399    -4401    -4401 
   -4401    -4401    -4401    -4399    -4399    -4402    -4399    -4396 
   -4396    -4399    -4401    -4401    -4398    -4398    -4401    -4399 
   -4398    -4398    -4399    -4401    -4399    -4398    -4401    -4403 
   -4401    -4399    -4401    -4403    -4402    -4402    -4402    -4399 
   -4398    -4402    -4401    -4398    -4399    -4401    -4399    -4402 
   -4402    -4401    -4399    -4398    -4401    -4402    -4401    -4398 
   -4399    -4402    -4403    -4399    -4398    -4399    -4401    -4399 
   -4399    -4399    -4399    -4401    -4399    -4398    -4401    -4402 
   -4401    -4401    -4403    -4402    -4399    -4398    -4399    -4401 
   -4399    -4398    -4399    -4401    -4398    -4399    -4401    -4398 
   -4398    -4401    -4399    -4396    -4398    -4398    -4399    -4401 
   -4398    -4398    -4402    -4401    -4399    -4401    -4403    -4399 
   -4399    -4402    -4399    -4396    -4399    -4402    -4398    -4399 
   -4402    -4399    -4398    -4398    -4396    -4399    -4401    -4396 
   -4399    -4403    -4401    -4401    -4401    -4399    -4401    -4402 
   -4401    -4401    -4399    -4399    -4401    -4401    -4401    -4399 
   -4399    -4401    -4401    -4399    -4401    -4402    -4401    -4401 
   -4402    -4401    -4399    -4399    -4401    -4402    -4402    -4399 
   -4399    -4402    -4399    -4398    -4398    -4399    -4401    -4402 
   -4399    -4398    -4399    -4402    -4401    -4399    -4399    -4401 
   -4401    -4401    -4401    -4399    -4396    -4398    -4401    -4403 
   -4402    -4398    -4399    -4401    -4399    -4401    -4401    -4401 
   -4402    -4402    -4399    -4399    -4399    -4401    -4401    -4401 
   -4401    -4399    -4401    -4401    -4401    -4399    -4398    -4399 
   -4402    -4399    -4399    -4403    -4402    -4399    -4401    -4401 
   -4401    -4401    -4399    -4399    -4401    -4401    -4402    -4402 
   -4399    -4402    -4402    -4399    -4402    -4402    -4402    -4402 
   -4401    -4401    -4399    -4399    -4401    -4401    -4399    -4402 
   -4402    -4399    -4398    -4401    -4405    -4402    -4398    -4399 
   -4401    -4399    -4399    -4401    -4399    -4398    -4398    -4398 
   -4399    -4399    -4399    -4399    -4401    -4401    -4399    -4399 
   -4399    -4398    -4399    -4401    -4401    -4401    -4401    -4398 
   -4399    -4403    -4402    -4399    -4401    -4401    -4399    -4401 
   -4403    -4402    -4401    -4398    -4399    -4401    -4399    -4399 
   -4399    -4399    -4396    -4396    -4401    -4401    -4401    -4402 
   -4401    -4399    -4401    -4398    -4396    -4401    -4402    -4401 
   -4399    -4399    -4401    -4402    -4401    -4399    -4399    -4401 
   -4402    -4401    -4399    -4401    -4401    -4399    -4401    -4403 
   -4399    -4398    -4401    -4402    -4401    -4402    -4401    -4398 
   -4399    -4399    -4399    -4398    -4399    -4403    -4401    -4398 
   -4402    -4399    -4398    -4401    -4402    -4398    -4396    -4401 
   -4399    -4396    -4401    -4405    -4405    -4406    -4406    -4407 
   -4411    -4417    -4415    -4405    -4410    -4433    -4449    -4453 
   -4464    -4483    -4518    -4580    -4590    -4449    -4311    -4403 
   -4531    -4433    -4361    -4531    -4646    -4600    -4621    -4646 
   -4522    -4298    -4090    -4178    -4568    -4638    -4320    -4318 
   -4627    -4752    -4765    -4714    -4499    -4456    -4787    -5117 
   -4928    -4433    -4413    -4361    -3761    -4178    -5390    -4839 
   -3334    -3073    -3485    -4158    -4872    -4588    -3871    -3531 
   -4224    -6272    -6116    -2307     -818    -4190    -6868    -6480 
   -7038    -8372    -4896       59    -4074   -12193    -9460     -757 
   -1088    -9035   -14623   -13506    -6382      117     -689    -5556 
   -8849    -9333    -4796      380    -4106   -10721    -6528    -4167 
  -11936    -9836     2670      699   -10077    -5780     4769     1048 
   -6849      248    10686     3132   -10141    -5201     6821     4573 
   -2184     -758     1269      909     1678      888     -683      488 
     954    -3254    -8725    -7156     2589     7587    -1672   -11927 
   -6066     2814    -5833   -14296    -1505     6332   -12866   -26261 
  -10623     1900    -7234    -9089     3574    -2405   -23437   -16534 
    6570    -4681   -30360   -18408     5826     2079    -4068     1441 
   -3612    -7541     3018     2270    -9370    -7007    -3246    -4172 
    3708    -6119   -29137    -6480    27565    -4382   -45337   -13352 
   33075    19398   -13779   -17516   -11954   -10116    -1998      972 
   -7469    -8845    -3746   -11032   -18920    -3048    18767     6129 
  -35294   -53052   -24529    18451    32030    -1278   -38381   -26404 
    5656     7542    -5305    -8708   -13782   -21498   -18351    -9120 
   -1651     8552    12201    -6430   -25203   -11924    13938    19704 
   14619     4315   -17869   -21293     7919    26473    12401    -3022 
    2440     2174   -23485   -34638    -5166    15199    -7423   -27684 
  -13305    10184    19822     8885   -11581   -15506   -10990   -12966 
   -7491    -2677    -7504     4607    28498    16212   -26543   -25863 
   23809    28525   -17321   -13861    19701   -10578   -42323    11029 
   49134    -7749   -46705     2828    40539     2292   -31714     5117 
   46631    16517   -35021   -30709    -2004       25    10282    42558 
   31147   -32536   -54337     3697    36622   -16363   -56313   -26723 
    -433   -10882   -12974     1518     1113    -6862    -7033    -9721 
   -8090     -426     3121    10827     8116   -17379   -28255   -11956 
    3352     9783    -3850   -43600   -48671     5969    19051   -39858 
  -51846     4364    23683   -12361   -25656     9625    30333    16711 
   19105    28107     7869   -16961   -13652      893    -9297   -20694 
   -3896     5529    -9329   -24336   -21672   -15047   -20233    -3362 
   23653     -993   -39160   -25095     -337   -14902   -29031   -14565 
   -9540   -14845    -4892    -8355   -25995    -4900    28698    16652 
     453    12974     7817    -9671     4202     6687   -40329   -59144 
  -11979    15198    -4754    -7947     4287   -14530   -41814   -28239 
   14593    34258    -2079   -54004   -32907    39992    43615   -12025 
  -17139    18879    29574    19043     -506   -14310    12158    44281 
   16983   -38322   -42641     6836    47495    33039   -19215   -37616 
    2222    33817    13026   -21766   -29450   -16063    -4499   -21382 
  -55471   -43740    18963    63633    44652   -15028   -36078    11442 
   44656     4706   -36998   -15547    11219     9097    23589    34662 
     832   -30138   -20626    -9958   -22770   -35224   -22847       94 
   -5312   -15310     4307     1170   -23172     9225    46376    -9541 
  -61273    -7591    26966   -28061   -49484    -4625    30299    42499 
   23940   -35587   -59954     -685    56336    39263     -711    -9061 
   -4151    -9668   -28976   -50893   -31954    21594    22702   -36868 
  -60197     -633    63351    40753   -16229   -28344   -30967   -47178 
  -42248   -16117     5556    24290    31457   -12891   -66978   -38928 
   29300    42907    15724   -22393   -57913   -34574    30325    50988 
   25012   -11844   -58688   -82462   -24479    59934    48671   -16006 
   -4108    43984     9026   -62881   -46877    22715    27899   -23878 
  -46549   -18241     6643   -11294   -28156    -9837     3996     2965 
    6142     -456   -19715   -18775    12474    25128    -3122   -30624 
  -27155    -7638    -8019   -10632    14199     6195   -41513   -16884 
   64150    59464       85     6867    19360   -30365   -49778    -7546 
   12588    -4471   -19249   -14237    18373    29002   -22491   -42888 
   11348    13556   -52726   -29694    73094    77305   -24930   -81378 
  -32341    42219    43923   -29644   -72928   -23463    34213    26021 
   -1367    -4029    -4307   -14747    -6258    29767    51908    30711 
  -13832   -42187   -41058   -26125    17204    86417    76362   -45913 
 -106911    -5383    86794    23382   -67801   -36871    44296    49543 
  -11249   -50377   -19796    32011    16097   -53345   -72091   -16112 
   28800     9036   -25165   -29286   -30171   -23868    18601    45312 
    5036   -32485     4197    33070   -17271   -49284   -23060   -14345 
   -9575    11263    -7581   -46805   -25212    13691   -25243   -36223 
   68974    93757   -40393   -99187     4731    64156   -36518  -120407 
  -34605    71470    51089    -7241   -20633    -6504   -10800   -28599 
     765    19500   -42233   -77089     8075    96934    30951   -73498 
  -23044    57126     9672   -41170     6129    29833   -33373   -51868 
    7495     6632   -52641   -27369    57361    31182   -90795   -88987 
   50881    90852    -2791   -48018   -12136    -2918   -25987    -1709 
   11562   -49447   -46265    52971    68940   -20695   -48895    14855 
   24159   -27515    -7987    26628   -39114   -86339     8078   101309 
   47031   -45347   -51227   -13119    14419    30935    26311   -11542 
  -44498   -22596    19089    16989   -18135   -45905   -45181   -17950 
    6443     1860   -16123    -2574    34383    27063   -29103   -61306 
  -31946    25147    45077     4557   -30778     -696    33939    -2812 
  -41249     1487    63491    52664   -20117   -55553   -13096    29200 
   25810     1672   -25986   -34036    -2203    28039    -6756   -63296 
  -33064    59223    75570    -7396   -52307     4650    46321    -1158 
  -39923      332    39746    17014   -31329   -55435     4244   112128 
   76473  -101879  -151306   -13441    91230    60636   -14894   -52385 
  -54373   -35135     7101    36485    15142   -29277   -43205   -13359 
   10933     8293    18505    -3272   -67201   -41774    42477    22118 
  -56574   -28097    53516    11033   -67636   -23791    47418    53393 
   12090   -50517   -53612     8525    22947    -6758    -7815   -17946 
  -33689    14613    58726     7462   -47131   -16892     5508   -10066 
    7763     9578   -11384    11869    -5321   -99777  -112205    -1165 
   62914    13333   -26685    12530    58303    31749   -49049   -82375 
   -2918    81441    30761   -65981   -45925    42103    58129     2740 
  -32940   -21370    10778    40840    42770    18943   -15769   -70610 
 -102790   -49092    41010    62321    18855     2263    20322    -3524 
  -51223   -16376    80177    90563    -4627   -61245   -31330   -13759 
  -37015   -50814   -50473   -39914   -13961    15759    41404    49072 
   23242   -30306   -62523   -26902     2493   -27928      224    86316 
   60831   -45559   -73967   -27841     8006    19226    22383      459 
  -34177   -31465    -8112    -2814     7411    32859    37378    -1792 
  -52081   -29870    59120    76810    -9310   -65911   -38007   -15079 
  -21397    11105    49701      367   -83497   -43486    93617   115726 
      90   -56805    13605    69526    -2968  -102870   -64778    36424 
    6214  -103685  -105463     6918    82745    42341   -12055    -8970 
  -15430   -35012   -34873   -23811     4689    25695    18922    12179 
   10354    -7994   -42912   -44281    11631    41278    -2554   -28478 
    4614    20262    -4869   -39803   -62576   -38331    19176    33343 
  -14408   -40868     4167    35286   -20866   -66118    -9524    53673 
   26399   -50048   -74035    -1888    56008     -288   -59144    -3982 
   62414    19554   -40378    -4307    38812      839   -32009   -11493 
    9990    23333    13941   -20405   -20497     5989    12139     8392 
  -18747   -78748   -55741    86579   123822   -52506  -177155   -63406 
   79153    46471   -47663   -40327    27965    48891    27776    16353 
    4314   -24327   -42053   -26858     3226     4472   -34555   -48871 
   25084    98332    16715  -113734   -49324   121782   126655   -15376 
  -87045   -48084   -15769   -20105    -7933     7950    -8102   -19342 
   -1096    13119     2992   -19681   -29416   -13779    15264    24567 
   -8364   -40315   -17872    37836    36814   -38219   -54125    21316 
   65358    38564   -15157   -23264    39802    49481   -57113  -119983 
  -23453    93943    62355   -51379   -67078     4791    15799   -22341 
  -14918     2697   -11318   -17440     9128    27923   -10172   -52521 
  -30276    11317    28749    39270    44139    32819    -9482   -64930 
  -61690    -8186    12245   -19336   -41116    12190    54180    -7680 
  -48007    -5559    18315    -6249   -31149   -16432     2454   -20511 
  -36890     5836    56263    17977   -61905   -35687    74302    92452 
  -23575  -103335   -46957    38954    62303    23242   -45076   -81976 
  -56303    19948    74968    34252   -27315   -18261    16957     8191 
  -14485    29736    53285   -43141  -108214   -41995    34682    -1588 
 -104585  -108112   -16063    31828    30033    43518    54162     3067 
  -56353   -24965    42673    38048   -19938   -29496    15307    13154 
  -46224   -56033    22140    58725   -22549   -58720    32922    81477 
   10336   -60696   -64660   -25347    18288    17621   -30755   -62915 
  -25982    23392     7620   -19453     6818    37544    27149    20784 
   28979   -13286   -60963   -23931    26289   -16453   -97588   -45432 
  109813   120064     4610   -38477   -29239   -53464   -55159    34767 
   67737   -47765   -75344    33871    28188   -70953   -45333    38076 
    7867   -49349    -3265    58332    15607   -40223     9047    56948 
    4996   -45015    -4388    59171    37247   -43864   -65022   -14284 
   23371    14936   -11396   -24771   -24642   -26441    -7628    28587 
   19638   -27796   -37054    -2282    10481    -3894    -3684    -6023 
  -15161     -927    -1285   -33756   -22435    59852    99391    12316 
  -65549   -29128    -7068   -69526   -76584    54368   142588    34940 
 -105463   -86019    26550    51147    -5452    -9354    -9626   -52307 
  -28290    29756     3499   -69646   -54314    40446    37702   -51023 
  -57856    19726    66664    30551   -16119   -32741   -52992   -37636 
   39808    97973    44481   -63101   -84807   -32906    19550    37390 
  -18646   -65623    -2673    45972   -33151   -82641    18195   103527 
   24412   -74065   -27465    34042     3784     1802    36482    23839 
    4936    18725    18126     4257    32902    30399   -60458   -92788 
  -16918    35576     7759   -39209   -50441   -42348   -16379    17752 
   16263     2374    -8845   -13475     1884    -3762    -9691    21953 
   18254   -42376   -52847     1605      781   -45079   -11898    68635 
   46164   -69952   -84828    40014    91277   -15876   -77060    22411 
   66846   -61288  -110485    28579    96479    -7362   -73629   -16767 
   38921    19705   -14607   -10646   -27538   -69272   -44663    20013 
   36229     2760   -25147   -14287    24224    63447    47187   -18778 
  -50155   -43406   -21942    20933    39137    -2151   -34422    -5555 
    7292   -15368    19903    68212    11682   -82510   -91273   -35417 
   19661    41683     9413   -33741   -16495    23429     3917   -23301 
   24313    66218     8047   -70182   -70908   -11776    39623    14939 
  -26609    23607    51657   -46940  -103925     4328   116922    64210 
  -43194   -44529    -8014   -20814   -26142      888    16749    17644 
   -2785   -26472    -4117    11187    -2208    13468    11757   -42834 
  -78862   -28652    67477    70988   -10781   -37444     6856    38520 
    3906   -35012     8028    48042   -20713  -102116   -51544    59088 
   35268   -59956    -6610    88605    14824   -85977   -40190    35522 
   15361   -36018   -35228    -8471    -2995    -8421    -8835    -5080 
   18256    29421   -10858   -32611    11847    59610    32730   -52932 
  -72139     6758    74007    39839   -71409  -106335    -1185    87046 
   21378   -95558   -60124    59810    44277   -39390   -28497    26298 
   27776   -17649   -45482   -35387    -4334    51406    73249    10301 
  -44446   -22662    15221    20194    18550    17598   -24996   -63940 
  -19291    36852    -6210   -93237   -62727    64315    70575   -53887 
  -90922     9290    84180    38350   -35479   -33362     3584     2964 
  -14026     3640    37386    21257   -31282   -27253    15488     9378 
     703    29597     7443   -63890   -58106    14212    23026   -20548 
  -33741   -33727   -27658    -2772   -26762   -77391   -23329    75975 
   48100   -60606   -62729    31914    53644     3119   -11237    12698 
    3276   -62785   -59032    54638    92352     4546   -56416    -3392 
   73543    15203   -90710   -26478    95299    42842   -87057   -77961 
   25439    54903     6916   -40984   -61396   -39286    10943    12048 
  -68836   -97687     3537    55344   -18339   -49904    14891    70276 
   44597     2430    27186    54940    50954    30874   -12330     4118 
   51248     8654   -59398   -58924     5302    42330   -15678   -31251 
   60556    77893   -43390  -125617   -33563    83000    14548   -96782 
  -37293    61852    43046   -15769   -24062    24086    73286    39075 
  -41474   -57537    -9208    11395   -19912   -24873   -10486   -15985 
   26800    87793    65616    -6183   -46413   -26497    20216    30840 
  -17906   -86198   -99785   -49396    -5566   -14222   -53482   -51356 
   -1730    10770   -27302   -59321   -38649    21323    38369     7460 
   -1009    24502    31071    -2677   -15284    -1298   -16657   -23670 
    7726    10253   -32190   -48319   -20088    -8579   -31224   -46649 
