Origin Time       2021/02/13 23:08:00
Lat.              37.7
Long.             141.8
Depth. (km)       60
Mag.              7.1
Station Code      FKS002
Station Lat.      37.8449
Station Long.     140.6013
Station Height(m) 42
Record Time       2021/02/13 23:08:07
Sampling Freq(Hz) 100Hz
Duration Time(s)  300
Dir.              U-D
Scale Factor      7845(gal)/8223790
Max. Acc. (gal)   170.072
Last Correction   2021/02/13 23:08:07
Memo.             
[...]
    1273     1271     1273     1273     1274     1271     1269     1269 
    1270     1273     1274     1274     1270     1271     1273     1269 
    1270     1273     1273     1273     1273     1275     1271     1270 
    1274     1269     1271     1275     1270     1271     1271     1269 
    1271     1273     1275     1270     1270     1273     1267     1270 
    1274     1269     1270     1274     1271     1270     1271     1275 
    1273     1271     1274     1271     1271     1271     1273     1274 
    1267     1269     1273     1271     1271     1271     1271     1273 
    1269     1270     1273     1267     1271     1270     1270     1274 
    1273     1274     1271     1274     1275     1267     1270     1271 
    1270     1271     1270     1271     1271     1271     1274     1273 
    1271     1270     1269     1271     1271     1269     1271     1274 
    1271     1271     1273     1270     1271     1273     1266     1270 
    1273     1270     1273     1274     1271     1271     1271     1270 
    1269     1269     1270     1271     1274     1274     1270     1270 
    1271     1271     1271     1270     1269     1270     1274     1274 
    1271     1274     1270     1269     1274     1270     1269     1273 
    1270     1271     1270     1270     1273     1273     1277     1273 
    1270     1274     1269     1270     1274     1270     1271     1271 
    1271     1274     1271     1269     1267     1269     1273     1271 
    1271     1270     1269     1270     1273     1270     1264     1270 
    1271     1266     1270     1273     1270     1270     1271     1274 
    1271     1269     1269     1269     1273     1274     1270     1273 
    1274     1270     1271     1270     1269     1271     1273     1273 
    1269     1273     1277     1269     1270     1270     1270     1271 
    1269     1271     1273     1270     1273     1270     1271     1270 
    1264     1270     1273     1270     1273     1274     1273     1271 
    1269     1269     1269     1273     1273     1267     1271     1274 
    1271     1270     1270     1269     1270     1273     1271     1270 
    1270     1271     1273     1270     1271     1270     1269     1270 
    1270     1273     1275     1275     1271     1270     1269     1270 
    1269     1269     1274     1273     1269     1273     1271     1270 
    1269     1267     1273     1270     1270     1274     1271     1271 
    1266     1266     1271     1271     1270     1269     1270     1275 
    1273     1269     1270     1267     1270     1273     1273     1277 
    1274     1269     1267     1270     1270     1266     1271     1275 
    1273     1274     1274     1269     1267     1267     1267     1266 
    1269     1271     1270     1273     1274     1270     1274     1274 
    1266     1267     1267     1266     1273     1275     1273     1269 
    1270     1274     1269     1270     1270     1264     1271     1275 
    1271     1273     1273     1271     1269     1269     1273     1271 
    1270     1273     1270     1270     1273     1270     1271     1273 
    1273     1271     1271     1273     1270     1270     1273     1273 
    1273     1271     1269     1267     1270     1274     1273     1269 
    1269     1270     1269     1270     1271     1271     1271     1271 
    1270     1271     1271     1270     1271     1270     1271     1273 
    1273     1270     1271     1273     1267     1270     1273     1274 
    1275     1271     1270     1267     1266     1274     1271     1267 
    1274     1271     1273     1274     1270     1269     1269     1270 
    1274     1271     1271     1273     1271     1271     1274     1278 
    1275     1267     1267     1269     1270     1274     1273     1271 
    1273     1273     1273     1269     1266     1269     1267     1267 
    1270     1273     1273     1270     1270     1273     1271     1270 
    1273     1271     1269     1270     1270     1273     1274     1274 
    1274     1271     1270     1271     1270     1274     1271     1269 
    1274     1273     1271     1275     1271     1267     1269     1270 
    1271     1270     1271     1273     1271     1273     1273     1270 
    1270     1270     1270     1271     1270     1271     1271     1273 
    1273     1274     1273     1273     1273     1271     1267     1267 
    1270     1271     1271     1269     1270     1273     1271     1269 
    1270     1271     1270     1269     1267     1270     1270     1271 
    1271     1271     1277     1275     1270     1270     1269     1266 
    1273     1275     1273     1274     1274     1274     1274     1271 
    1273     1271     1267     1270     1273     1274     1275     1273 
    1273     1271     1270     1271     1271     1271     1271     1270 
    1271     1273     1271     1271     1271     1273     1271     1270 
    1273     1273     1270     1271     1273     1273     1273     1271 
    1270     1270     1270     1273     1275     1274     1271     1271 
    1270     1269     1269     1269     1273     1271     1271     1273 
    1267     1267     1273     1271     1270     1271     1274     1273 
    1271     1273     1273     1271     1271     1271     1274     1274 
    1270     1270     1271     1270     1269     1271     1275     1274 
    1270     1269     1269     1269     1270     1271     1270     1270 
    1271     1270     1271     1274     1271     1269     1270     1270 
    1266     1263     1262     1256     1250     1243     1237     1231 
    1217     1196     1171     1146     1117     1088     1073     1090 
    1132     1171     1189     1208     1296     1406     1417     1381 
    1439     1510     1385     1034      679      576      679      839 
    1216     1783     2092     1931     1340      534      120      324 
     723     1131     1437     1377     1278     1437     1337     1012 
    1224     1822     1833      986      253      623     1736     2581 
    2764     2644     2640     2227      781     -506     -796    -1561 
   -2203     -626     1609     2398     2330     2573     2646     1255 
   -1175    -3250    -2639      369      957     -480     -126      476 
    -542    -3130    -5247    -3240       22      905     2721     5485 
    4773     -611    -6428    -5895      564     5699     5287     1979 
    1107     1944     1892     2651     2775     2667     7762    11951 
    7908     4484     4326     1910     4267    12042    13528    10770 
    8384     2343    -2609    -2951     -602     7009    12305     8719 
    5317     3670     -846    -4133    -3414      768     9590    15030 
    4243   -14343   -22230   -19677   -10615     6111    19529    18193 
    3631   -14735   -21751   -14905    -6698     2986    13953    11028 
   -2400    -5335     2443     1279   -10122    -4637    21181    29659 
    7101   -13680   -12135    -6724    -7242      -94    10023     8823 
      67    -5710    -3204     2142     4156     4229     3133    -2748 
  -13498   -10952     4328     2694    -3672     6812    12710     8576 
    1007   -10883    -5678    15230    15203    -5863   -10632     3739 
   -2081   -22114   -11551    12287    15866    15198    15051     6903 
   -5579   -20200   -19460      278    10065      877    -9666    -5692 
    1657    -5991    -7873     8082    17955    13521    -1291   -16363 
  -13053    -4012    -9370   -11495     1701    14185    16043    10208 
    7098     6002    -9478   -23831    -9690    12270    17194    14285 
   11030     4792    -2914    -6771    -5143     -791     6200    10601 
    5714     2683    10407     9522   -11712   -26053   -13301     4104 
    5779     8421    22118    25096    11510     5013    12366    14392 
    8405     -139   -19384   -30059   -13132     6531    17917    36433 
   51456    32004    -2026    -3303      984   -13379    -4294    23387 
   33400    26636     9896    -6484   -11973    -4317     4747    -8112 
  -15350    19916    47483    19403   -20110   -27422   -27958   -31695 
  -10840    13513    10980    -2717   -13000    -5892    14948     7743 
  -22908   -24456    -1860      990   -11357   -16673   -17712    -7206 
    6405    -7290   -17298    15688    41629    11909   -26794   -20714 
    -102      477    10350    33921    30719    15923    21527    17594 
   -6153   -18738   -15691    -5432    -6419   -23981   -14411    11782 
    -386   -11473    16032    20281   -23336   -55127   -38275     2681 
   28408    23909     8546     6284     3534   -13351   -20109    -2524 
   25099    38203    20483   -10899   -31186   -31860   -11966     5584 
   -3954   -19899   -16519    -4064      386   -12997   -27421   -12486 
   14033    27483    31757     6921   -32760   -14661    41143    52135 
   34400    25443     4588   -25944   -36024   -19287     4919    16372 
   17115    15580     3653   -19168   -29598    -6862    23139     4580 
  -24771    17744    72150    56160    22914    16090     -492   -38381 
  -52860   -12545    29334    18682     4460    21261    37615    46024 
   29975    -6648    -8610    -4797   -41769   -60756   -30811    -4764 
  -11560   -12694    18396    34141    18625    28665    60785    59333 
   37771    33642    25836    -3406   -33957   -48871   -30451     5583 
    4417   -11682    10867    12309   -47723   -76154   -40991     -612 
   45235    72706    36035    -5267    -3083     1390   -17901   -31630 
   -5813    29344    19723    -3871    -2938   -22939   -56450   -40159 
   -3892     -947   -11844    14137    78439    89160     3424   -58968 
  -20399    17201     -167     8777    37836     7551   -44705   -49126 
  -26353      697    27430    18859   -10180    -5463     7685   -15722 
  -32850     3925    50269    55846    37288    12753   -27567   -68526 
  -60308   -20456   -10827     8614    57059    53724     1914   -28784 
  -23074   -11693    -9509     8274    10119   -28632   -43750   -43556 
  -49473    -3196    62587    72952    41397     2366   -19029   -11584 
     352    -6238   -14729     8056    37035     6663   -46184   -31742 
    9539     -342   -30940   -25629    11013    36158    30335     9339 
   -2177    18281    41828    19434    -2218    23835    30082   -11958 
  -34055   -19386   -16745   -38218   -44523   -22855    -3427     6835 
   11909    -1345   -21315   -16286    17726    40047    23782     4569 
   10521    28764    33280     6413    -6137    32081    54973    20980 
  -26929   -55479   -45912    -9510    -1593    -2984    31271    35637 
   -3723    -5017    20156    16271   -11394   -11620    30986    54257 
   48419    31550    -9026   -34218   -40404   -46705     1223    76179 
   79281    36744    18800     8924    -2586     9626    14584   -21972 
  -57511   -57121   -32991     -294     3379   -20355     3095    57585 
   57565    13446   -12425    18103    65507    52478     9215   -31284 
  -90286   -97949   -17263    51906    60007    39139   -22469   -98482 
  -71365    23380    22986   -32216   -28047     8502    49152    67782 
   36375    -2533   -22281   -19143     1449    -4326   -41728   -59498 
  -53453   -67174   -61295     1873    47574    64801    69597    13062 
  -35581    -5319    12722   -19155   -35162   -15681     8436    18721 
   25033    24480     5640   -24626   -40547   -16056    14882    35162 
   54340    17832   -35581   -13126    27791    23380     -217   -13751 
  -13159   -25891   -46319   -32015     1212    28694    56555    61628 
   39135    27243    18196    -3291     8390    35066     6145   -45104 
  -57940   -29562     2857   -14659   -53104   -43999   -15893   -13104 
    1073    38367    26156   -51684   -84052   -11677    58931    43204 
   -5991   -30346   -28795   -14906   -11839   -31471   -34373    -5239 
    1813    -4391    27148    58245    51615    32317    27380    40028 
   28636    -3026     3531    20190    10538    -2161   -19500   -25870 
    2469    30308    34119    12159   -39442   -46337    46240   112341 
   60598     2620     4594     2261   -32733   -82236  -102573   -47773 
   31376    58702    53563    31947   -18427   -37692     6868    37469 
    8208   -12837    28937    71123    53025    21180    29128    59667 
   68959    26978   -48138   -95019   -88588   -67718   -63678   -41970 
   12415    35236    -3871   -55715   -54734    -9283    18272    38178 
   46853    17157    13398    25967   -17624   -63153   -71535   -83631 
  -81137   -42211     6131    64365   100423    58332    23853    54874 
   39928    -6046     8761    25139    23688    33758    12861   -29223 
  -30557    37087   115339    80595   -25089   -49851   -30778   -39299 
  -18810    15596    15435    35928    86665    93599    48729   -14181 
  -74548   -74930   -14239    22850    22439    14931   -12735   -53360 
  -67714   -61587   -64928   -61609   -27525    13730    26740    41565 
   73762    55759    -5346   -51297   -58160    -7426    24520    -7724 
  -17590    10118    24776     7550    -2515    51075   109719   108190 
   53499   -35546   -51846    37058    53160   -40965   -58911    14982 
   27499   -21694   -51510   -78073  -103632   -77535   -16811    26393 
   52851    68187    54305    13917   -28426   -38236   -14744    -7300 
  -13660    -3709    21551    55055    32080   -51232   -81220   -41037 
   12166    46368    42508    46083    85567    85387    10629   -48748 
  -33388    -8289   -34391   -63162   -26276    31414    37145    25772 
   41789    59691    38080   -26374   -66364   -57773   -50460   -28941 
    7685     8808     7719    30190    31997    33135    71193    75672 
    8999   -15580    31986    25332   -42657   -59775    -1680    25695 
  -78791  -177016  -108513   -41133  -100629  -122781   -19398   112108 
  154353    81155     7925    16182    33805    27641    42043    53939 
   42805    26373   -10832   -34831     -849    22701   -15491   -54889 
  -64593   -70544   -35083    35194    36850    18817    83995   120113 
   51556    10894    41609    23145   -84761  -171572  -149413   -78966 
  -57862   -57628    16033   124244   140231    90150    80415    84731 
   46032     7175    17659    50328    51219     5802   -39889   -38011 
  -33970   -64905   -47142    38272    69411    23842    -2617   -21273 
  -78113   -97389   -41818    20336    56099    32552   -62008  -113398 
  -80161   -49218   -31310    -9148    14443    45515    42017    10496 
   20729    64620    87883    74487    50166    17226   -29014   -25751 
   13359     2659   -16347     9061    38566    51232    39615   -13582 
  -63227   -39313    19036    22470   -23820   -64669   -61495   -19502 
   -7435   -38589   -41041    -8621    17934    23178    -6696   -15703 
   51869    97854    44447   -21255   -22990     8889    15487   -26211 
  -65134   -40852    -4140   -21084   -21267    40521    53488   -16534 
  -32472    38184    52548   -13285   -36131    -8372     1179   -11870 
  -23099    12063    59846    33466    -6596   -13443   -36637   -19691 
   53322    57230     5460    18824    47808    26088    29866    48556 
   11695   -31799   -46853   -62981   -77901   -76227   -55193   -26751 
   -1948    23485    19938   -14386    -8854    22519    21627    19514 
   32560    49457    68434    61010    25023   -23851   -54760   -11844 
   55339    46111    -7731   -20125    -6646   -21743   -19102    34524 
   47237     3727   -18058   -22374   -27014   -15982   -16536   -58270 
  -88480   -48938     8164    17043     2749    17012    47283    41569 
   21655    26046    50689    92965    95976    52907    31625    -5023 
  -65641   -86589   -81241   -55618   -20395   -19236   -26350   -12468 
   18916    58498    71847    69360    63663     6859   -71467   -72235 
    9409    73078    56286    22076     8356   -37890   -84234   -69993 
  -51252   -63167   -64678   -51062   -38138   -10118    35475    68069 
   63730    29762     3854    10177    31865    38325    22242     8748 
   -3761   -36173   -60025   -37633    10260    26150     4988   -25529 
  -52251   -21104    64605   111013    89615    29855    -7885    25787 
   64359    35959   -29104   -72165   -68605   -55042   -53030   -22302 
   15874    -1483   -47796   -38229    19064    27383     3271     8337 
    2101   -15965      479    46947    82359    53527   -12688   -35665 
  -19981    -4170    -8665   -48999   -69214   -23309    31909    49732 
   42938    35214    13834   -25918   -34006   -15915     3568    40235 
   49146      946   -29336     3858    15250   -36082   -47277   -22860 
  -29849   -15182     7526    -2485       -9     1931   -10385    -2073 
   -3807   -34470   -24630    23090    34107    44134    64720    11979 
  -42384     5883    36942   -23612   -36178    18030    22898    24086 
   61055    45061    11882    21741     1062   -46546   -49644   -20393 
   11434    19768    10428    44035    89887    70021     9474   -44367 
  -56254   -11016    12491   -37021   -75443   -26856    43544    28451 
  -49952   -82598   -42685     4773    22789    36266    58279    68648 
   55485    16896   -23850   -23116      807     2803    -1637     2215 
    5468    20578    44162    48469    23746   -12791   -20250    -2095 
  -26091   -73025   -41268    51345    64550   -16236   -31939    31800 
   54008    49184    32526   -17200   -33478     1652    53015    75618 
    9246   -81166   -87816   -30214    29336    66826    62044     1948 
  -49574   -12044    55636    38599   -17888      213    45690    18561 
  -48621   -72031   -49746   -36953   -27062    13678    53909    51957 
   12020   -23287   -35970   -44694   -42080   -17938     2902   -12271 
  -38048   -25764    -2377    12000    27758     9583   -28907   -24543 
   11676    20626    -8367   -19886   -18985   -55088   -53707    10941 
   16108   -29752   -19238    10955     2629     6679    18463    -5086 
   -7252    19336    15333    14979    25351    -7982   -25911    15411 
   20613   -17497     3835    61643    42303   -36470   -23985    74953 
   63321   -45989   -64876   -16933    16151    68697    77039    -4884 
  -27714    37785    55317    30144    17111     -434     -630    24796 
   29751    14166    16384    19818    -6165   -32379   -42870   -45567 
  -20260    13599    -3187   -33864    -2340    24327    -9517   -12015 
   39904    64678    32638    -6867    -4217    20062    25280     6276 
   -3666    20148    40760    35764    27133    27016    33795    39121 
   41254    35263    33172    46306    13936   -53497   -52782   -18846 
  -26412   -17923    42484    69947     7773   -61365   -55869    -1846 
   42930    45478    30171    34353    29064   -11338   -42708   -25849 
   16208    33416     6393   -40132   -65518   -36632    16264    27253 
    5879   -24648   -66267   -74372   -41299   -20390   -13752    -7570 
  -24100   -46105   -17402    35920    21969   -34924   -28328    26485 
   33515   -34786  -102649   -75172    -4410     4743    -2093    16119 
     507   -34207   -28287    -5381   -23098   -72084   -81476   -48253 
  -31889   -27630   -11674     4441     4322   -25528   -60655   -46518 
   14419    34904   -11426   -33197   -24069   -26860     7314    42815 
    7635   -30343   -29020   -13068    16019    30592    24939    42417 
   72762    73889    46437     5225   -23004   -18445   -17714   -17825 
   22557    46936    24923    39723    74194    48816    21698    21404 
  -14488   -48323   -40365   -18557    21685    37952    -8557   -41323 
  -19963    15477    46495    60250    48567    40757    49356    46467 
   27163    18959    23105    18366     2137   -19781   -21597    -1244 
