Origin Time       2021/02/13 23:08:00
Lat.              37.7
Long.             141.8
Depth. (km)       60
Mag.              7.1
Station Code      FKS016
Station Lat.      37.1228
Station Long.     140.1914
Station Height(m) 375
Record Time       2021/02/13 23:08:15
Sampling Freq(Hz) 100Hz
Duration Time(s)  197
Dir.              E-W
Scale Factor      7845(gal)/8223790
Max. Acc. (gal)   494.926
Last Correction   2021/02/13 23:08:15
Memo.             
[...]
  -21365    -5791     6135     -136   -16163   -29042   -31569   -24294 
  -15067    -7639    -4148   -10824   -22215   -20042    -1829    18040 
   30465    33189    24179      899   -26127   -37658   -34186   -29698 
  -33251   -41566   -43229   -36926   -25157   -12397    -5683    -4260 
   -9247   -10422     -387    -2141   -15579   -23793   -36185   -50494 
  -53179   -39046   -11276    12357    25963    34095    35495    28794 
   10629   -11515   -24356   -27209   -25679   -22075   -13703    -1354 
   10764    19191    21886    18723     6517   -11167   -27205   -38091 
  -32115   -10551     2843    -2258    -8472    -1840     4768     4683 
    7264     7283    -4695   -26731   -48984   -60997   -61569   -52772 
  -40911   -35887   -33496   -25474   -14516    -3396     8438    20754 
   26836    18621      521   -17971   -26909   -24209   -22257   -20676 
   -5027    21024    33111    21675     7115     -144   -14979   -41694 
  -63559   -70761   -68268   -57534   -40859   -19500    16025    54180 
   64872    45684    14570   -15388   -33411   -35631   -30782   -23301 
   -8284     1378    -5599    -5633     6916     9261     2934   -10839 
  -41778   -71523   -78903   -70515   -53442   -25942      568    11562 
   10079     5220     1329     -838    -1314      433    -2964   -16210 
  -27527   -32875   -36958   -33721   -25447   -22227   -23495   -23357 
  -17536   -11438    -8228    -2740     1848     3075     1702    -5019 
  -12359    -9985     3010    11499     6146     -328    -1444    -7553 
  -17832   -21323   -19846   -17288   -14152   -19056   -26387   -20302 
  -10571    -7800      118    10623     9427    10906    26379    32209 
   15730   -11113   -37287   -48870   -41006   -24435    -6737     1044 
   -8290   -20710   -21976   -11156     9868    34434    47228    40220 
   22766     8594     4267     5599    -2999   -31417   -66406   -86057 
  -81981   -58437   -23687     9497    25596    21612     8973    -6718 
  -18949   -14918    -4835    -5913   -12093   -20839   -37185   -49420 
  -50394   -48730   -43024   -31754   -26497   -29945   -31168   -22176 
   -6142    10737    25168    33102    32258    21010    -2519   -32574 
  -56282   -66147   -62592   -48408   -31592   -12560    15149    39522 
   45771    34298    13460    -5498   -20737   -30650   -31861   -33107 
  -33957   -27118   -16321    -2832     9309    11758     4429    -8511 
  -17915   -18264   -16723   -20457   -26131   -22634    -8756     5957 
   15650    15894     9587     2647    -7603   -16806   -16915   -13860 
  -20240   -33430   -36220   -30333   -28555   -27726   -25686   -25450 
  -23113   -11064     6288    15361    22122    27592     9965   -24676 
  -48867   -54965   -42429   -15712     8263    23650    34333    34596 
   23993    10338    -8027   -29776   -41998   -41924   -38948   -34811 
  -24748   -10928    -1047     3754     9236    15934    22728    27820 
   18337    -5030   -20000   -23120   -21323   -13861   -13209   -22125 
  -27309   -33852   -47162   -56498   -56214   -50395   -43418   -38169 
  -34900   -27306   -12599     2579    12410    11919     -634   -11029 
   -2018    19233    34187    39468    32216     5389   -24659   -37494 
  -38920   -33443   -26171   -32670   -41374   -35968   -26435   -15989 
   -1301    10774    14835     8414    -6079   -16460   -17999   -16829 
  -13871   -15462   -26820   -34345   -32985   -24285    -3461    13865 
   14099    13258    15461     5217   -10825   -23178   -42325   -57900 
  -56173   -52412   -45461   -27564   -16413    -9571     8860    26060 
   38018    54214    56439    35665    13143    -4179   -20225   -28219 
  -26046   -26248   -37588   -47606   -45662   -37439   -21448     2523 
   17150    18225    18287    11380    -7812   -22495   -32530   -46271 
  -51568   -46913   -34453    -8259    12640    17355    19641    12634 
   -8541   -29457   -45750   -54518   -50093   -38638   -26484    -8131 
   16067    32433    33764    22037     3821   -10741   -22042   -40001 
  -62869   -75026   -69523   -49311   -13737    25020    44793    45459 
   36107    18998     8379    10628     1174   -30100   -57505   -64890 
  -54720   -28891     3203    27537    30931    11248    -6862    -6320 
    4338    16511    15195   -12671   -48914   -65565   -58765   -39739 
  -13918     8183     9859    -3024   -15303   -23500   -17952      291 
    9333     4452    -7973   -24603   -31399   -25547   -14682     5287 
   27063    34561    27988    13414    -7977   -30327   -37559   -27280 
  -20860   -31166   -48863   -60748   -61290   -48189   -23550     2837 
   24790    38905    35808    15796    -1004    -2019     2041    -2431 
  -20767   -49820   -74433   -76824   -61790   -49500   -38025   -19192 
   -1725    10208    16343    12950     7943    14476    21816     8087 
  -18577   -37744   -46098   -44298   -31784   -10378    13028    35267 
   58253    61429    34622    10976     2362   -10871   -26110   -38159 
  -50313   -49063   -37720   -34658   -30308   -14234     8537    30142 
   42526    45991    31186    -6057   -36424   -52218   -70623   -75598 
  -63984   -58436   -41993    -5930    16807    18238    18716    23469 
   17883     -340   -21122   -42828   -51200   -39545   -28780   -23399 
  -15121    -7832    -7539   -11566    -7574     4082     7673    -3069 
  -25220   -51760   -72933   -79200   -64789   -41168   -19735     6586 
   35289    50631    48397    36189    20244      265   -18148   -27985 
  -39102   -56806   -69496   -74297   -68983   -42425    -6704    19623 
   43880    63448    62912    49428    32868     8162   -19718   -36462 
  -46819   -59665   -60801   -39471   -15047    -6620    -1732     6166 
    3389     1536    12537    18046    10335    -2385   -15056   -17811 
   -5749     5162     7847    13489    15826    11157    12025    10399 
    -656    -7807   -11634   -22981   -37386   -41200   -33772   -31095 
  -38236   -39187   -28759   -16015     -731    10886     9644     8109 
    9043    -1296   -16376   -24628   -26391   -26006   -32998   -40807 
  -31071    -4189    28971    52442    57944    56853    49917    30564 
    5111   -24544   -55352   -69924   -69819   -75070   -72526   -44223 
  -15553    -7426   -11955   -19454   -25861   -39756   -61993   -71949 
  -65851   -55602   -41401   -30496   -31405   -24528     1263    20351 
   16308     4325    -1841    -5688    -8672    -8708    -8137    -4761 
   -5065   -16092   -24765   -29041   -33188   -34465   -42892   -55520 
  -55555   -45821   -35943   -20621     4981    28397    44467    56258 
   60527    64413    65877    47501    12514   -21887   -43189   -42398 
  -24706   -11646   -10855    -7848    -1817    -1202     6239    30545 
   58550    70495    62155    43860    19600    -3568   -21759   -44817 
  -61279   -62255   -63678   -63675   -51463   -26295     5146    24815 
   25092    15341     9005    16613    33462    42770    33872    16374 
    5235     1159     3100     2290   -19866   -54716   -72724   -75077 
  -81522   -76084   -43852   -12456     5973    20795    25906    24046 
   24005    20730     9598   -10652   -33355   -44460   -41837   -36512 
  -40421   -51966   -63467   -73543   -73217   -58849   -33646     1264 
   26597    32896    32379    31581    32130    29567    21959     1718 
  -37088   -69886   -85981   -98666  -105592  -105638  -105065  -101937 
  -97441   -99839  -104406   -97542   -87642   -91824  -101740  -100170 
  -83180   -47860     2188    48867    81051    94867    90441    79369 
   65360    42341    17572      900   -11368   -15396    -3531     8311 
    8721     9649    15996    29230    52470    71527    78117    81530 
   75028    46222     6268   -31402   -65288   -95251  -118359  -123747 
 -108413   -79577   -32946    25921    74027   101029   111385   112708 
  104063    82921    62984    52629    42114    24236     5134      772 
   17725    46072    73294    86842    81788    61803    22798   -29889 
  -71934   -96169  -105619   -90941   -60007   -29602     -307    16464 
    8212   -13406   -35878   -51737   -58396   -66226   -76450   -83924 
  -92531   -92001   -71524   -40360      706    41496    55691    44539 
   15307   -28512   -78011  -138991  -200072  -243373  -266241  -253149 
 -212485  -154261   -66463    18897    76196   119705   142626   129316 
   78718    11514   -39360   -62136   -52065   -12108    21334    30906 
   41233    47808    34875    28871    43529    59236    70519    75759 
   54171    13192   -16605   -45281   -70167   -64909   -50859   -34295 
    3256    38410    57777    72889    84797    89761    75801    48190 
   34141    33685    32062    33249    36971    33223    31260    46267 
   67810    83200    91509    79197    41918    -3011   -52103  -109894 
 -164396  -194967  -192785  -164018  -118368   -69344   -26896     8218 
   30234    22958   -26465   -98753  -155785  -195459  -234092  -264158 
 -281931  -281921  -235781  -142643   -28906    87598   179419   217587 
  194896   122798    34681   -30510   -69103   -98373  -105322   -73032 
  -31911   -19153   -18276    -4622      538    -8388    -9414    -6160 
    7931    46368    82475   101655   126755   153505   145573   100182 
   63528    64926    76698    83880   111396   144525   143937   110910 
   58309    -2084   -44890   -61996   -66483   -69951   -83231   -98793 
  -90981   -57981   -13927    34452    63526    47109    14436    26123 
   77118   105318    99165    81800    42190   -15908   -56655   -58585 
  -20640    32437    66195    72571    63474    45989    21227     3951 
    3361     3439    -1011    -6264   -22847   -56602  -103266  -155503 
 -204078  -245358  -280038  -303250  -305870  -292916  -282185  -276447 
 -263294  -238117  -202891  -152011   -85953   -15132    60156   126886 
  159101   166222   168083   154792   123346    88878    53628    24305 
    5251   -26720   -60999   -67775   -67406   -74217   -81106   -88631 
  -79911   -57240   -52451   -66480   -81112   -79656   -33601    54290 
  142425   218959   291082   353587   404789   420838   368813   261250 
  148647    60102   -29353  -122025  -179262  -195035  -180252  -165003 
 -167020  -134438   -82389   -88678  -119095  -120031  -110614   -91405 
  -55017    -3383    67447   105355    51283   -51695  -126689  -163678 
 -172403  -132611   -57248     6400    40721    44595    53929   102732 
  125076    91719    74094    65264    19711   -20206   -25914   -28082 
  -51258  -102527  -144333  -121635   -43702    37766    93974   129863 
  134110    78598    -2925   -40659   -24942   -12996   -51567  -114394 
 -162619  -203816  -231121  -223809  -200956  -175088  -121633   -33238 
   61084   145849   219568   257361   246362   185585    63562   -88414 
 -197631  -220467  -192013  -166052  -125425   -69260   -28412    22451 
   57445    33624    31209    84958   116541    99952    78648    78603 
   70455    31171    -3960    -3672    21936    52353    89438   131724 
  144078   121174    87214    32748   -44559  -120456  -177808  -204191 
 -207312  -199164  -168408  -115724   -52852    11977    80565   168080 
  241332   247634   207728   162896   118459    78098    40837   -10914 
  -76821  -132308  -168291  -193417  -205839  -210401  -218174  -212175 
 -180138  -139529   -99126   -71122   -84605  -126609  -152842  -161854 
 -172744  -167917  -126347   -74794   -40230    -8217    28501    76265 
  156440   243437   284480   274518   240337   189429   117150    41423 
  -15348   -41669   -22283    27101    53410    45347    46730    67329 
   75185    65385    41970    -4378   -57721   -84497   -72755   -40999 
   -7831    31653    67446    64628    16772   -43887   -89294  -123988 
 -151468  -152307  -127026   -87338   -22836    69785   173005   261416 
  298112   252796   141111    18389   -86760  -191492  -285807  -333882 
 -336206  -302616  -252097  -221038  -196812  -154764  -115048   -79432 
  -22569    52367   115555   142353   129793   111732   130450   146362 
   97318    35368    14791     5211     8604    35230    51653    63348 
   87797    86671    34086   -39607  -103173  -132066  -108886   -69346 
  -36078    29875   123294   191191   222459   217422   155578    43062 
  -74380  -128706  -100399   -66922   -62467   -27769    35854    64670 
   44027     3655   -28312   -40936   -41926   -42388   -46816   -61348 
  -91161  -124700  -150427  -174039  -178332  -140162   -99247   -90324 
  -74956   -31710    12831    52446    84727    72364    -7798  -114467 
 -186673  -219670  -233001  -207497  -133537   -40828    53261   137234 
  181543   180615   155250   104120    21945   -63899  -128848  -188698 
 -263524  -323422  -331005  -297630  -227988  -113077    18702   141670 
  249382   330666   379436   379131   322143   242991   160992    64303 
  -34260  -102887  -125694  -116634   -94512   -43075    45970   137353 
  204002   245980   244444   164744    40288   -51957  -112783  -170459 
 -181349  -128002   -88454   -97991   -97189   -60303   -18430     9109 
   13545     5535     8402    13494    18538    35957    53172    70002 
   95968   110116    88358    33956   -35873   -99774  -128941  -119368 
  -94414   -59539   -19773     3631    11988     5698   -47781  -146969 
 -229122  -253288  -237990  -194155   -99007    34434   161103   270812 
  358026   393655   358215   263630   173125   113562     3051  -174841 
 -323253  -402129  -421977  -403698  -369989  -277427  -111300    51934 
  162912   203285   163723   100808    67451    21520   -91354  -226910 
 -303747  -335395  -365837  -350076  -242842   -84083    83689   271347 
  445153   506943   447769   331088   176725    16953   -93744  -144910 
 -146376  -109174   -55092       44    52033    91328   103524    87872 
   40649   -32516   -77942   -86240  -113042  -120131   -51645    19967 
   58903    92111    71852   -10076   -81067  -107658   -90965   -61693 
  -42317     2334    50203    43191    17103     9471    -4549   -32714 
  -51673   -57704   -74445   -91619   -86605   -81309   -84276   -91875 
 -124542  -161460  -160236  -132574   -96277   -41998    28740   101283 
  153920   160859   115990    47336    -9751   -61778  -128860  -184113 
 -191997  -152601   -77935    27400   153384   266411   326153   314262 
  243788   158437    90242    17467   -75602  -149921  -188713  -210413 
 -199230  -137722   -43669    58576   152776   224081   245898   213829 
  161622   103534    34203   -32794   -85653  -127067  -148910  -148394 
 -148003  -147573  -123564   -86661   -54751   -24223    -4935     2994 
    9019     -329    -5861    10396    11583    -2721    -5267    -2606 
    -585    -8904   -39245   -68747   -78910   -84993   -93517  -100341 
 -106122  -104611  -100718  -114291  -147050  -164201  -128151   -57977 
    5285    74089   162737   236055   278122   287973   226921    93984 
  -36930  -117552  -168740  -207505  -208921  -159312   -86580   -18515 
   43231    94784   121521   120447    99767    74058    52802    30487 
   10092    -4039   -19850   -34767   -53700   -90670  -125131  -122057 
  -76412   -16378    24856    44329    48833    30126    -4163   -37504 
  -69329   -90131   -82690   -43573     7956    29898     9315   -25096 
  -56698   -67073   -31494    23292    61712   107298   166321   196647 
  197303   189125   163390   113589    32987   -70827  -152388  -179227 
 -162418  -134164  -108603   -69457   -16526    31923    79624   117927 
  116937    83875    39818   -13641   -66328  -104550  -119781  -111040 
  -87015   -41361    20407    57592    55344    37913    12708   -31989 
  -87629  -130308  -158988  -181888  -183816  -159389  -122458   -80057 
  -51227   -49191   -55432   -53555   -35784    -3600    22054    33046 
   33092    14048   -15238   -43471   -82335  -108881   -93048   -70070 
  -68843   -68006   -56461   -35372      961    32937    24015   -19422 
  -46626   -33671    -9647    15287    61072   109588   138789   148713 
  121784    70522    40617    31411    20574    14011     9177   -10498 
  -32296   -33666   -17591    -2412     -373     1038    17976    44633 
   75718   111364   144454   167544   176149   162895   116090    43425 
  -24714   -77760  -120259  -145355  -159529  -182252  -213727  -236827 
 -228591  -176532  -101493   -35621     9171    34560    51879    64612 
   51786    17995    -4822   -21714   -39939   -35189   -11863     6698 
   27432    52762    64535    61616    52213    37856    27442    30777 
   43911    49427    38441    24536     9369   -16441   -36548   -40007 
  -41337   -44905   -42469   -28915    -9328     9807    35422    60925 
   66521    58625    43598     4922   -51792   -94656  -113351  -130708 
 -163420  -194826  -202321  -181323  -137705   -85739   -35483    15363 
   55421    69556    67429    61245    54677    42184    13311   -22103 
  -58988   -94567  -103767   -95489  -100522  -110315  -105563   -78351 
  -34770     2182    27425    51703    67760    73720    88078   101684 
   85897    54888    43687    50450    47326    18802   -26584   -69345 
  -97498  -111423  -107127   -68316     8417   100888   178803   216873 
  200041   135801    58047    -1410   -42419   -82285  -117537  -127603 
 -110416   -81733   -54629   -32772   -18616   -17477   -20578   -22096 
  -39194   -67042   -73738   -49793    -5557    41500    73248    91207 
   91646    63647    20117   -33790   -98540  -147360  -168685  -174517 
 -155792  -108184   -52694     3561    53245    76019    71910    41755 
   -9482   -41658   -43796   -47202   -40992    -9765    10239     5008 
   -5346   -17307   -24524    -7088    33335    67327    85272   100722 
   96624    56874     6288   -39710   -77635   -86476   -64123   -36066 
   -4988    41200    81801    91254    75936    42873    -9256   -58305 
  -79037   -81699   -76983   -56435   -34789   -31793   -37666   -40679 
  -37436   -29161   -20957    -9436     4590    14176    20430    16807 
  -10274   -53374   -88989  -109128  -115403   -97252   -55385   -10781 
   23970    42769    38315    20699     8122    -2389   -12398    -3370 
   24672    51907    67279    61927    31695   -12004   -52114   -71578 
  -60970   -37214   -20625      414    32057    55536    65604    56535 
   20086   -18847   -45600   -81232  -118035  -129385  -126380  -110817 
  -66430   -19764    11153    43287    68226    86641   120600   144459 
  116154    47617   -12536   -41075   -64755   -98217  -115643  -111759 
  -97788   -70698   -31738    15017    54040    64150    55277    39942 
    7943   -36502   -70957   -85866   -84172   -65907   -36219    -8888 
   12970    34747    48562    42801    25056    10631     -145   -13887 
  -24468   -25213   -27448   -35044   -31359   -15660    -2949     5073 
   10521    12117     7769    -7292   -30846   -55632   -67435   -47977 
   -7600    22917    29948    16876    -6427   -34133   -66086   -90131 
  -92159   -77986   -60366   -36705     -149    34385    46113    33974 
    7345   -23278   -55228   -92584  -118276  -111233   -83497   -45461 
    3453    39933    54441    60100    51447    33997    25840    19542 
    8361     2566     4432     4950      295    -2876     3948    21234 
   40705    59375    79840    95135    94061    74559    44417    10346 
  -25315   -53631   -67180   -69496   -65109   -60045   -56641   -42695 
  -10719    27126    59853    85923    91569    59663     2605   -53507 
 -104473  -147777  -159736  -137388  -108194   -78495   -37706     7735 
   51082    96510   126139   104167    35127   -35082   -79389  -109942 
