Origin Time       2021/02/13 23:08:00
Lat.              37.7
Long.             141.8
Depth. (km)       60
Mag.              7.1
Station Code      FKS005
Station Lat.      37.6385
Station Long.     140.9849
Station Height(m) 16
Record Time       2021/02/13 23:08:03
Sampling Freq(Hz) 100Hz
Duration Time(s)  300
Dir.              N-S
Scale Factor      7845(gal)/8223790
Max. Acc. (gal)   506.101
Last Correction   2021/02/13 23:08:02
Memo.             
[...]
  -19508   -24135   -15228   -11180   -19651   -29702   -25408   -15419 
  -12253   -11315   -19705   -36553   -39430   -24813    -6432     1264 
  -11700   -32680   -35618   -16260    -2758   -16835   -34831   -23484 
     668     3620   -14554   -37157   -44045   -29662   -10701     2887 
   -2231   -30222   -48394   -41480   -28501   -15172    -1113     6042 
   -1660   -26154   -39725   -18783      912   -17732   -45805   -44097 
  -22453   -10547   -20075   -30798   -21544    -9715    -3507     2768 
  -11666   -33197   -25134    -9586   -17956   -35773   -42773   -32736 
   -5433    15912     4444   -28709   -45407   -23679     3642    -2057 
  -28125   -53276   -52667   -12974    22619    16163   -29103   -73943 
  -53596    13348    34140     -710   -32725   -44928   -43316   -27688 
  -13063   -10292   -16393   -29150   -30358    -7493     9809    -3497 
  -28007   -40127   -40965   -33150    -9510    15593     7730   -27292 
  -53663   -58330   -33759     4148     7342   -17215   -27977   -29845 
  -35370   -31833    -5319    23214     5127   -48913   -75772   -52718 
   -3618    31402    23839   -20351   -67165   -67486   -18030    13498 
   -8769   -38151   -21674    26408    42211    -1135   -59283   -75667 
  -47347    -9749    15175    12977   -18364   -48190   -51102   -31374 
  -14625   -17000   -20771   -17359   -11961    -5661    -9126    -8532 
    3975    -3746   -27287   -43452   -52586   -39388    -3720    21323 
   14382   -27102   -71744   -73714   -45115   -18963     6704    23515 
   14944    -6482   -23071   -33509   -42500   -51968   -53581   -29523 
   13809    33961     1837   -45131   -43011   -13761   -20241   -30395 
   -2272    11018   -17529   -39808   -37110   -26190   -19012   -18477 
  -15184   -12028   -19329   -29169   -23232     4579    13080   -29181 
  -66854   -58044   -25944    13979    34142    12771   -15041   -26561 
  -33829   -38448   -38700   -36370   -25532    -9610    -8760   -19878 
  -29304   -35896   -12105    28107    14716   -40159   -76102   -69329 
  -20351    26896    24810   -22083   -63406   -41211    16735    21172 
  -32131   -68756   -45914     1628    13370     -124   -10539   -39393 
  -62985   -47950   -39673   -46387   -21439    16005    16519    -6419 
  -12972   -10390   -20233   -30657   -26053    -4882     9613    -9722 
  -32479   -25096   -13325   -29492   -59524   -51448   -12320     6420 
   16267    13228   -24919   -51960   -41305   -11510    16988    14299 
  -19938   -54268   -60952   -30767     4012     2404   -19005   -13911 
    8295    -5490   -61605  -103230   -76906     4699    65423    51873 
  -10351   -57773   -48717   -19410   -33762   -53829   -21803    14760 
    2393   -23261   -11132     6879   -15450   -43484   -28294     9202 
   -5938   -74719   -84439      742    67414    33062   -51817   -95944 
  -73500   -17658    31357    37875     6192   -12121   -19523   -59675 
 -100746   -82350    -8938    41524    11277   -18727    19020    42010 
   -7425   -74370   -78683   -21195    10401   -13262   -43163   -37343 
    5143    25347   -10501   -52027   -61507   -44818   -16067   -10606 
  -27945   -16183    11407     8896    -6716   -20583   -35874   -34990 
  -25717   -24258   -11160     7088   -11388   -65352   -95744   -50156 
   38998    74506    24745   -39278   -59487   -49794   -33883   -15396 
    2178     4642   -23229   -61281   -66865   -28555     6466   -16719 
  -41342    11695    55174    -2849   -74881   -67942   -18816     5746 
   -1827   -18393   -40028   -43028    -2290    25370     4114   -31671 
  -71473   -74972   -12521    35792    29656    10982   -19847   -65642 
  -83775   -53175    -3970    14887    -6315   -20201   -11334   -22658 
  -51522   -52795   -25443    -3426    -7713   -14989     5308    26905 
   12073   -24819   -40144   -26974   -28629   -53091   -49212    -7283 
   26843    24128   -16611   -49372   -29512   -10134   -24514   -27801 
  -26154   -32483   -18681    -2106    -9544   -17795    -7250     1858 
  -13404   -43420   -61731   -47626   -10793     8989    13078    23085 
   -2535   -67363   -82536   -23692    32890    26196   -26250   -59111 
  -50026   -42542   -64454   -74960   -33076    17689    34874    39586 
   18650   -28381   -47830   -46359   -41883   -18831       -6    -1836 
   -9259   -15534   -20194   -22607   -20007   -28105   -44714   -30793 
   -1989     2581   -12087   -34171   -51098   -49495   -15564    27141 
   14832   -18624     3373    29025     2413   -32166   -46930   -55621 
  -59378   -42565   -16405   -25081   -53451   -47092   -10982    15942 
   15412     6956    -9397   -53844   -63165    -3883    24444   -20012 
  -41511    18117    66658     6025  -102105  -139041   -82313     4707 
   39025       94   -53740   -73399   -28687    54650    62171    -8001 
  -52843   -53401   -24921    -9711   -23130    -2722    17716    -9930 
  -35959   -53921   -53705     3955    64679    66712    24557   -31279 
  -68342   -94907  -120133   -74665    30391    75903    25089   -54660 
  -71637   -24698     2874     7407    -1267   -66714  -132630   -99144 
   11452   100857    97120    10288   -67215   -72954   -51456   -47826 
  -51078   -54135   -34560    14000    60949    95050    68588   -42611 
 -138269  -135085   -55086    32860    63231    30208   -16775   -43001 
  -47043   -26488     3915   -17814   -66522   -44010    -4719    -8941 
   15395    47713     3338   -81675  -107474   -55636   -15151   -28335 
  -40239   -38836   -24256    46071   113899    58120   -94312  -185164 
 -128096     1601    87697    83848    28972    -4024   -34183   -84538 
  -60180    16287    -8334   -80667   -75614   -53840   -37461    -2659 
   -8905   -20133     1225    -7746   -18211   -12024   -41656   -41141 
   36485    90548    61237   -30468  -120568  -116394   -55355   -26408 
    9736    58672    55381    14210   -19593   -24198   -11431   -32609 
  -76161   -70513   -17177     5103   -43671  -102610   -90450   -14665 
   42196    23923   -40663   -74575   -34711    34464    67086    47857 
  -26833  -103774   -84190   -15057   -10220   -45331   -56848   -35284 
    8622    50098    62874    12540   -69649   -64060    24409    53010 
  -10201   -69187   -63327   -21212    -7334   -26183   -27274   -21500 
  -50399   -65817      372    95116   113306    52558   -22269   -81287 
 -123727  -130609   -81224   -33798   -48292   -52768    -1494    10536 
  -44367   -58174    21296   102820    64778   -52532   -73403     6621 
   29103    -3572    12391    32988   -34398  -126328  -110174   -23390 
   -9096   -46484   -20580    48814    59880    -2727   -56694   -82906 
 -112843   -56878    94869   138068    14852  -108625  -130165   -77805 
  -42844   -66124   -50481    36032    62429    15048     6084    31766 
   34090   -11321   -75018   -71275   -33462   -39428   -46093   -35262 
  -24251   -17757   -33902   -22891    34834    48157     -244   -25559 
   -7439    -8900   -36821   -48568   -47402   -27824    -5363   -28256 
  -53759   -39849    -9950    25940    29270    -9979   -24171   -12915 
  -20025   -35857   -41062    -7126    46776    31270   -26010   -13593 
   51198    70465     7014   -90194  -142695  -111038   -22914    53627 
   86066    63082   -17147   -81886   -97614  -120264  -127661   -93614 
  -62911   -15712    46232    67059    47437   -14404   -84801   -92971 
  -52494    11298    61433    20229   -69210   -77133     8567    68732 
   33835   -26862   -62249   -95593   -99696   -48737     9246    47304 
   56023    23619   -15955   -39892   -46028   -26515   -22836   -47591 
  -28649    18442    -4509   -97104  -163709  -104040    42446   106442 
   77404    51460     6635   -50820   -50053    -4689    27220    19076 
  -24236   -80605  -123331  -127325   -74738    23044    93352    80121 
   30649   -11649   -42781   -41260   -38182   -53948   -38811   -13821 
  -14416      565    25716    11053   -34349   -35741    37955    77062 
   15199   -51301   -77971   -97353   -69727    29497   110451    81205 
  -38396  -158348  -190393   -99802    12587    35005    29249    47898 
   30489    -8762   -18716    -6362    32575    68281    40795   -10540 
  -29596   -51337  -103608  -149656  -127998   -29006    52142    30964 
  -58923  -141785  -176837  -153010   -80187     4563    49457    33964 
  -19985   -71589   -88358   -92426  -111244  -109513   -76666   -49048 
  -30865   -20553   -23001   -17128     2220     3604   -29222   -53649 
  -13964    67525   127668   128656    53002   -37215   -67748   -81888 
  -82171    11047   121131    93526   -31580  -107095   -79559    -5568 
   17523   -20640   -61599   -90302   -96646   -91616  -120556  -135039 
  -53025    86274   208174   278041   267652   196273    88427   -66819 
 -198717  -195407   -67401    70278   131278   134410   105822    17501 
  -87546  -148379  -190634  -196150  -123110   -54932   -54670   -42371 
   -7892   -26831   -67795   -83655   -64548     3507    50330    32169 
   15215    28092    38059    -8968  -133909  -272404  -344628  -284246 
  -96070    69637   107288    79988    52359    40749    44460    30018 
   22005    55347    82016   109578   178891   217228   146060     5495 
 -125413  -218955  -243031  -155934   -19458    63101    66063     6736 
  -48610   -24993    42164    52967   -17694   -67028   -22449    29531 
   22168    11256    31414    36354     5090   -28360   -71813  -145539 
 -213162  -245073  -244227  -222080  -182834  -114866   -50105   -19299 
   46732   159124   195276   115341     4866   -64196   -60662    16826 
   98726   100082    65057    89888   149218   165951   111379   -12428 
 -149241  -190413  -114434   -38831   -23448    -6417    30279    56299 
   54611    11971   -39749   -70668  -111638  -143587   -99439   -14683 
   26360    34866    63778   102694    88958    -7400  -110899  -128028 
  -77001   -23215    -7946   -51011  -126812  -183501  -185647  -150697 
 -126418  -120313  -107381   -66576    10242   106790   170596   168952 
  126293    49387   -24698    -6848    59535    56145   -11990   -84915 
 -121788   -81737    20599   110482   123246    46157   -57680   -90536 
  -31768    30528     3869  -114536  -237864  -274105  -215164   -77174 
  111599   219298   173790    81908    23457   -21805   -89533  -176756 
 -213220  -172836   -94767     9849    79763    31017   -61171   -49766 
   38038    64746    22123   -38367   -96707   -78282     6944    38433 
   18157    17392    36535    46851    -3549  -126214  -209714  -191451 
 -144386  -114281   -99991   -98798   -99002   -87984   -39005    27045 
   54373    57427    47321    17757    17221    13383   -49435   -79470 
  -64168   -89715  -100504   -38121    56893   130007   112314    21736 
  -41574   -58510   -45725   -10470   -16741   -85935  -137200  -127985 
  -77919     4402    72848    63609     5570   -41183   -43887    17595 
   68409    48996    41021    66064    66476    44778    -1831   -63312 
  -90575   -89750   -79537   -63148   -72409  -106320  -112303   -35430 
  113238   196281   118478   -33509  -162695  -234632  -221070  -140512 
  -58857   -53825  -112274  -137459  -119345   -43938   131066   298549 
  347510   321561   266178   150951    -5131  -145531  -244165  -209883 
  -18469   175624   284874   296580   216446   177811   213935   153682 
    2758   -77481  -133064  -205281  -170951   -65295     2999    61911 
  119195   127456    55892   -93712  -248293  -316503  -293095  -238646 
 -173750   -85684    -3300    45468    71521    67595     2278  -109957 
 -193249  -180465   -67799    77485   176300   209826   184729   111049 
   28696   -71508  -224642  -331110  -310918  -266446  -244004  -191911 
 -140992  -134333  -152614  -146376   -68326    69352   189214   204954 
  141475   118735   151706   185326   211300   185620    80954   -37292 
 -129003  -185841  -192045  -155636   -59884   107269   273777   352240 
  306251   164465    15187   -97214  -194144  -251344  -253581  -236143 
 -153056     9146   101270    20424  -157162  -284081  -301500  -249070 
 -159336   -79267   -36601    14018    42273    -5177   -52677   -65002 
  -81170   -66510    13039   129618   245189   339259   378386   287640 
  100202   -45819  -176015  -347332  -396185  -255549   -88195    61202 
  228167   339191   341425   259821   170289   144221   120144    32449 
  -43636   -75717  -107719  -129625  -153250  -223419  -325556  -401125 
 -359229  -165319    46684   164019   240615   264481   150140     9132 
  -28548   -40343   -50665    12429    89920    81661     1615   -82296 
 -146334  -169327   -92884    45897   131696   139307    94950     7873 
  -63856   -68808   -73464  -121077  -153693  -163937  -171270  -169044 
 -182749  -207173  -171022   -25848   169191   290497   334492   376319 
  353509   216664    79000   -47910  -230165  -346585  -324996  -279000 
 -211609   -76594    66313   200495   305541   281695   145686    64509 
   84582    87142    82183   123628    78938   -60455  -154299  -238593 
 -325563  -308376  -209893  -137471  -131244  -153944  -158579  -143896 
 -131507  -130904  -127052  -120019  -126598  -121478   -84650   -33652 
   24532    55298     5348   -99751  -182147  -180908   -62773   114241 
  208052   174405    83128   -35839  -150832  -202969  -198999  -155515 
  -64336    36763    77861    35413   -65098  -189530  -258421  -185382 
    5050   206872   326578   332321   260482   175066   126806    81457 
  -36283  -165993  -200971  -143017   -18134    99203   103882    43418 
    9988    -6007   -30334   -99596  -216984  -314598  -391178  -454171 
 -448032  -391865  -316098  -161794    81245   318872   472104   510875 
  438690   354665   338408   299544   194346   127813   107284    57593 
  -17957   -96167  -158845  -187633  -182760  -138920   -89698   -70260 
  -43240    -8700   -32169   -96657   -97239     7032   153588   243479 
  218396   127001    39515   -48748  -133159  -182911  -202671  -175909 
  -88295     2579    76854   155568   189723   155372   117490   124240 
  158183   181650   195581   203426   176924   134342   122720   113548 
   59429    -7218   -61549  -134617  -210012  -249593  -261034  -264843 
 -302757  -397957  -494807  -533250  -480903  -302038   -41698   165924 
  285311   362286   357151   249470    97695   -56238  -165717  -196982 
 -124718    60952   259227   338909   230135    -5875  -169834  -219801 
 -266468  -271417  -200911  -135368   -60951    36278    56108   -35587 
 -129384  -150646  -192561  -289913  -308280  -222192  -103837    34414 
  127720   102215     8970   -88511  -203733  -314986  -332019  -243078 
 -118917    20409   157141   191713    86296    -1395    64685   163607 
  176601   188600   191790    87725   -39808  -103601  -141926  -152122 
 -126215   -81584    20758   172974   269983   256834   169537    70461 
  -11830  -113879  -251371  -380837  -457139  -441364  -346779  -246222 
 -154326   -34848    97872   213753   276538   224784   126918   151825 
  263595   297241   267308   212195    61855  -130060  -254137  -294977 
 -227805   -89233    -1212    41065   131012   218655   172042    12275 
 -125286  -202953  -257238  -280102  -276893  -234418   -99004    63660 
  171732   244914   245613   143244    17533   -87384  -168370  -182370 
 -104549    33484   177318   276951   281184   178576    51011   -43004 
 -136642  -210234  -203790  -153891  -102145   -18079    84407   153878 
  182953   169554   117421    47995   -50715  -179683  -284269  -317826 
 -260167  -134126   -16455    69434   163463   247459   257588   170089 
   23735   -82861  -103593  -113829  -128209   -78915    -9860    14836 
   34703    30145   -56770  -134006   -79247    93386   295168   429078 
  427509   317461   219186   175833    62463  -140895  -293020  -378171 
 -401943  -285705   -88241    53325    89749    33296   -73064  -169393 
 -215569  -216953  -169751   -90983   -62421   -62800     1497    91929 
  137724   144657   110061    36495   -37966  -113008  -199635  -237652 
 -176083   -70773    -8733    -1603    -8735   -13215   -11649    17003 
   92788   198518   265393   240788   127813   -44861  -229690  -360293 
 -336887  -121907   125448   238986   242632   168866    -6099  -202697 
 -340093  -422429  -395115  -243899   -89618    22617   103145    76157 
  -17968     2115   105135   121217    74316    29115   -21458   -28449 
   -7703   -23468   -38908   -43328   -52164   -32999   -27712   -90934 
 -176553  -246395  -293880  -281508  -212645  -158314  -131622   -78140 
   -4677    49049    75500    40275   -56524  -137365  -168675  -141134 
  -31156    97663   147946   116742    47487   -14968   -15322    38395 
   84102   109991   103601    32373   -45246   -79504  -105580  -100005 
  -52440   -28042   -13339    -5582   -58345   -97888   -39695    56473 
  119789   136763   115196    82251    68967    79343    79612    33639 
  -43614   -94409   -94919   -87970  -109209  -136062  -139051  -116858 
  -83623   -50930     6266   105684   186684   189843   137724    83130 
   42155    -3250   -44293   -62095   -73820   -68584   -30873    -7515 
    -800    42113    97510   114885   100305    61144    -4078   -81310 
 -141057  -137272   -62050    27110    81855    96329    70784    24714 
   -6035   -21157   -28043   -22638   -17410   -11414     2204    26420 
   73406   106668    91312    73214    77527    70657    41484     -823 
  -55178  -104544  -133502  -158197  -162815  -103832    -9945    48663 
   53341    41107    40498    42579    36240    -6403  -117933  -257308 
 -347777  -367622  -328274  -240849  -126172    -7157    66425    50134 
   -8170   -56246  -103312  -118322   -74640    -8722    78256   160637 
  136289    17003   -61427   -59128   -44668   -38627   -14901    11396 
   20335    17907    14971    30361    47734    30542     1792    17680 
   71240    72207   -24063  -141439  -195610  -161939   -66371    12776 
   35220    45326    65460    72712    72716    84387    71085   -33716 
 -206493  -323867  -311810  -208593  -101069   -63626   -88014  -109325 
 -110124   -88488   -26357    66636   155719   183433   129253    60899 
   33340    25050    11283    12933    29170     3415   -72247  -134326 
 -147862  -107991   -13311    99690   179903   198026   146180    50533 
  -53307  -149758  -211842  -210416  -151272   -45789    80235   168907 
  193791   161616    83034      376   -49292   -93483  -156976  -194595 
 -162469   -88611   -42186   -32651     2506    58922    77215    64374 
   33859   -35262  -116210  -160189  -157613  -107454   -43006   -22023 
  -16929    15257    41686    52894    64727    59890    35355     3009 
  -20393    -1113    66769   152155   218641   252286   257613   207860 
   85465   -70690  -221451  -330485  -352055  -282240  -171108   -58884 
   62954   189835   260829   228626   139700    77630    34206   -45620 
 -141736  -218088  -266521  -248702  -157941   -56388    20061    71794 
   57730   -38612  -117456  -143251  -189857  -216468  -158403   -60486 
   51980   145343   150273    90660    47659    40255    27735   -14426 
  -67401  -107130  -111726   -81321   -62544   -74098   -79396   -75637 
  -87498  -101676  -103171  -101164   -91999   -53701    14978    81294 
  113304    99974    49721    -7469   -29617    -6924    24842    22762 
  -40969  -125078  -156875  -157281  -147301   -73680    47744   132462 
  145813   102220    32856   -15921   -16370     7383    22204    21089 
   -5389   -60299   -98001   -84426   -67286   -61113   -20718     6600 
