Origin Time       2021/02/13 23:08:00
Lat.              37.7
Long.             141.8
Depth. (km)       60
Mag.              7.1
Station Code      FKS018
Station Lat.      37.3961
Station Long.     140.3622
Station Height(m) 245
Record Time       2021/02/13 23:08:11
Sampling Freq(Hz) 100Hz
Duration Time(s)  180
Dir.              E-W
Scale Factor      7845(gal)/8223790
Max. Acc. (gal)   513.413
Last Correction   2021/02/13 23:08:11
Memo.             
[...]
   28069    31749    32034    32768    28845    16220     2771   -10139 
  -21560   -22852   -18279   -17517   -12460     5992    27376    37081 
   29481     6014   -17972   -26104   -25192   -26762   -23641    -8406 
    9497    19330    21014    17624    10195     -909    -6292     6492 
   26530    33709    30013    25964    25142    28602    30888    24603 
   13610     7072     3051    -6809   -17447   -21462   -24579   -27180 
  -22572   -12140     -945     4957       44   -10116   -16127   -18312 
  -18355   -17001   -18025   -17537   -12515   -10123    -7500     2497 
   14278    24787    35051    40909    42454    40606    27618     3366 
  -15962   -19383   -11175     1073    11178    15411    15061    10362 
      12   -10146   -10752    -4162    -1124    -2289    -4106    -8613 
  -13664   -14835   -11637    -3354     7983    17976    26866    32428 
   28937    17319     1798   -10748   -13378   -10972    -7854     5574 
   28930    43056    42387    38335    35500    33778    31207    22887 
   10782    -2971   -20345   -32548   -28706   -14755    -2304     7680 
   19344    31672    38838    33862    20177    14785    20872    21531 
    9840    -5751   -17088   -22102   -19947    -4604    21184    39591 
   39587    27468    15314     8112     3415    -3889   -13693   -16750 
   -8953     6787    27495    42412    42977    34561    23221    13336 
    7932     2262    -5744    -9524    -5657    -1341     -745     1329 
    2947       99    -2479    -5290   -12451   -17451   -15014    -9493 
    -953    12595    25753    30477    20807     1105   -12503   -14374 
  -18890   -30127   -29477    -9019    17616    34277    34101    26901 
   21469    10760    -4129   -11626    -9443    -3994    -3198    -5201 
    1178    13186    18689    22069    25120    16573     5368     7215 
   16243    21454    14478    -5104   -20231   -18288    -4679    10498 
   16418     6794   -11682   -22623   -12600     8194    20671    26624 
   28435    21778    14166    11196    11792    14936    15431    11726 
    6131     3164    10721    21963    18765      649   -14634   -15547 
   -8819    -5186    -2169     4936     9313     7442     6764     9437 
   10430     8282     1399   -11823   -26646   -38010   -45711   -50318 
  -43826   -19588     8113    24354    34165    46063    53700    43092 
   18808    -3352   -21123   -36391   -45747   -42360   -21250     5402 
   20272    27984    36884    39870    35600    32607    32359    28490 
   14781    -6673   -23039   -25820   -16432     5911    32159    44660 
   44498    37208    25104    17275     9436    -5116   -18582   -29936 
  -40176   -41426   -33513   -21205    -2674    18855    32598    32941 
   22513    14019    17710    16972    -5098   -29531   -36512   -29459 
   -7245    28827    62955    83200    80424    59193    36799    13466 
   -9282   -25829   -43154   -55386   -52860   -42228   -29127   -10011 
   16461    37357    44973    46124    37848    18436    -2408   -20086 
  -31851   -35255   -27351    -3726    24760    41107    46118    46321 
   38763    27199    22091    17745     9648     6249     3720    -1750 
    1412    15861    24252     9931   -16783   -31981   -30528   -18145 
   -2457      862   -11503   -22095   -21834   -17829   -13294    -8905 
   -6222     3410    21578    33496    31239    15257    -1965     -500 
   13525    24610    33723    39337    39182    37335    36327    43524 
   58810    58314    31646     1973   -19035   -38178   -47898   -41712 
  -28591   -12295     2305     3942    -1887     -916     5486     6108 
   -3257   -16082   -23344   -22840   -18850   -11765     -838     4257 
   -2713    -9277    -1206    20950    46130    60837    59120    43808 
   21373     2870    -7155   -14110   -20320   -28034   -35303   -29084 
   -6932    17844    34861    37242    26666    20941    23662    18962 
    8791    -1521   -19521   -37075   -41392   -33234   -15169     2914 
   12401    22747    38722    52479    59470    54591    38006    17690 
   -6118   -30159   -41265   -37585   -28028    -9653    22230    49478 
   53900    41281    28102    23727    16579    -6797   -34236   -47503 
  -40721   -13559    24638    51028    50915    38196    34126    35479 
   30964    23140     8259   -14412   -24456   -19723   -16731   -16528 
  -16900   -14026    -2579     6401     6285     3298    -5757   -17298 
  -14008     2103    13165    13159    10548    16644    24354    18821 
   10967    13624    19759    26858    34589    31680    11056   -13759 
  -22937   -17200   -10416   -10851   -20152   -29208   -25037   -13528 
   -6898    -2266     1734     3647     7175    13116    26192    45901 
   55804    49229    36035    23129    14048    10910     7716     -604 
  -12391   -24911   -35110   -41940   -35715    -2330    37889    50134 
   41430    35213    31411    25547    16492    -1941   -26578   -45438 
  -50021   -28387    18237    58060    63953    37673      144   -18561 
  -11252    -8221   -24071   -35353   -31950   -26657   -20601   -10874 
   -4152     -255     6939    14524    19149    20190    10453    -5883 
  -15611   -23396   -29425   -23117   -10301     4537    23517    39181 
   46522    41220    22295     6789     5070     8995    15485    22499 
   24622    26607    26960    16027      777   -10597   -19704   -22329 
  -20429   -23031   -23418   -14316    -3677     9346    28526    38905 
   34659    29189    25168    15885     -888   -22939   -34213   -16384 
   21811    56798    75799    80469    78435    67193    44741    24293 
    9115    -8557   -19506   -17824   -12904    -3599     3114    -9277 
  -27641   -34527   -29223    -3638    33200    50768    45905    33984 
   20332     9427     -610   -13302   -17980   -18002   -25250   -22203 
    2816    28124    35854    26369     9140    -3261    -9076   -11346 
   -5848      484    -4374    -8919      893    17485    27405    26049 
   16710     5062    -1792     2041    13211    16306     3291   -12167 
  -22859   -32057   -28694    -7843    13050    16559     1516   -18462 
  -30188   -29332   -20799   -14963   -13419   -14844   -17739   -10255 
    8957    25343    32917    33906    29204    22415    17120     9585 
    4611    15333    26662    16397     1972     8135    31255    52758 
   53431    32919    12505     2744     2126     9960    11404    -4595 
  -19390   -14747     2679    16339    10937   -16929   -47310   -57977 
  -49855   -34735   -17301    -4523    -2481     5884    30919    46017 
   38114    25969    16283     7996    10377    24435    35079    28516 
    7211   -12641   -17242   -10739    -2820     7541    19105    25412 
   25535    21124    10858    -4645   -18119   -22638   -16459    -6920 
    -106    16060    41103    50834    41193    29959    27819    31421 
   31113    21352     6303    -1537      276     -561    -8622   -12391 
   -4510    -2320   -16241   -23677   -14800    -6492    -4464    -3612 
   -2034     3704     7522    -1638   -12136   -13158   -14530   -15145 
   -7271     4622    15893    21529    16803    10281    10725    13043 
   11776     4679    -2764     8526    33052    35066     9910   -14153 
  -20934    -8892     8671    10642      513    -1911     4738    12073 
   20815    26495    21157     7349    -9117   -15704    -1518    18360 
   23939    19786    18239    20127    20660    15576     6315     -548 
   -6671   -12829   -10359    -3234      945     7909    15369    16706 
   15763    12420     6520     5563     7210     5378     9690    21339 
   19670     3037    -7248    -6754    -6897    -8887    -2222    18127 
   41268    49022    40001    27498    10077   -12455   -19982   -10368 
   -6457   -15592   -24576   -21820    -8316     5814    20198    39172 
   52323    53933    51258    46661    37199    17470    -9397   -23915 
  -19916   -14655    -8959     7657    17957     5659   -13342   -22212 
  -22297   -17830   -12329   -14705   -25204   -30090   -26125   -16440 
    2434    18257    16075     7800     9178    17768    25979    36094 
   52509    65111    53626    17597    -9755    -6643    10246    19921 
   14370      -45    -6786    -5850   -10987   -19371   -20927   -24567 
  -36533   -41130   -28102    -6466     7396     5815     -936    -1360 
    3659    10551    18812    26530    26748    10706   -15248   -26515 
   -8748    24304    44235    38831    24734    18308    17955    14719 
    1313   -14389   -14528     -949     5273    -5570   -23633   -33943 
  -28080    -6940    19708    33160    27284    18369    15500    10635 
   -1416    -9564    -4654     1255     4580    17396    30819    31467 
   25235    16434    11418    18516    27749    28317    23394    11626 
   -7618   -21471   -27090   -32501   -34518   -26302    -6794    17146 
   34345    42152    41057    27135     9994    12078    29049    32358 
   16613    -2749   -14467   -12421    -4333    -2833    -4895    -8600 
  -18449   -26588   -24783   -16860    -9991    -6790     2030    21235 
   39436    48868    44591    24273     3902      623    12361    25470 
   27554    23529    27857    34993    34809    27661     6286   -17247 
  -14022     3071    11165    17737    20761    14754    10075     4513 
   -7283   -16519   -22906   -25574   -13483     1080    -2023   -13212 
  -16795   -11466    -3692    -7728   -27662   -44651   -47725   -48367 
  -52220   -49881   -34287    -9035    14752    30542    40797    45576 
   42444    32659    20688    15282    17793    17910    17770    27301 
   40196    47484    45226    31932    19993    15638    11026    11037 
   18576    19257     8515     -847     2648    19394    34518    31558 
   15655    -1055   -10948    -5564     4083     2081    -3856    -7352 
   -9633    -5668      963     -553    -9147   -15471   -15688    -9282 
    4411    12603      180   -21751   -34179   -34997   -26484    -8449 
   11065    19206    17138    16845    19521    21290    24914    26554 
   21238    18123    22326    27213    31406    36844    41400    39630 
   25936     8286      652     2331     5667     1705   -12888   -24163 
  -25640   -25763   -20713    -6493     4043     3690     -253    -3694 
   -8621   -12194   -13864   -18623   -23244   -25531   -25662   -15259 
   -5533   -13535   -19913   -12047    -2070    13308    33758    42129 
   36751    29385    26657    30187    33721    30100    23878    20424 
   21432    25243    22221    15064    12077     5398    -2247    -1135 
    4403    12213    13185     -518   -10223    -8603    -8885    -6764 
    2045     5926     5544     9364    14029    15888    13123     1027 
  -11931    -9933     4893    19044    29378    39325    42858    34854 
   25687    22828    20331    12401    -1810   -15056   -16198    -5096 
    8796    15272    11249     5383     6494    14985    25988    28648 
   14354    -6311   -11425     3099    18873    24337    25969    30735 
   39407    46880    43853    27904     5941   -11072   -12139     1667 
   11466     3315   -12082   -22100   -28610   -31060   -28979   -31332 
  -41874   -52230   -58927   -64476   -59749   -37675    -9359    14427 
   34142    48697    54734    54815    47879    33292    21116    18738 
   28479    46062    57959    58183    46832    24160      117   -15468 
  -25238   -29494   -18816     7171    36319    57654    61781    46101 
   26100    13061    -6616   -35020   -50865   -53211   -52775   -42579 
  -22601    -7125    -2297    -7489   -21161   -38780   -57087   -72084 
  -76928   -71487   -59524   -37470     1491    54257    99933   117898 
  113706   103882    91289    70831    38504     -378   -28845   -33804 
  -15576    14733    44026    60076    49027    18264    -4164   -15037 
  -29261   -47228   -63551   -70001   -58436   -36158   -18944    -9664 
    -727     4680     4903     8490    14211    19368    24629    25099 
   22485    20393     6967   -22370   -44698   -46171   -36042   -15321 
   10339    16318     1351   -10998   -16923   -16040     5996    39838 
   65834    83218    85671    75969    78197    88863    84048    61638 
   27922   -13640   -50654   -68677   -61684   -34680    -1320    30160 
   59764    81966    84365    62862    30156     4351    -4943      456 
   13221    25690    30404    26805    19457    11074     3967    -6712 
  -22400   -30315   -30600   -33286   -34653   -32510   -33292   -42695 
  -62125   -85272  -104708  -116079  -117154  -109158   -92380   -64342 
  -28445    -1707     7921    17221    30701    35372    35252    40733 
   54122    79937   115333   141041   138084   104579    57338    20420 
    6328     7059     5987    -3713   -22071   -47370   -65907   -70823 
  -74015   -79211   -84802   -92435   -94952   -84524   -61881   -34380 
  -12306    -6259   -19363   -39814   -59740   -76520   -74686   -46012 
   -4158    34466    63533    85951   102871   102830    75316    28480 
  -17871   -45403   -48793   -38060   -25768   -18766   -12402     1992 
   24421    50757    73383    90013   107327   121032   125859   127471 
  126443   127449   142238   166189   188349   210764   235769   256822 
  271714   285406   293676   291637   284793   270877   247642   218655 
  179911   139410   110636    85604    51991     6480   -50863  -119550 
 -194788  -259702  -295848  -301827  -300464  -317066  -343317  -356104 
 -356443  -353238  -345571  -331140  -309802  -289230  -280377  -285163 
 -298377  -310921  -312518  -298487  -271745  -238454  -202922  -168606 
 -139830  -117421   -96034   -67921   -30519    11446    54391   101136 
  154207   207998   250291   270885   273734   278819   302719   347157 
  403074   455143   496929   529070   543703   538502   519866   488127 
  445273   395037   334997   264767   189035   117729    61815    19626 
  -15284   -45451   -77380  -112467  -147139  -185141  -225805  -259656 
 -277283  -279466  -278425  -271162  -250649  -235591  -238866  -250612 
 -261987  -270685  -277641  -286372  -297751  -306228  -309366  -312695 
 -317598  -318857  -309572  -285931  -253245  -212773  -160658  -109196 
  -67663   -27588    11392    46913    86738   130604   168890   206575 
  247052   268002   263996   243395   203154   163213   144918   152721 
  184388   226311   274452   321559   359098   389982   405954   404010 
  391244   366130   326370   275262   216149   150610    84163    21500 
  -37627   -89507  -128845  -155988  -172767  -178467  -168570  -137785 
  -92292   -50256   -29799   -39676   -71328  -108171  -132885  -130312 
 -109825   -89160   -71149   -66380   -81140   -99516  -112754  -125932 
 -138608  -145755  -145282  -135935  -114508   -74085   -19859    22029 
   38672    38693    25262    -3836   -44270   -78939   -88326   -72184 
  -47737   -26258    -4209    15630    27940    42483    63413    84098 
  104224   122454   129786   128622   127699   124308   120808   121967 
  127827   138645   146782   144354   123608    78918    27345    -2160 
   -5475     1647    13042    20169    11241    -9953   -34554   -56505 
  -69250   -66869   -52077   -35622   -28952   -38940   -52299   -53032 
  -47775   -42655   -36528   -34778   -39098   -46078   -56358   -69572 
  -80703   -83367   -76200   -67235   -64983   -65691   -56061   -33551 
   -6291    22092    43641    52128    55894    57520    49983    31585 
    6299   -15785   -28935   -40844   -53788   -59981   -50916   -17959 
   34491    88091   130536   161395   183196   187220   159884   107028 
   46489    -2747   -25728   -31706   -30065   -18199    -5665     5819 
   15066     9387    -3635   -13697   -25203   -38045   -51063   -66372 
  -82746   -97380  -107470  -102211   -66988    -6921    44278    55283 
   34011     2058   -37407   -69915   -74378   -61168   -44196   -19215 
    7122    22881    29571    33875    37288    32517    19526     8097 
    3304     7167    18091    33261    50769    70653    96574   123913 
  147074   167773   177495   158076   102579    27135   -42114   -95407 
 -139206  -172304  -181187  -156614   -95091    -6039    74672   121629 
  146038   157310   147442   120841    90221    52265    10889   -15978 
  -27784   -26265      -86    44890    84960   110578   127043   136468 
  137616   132025   124573   118822   112672   104134    94765    82127 
   62089    34835     1813   -32390   -65789  -103146  -143494  -181818 
 -213043  -226716  -217865  -190880  -147977   -99993   -71490   -69622 
  -78084   -89734  -106914  -122380  -134229  -153345  -179795  -196526 
 -193012  -174617  -145746  -110462   -77855   -52826   -34782   -14563 
   16484    54247    93854   131596   163926   190066   200998   185827 
  149202   109649    87624    93241   116775   138793   149493   149482 
  148139   155466   171504   193911   218170   236132   239584   225441 
  200171   167640   130045    94722    63174    32266      190   -33066 
  -62556   -86859  -110138  -132529  -154066  -174282  -190279  -204510 
 -218670  -227719  -231333  -234593  -232970  -219326  -197910  -176172 
 -160191  -150210  -140788  -131334  -118733   -98547   -74344   -47775 
  -20595      311    14462    24906    31699    39259    52760    69385 
   80978    80439    71899    70515    83938   110500   148567   186587 
  208364   213363   205668   187643   175370   182019   198094   209576 
  211393   207817   208865   212349   206737   191205   167062   131927 
   93229    57835    24584    -3758   -28656   -54324   -77888   -99011 
 -115392  -122534  -125012  -130383  -141093  -150466  -151885  -154211 
 -169125  -190576  -202215  -195880  -173483  -140661  -104986   -74494 
  -54352   -45466   -48397   -63389   -86343  -108499  -120465  -124985 
 -132498  -140979  -140321  -126524  -102365   -71805   -41527   -19399 
   -4275     8588    22617    42020    65560    89706   115474   143961 
  173340   201725   223840   231111   220433   194456   159556   126995 
  105719    94682    92912   102030   114976   121597   114237    94649 
   74950    60057    46854    30211     6434   -25033   -59395   -84797 
  -96530   -94063   -81016   -70083   -62820   -56330   -51880   -47952 
  -47013   -47582   -45265   -43645   -44903   -48757   -52876   -48776 
  -33840   -13601     5201    11556     2775    -9980   -23110   -39085 
  -52448   -55564   -41418   -11034    15638    25934    32559    43565 
   53973    64269    75674    80866    66023    22356   -31465   -58414 
  -51983   -32119     4907    62841   115079   148991   171412   183787 
  192940   203516   207616   193747   154381   100209    57369    33571 
    9802   -18145   -36150   -49025   -65946   -79710   -85889   -85985 
  -76168   -57084   -39538   -29660   -27932   -36742   -55331   -76258 
  -90078   -94602   -94374   -92294   -90062   -87609   -82348   -74911 
  -69746   -70897   -76549   -79871   -78058   -70796   -57339   -43150 
  -37960   -48078   -70085   -89465   -94705   -86231   -66987   -40335 
  -13574     8630    26727    41185    50350    54338    56259    55115 
   51100    51378    56241    61500    69866    82868    97210   109602 
  119600   127542   132511   135456   132556   116920    93503    76785 
   76003    85108    92384    93764    87858    74730    57272    38823 
   24642    18585    19978    23187    21280    16507    16434    20277 
   21415    15635     4253    -8104   -22860   -41430   -55016   -57322 
  -52833   -50715   -57164   -68737   -78715   -84418   -83544   -76833 
  -67587   -54834   -40807   -34794   -43744   -65214   -88975  -109067 
 -122353  -121745  -106150   -76411   -31718    15029    46418    64339 
