Origin Time       2021/02/13 23:08:00
Lat.              37.7
Long.             141.8
Depth. (km)       60
Mag.              7.1
Station Code      FKS009
Station Lat.      37.2778
Station Long.     140.6349
Station Height(m) 440
Record Time       2021/02/13 23:08:08
Sampling Freq(Hz) 100Hz
Duration Time(s)  166
Dir.              N-S
Scale Factor      7845(gal)/8223790
Max. Acc. (gal)   297.579
Last Correction   2021/02/13 23:08:08
Memo.             
[...]
  -15078   -18681    -9004   -14941   -31504   -13498     6057   -12051 
  -12649    10655     9633    -7753   -19097    -9477    14320     2411 
  -28379    -4702    30458     4519   -23349   -19708   -28960   -15772 
   37582    47160     4135   -12210     -897   -14435   -30319   -11507 
    2091   -13861    -8527    25891    13227   -43673   -49621   -11344 
    1251     8356    32312    22148   -24706   -28318    11105     3974 
  -29100   -16808     3260     5745     5421    -4808    -5899   -11892 
  -24439    -7838   -27380   -60245     3472    43694    -6142    15020 
   74507    44269     7654    11115   -15871   -49036   -44390   -39618 
  -46221   -31229    -2725     6150    11442    41189    46603     3289 
   -2689    18219   -26185   -59192   -30196   -26392    -4747    47758 
   11577   -39976     2409    36057     2193   -27982   -12699     6957 
  -20035   -30630    16330    24256    -5938     2768     3348   -19966 
   -5104    11781   -17332   -33416    -4320    15205    12602    21752 
   20912   -13024   -41499   -30662    -4045   -22125   -65615   -29297 
   52378    43438    -3419    24517    37777   -27735   -56554   -30435 
  -31351   -25506    17308    30827     8847    20655    55283    34916 
  -11164   -14562   -14690   -24155   -14719   -27064   -55098   -54140 
  -28875    25863    60237    25712    14605    42631     9212   -43929 
  -32313   -13532   -35630   -42244   -21492   -14889     3280    28783 
   13501    14561    34695    -1891   -22243   -14435   -61731   -60336 
    8972     9128     4243    49168    40513    17728    40819    10246 
  -73719   -94093   -42190    22543    39398   -20254   -57099    -9567 
   25026    19546    15714       54    -2145     7813   -14049   -26912 
  -23315   -32054    -9219    17126   -14000   -26299    32132    65227 
   15345   -27999    -9175    -5778   -26304       44     7608   -43059 
  -25193    44825    41234     3346   -23859   -51663   -35815    11138 
   25691    10740     2209    16232    26530     2281   -26298   -37882 
  -46387   -23004    13207   -19701   -65958   -23066    38564    40398 
   30172    22442    -6874   -14034    16510     1898   -62464   -55671 
   12669    26885    17301    21339    -6779   -14879    13490    -3442 
  -22898    -3739   -15620   -34047    -8776    -7574   -28984    25930 
   82397    21462   -30788    -9964   -27635   -28406    19674    -8800 
  -52401   -16044    13427    13324    17558     2073   -18580   -17024 
  -11005   -13182    -6843     2994   -17076   -16918    42782    38988 
  -40491   -38350    11776     6878     5826      129   -54515   -51412 
   25112    39453    -6238   -18603     3650    35745    45470      272 
  -43139   -35668   -21215    -7295    23155    15711   -14334     -727 
   -8282   -45341   -24641     4750     5938     7010   -15769    -9246 
   37677    23564   -13057    -9090   -12391   -19329   -19818   -30484 
  -27685   -18592     5273    44427    15184   -26443    12854    11187 
  -37615    -4750    16889   -31860   -29003    -6203   -39928   -43175 
    2050    24671    44543    60639    17961   -21907     8727    13016 
  -45366   -48544    -2864     3640    -1536    -5725   -27450   -22549 
   15897    43632    40482    10081   -22114   -29104   -11691      -66 
  -25138   -47541     2916    64212    21910   -44346   -16598     3543 
  -40089   -19619    38781    23078    -5082    -8203   -24167   -28055 
  -22522   -25698    -2026    47930    65538    25749   -20700   -53167 
  -88364   -65354     3599     9661    12264    73338    71389    10177 
   -4569   -32902   -87745   -56789    15471    21757     2328     1991 
   -1755   -13157   -13556    14160    27398    -7407   -15592     2845 
  -33735   -59232     -838    40190     1263   -24560     7987    23195 
   -3545   -23388   -28672   -18430    14871    36936    31083     8101 
  -17668    -9175    12376   -27274   -82398   -52344    10007    14841 
    1988    23151    41904    27761    36258    55098   -30905  -134589 
  -91804   -24236   -42353   -30015    32331    59409    67528    73827 
   38412   -11103   -22839   -35367   -74962   -71274    -8475    20150 
   -5702     -750    31795    19738    -1177     6490    -3874   -16965 
   -1186     6018     3623     2976   -17157   -14586    13798   -21296 
  -64002   -28682   -20124   -48230    -1054    55140    52451    68619 
   84133    17768   -59448   -54932   -24495   -29999   -42546   -44564 
  -31525     1510     9234   -22592   -28355    17903    58943    59351 
   38184    -8576   -45802      984    34348   -29883   -43437    -4514 
  -43857   -51093     7959   -13189   -31965    23922    22156      974 
   47040    62394    22546     -938   -19130   -59319   -87667   -53518 
   24599    53670    14064    -9833     2826    -3126   -16567    -8062 
  -25670   -48818     6620    61060    27645    -4789     4159     6635 
  -11518   -48282   -64281   -36718    -3804    23734    29751    -1171 
  -10179     6327    -2193   -10535   -23976   -46828    -6415    42668 
   18654    12437    43313    20383   -17212   -12120   -30792   -68719 
  -29970    27010    12187    10752    22230   -32872   -34014    42322 
   31811    -6891     6887   -26684   -43293    20278    24371   -27311 
  -38880   -20785    11948     4850   -54198   -63351   -17454    27017 
   69387    74614    17122   -34071   -25060     2351     7375    -9724 
  -43677   -36336    23672    15661   -44485   -24896     9944     9560 
   51646    51991   -44340   -88897   -44089     2714    21772    10072 
   -9994   -14851   -17896     5238    46183    40120    21795    27537 
   22427     6527   -34923   -88834   -96645   -78285   -42619    22364 
   54548    52771    74893    82007    31105   -27236   -60035   -85831 
  -87559   -42421     6714    17413    15183    39496    56010    18596 
   -7537     8831    -7412   -26975   -11776   -35293   -52740    10461 
   41840   -10663   -21844     8953   -23877   -43524    10288     9774 
  -33875    -4380    41084    30784     6192     3770    15587     4174 
  -44531   -68908   -36065    -2837     9412    16690     5899    13150 
   44880    24390   -12717   -27452   -76441   -84605   -15256     2344 
   -6829    31920    36389     7754    10836    -6103   -47096   -35716 
    4101     8611     6995    15826     1999     2322    17043    -3187 
   -5791     1031   -32123   -27927     1352    -4222    19704    48213 
   15658    -7635     8047     5266   -19494   -39170   -44447   -19078 
   11596     -681   -21061   -22470   -36460   -29717    24372    62530 
   55919    35904     8874   -16403     2099    25695   -25496   -69847 
  -31201   -16564   -30927    14162    26203   -28783   -12648    36246 
    2889   -27758    -5859    -5795   -12571     1764     5980     4275 
  -11776   -36477   -20571      542   -12519   -10488    11103    10072 
   -6917    -3040    16699    -1722   -35139    -5886    28185      679 
   -9514     8992   -20596   -55023   -24657    11546     1482     7808 
   47112    32170   -28880   -31876    20814    43089    15782   -13606 
  -20503   -15919   -12750   -36171   -74278   -62306    -4251    45215 
   61024    29207    16335    73191    63945   -40582   -54772     2447 
  -25366   -53977   -13122   -48142  -114145   -39700    35870    -1147 
   15115    73683    45303    14944     1819   -71327   -94009   -27081 
   -4803   -17026    -5694     3831    19553    37760    51429    52658 
   -7125   -67135   -52058   -34794   -45569   -40162   -27213   -26289 
  -31336   -19656    18740    50190    53176    57815    66181    29339 
  -32661   -47695   -34082   -41818   -26536    45196    80657    23341 
  -32356   -29554   -29586   -42275   -23546    12341    47069    68045 
   64139    77683    82417     8556   -55906   -35413   -34924   -76840 
  -57638   -27940   -53634    -8854   103022    97204     6627    -4175 
   25554     4930   -27538   -63543   -99571   -55435    12764    -5485 
  -37876   -37485   -41361   -16580      298   -41393   -51935   -15581 
   -1447    16302    33785     9269    -1254    -1642   -48641   -69885 
  -54477   -66667   -46604    -3667     2039    43684    83818    43650 
   25986    23029   -42026   -50295    30235    49721     1934    -3237 
   -5065   -62445   -74402   -30419   -23693     -766    54600    39282 
   -9996   -13077   -20420   -37265   -21541   -18253   -20875     2968 
  -14049   -49025    -8036    42970    30059    20074    21532   -11692 
  -13776    32356    25859      491    54324    94680    54349    49329 
   77508    32580   -28503   -31654   -38886   -81132   -99665   -77020 
  -48142    -6627    41960    38036    12951    32698    27758   -36753 
  -61111   -14250    32251    43771    42078    38060    36585    49192 
   37629   -22095   -48872   -13084    -7852   -31349    -6914     -513 
  -70042   -84330    28516   121369    90836    22553   -14952   -47699 
  -66676   -67890   -92253  -116236  -100507   -55429    -1594    19853 
   20385    40672    38277    32643    65196    41918   -25397   -27033 
  -11414   -24024   -19186   -18469   -47432   -50743   -16845     8575 
   26595    12684   -45608   -53763   -19454   -31072   -29795    25959 
   57068    38389     5227    -6033    29632    73089    66919    34163 
   32124    45403    32057    10993    -6230   -41060   -72481   -78644 
  -82865   -87602   -63850   -13869    13300   -10885   -29961   -12741 
  -27020   -45666    10910    55706    33916    26057    20954   -23452 
  -52537   -37045   -16996   -32871   -62729   -46823   -19624   -38820 
  -40639     6204    21276     7157    45418   107711   111190    73234 
   41976     8626   -25803   -37729   -34271   -24979      557    33963 
   59957    82044    94973    92421    76354    32499   -24486   -46437 
  -36610   -21606   -10885   -27808   -43326    -7217     1417   -84925 
 -147598  -107910   -64129   -69781   -75884   -68820   -60991   -23913 
   25775      280   -43915     3435    49981    54344   110003   164945 
  142839    96338    64748    29920   -39793  -131290  -166757  -128502 
  -75417   -14041    51679    52590    10523    12708    19205    -3429 
   10138    34936    -4996   -61349   -57478   -44408   -87875  -127595 
 -107061   -70679   -42904     9076    75404    96723    56455    -8721 
  -45350    -5393    49146    27675     9248    46835    61564    61758 
   70681    38962    -2223     9968    16158   -60423  -131422   -83540 
   -3153     5609    21616    76445    68700    46190   102924   112160 
    8286   -66633   -61102   -40716   -32825   -26214   -34348   -88528 
 -137778  -103287     1192   105765   133998    75571   -14269  -103824 
 -123190   -43106     1846   -30630   -36200    -8175    18565    38619 
   29313    32489    87241   109649    25732  -112685  -191681  -169974 
 -121306  -100858   -88312   -65713   -40803   -28054   -17929    16268 
   61218    59794   -13941   -67637   -17007    28107   -22084   -83794 
 -121171  -130372   -47445    80951   120197    81128    85700   136080 
  153551   119385    11533  -153689  -254138  -229019  -113321    48319 
  162865   197141   212588   189776   119761    72770    65975    77610 
   76526    42673   -11846   -75779  -123631  -136912   -94393    29081 
  143434   137701    80217    95157   141488   112702    41655   -10858 
  -65138  -121378  -158226  -154425  -117640   -99324   -84469   -37265 
    3014     6242    -2046    11445    38564    66236   103489    72666 
  -64690  -102535    49438   132556    51418     2710   -12370  -102447 
 -147553   -71612   -18937   -45677   -70862   -92300  -122372   -90306 
    9624    94282   118852    60457   -65087  -124332   -45211    27791 
   -2536   -35703   -27375   -28327   -17429    29088    70325    90000 
   92894    42022   -58025  -101418   -49833    -8964   -33210   -41465 
   11821    49092    27359    -2114   -23176   -23217    37944   109204 
  103156    27193   -42222   -41770    15680    67236    99908   107028 
   51306    -4044     8671    18758     -135    -3780   -22624   -72875 
  -90140   -51031   -20340   -22519     2155    33930    -4112   -48108 
    2907   101730   155814   147650    96322    22974   -54373  -129115 
 -185687  -206319  -188557  -131230   -52612     7886    28170    15477 
    9194    55186   135753   177785   152301    71994   -44818  -131874 
 -154218  -141569   -71238    44968   101865    72013      861   -80688 
 -123449  -101088   -33768    50595    91912    51457    -3765     7349 
   66440   117810   150017   141258    48438   -82078  -128517   -83905 
  -65695   -96286  -115242  -132989  -158058  -148157  -100947   -49312 
    3871    53211    72515    84242    91752    29312   -52177   -29196 
   20255   -32532  -108579  -134181  -150512  -118353    -4371    84901 
   96940    98540    83110    31665    50045   159213   237640   240784 
  188916   102570    42793    14208   -50900  -140120  -200655  -225379 
 -176362   -58145    14264    19344    38380    58226    50900    67144 
  103889   104530    82358    78621    52002   -30134   -78992   -57508 
  -34191   -15731   -18368   -77996  -114704   -85750   -83000  -138696 
 -163610  -120029   -71001   -31668    23461    66174    75672    77935 
   79709    39411   -37223   -65072   -33336   -32813   -80144   -93097 
  -47645     6200    39314    52145    71737   114019   123963    75775 
   34855    18677   -26095   -90483   -85738    18894   101019    64467 
   16405    51879    85419    40937   -53805  -152849  -219867  -229678 
 -180162  -117576   -89233   -40031    86553   209417   260200   289323 
  307993   266411   172212    51780   -74961  -169588  -242083  -304453 
 -311353  -251808  -137259   -10789    15483   -42518   -47719   -13576 
  -17041   -14214    -4178   -46650   -59938    28421   104645    96130 
   51116      351   -12447    21482    34767    29700    34342    27504 
   16551    -1371   -37461   -53500   -39537   -38376   -67104   -63088 
   34668   150677   177550   145482   124460    91033    15250   -58383 
  -87048   -66653     3086   103923   180420   196396   174131   112081 
  -21050  -156762  -208140  -203435  -137467     9598    81549    -1807 
  -56432    -7107    21277     8727    -3206   -56478  -136560  -140177 
  -84543   -85187  -114783   -78764   -14523    20179    47317    68816 
   57370    16108   -33837   -53838    -2759    67605    55869     9409 
   21516    19676   -31572   -37951   -31644   -95465  -147253  -124740 
  -85664   -28163    47848    74229    68118    72064    63559    45400 
   37656    48404    92145   143581   134212    44278   -39441   -46618 
  -39001   -51171   -36223   -20702   -41327   -56895   -24962    53437 
  127819   134649    58494   -29891   -44516   -27035   -39807   -20900 
   43699    42855   -50747  -113761   -72798   -18222   -28611   -37273 
  -27874   -84082  -122386   -34015    82043   158283   191991   157665 
  102035    56180     5337   -37478   -67409   -94470  -133370  -180168 
 -188171  -120872   -16692    32244    -2754   -42372   -32379   -17482 
   -4241    55821   112888    90239    12258   -44073   -28796   -10249 
  -69259  -134628  -145320  -131564   -91852   -23855    42526    90406 
  111821   115527   137617   175662   135213   -34380  -191060  -209339 
 -162552   -81021    62630   150761   127714    96056   106678   136155 
  127635    51225   -13014    16044    64905    -2378  -137359  -181951 
 -124113   -50029   -30659   -64824   -79139   -75882   -59347    51899 
  188152   169060    50002    22821    63954    61218    34132   -11916 
  -88152  -120394   -80779   -35101   -50392  -116725  -125348   -33165 
   36204    -4094   -42066    18530    55705     2497    -7101    62162 
   88728    21212   -52818   -43275    10311     4947   -39591   -21311 
   30740    50668    54978    23055   -50741   -92867   -57550    10399 
   24075     2635    29380    43255   -30600   -84051   -43303   -14748 
  -49616   -43974    22993    27020   -32761   -27627    32998    51038 
   50376    75095    56544   -20941   -66023   -60466   -69808  -114605 
 -126196   -50040    43938    68281    57618    80406    92148    22580 
  -62846   -61929     9289    71957    77677    44624    40880    44487 
  -23619   -98119   -98798   -62333   -13936     1887   -52728   -90933 
  -65400   -19039    61434   156126   186336   156967    81828   -27712 
  -67498   -49327  -106218  -160677   -77994    39618    60978    19442 
    8675    17101   -40840  -104518   -58966    26478    38520     3442 
   12244    49447    14019   -57191   -69246   -36917     4657     5032 
   -5112    64847    83369   -26802   -62783     7712    18810   -33473 
  -47619    -9548    -3963   -57044   -66417     1767    64559    72485 
   16276   -76061  -101737   -12630    85950   108398    93726    43571 
  -63301  -110007   -37644     6679   -31247   -62024   -73562   -40903 
   51779    47834   -88501  -119830    22642   135021   121640    52023 
   -7905   -40757   -45634     2623    67420    61654     4846   -45229 
  -87453  -108888  -104093   -98039   -66330    19683   113827   166792 
  135658    -1320  -131043  -135116   -71689   -41693   -35900    23598 
  127966   140152    59113    42519    48512   -47595  -126250   -73210 
    2239    12827    12294    31873     8834   -70663   -97742   -30261 
   27618    25415    33219    90027   135357   117366    53291   -44138 
 -132637  -128147   -60612   -13941    10143     -234   -47054   -60154 
   -8209    68801    92635    26493   -41852   -52474   -56998   -74248 
  -78603   -75271   -90655   -98605   -22114    89839   115176   102957 
  115148    59651   -55282   -71999    34462   118395    91235    14431 
  -39575   -67340   -56835     8969    62937    22086   -64025  -109138 
 -120004   -94976   -27646    37929    84937   100002    82992    86630 
   81737   -16642  -133527  -122808   -54610   -80592  -116976   -36493 
   71795    83943    18038   -43900   -60376   -17743    75143   141030 
  113138    21100   -86832  -166903  -146948   -49268    16302    41701 
   64608    45107   -28156   -54399    22531    70457      441   -49646 
    5505    63652    73865    79166    47356   -46213   -96103   -68463 
  -32933     6687    21265   -22397   -56635   -64832   -63715    -5032 
   63007    38664   -21055   -41382   -34003    14571    58807    45451 
   49148    61751     8347   -32417     3478    42356    37764    11090 
  -23468   -35889   -19314   -56473  -142852  -170680  -143869   -80385 
   50782   152907   121363    53705    52204    32571   -37339   -39302 
   41238    92353    45994   -50167   -89027   -78147  -107434  -133656 
  -51601    85752   135332   105472   117602   140393    70957   -23638 
  -53380   -49315   -55875   -80858  -105727  -105703   -75605   -30948 
    5825    30464    17464   -34765    -5876   111882   145069    99571 
   83556    57755   -14546   -96800  -126998  -107126  -115854  -121026 
  -76187   -13198    75914   122060    74043    50885    65287    32282 
  -22119   -70220  -100808   -79392   -42377   -26288    26778    99229 
   77105    12101     6046   -10581   -55503   -61831   -39783    -6172 
    9367     5328    51827    88867    31078   -23444   -20324   -27928 
  -58452   -85263   -98109   -79359   -10914    79725   103573    40369 
   -5086     -981   -11770   -10129    47075    84960    32390   -65331 
 -112905   -92430   -48740    12935    63412    50665    37056    73718 
  102833   103377    61122   -45420  -126450  -123205  -109344   -95419 
