Origin Time       2021/02/13 23:08:00
Lat.              37.7
Long.             141.8
Depth. (km)       60
Mag.              7.1
Station Code      FKS001
Station Lat.      37.7949
Station Long.     140.9196
Station Height(m) 9
Record Time       2021/02/13 23:08:04
Sampling Freq(Hz) 100Hz
Duration Time(s)  300
Dir.              N-S
Scale Factor      7845(gal)/8223790
Max. Acc. (gal)   586.142
Last Correction   2021/02/13 23:08:03
Memo.             
[...]
  -54365   -26381    -7435    19202    78945    82570   -14141  -116827 
 -125431    -8020   108207    77110    -7011   -22245   -37724   -55884 
   11362    81664    73724    40356   -36513  -140406  -116478    38006 
  132710   101976    33764   -34565   -98911  -114394   -30292   111546 
  147833    28424   -92408  -114598   -63270    55648   149532    56131 
 -101164  -103218   -20552    17292    21979    40971    50683    -6218 
  -82474   -85768   -13059    62263    76885    22917   -60444   -83434 
  -21357    25110    22578     9208   -30562   -72910   -55857    28125 
  120895   108662   -13197  -103986   -99441   -49060    -1930    53218 
  122181    95376   -68007  -178771  -102135    59533   170008   158276 
   -8492  -207644  -222023   -29577   180129   203786    15803  -154805 
 -125080    -4756    52213    44633    24678    40718    71343     7015 
 -131460  -144348    25651   160317    96707   -46356   -78979    -6060 
   17760     -504    41370    22262   -92929  -100742     3514    89529 
  109867    19279   -99237   -75760    40626    42857   -85066  -105167 
   53396   129687    18045  -108074  -112503     4536    65543   -16650 
  -57377     9558    79678    83124    11641   -44652   -30829    12459 
    9798   -64795   -67298    20942    38469    43191    75060     1534 
 -106092  -115632   -38225    70159    84175   -38745  -152548  -120788 
   42897   187231   206026   138562    11600  -160799  -256342  -166070 
   39054   164651   130111    42492    -5508   -14690   -24063   -43380 
  -22033    16212     2961   -21710    -3929    20056    13728    -3677 
  -16368     8662    44666   -10428   -55594     9896    24852   -40549 
  -52716     3568    78734    79821      486   -14376     4536   -45523 
  -55309   -15399   -28426    -2235    61017    26010   -30488   -51588 
  -57065     5807    50209     4839   -39842   -32069    18457    30302 
  -42678   -78850    -9243    47752    29627    44344    83299    13300 
  -87201   -91577   -39849    53912    95214   -34534   -91062    61744 
  103503   -20171   -84268  -116299   -99200    61589   163597    52041 
  -79884  -105340   -98203   -19009   118366   119912    23117   -20051 
  -35905   -14997    18747    -6169    23924   100325    25078  -124610 
 -150816   -85702    22631   166795   196280    52134   -59341   -41544 
  -44139  -104938  -109177   -52515     1286    34790    24023     8874 
   50903    69763    26651     3391   -16374   -73546  -112504  -118045 
  -84912    45778   196570   181160    11217  -101001   -94907   -95546 
  -85194    -5395    37535     6488   -40111   -56794    35214   155375 
  129789    18636   -75612  -103648     2025    89050    29154   -11944 
   12326   -39181  -122771   -60648   101290   141049    36306   -57420 
  -92755  -106532   -71096     1729    13036     2323    86841   161604 
   70826   -48031   -23554    -5459   -94227  -101875    21224   110563 
   53923   -89853   -77526   135695   223458    78258   -48778   -78223 
  -79219   -53904   -50503   -36163    39347    23295   -78514   -40119 
  100149   164133   137317    17845  -118993  -130607   -75901   -50188 
  -49708   -69456   -31114    63637    32931   -91233   -64926    66924 
   87617    29373    -6247   -36254   -73287  -118172  -127927   -40986 
   78128   130157   117131    81962    30649   -28992   -45700    -9227 
   17721   -10017   -46900    -8028    92631   152262    92084   -58151 
 -151264  -116803   -37000    37292    49334   -61935  -131660   -47644 
    3011   -33606    -1263    81926    50039   -71010   -72509    10062 
  -22310   -18889   139806   138360   -28703   -12456    94797    70468 
    9960   -10201   -35824   -74893   -59520    28057    83012    53520 
  -26241  -115025  -131718   -49717    17868    23062    54045    74083 
    7700   -73668  -163151  -211118   -64045   150192   195291    86393 
  -28246   -13564    59636   -24525  -178784  -135903    58340   169981 
  133546   -13173  -197723  -223786   -66618    35016   111564   291586 
  286891   -29288  -281952  -249939   -30397   190611   197514    26221 
 -118786  -187193  -110988    71259   139064   127268    97308   -41295 
 -172423  -196769  -112469   105722   228295   111262   -28822  -125944 
 -203944  -110145    83713   140066   123427    90582   -51073  -171882 
 -181523  -119458   100103   342520   292920    22150  -184604  -231669 
  -93218   155854   251966   107438   -77805  -113514   -23755     4411 
  -45705   -39110     3424    28811    47109    -5759  -175270  -299060 
 -176750    75228   205316   178432    47703  -109706  -155245  -100256 
  -33038   113080   292869   221078  -124009  -358989  -279906   -28537 
  274426   426964   223321   -69030  -165125  -217912  -234254    -8453 
  252443   199361   -19870  -122139  -146246  -150611   -40234   116806 
  116432    19847   -23931   -72368  -137277  -126657   -28756    83112 
  124274    79174     9196    -5482    33585    56211    88257   143646 
  124108    32622   -59520  -147067  -185853  -104820    25124    46631 
   -6006    15367    58040     8063   -42692    32244   125142    70324 
  -38125   -47644   -76611  -222015  -252524   -48516   161489   225013 
  155532    14585   -39344    16541   -25536  -168462  -163865   -30383 
   26481    79265   219187   203139   -58523  -194323   -67497    25637 
   22418    47853    57682     5736   -88582  -158526  -107862    25528 
  133930   142762    -1436  -183087  -228370  -160998   -24898   142483 
  193099   122094    46350   -13639   -61705   -78742    11210   178154 
  150060   -87388  -174845   -48595    24750    31191   112533   136119 
  -11921  -131525  -100928   -24552    59826   164944   173878    40401 
  -51657   -34685   -37253   -56296   -39665   -61599  -135982  -155891 
  -99100   -30712    43119    90818    61454    -6448   -80974  -121714 
  -67656    70313   230469   248313   -14257  -324251  -284823    40914 
  229297   196543   134848    59115   -32286  -115861  -210270  -176881 
   21081   155479   114189   -32371  -111757    27309   145979   -16768 
 -147924   -23734    53335   -28885   -97411  -108533   -49989    83702 
  149756    47467   -56083     3769    34989  -122370  -197869   -30780 
  141745   172395    67095  -141378  -226273   -63204   133848   253899 
  280503    74227  -205139  -220761   -41632    80916    52340   -83845 
 -172137  -131553     5073   170001   216943   103788   -67824  -203762 
 -210020  -126616   -59085    27522   116210   127793   121447   147023 
   73643  -161184  -306571  -153802   172430   400296   274371  -101452 
 -293290  -232681   -97642   198332   544217   473632   -19008  -405282 
 -393133  -116280   126407   102344   -80504  -170125  -128202    14347 
  121659    30472   -73967   -29172    21004   -17123  -122303  -211665 
 -204622  -124155    52398   274855   283416    73792   -38352   -18161 
  -54125   -39498   158326   286927   140759   -82281  -157836  -119892 
     112   227257   343666   191494   -34176  -174595  -156590    -3680 
   23521   -91810   -58509    98510   114030   -19812  -175682  -281389 
 -232733   -30095   184670   242140    43295  -210254  -258731  -163161 
  -39421    80904   105016     9657   -86753   -74571     7109    40981 
   61558   107261    33737  -138612  -159059    15607   133658    39187 
  -58075    19381    87396    78444   129504   118898   -47619  -132606 
  -79447   -32447    91397   246094   173649   -23988  -134055  -171841 
  -55275   148599    66766  -218392  -251332    -3308   241556   198306 
 -139638  -317112  -177334   -33683    47727    96030    13959   -87345 
  -64704   -10943    14639    46255    60664    55318    21587     1845 
  126501   260359   170930   -33478  -207581  -294259  -135083   161523 
  206766     6501   -95685   -11940   116889   145048    15411  -148304 
 -225553  -207747   -70908   140263   232761   130788    23769    41688 
   81781    36680  -101348  -226374  -163366    82996   309355   323036 
   56340  -275533  -344748  -226528  -191151  -178012   -58398   114281 
  244312   162120  -147492  -365490  -317521  -125504   144396   357052 
  249058   -35131   -50236   172990   289172   302724   293386   123755 
 -163452  -309405  -180769    88114   263272   277840   121016  -186880 
 -372066  -264130  -115252   -96269   -57133     9822   -66347  -184408 
 -144146   -81591  -134141  -142852   -34638    80256   189558   244705 
   64330  -228900  -247957    26136   272947   313981   140634  -135164 
 -208611    29547   230702   196886   100558    -2560   -90408   -67517 
  -29232   -45535   -19645    22349    22446    82169   178411   120680 
  -81868  -238312  -218808   -66087    35977    49185    61623    -9096 
 -149940   -97389   109695   114093   -92699  -226125  -239404  -199135 
  -71019    72948   103608    48425    -2712    -4267     3673  -103873 
 -249644  -213799   -80032    10991    94424    73249   -69337  -100151 
   27641   144343   215496   255483   155613   -39768  -156733  -196898 
 -126138   136215   403517   426868   191513   -67429   -74183    95081 
  161650    85970   -43189  -154210  -173475  -135953  -127211  -114912 
  -11469    90949    31880   -56779    -3165    59516    51291    89880 
  177442   246942   265266   161573   -27426  -162545  -201081  -136723 
   21394   133450    68670   -84966  -121398    -8537    86524   123383 
  139368    -8031  -261914  -326466  -228922  -103827   127156   377366 
  358966    33467  -269757  -320311  -279887  -254643  -138771    22503 
   95015    40783   -86185  -181141  -226937  -242827  -164795     -113 
  121864   173469   218740   216274   120324    -6331  -118368  -207292 
 -215854   -86833   143850   379061   488204   350146    74240  -109371 
 -229466  -322307  -222795    -1887   160065   305537   323852    63103 
 -205735  -211705   -59518   104330   225494   259212   221775   150682 
  107465   125880    76527   -92488  -200377  -143950   -56725  -100198 
 -215896  -223083  -138500   -76276     2405   103662   119637    74494 
   78197   113667    93968    24077    -4814     5548   -21402   -68243 
 -114853  -177954  -193853   -66789   180947   295069    47902  -300118 
 -311272   -89864   -30624  -104680   -82780   -54789  -145679  -210703 
 -162738  -111805   -82965   -11628    60231    57582   -15469   -75797 
   -7900   131572   173854   142560   116856    80006    75428   147838 
  245547   309653   293699   147677   -64864  -130808    18269   198113 
  278247   250600   131611    -7695  -133323  -260824  -337610  -325680 
 -238283   -54607   185305   331040   278761   120754    72065   119047 
   36661  -134050  -177299   -74653    99954   193128    14798  -316118 
 -482512  -305226   166631   584409   566122   164578  -190054  -253972 
 -241282  -274700  -168967    -5668   -28213  -167590  -245606  -234457 
 -206045  -224748  -275832  -274864  -198429  -105092    25999   160488 
   94387  -163129  -337000  -339064  -294131  -237960  -157528  -100068 
  -50874    22119    67518    62992    20704   -50089   -86699   -27072 
   83359   125074    76700     9491   -60733  -133755  -188959  -198344 
 -115925    44119   213293   326486   311397   182031   104502   184991 
  310441   346245   282428   129929   -65982  -157289   -79056    21004 
   -2128  -133720  -286043  -345855  -222706    -4819    76580   -30121 
 -114386   -22087   156277   236457   176343    43978  -110934  -163904 
  -59120    36035    68320   143931   233763   288180   354279   407026 
  399378   379071   368694   358807   393059   452418   417742   229751 
  -52417  -279652  -289498   -67332   225016   380546   268910   -61149 
 -332506  -290177   -74852   -28077  -196901  -363010  -420342  -444475 
 -455629  -438899  -439789  -429475  -361890  -275105  -203998  -120810 
   26940   176937   184871    55946   -38064    50255   264771   384501 
  319987   190263    98500    41048    -4253    24035   176461   327073 
  354624   315651   281290   262025   257096   221498   132221    81406 
  110052   108436    27616   -74709  -178818  -280154  -357852  -374373 
 -265275   -59225   141552   285007   280928    98780   -83419  -202906 
 -299354  -174887   168628   370110   358053   226609   -80067  -403624 
 -525376  -495155  -365971  -157088    70711   309661   408551   165010 
 -180754  -250944  -209027  -284897  -238241   -46485   -27083  -108005 
  -83439  -103688  -261053  -379661  -359760  -215208      222   171425 
  312934   440779   329660   -68044  -422458  -531285  -471035  -344016 
 -265064  -271179  -233950  -114187    47146   259256   403046   303397 
   21419  -152092   -69036    99187   240803   378213   399802   241425 
   65808    64894   215291   304445   238319    93557    -9309    61510 
  221638   202386    -1950  -141154   -70610   131874   277565   278112 
  156433   -13919   -68280    34011   125267    86637   -34132  -107562 
  -73417    94153   365781   498538   352802    89039  -188982  -453159 
 -572765  -519366  -457783  -463183  -422545  -271644   -89160    51449 
  138473   101031  -130368  -390178  -475645  -443083  -412979  -385040 
 -310178  -223453  -255152  -380030  -377623  -192361   -18752    47839 
   89079   107815    83574   101371   171197   221329   254329   294591 
  335736   377661   407490   401093   371629   322810   211677    62010 
  -19647    11291   127399   313183   505084   575768   500349   375335 
  279663   227061   160998     8928  -215703  -414910  -477370  -353926 
 -129377    31263    90169   118461    79375    -3302    43625   165152 
  211357   269010   345216   309297   180567     6825  -206316  -381213 
 -475498  -509055  -441069  -249131    21381   351284   612326   497584 
   12002  -353052  -408242  -420272  -416992  -392643  -478164  -513176 
 -402578  -284997  -175905  -106479  -108378   -97175   -45085     7867 
   -3095  -110978  -219404  -201842   -61199    93745   206672   307395 
  367776   303955   129654   -30431   -71178   -29114    12641    75235 
  169292   226629   203369   103673   -22617  -114628  -134404   -33998 
  179702   408875   566285   569189   362163    80110   -87377  -136617 
  -65080   172763   430444   573817   572435   294156  -148069  -353544 
 -250211   -13834   251615   417827   469049   443739   288912   110135 
    5316  -117502  -256230  -368986  -462994  -448714  -295045  -126326 
  -32185   -37000  -154360  -320966  -426251  -485276  -551641  -500129 
 -250970     -388    30568  -159833  -406324  -507492  -388019  -221151 
 -182742  -207906  -213355  -217085  -199361  -138964   -95712  -127076 
 -207337  -271525  -280485  -234419  -136682    11421   174434   312673 
  380258   322521   191527   112611   121235   180723   246750   282447 
  299853   319505   324573   312151   309598   326474   319046   235074 
   99756     5428    18065   120321   241374   322018   348559   332534 
  275988   200431   146074   105660    42380   -58244  -168963  -199933 
  -71891   127867   193259    82360   -55817  -136129  -177349  -216105 
 -265383  -271032  -216415  -172486  -169716  -177526  -176824  -195184 
 -257046  -317957  -315700  -242057  -173595  -203634  -273402  -256306 
 -220982  -302796  -394046  -311269  -130077   -34816   -27441   -12110 
   33313    94444   172559   240090   247795   173491    23919  -147907 
 -245917  -199369   -16623   188933   273885   219991   108811    23040 
   39348   132911   186125   183024   191666   213505   206028   166826 
  123461   109260   159787   257701   335205   366503   366036   346208 
  322645   256674    80788  -137897  -252842  -204554   -18531   170124 
  193841    41065  -223326  -493530  -548187  -282229    99378   313704 
  329205   245916    92118   -10336   -12991   -79591  -203705  -264124 
 -258082  -220843  -224337  -274201  -261411  -176670  -135243  -189774 
 -269724  -289633  -244270  -184682  -143094  -125636  -137762  -135264 
  -52115    65387   122781   136926   159399   173101   146700    69327 
  -26843   -75425   -50710    37717   146750   190868   141226    61480 
   43839   128412   246258   330358   373369   297575    59698  -147995 
 -123252    47912   160004   147573    62371    -5190    13667   116487 
  215318   197742    62731  -104984  -227006  -254254  -198736   -77711 
  113362   333906   466040   363333    66725  -175059  -268798  -311909 
 -282656  -133408    10585    58830    67639    76381    68245    21558 
  -75068  -182726  -223493  -183867  -105486    16488   179703   291816 
  226515   -16359  -212611  -186086   -71011   -33339   -20035    66333 
  194115   255615   226674   142776    21764   -53487   -51868   -70094 
 -113352  -108931   -72802   -64397   -84858   -91968   -92365  -129247 
 -190386  -227113  -198860   -77352    74926   106887   -32177  -235483 
 -354566  -301868  -156330   -67090   -33288    29245   119167   166279 
  147289   113111    96072    75632    30273   -31210  -102130  -188391 
 -256166  -241489  -110160    97113   275787   340700   249002    35266 
 -112249   -58486    63479   101603    70646    29956    45507   106597 
  125108   125942   161218   175347   135839    82158    19006   -75460 
 -160051  -191497  -181095  -142684  -111566  -131040  -189282  -256077 
 -304589  -288750  -187999   -46773    51991    45786   -37413   -91312 
  -52053    15222    17871   -23449   -58251   -99250  -160249  -209038 
 -175585   -56978    45635    93378   135345   178829   210721   242312 
  255299   199902    55679   -95239  -106427    35607   191884   256652 
  211095    95285    -9225   -46797    -3088   105248   201401   222986 
  204184   176320   118326    43411   -22063   -97781  -197962  -252651 
 -143981   101421   263117   214718    80057   -11516   -63364  -107599 
 -149972  -137153   -36394    67940   104367    84786    30654   -36525 
  -93418  -132050  -152369  -154375  -118216    -5614   140864   192890 
  116010     9157   -13066    72459   124926    21629  -127587  -174974 
 -132857   -50741    59718   164236   211385   188766   133868    81778 
   41621    20736    13663     4742     6080    50792   140458   208448 
  166311     9825  -147768  -192280  -126414    -5664   122125   165163 
   58658  -124553  -240073  -242388  -214909  -192946  -133015   -23992 
  103392   153388    41890  -136452  -208314  -171239  -155058  -174145 
 -157993  -109252   -44664    19773    40319    23491    19753    55151 
  115819   158908   165524   153099    97455   -30412  -156816  -188368 
 -124792   -30172      449   -65637  -125533  -120438  -114913  -123190 
  -83212    27182   124299    94282   -26293   -82570   -32869     5737 
  -44809  -125778  -161005  -134033   -90278   -83353   -73292   -25458 
   -5652   -43471  -102311  -153202  -168822  -136090   -66781    11766 
   60150    68750    59514    42622    41046    81118   115496    89349 
   46757    45242    74750   109836   137538   162909   207582   258033 
  248212   125928   -40011   -84667    22264   125710   121729    56112 
   24975    50862    57414    10893   -35644   -52771   -53090   -32532 
   22840    64786    18073   -84079  -134995  -101953   -41138   -21024 
  -49567   -88635  -114072   -71377    92477   283421   339044   238720 
   83093   -63768  -195685  -264936  -207107  -108168  -113061  -164542 
 -126507   -20984    84477   185460   246457   213140   117092    40135 
   11821    13243    38176    80654    87636     5624  -130465  -229047 
 -227222  -110251    58822   170139   192041   151698    72482      529 
  -54916  -107905  -123684  -120310  -164720  -246470  -315932  -354334 
