Origin Time       2021/02/13 23:08:00
Lat.              37.7
Long.             141.8
Depth. (km)       60
Mag.              7.1
Station Code      FKS010
Station Lat.      37.2342
Station Long.     141.0016
Station Height(m) 50
Record Time       2021/02/13 23:08:05
Sampling Freq(Hz) 100Hz
Duration Time(s)  300
Dir.              E-W
Scale Factor      7845(gal)/8223790
Max. Acc. (gal)   459.686
Last Correction   2021/02/13 23:08:04
Memo.             
[...]
     144   -38271   -44475   -26397   -23947   -13165    40088    82570 
   45320   -27055   -49778   -33493   -20829    -4715    11961     6027 
   -1246    25695    60160    45392    -6138   -21369    13332    32437 
   12793    -1177    -5092   -26599   -42178   -23431    11574    36020 
   34666     8707   -14513    -8132    22160    49191    47177     4922 
  -46886   -50170    -4653    30109    34703    33666    30229    15824 
   -2077   -11030    -7875     6453    21845     9545   -28626   -39343 
   -6300    18612     9147    -3747    -2241    -2506    -9697    -6158 
   14172    32868    40112    45253    40544    16633      121     7794 
   18007    15489     6030    -3758   -10308   -12841    -9432     6143 
   29043    40598    23557   -11518   -19433    15795    49680    47498 
   24560     4585    -6718   -13101   -22017   -30724   -32836   -29485 
   -8881    26064    30360    -5406   -19429    13486    31411     1706 
  -20009    -5621    -4153   -29648   -29664    14561    54125    47047 
   15199    -6592   -28655   -47063   -17601    40316    46157    -2759 
  -34740   -18585    17054    32971    27311    26350    35538    45480 
   41868    14794   -16565   -37898   -42580   -13274    22809    22781 
   11564    21685    28089    17960    18906    29852    20067   -14416 
  -40189   -28111    12542    62170    90046    45137   -47005   -81554 
  -36558     8626    16983    18009    14758   -13585   -41955   -32903 
    -934    21446    25407    15230    -2327   -19326   -20355      684 
   15784     8883    11654    41796    63913    38327   -21497   -48170 
   -9271    36984    42843    25508    -5957   -33866   -13378    26819 
   20308    -6319    -4261     3744    -3952   -10785     -156    19356 
   10755   -19969   -11102    39193    68800    47152     3875    -8472 
   11013    23454    11701   -35491   -91905   -83259    -1957    73804 
   86506    54241    30811    28435    15322   -11457   -19593     7412 
   45908    42202      386    -4514    18191     3092   -13915     5915 
   19796    21838    34362    31060     1958   -19907   -22173   -14800 
   -4261     4927    11898    14250    10049    -3817   -29516   -40359 
  -19630     6829    35386    77388    97189    63310    15712     -205 
   -7533   -28971   -41594   -49867   -69560   -61750   -12101    25173 
   34744    55755    76106    40805   -32413   -64856   -33169    15523 
   35880    32954    30856    23361     7742     8405    30273    43133 
   24478   -10820   -40525   -59552   -58588   -23538    31706    56830 
   29436    -2011    -6525   -11175   -21683   -20675    -7534     4270 
  -12596   -43953   -27615    21243    30473    10913     4846    -1327 
  -11206     1514    18310     -839   -25189     1590    55783    74089 
   59317    52327    36201    -4414   -13240    19973    21573   -27135 
  -65830   -62280   -33596    -3794     8191    11688    31639    52115 
   44551    24769    16960     6567   -17284   -26156    -8430    16293 
   46338    78942    84792    48524   -11380   -62233   -73340   -48336 
  -36722   -54710   -48736    -2419    34605    53244    78656    95176 
   83612    56824    28568    10674     4537   -13643   -50552   -83000 
  -88847   -57975    -8392    24691    32524    35116    46484    59532 
   60728    44192    15110   -19757   -41435   -14955    34593    38576 
    8321    -2289     5776    -2585   -34101   -46854   -26944   -14833 
  -14438    -8945   -17346   -37777   -38357   -13261     9891     6678 
   -1356     9937    10925    -9567    -5304    34882    58367    45574 
   36895    43568    34380     5884   -20301   -35367   -36267   -30937 
  -37712   -45640   -29072     4858    34148    49921    54518    57981 
   58175    33876   -16687   -49331   -28117    11179    15433      -70 
   17803    65161    84165    60242    24827    -8694   -32316   -36126 
  -36806   -41385   -17389    30487    38821    11711    30136    87305 
   86173    13131   -41023   -34632   -20763   -30958   -41998   -44394 
  -41419   -24727     9622    47522    69993    72168    54801    27807 
   10485    -2731   -28366   -54919   -65155   -66613   -67111   -46098 
    7944    57221    62328    37689    30913    62212    83870    46128 
  -12804   -34708   -24999   -10316    -3716    -8274   -15692   -15535 
   -4518    14567    36417    44455    24740      715     3998    23565 
   34034    34530    28001    24359    41428    50006    18017   -13504 
  -16853   -20711   -18814     8067    23940    10713    12428    44678 
   56852    22967    -7832    -1526    -6192   -52759   -82183   -60836 
  -33767   -16345    19785    68620    89576    63555    12226   -30608 
  -45403   -36953   -18864    -2766    -4233   -12579     2856    40159 
   69113    67124    45711    27283     7416   -10021    -9721    -8664 
  -33747   -69623   -71051   -36675     5902    58459    94166    66654 
   12233    -7780    -8938   -22094   -32251   -25255    -1939    35464 
   68574    75714    60968    55765    63934    38365   -25199   -63728 
  -47667   -14972   -12020   -27399   -10368    23064    13689    -3083 
   37389    83313    66125    21857     1297    -4143   -16124   -28946 
  -15742    22488    42543    23264   -13454   -44323   -54872   -36894 
  -14365   -25878   -62649   -77503   -47800     4325    39602    32637 
   -3753   -21622     3863    45010    69295    77440    72184    36451 
   -9387   -13031    12804     3690   -50480   -93954   -84210   -35166 
    3828    10967    20696    48691    67089    65319    41189      984 
  -11489    11708    17609     3466    12559    27322    19020    15407 
   20707     6787   -13304    -5427    30242    51879    26268   -17545 
  -28545   -12584    -9094   -19144   -19394    -6409     7059    23757 
   56081    74703    39945   -19035   -45000   -34136    -8189    23545 
   28906   -24295   -92430   -89008    -8877    47074    16372   -21662 
   21104    89226   100615    70737    19986   -48660   -89286   -65769 
   -9953    15817    -3137   -24466   -24796   -22744   -16633    19534 
   69290    86085    60178    28109    24652    16611   -41500   -95879 
  -87768   -52346   -22908     2839    22365    48104    78980    72983 
   22103   -25942   -35380    -8282    20509    27625    45855    76339 
   62762    21487    27137    73600    78784    22482   -23679   -37870 
  -66533   -95535   -81430   -40084     5587    61557   117189   132318 
   84113     1917   -53218   -50598   -25763    -9940     7977    18430 
    2844   -23608   -31904   -12081     7353     6825    10773    18582 
   -5512   -36814   -14210    30624    25218   -11809   -36748   -52361 
  -56731   -46920   -26146     9825    38188    41238    35297    25415 
   30315    67386    90985    81319    80595    77334    16950   -69484 
  -90601   -43501     2508    22546    17883   -10862   -21772    13814 
   44653    32004     1971   -34021   -58957   -29238    24663    32665 
    9850    10359    21019     1925   -26168   -22470    11472    48639 
   59132    47999    59769    89985    77951    21308   -16551   -12487 
     110     -700    -4199   -10033   -17059     9898    50149    26555 
  -40406   -56824    -7686    46048    69518    69427    51456    29709 
   28495    33853     2123   -64415  -106394   -86923   -34047    -4761 
  -25305   -57214   -58349   -28804    25138    69419    64084    23118 
  -32906   -71691   -45503    21598    69765    90663    87102    45635 
   -4607   -18007   -13841   -24394   -28221    -5254    21207    26794 
   16258      500    -7607     9589    38113    42317    25528    25154 
   54473    83087    68235     2169   -63267   -58252     8167    47729 
   30956    11699    15927    32906    45929    19766   -42924   -73599 
  -31395    44188    90547    88194    57538    24179    16912    42346 
   64608    65002    50696    15292   -24726   -40200   -52408   -74718 
  -62561    -4587    50747    80503    99516   110786   105367    83377 
   43393   -16092   -54901   -15211    62595    72628    11412   -50021 
  -92596  -121003  -115047   -70212   -21157    -4969   -15673    -6890 
   26503    27407   -10431   -32940   -36148   -50463   -51969    -1138 
   71220    96592    46174   -45139  -116001  -147542  -154962  -145200 
 -136175  -134865   -97405    -1528    90894   113263   100003   133258 
  182538   127527   -48848  -210933  -232641  -165105  -140964  -147147 
 -111827   -79805   -83662   -51015    48980   136706   154155   143455 
  156528   184878   184744   129324    22187  -107721  -185394  -161881 
 -114596  -131355  -172342  -165608  -110413   -60110   -58428   -70232 
  -37837    27429    85302   124594   157158   191409   227129   263742 
  281952   260969   217881   160917    68400   -51533  -143147  -149161 
  -86394   -22794    18597    46471    62118    68370    73696    82088 
   79204    54406    25786    23498    53256    94336   140761   199624 
  258453   295523   296860   244466   124642   -28891  -145584  -206386 
 -257035  -289963  -223456   -56836    77681    81220    14472   -17739 
  -27190   -80850  -156851  -175298  -130877   -83559   -46302    -7132 
    6859   -28671   -97946  -146515  -141610  -132333  -163894  -204287 
 -202593  -143023   -56790     7290    33509    40668    62583   100072 
   95053    42753    23213    65105   126823   174733   191041   171123 
  141987   115815    45260   -72335  -136833  -106478   -74227   -86852 
  -72698   -11522    24769     5702    -4005    69483   200857   307508 
  343657   291097   140501   -73653  -231037  -210851   -59575    77916 
  166527   227649   221578   155333   103260    85895    79806    34524 
 -100087  -244768  -289606  -269865  -233051  -157154   -42125    77522 
  154434   195686   254129   309451   317470   293338   254897   202389 
  138564    65323   -12742   -96784  -190343  -278883  -341455  -364832 
 -356778  -349691  -334027  -256304  -122893    -3693    27483   -40613 
 -104510   -86224   -35212   -12329   -37481   -93170  -113960   -56833 
   35629    78692    56025    33480    44490    36664   -48540  -160132 
 -172782   -76337    11122    33724    30831    23355     1732   -36769 
  -87555  -124221  -110913   -53582    20961   105146   179837   238511 
  317529   409241   451408   422269   351333   270882   175846    38992 
 -102527  -170549  -172951  -169314  -145605   -49019    93833   175321 
  133834    42444    28696   122314   225813   251503   222346   198119 
  195473   198198   187438   172635   173226   187320   204014   188033 
  110791    34577    29033    24664   -73175  -207050  -267190  -238542 
 -172831  -113098   -54699    24150   101005   110930    25582   -88325 
 -167595  -227245  -257316  -230108  -193563  -182106  -164258  -147887 
 -174707  -246168  -341986  -425012  -453438  -423307  -317552   -96838 
  158692   269593   226836   185548   181045   159441    88055   -64991 
 -201908  -188185   -78875    25388   112445   168552   155517    80069 
   -8098   -68310   -66501   -13331    26802    43569    80495   137382 
  165208   145764   130230   165294   238087   313372   367761   389115 
  361023   254493    60571  -152107  -257773  -218910  -128227   -33309 
   84728   152898    96163    -7157   -66252  -114066  -168820  -139742 
    5445   156636   202435   115493   -19248   -62968   -24306   -29308 
 -109448  -185872  -182893  -120035   -75852   -62973   -30746    23963 
   38356   -14742   -92506  -146593  -144567   -80620     2350    44018 
  -13410  -171904  -300589  -290517  -213016  -152059   -99684   -55112 
  -28680   -28039   -55058   -70978   -62783   -56230   -39116     6158 
   58764    70502    17281   -51455   -83138   -55139    32416   107900 
  124889   135024   174976   253505   363881   417935   322131    88854 
 -135207  -146692    37658   171663   165299   145908   174941   162049 
   47864   -55885   -33871    47629    62808   -17239  -136108  -223657 
 -261370  -261559  -192542   -44490    79066    91103    51796    67846 
  148186   203292   155313    30314   -81421  -161921  -260520  -350075 
 -361623  -313629  -242549   -98415   148603   351546   340756   211091 
  126103    46759   -39791   -51008    20626   127057   180441   145636 
   86362     -611  -151505  -292319  -319620  -245177  -159579   -77136 
   47009   160617   160872    76648    17096    10721    44115   105518 
  151972   171780   186405   182595   148876    89861     2484   -90529 
 -155439  -192677  -209166  -191296  -116108    22265   158626   192994 
  108094   -32860  -147622  -189229  -181422  -120438    27476   198080 
  291915   280723   211507   180331   234860   314683   349429   366438 
  402456   410081   354874   255941   129462     1471   -87531  -146140 
 -223755  -306624  -326781  -275911  -212623  -186579  -203403  -224429 
 -196954  -114064   -14581    73476   148771   210844   225111   167629 
  105995   110245   150516   165400   126685    30393  -104893  -215852 
 -232945  -187914  -190098  -272786  -359391  -357789  -235741   -53171 
   71197    62094   -38194  -108818   -89768   -30187    30254    93723 
  140745   161828   171747   147243    51456   -82586  -185807  -246292 
 -294848  -334986  -356067  -363784  -342682  -272435  -148705    40956 
  227665   299848   308585   350681   392914   417530   435474   396578 
  321605   297267   299542   242902   171856   216068   331298   334474 
  199181    51414   -37334   -96140  -166652  -248840  -335747  -400383 
 -384261  -283797  -144649    -9053    61155    47993    45204   130806 
  266950   386208   438041   391585   271443   116887   -33180  -132490 
 -183625  -233543  -319640  -421139  -475956  -464566  -415490  -373711 
 -376265  -407010  -400831  -291158   -82965    93964   106783    -9599 
 -123998  -156285   -79394    66634   184887   246944   297854   349659 
  376161   330639   167215   -47538  -156211  -126748   -79443   -62587 
   14631   182862   323387   348038   307677   263790   204468    95646 
  -64419  -192820  -214647  -206494  -258788  -340556  -384775  -344196 
 -214313   -55539    70378   165030   231919   241909   221205   227337 
  261068   291901   309047   325923   345475   355522   339360   249828 
   65381  -127260  -222394  -228000  -220124  -236621  -287089  -346705 
 -332726  -217532   -61686    72000   114740    30985  -109395  -188497 
 -125705    41793   160872   172677   181197   233086   268562   243799 
  137870   -35689  -191239  -233786  -152109   -19057    53946   -22146 
 -200730  -332537  -335275  -237024  -130389   -98790  -125531  -102949 
   27888   169803   187683    67412   -97942  -166363   -86219    17143 
   69526   121100   156109   158539   167809   166218   155255   180511 
  218629   221521   167819    45636   -91399  -139773   -69745    39999 
   94032    81872    54067    28837   -14494   -53703     3611   162448 
  267590   219673    87706   -23665   -82841  -130673  -185835  -212728 
 -210362  -196589  -174444  -175161  -203484  -212841  -175914   -75617 
   77098   194541   238725   275975   310591   291116   235138   193382 
  208834   261939   252813   158315    50340   -29222   -80411  -139072 
 -236046  -328213  -364143  -342987  -274059  -174672   -72966    -6089 
  -17994   -74598   -86464   -48412    10478   102783   198841   236023 
  204265   130959    44057   -51503  -168492  -270145  -272344  -137331 
   59331   168681   131665    25497   -73311  -127022  -107821   -30534 
   60509   155283   242634   242284   132949    10847   -67227   -82590 
  -18549    67822   110272   116905   122311   145501   183394   204658 
  182830   111071    -4220  -119196  -179506  -154074   -51856    35962 
   32201   -16835   -58622  -103427  -137463  -136575  -101699   -18156 
  103971   192667   199210   142430    54915   -53640  -168674  -236854 
 -216476  -131674   -11931   135962   251955   271506   236969   193619 
  112455    -4959  -118920  -183462  -173988  -142763  -123857   -91343 
  -64485   -80185  -115912  -119746   -76627   -20236    23818    57426 
   83457   102925   112700   103196    79660    59931    50481    61882 
   99939   139691   156911   136239    71640   -10667   -74713  -100151 
  -91831   -84046  -107291  -151671  -181057  -169923  -115183   -53061 
  -26596   -10220    33207    90347   143916   174865   185365   214901 
  255243   265462   243469   185402    84573   -22214   -96147  -121381 
  -86664   -19222    26203    27978   -25074  -127649  -211473  -234855 
 -235511  -240984  -233848  -171385   -39874    89241   142670   147634 
  160586   161944   126434    88082    59459    22507    -9367    -7299 
   18820    28518    17212    12356    18409    16137   -13315   -63821 
 -111397  -151121  -173487  -145871   -67385    10917    32826    -5375 
  -49798   -57534   -42314   -35730   -36973   -28929    -6864    35162 
   94595   150429   194902   228675   246835   235723   165110    47637 
  -52799  -104896  -118867  -123034  -136472  -133513   -88894   -23735 
    8689   -27220   -87343   -98953   -67964   -46503   -44416   -28622 
   32150   127801   201761   209891   177469   159777   158364   126960 
   54225   -15526   -43876   -32200   -11931   -19279   -42390   -25363 
   44822   113478   125092    73946     5371   -35325   -60660  -101578 
 -148964  -177587  -177076  -157827  -128533   -70058    19869    92056 
  107954    96965   105954   124043   114640    75856    27861    -2587 
   10471    52766    80627    94382   121479   139171   105595    24306 
  -65191  -123461  -148979  -166884  -176389  -170244  -149754   -92759 
  -15668    11136    -9390    -9181    16775    24412     7800    -3859 
    5540    27318    46750    54440    42858    13639   -14844   -27064 
  -31946   -48080   -62862   -47962   -12139    19633    39098    48552 
   63259    95411   141790   195153   232740   223268   169245   105857 
   56566    14944   -36864   -99106  -148702  -172520  -177684  -168259 
 -138757   -73781    26026   104649    99152    30863   -22891   -33871 
  -26823   -21647   -25008   -36019   -40232   -15515    38011    86208 
   98367    76547    44105    18851     1121   -22396   -63936  -108814 
 -127253  -108606   -59175    -6724     3886   -22906   -18110    50417 
  124895   147117   128637   107157    95264    77045    41864    13103 
    8082     2223   -25168   -58041   -78059   -87979   -93891   -89579 
  -63328   -11961    46337    75655    67539    55852    61350    70359 
   59563    24432     2579    28614    76056    95596    70849    20402 
  -17909   -25166   -19784   -14304    -8672   -16869   -36076   -34638 
   -6744    18215    30102    45388    68562    84076    66062     3281 
  -66563   -87303   -54168   -20025   -29027   -63464   -79546   -76846 
  -80684   -80067   -55233   -24705    -9616    -3936    14215    59539 
  113985   139773   114151    55841    19176    38165    82834    93418 
   60328    19145   -17926   -52230   -79400  -109163  -142389  -156120 
 -131746   -64069    26917    79231    56986    17288    22086    42187 
   15001   -57554  -110542  -101040   -47821    22570   104646   171585 
  189859   175267   156409   134686   108203    77197    49624    46170 
   62012    67211    58450    42653     4635   -53659   -99727  -104544 
  -65981   -16341     3551    -8749   -20817   -22067   -25392   -33038 
  -49191   -71944   -82668   -79276   -74175   -64135   -38842     -255 
   46190    93064   126954   129440    73484   -36703  -134406  -153422 
 -108955   -63055   -27020    19144    65319    93617    99527    80574 
