Origin Time       2021/02/13 23:08:00
Lat.              37.7
Long.             141.8
Depth. (km)       60
Mag.              7.1
Station Code      FKS008
Station Lat.      37.4363
Station Long.     140.5668
Station Height(m) 430
Record Time       2021/02/13 23:08:08
Sampling Freq(Hz) 100Hz
Duration Time(s)  300
Dir.              E-W
Scale Factor      7845(gal)/8223790
Max. Acc. (gal)   455.881
Last Correction   2021/02/13 23:08:08
Memo.             
[...]
  -22962     3666    30015    22057     5212    -2490   -17373   -27892 
  -27110   -49416   -64176   -33439   -16015   -24339   -32421   -52955 
  -67460   -57287   -31322   -18457   -25405    -9715     4442   -25049 
  -61133   -75448   -67182   -41685   -16015     -993      384     4795 
   18400    12105    -9356   -19811   -33623   -49426   -40402   -31507 
  -48347   -43170    -2029     8047   -18914   -13961    15211    -6999 
  -69915  -104761  -100911   -74008   -31851    15102    36313    17832 
    7535    -1645   -36968   -48948   -45038   -48145   -27054     4245 
   29559    35029    -3092   -35239   -24679    -2891     1498   -32182 
  -81756   -98787   -84628   -61423   -39220   -20989   -15477   -38988 
  -53474   -15117     4182   -32220   -35878   -23958   -56431   -57454 
   -2231    31780    25047    22725    20389   -17955   -41960   -28236 
  -25398   -49738   -84920   -64913    -9745    -4814    -6432   -10100 
  -60374   -91049   -58754   -21857   -28135   -35338   -24408   -31341 
  -26761      754    13373    -2803   -47191   -71365   -49615   -20070 
    3798     8325    -6548   -15669   -31098   -37220   -25969   -44334 
  -52631   -24906   -32587   -52331   -39793   -38497   -43745   -18910 
     368   -13015   -12672    -3516   -31229   -51703   -29994    -4962 
   -8758   -48170   -63269   -17034    -3593   -33705   -19218     5859 
    -103    -5910   -12199   -33647   -66205   -73156   -36081    -7473 
  -17524   -25385    -7322   -16591   -56783   -38284     -495   -19957 
  -20807   -21192   -80229   -88751   -28799       -2      384    16821 
   32163    11782   -10593   -14764   -42464   -71258   -67331   -56293 
  -47834   -29830     2648    20592    -8630   -41258   -51210   -86259 
 -104095   -41774    26184    40115    22052    -7923   -22999   -10459 
   -5246   -33747   -62013   -63362   -53149   -17914    25434    16637 
   -2015       74   -44695   -97289   -90157   -79375   -82244   -51640 
  -15412    -1757    27454    42001    -2257   -51008   -67968   -57639 
  -16690    19633    22871    14816   -21050   -73360   -58298    -3084 
   19103    22231     2655   -41094   -59466   -46329   -46892   -53735 
  -40902   -61406  -103913   -91727   -55355   -26041    -4405    10068 
   37164    35262     9252   -12769   -48782   -55413   -41547   -13595 
   28112    -1202   -21074     2066   -44674   -53546     6577   -32220 
 -110069   -82715   -30962   -59030   -78251    -5499    29666   -40500 
  -58851     7689    37793    13718       40     8587   -13529   -32806 
  -19523   -36666   -50747   -41162   -33154    10146    32346   -15246 
  -56101   -53553   -25321   -13042   -42911   -64771   -76874  -104539 
  -71227     6273     7020   -31476   -33669   -29218   -37242   -39248 
  -12494      569   -34740   -40416   -22374   -36086   -17861    32421 
   28308   -21431   -12919    50039    32316   -21124   -12773   -38051 
  -81645   -47981   -24964   -60291   -65844   -45085   -49173   -38419 
  -16696   -37736   -57024   -36738   -31839   -46936   -29978   -18948 
  -44744   -40589   -13032     9304    36568     7422   -46948   -23923 
   10295   -17875   -39114   -21132   -27486   -48991   -22292     5144 
  -32212   -69846   -29654    25185    13706   -29114   -64994   -79442 
  -60281   -34828   -13602   -11983   -38481   -40244   -19406   -16140 
  -18508     -545    30213    12405   -33053   -20713    12407     8190 
  -28952   -61036   -37050   -22420   -77569   -84535   -28945   -13807 
   18809    55394    14871   -19375   -48933  -105964   -99594   -47051 
  -40945   -60151   -17265    51896    35023   -10800   -10177   -40531 
  -99144  -105999   -73809   -33018   -10638    -6971    21101    55323 
   53622     3341   -52122   -71599   -93393   -97383   -57828   -19435 
   14019    42627    31942   -39725  -110002  -104060   -71509   -38570 
   19107    25080   -24012   -52419   -78493   -52944    15772     5158 
  -17361   -23751   -47407     1148    41897     4230   -10832   -17583 
  -29890   -26023   -57686  -112315  -121140   -71574   -28362    -7238 
   35375    37262   -25826   -65252   -66193   -52456   -45050   -49616 
  -18773    13972     3028     5379     9158   -23036   -15075    39150 
   38623      -59   -16887   -45800   -79119   -52315    22442    41628 
  -32028  -103439  -103184   -55601   -31376   -49886   -57784   -51723 
  -35762     1644    13763    -9617   -47456   -78120   -25775    61430 
   39984   -20398    -3449     3796   -37291   -34013   -11850   -50701 
  -89320   -47721    18902    24821   -25218   -73165   -57377     1524 
   -1594   -51386   -73039   -91253  -104473  -111689  -107838   -36470 
   38160    72393    97321    42784   -50955   -58969   -26064   -36732 
  -80184   -79933   -19985    16754    23716    32360    24761    22634 
   11693   -35768   -70920  -105220  -142021  -122716   -81924   -44428 
   23237    66444    22121   -32984   -30842   -36698   -51534   -36441 
  -39606   -60137   -57858   -14611    43861    50107    31060    33439 
   31969     6496   -57878  -104058   -75448   -42406   -38561   -36649 
   -9158    39654    23310   -27321   -35413   -52960   -53892   -13811 
   -5340   -26546   -61277   -88176   -57700   -18033   -28603   -50059 
  -49869   -47511   -50838   -46350   -39000   -27093    14590    27899 
  -15884    -7913     9796   -44570   -57208   -12280    -1965   -31634 
  -41018    -1220    16988     -621   -16313   -38682   -57105   -70287 
  -38661    41578    44521   -25421   -62780   -70546   -77182   -86787 
  -58213    -9352   -20043    -8680    31232     5112     5971    22550 
   -8538    -1706   -37994  -138977  -126624   -39322     8773    61483 
  114723    78016   -13354   -57530  -104916  -175641  -159561   -85823 
  -48593    -2111    41705     4102   -33851    -4272     9348    -7746 
    7844     4997   -51003   -55151   -23512   -28482     4194    35703 
   -2646   -11832   -17528   -55027   -27225    -2608   -50920   -57532 
    9428      429  -109566  -123039   -76592  -111721   -82699    23055 
   50913    28229    11254    -1632   -27773   -65210   -69778   -47977 
  -33367   -26223     7789    38865     9521     2855    13238   -17084 
    7808    44945    11013   -52344  -139665  -184260  -153350  -102446 
  -24089    36659    46597    47727    39453    39375    20380   -42024 
  -52775   -41785   -75879   -94915  -107207   -88277   -14588    37180 
   82042    82329     9070    -1161     7149   -84381  -155252  -126125 
  -95623   -86103   -64818   -69199   -67497   -19880    28717    80485 
  109059    59757   -40537  -131665  -136917   -58415    14401    33150 
   -1945   -29371     7781    49029    51332    71196    60878   -31946 
  -75012   -59881  -102535  -143191  -110084   -52254   -28098   -39233 
  -23592     4047   -24054   -40022   -24421   -54650   -66849   -44242 
  -40085    -3079     5883   -62702   -72237    -2015    36594    33629 
   53280    64415    21660   -20586   -75965  -115344   -47733    -6555 
  -45609   -33696     2963    -2338   -47214   -54407    -8668   -59044 
  -99395      -76    22003   -37496   -15330    27625    19164   -17253 
   -7020    10674   -51788   -88302   -59340   -41489   -52186   -72292 
  -35949    21254    54325    72069    -8055   -97633   -93263   -84547 
  -63645   -52544   -69029   -36261    13373    65481    92861    49370 
  -23201   -83745   -71663   -30457     7020    57751   -37061  -153303 
  -74190   -30921   -44259    24665     9756   -58507   -58877   -57707 
  -54236   -58347   -62365   -35424   -35463   -33851     6372    36236 
   42156    34912    32082     4700   -64906   -74034   -36791   -75416 
  -95428   -35850   -15967    -4171    25138     5356   -29658   -56388 
  -51796   -21535   -34352   -85563  -127121   -82371     8113    30854 
   52732    61570     2922   -19183    -5691    -3689   -29597   -91493 
  -86892    -1192    18677   -69790  -102177   -30898     -491     2565 
   16085   -17147   -66348   -92738   -76366   -16366    24841    14963 
     645     -680   -45763   -89619   -43451    18756    36526    40454 
   -4696   -53991   -40410   -65138   -88392   -35560   -13296   -23831 
  -51174   -64882   -22198   -21135   -20067    20425    -1294   -32431 
  -21872   -37087   -91659  -133020  -106945   -31993    12178    37963 
   63625    18759   -26289     9267    26578    10513     9643   -30727 
  -86108   -64489   -13691    -1255   -17383   -35930   -21139    -7195 
  -31248   -38978   -20834   -39160  -100591  -127461   -90293   -49026 
  -27083    -4792    24027    46210    31356    -1695    -9111   -28158 
  -71207   -62391   -14467   -13616   -24314    11844    26079    11992 
    5756   -36252   -51543   -23765   -50221   -70637   -50634   -54160 
  -60203   -46786   -17532    10701    10389    -1784   -21992   -27994 
    2004   -17054   -58942   -38920   -61227  -111608   -77809   -30921 
    7128    74304   105011    38901   -75852  -111472   -70060   -45010 
   -9194    20132   -40594  -114096   -87639   -33534   -26626     9679 
   39934   -26369   -70159   -45500   -46963   -43193   -17513   -30631 
  -35268    27054    61805    17949     2955    -7410   -86301   -90732 
  -18139   -19110    -7842    42074     9100   -49133   -65448   -69681 
  -58058   -20559    -7051   -53314   -62721   -36259   -82668  -101902 
  -41681   -13558     7959    49573    41400   -30107   -97883   -65280 
   31618    66860    40296     2188   -23179   -19414   -28972   -61429 
  -47344     2983     8509   -17078   -21304   -59899  -150426  -157890 
  -71159   -15766    -1387    -9524   -35220   -68616   -90869   -20056 
   63092    42489    28625    34399    -5499   -12349    26225    45038 
   21914   -42082   -92248   -81014   -52008   -40880   -15395    11412 
   -1834    -9445    -3357   -32854   -60085   -93717  -128378   -56713 
   14339   -35252   -58322   -20995   -38938   -70379    -2309   107302 
  111796    28726   -50256   -97780   -92512   -69742   -48627    10060 
   43816     5470   -47397   -96003  -125552   -78518     4708    18596 
  -29698   -92375  -138096  -140656  -112606   -48874    20934    62191 
   95343    92626    52516    28998    13447   -22056   -41736   -17811 
   11651    29609     8586   -62959   -86420   -68423   -84855   -82840 
  -64169   -67011   -65106   -78652   -93417   -56955   -12788   -20059 
  -49408   -44073   -18208   -16626   -30991   -29639    -1305    21038 
    9499    -2420    18342    64824    68327    32113    60027    77294 
   17398   -36883  -115155  -174573  -131714   -93491   -86922   -67788 
  -77345   -96746   -64388    22065    76219    25586   -22856      468 
  -17329   -62993   -49384   -49630   -61753   -13547    51035   114987 
  123836    36603    -3863    21899    10008   -12622   -21011   -41266 
  -73197  -104244  -111307   -83143   -56241   -84140  -145338  -143834 
  -75315   -36629   -27824     -406   -10886   -73283   -79016   -18040 
   15489    29224    70291    97151    91026    94950    63911   -22275 
  -70513  -103914  -141889   -97198   -19666     1505   -24634   -56747 
  -36486    12513    20947     3474   -17783   -27866   -18993   -33573 
  -62710   -96318  -150746  -165588  -143550  -117109   -38322    54897 
   90795    52905   -46542  -101892   -55314    26361    98284   124163 
   79393     1332   -63624   -82958   -46678    28054    77184    38414 
  -32680   -69229   -67788   -21856    -4973   -85637  -156239  -118092 
  -33273    35584    80582    49771   -46692   -93181   -83246   -80477 
  -52285    13028    44170   -19710  -144844  -195219  -156643  -121606 
  -41451    64470    71983    44253    47846    47445    68713    93326 
   89826    92497    72948    32377    28540    30844     7794   -14210 
   -5950    19471      -37   -45608   -65502   -88696  -109669   -97220 
  -57925   -18929   -18709   -30237   -21224   -24483   -36645   -28836 
  -22593   -51055   -81970   -78397   -92249  -134843  -158711  -199038 
 -248755  -247423  -239080  -233936  -206568  -198648  -151321   -26840 
   61256   120185   183902   174960   127676    81021    10667    -2606 
   76999   175761   242752   228663   122509    -1665   -66710   -53539 
  -16440    14655    62487    61614   -45204  -160612  -202857  -198663 
 -141307   -28748    49578    75670    68007   -20295  -126943  -158089 
 -141075  -109340   -87385  -104101  -135642  -136452   -91679     5263 
  144941   219893   158727    49941   -32205   -56214   -23561     4468 
   42747    77500    22910   -61045   -65938    -7325    42673    55476 
   33925   -29845   -75934   -32626    35730    41565   -22740  -128590 
 -175614   -86395    52955   159688   203396   107090   -98721  -238183 
 -204315   -93985   -39378     7437    64488    22442   -71663   -80295 
  -37453   -24641   -14771    10953    29336    28895     4025   -32633 
  -89550  -171005  -241855  -264776  -208935  -134936  -100758   -73419 
 -103014  -181646  -193677  -161308  -109911   -63999   -95469   -97638 
  -49990   -70541   -57304     7659     8320    34091   105073   142364 
  193205   220880   160774    75976   -17641   -89478   -46236    57416 
  109757    95376    50544    58521    92211    51881    41692   126318 
  183203   190100   181797   138612    60130   -27688   -93023  -114434 
  -96384   -64835   -22932    17413    29512    41180    26218   -63551 
 -137613  -133062  -115362  -132561  -183089  -243510  -289832  -312338 
 -278892  -206672  -187610  -235134  -293797  -331568  -330428  -306834 
 -266209  -196485  -149980  -152436  -179143  -200655  -130335    23872 
  161303   283385   363989   361265   357709   399757   444162   451550 
  406790   314483   190879    85486    30144     3253    -3007    -5880 
  -27094   -41392   -55414   -95287  -131175  -158498  -181469  -158128 
 -107896   -96358  -143572  -208580  -239454  -260088  -273561  -226239 
 -125307   -29350   -22684  -104087  -167860  -214336  -262534  -230123 
 -115811    13898   139396   238608   285174   276681   237381   214019 
  227680   254920   246335   155511   -11473  -162865  -189152  -114482 
  -51513   -26230   -15608   -21200   -45411  -104877  -179787  -186761 
 -116097   -29363    52303    82194    20957   -67034  -142279  -189909 
 -148647   -64231   -31422    -4195    55210    86529    63795    -2957 
  -65589   -53233     3046    49378   106598   143085   111720    59695 
    2243   -71288  -116156  -120719   -85449   -43058   -73180  -134131 
 -171134  -234986  -306105  -329256  -313816  -259131  -163185   -43087 
   56759    53697   -27152   -57997   -44991   -47613     6967   132228 
  219863   250911   252715   200026    94151   -26014   -86428   -37883 
   33586    58429    69830    72603    68863    46731   -39784  -153705 
 -234411  -261864  -203412   -72823    48937   101021    81209     1352 
 -116951  -197783  -199818  -145498   -45218    53185    97590   107956 
  100692    61172    30225    76860   158062   197702   191479   111599 
  -34507  -157673  -217404  -191835   -76945    20916    14675   -59579 
 -115712  -106116   -99550  -154818  -197283  -194962  -184759  -165856 
 -159661  -147175   -97133   -70816   -15072   120710   190181   172453 
  140185    91273    91282   116405    42622   -86298  -162572  -172417 
 -130912   -54359    15550    24633   -33716  -102525  -147565  -175907 
 -182479  -165708  -136105   -92973   -24613    43833    13587  -110686 
 -143226   -39734    66024   151680   238210   270446   223774   152693 
  127337   143407   151221   151553   173502   187736   112865   -27544 
  -75701   -18333   -18486   -68524   -40320    26072    38651   -20214 
 -152305  -300218  -373249  -369504  -314686  -193594   -67684   -50237 
 -157923  -307241  -370407  -298089  -153099    29798   184153   149528 
  -45577  -132661   -23988    99863   141623   155013   163991   140786 
  104539   128868   200446   193652    69426   -66112  -126003   -94998 
  -12322    18609   -47202  -137975  -190067  -214273  -222544  -165003 
  -35611    75184    96071     7075  -114015  -140119  -114188  -114384 
  -84730   -29725   -17014   -37747   -58934   -54252   -14019    16202 
   35259    96476   143492   101529    35765     4804   -33254   -98373 
 -155410  -181734  -152358   -57252    23616    30033    19245    11461 
  -24031   -19171    64039   136308   161600   114419   -63113  -244529 
 -265815  -183320  -117640   -94402   -75809   -24565    70762   163624 
  168120   108367    70515    36749   -28135   -88388  -111384  -112514 
 -113167  -110203   -83388   -24113    23518    51273    83043    56415 
  -10216   -10048    10443   -29270   -99655  -163740  -188654  -142315 
  -49505    43798    94911    63532   -18486   -63282   -41281   -11122 
  -11199    -8703   -31149  -103694  -115673   -34897    45473    85594 
   57623   -16194   -29411    20329    58320    77683    89401    77427 
    3068  -134743  -242320  -271642  -253369  -159565    12106   148208 
  150649    19237  -146375  -200905  -124407    -9821   114690   227904 
  239147   120144   -46363  -169620  -215574  -183294   -91832     2991 
   53549    62872    19400   -87890  -166392  -145085  -100338   -89865 
  -80963   -82717  -104283   -77584     1536    64088    59039   -58137 
 -194946  -182116   -68337    12091    61793    81865    48091     4642 
  -17820     7277    98111   152076   112326    68281    55898    49532 
   47645    21685   -44311   -91320   -89329   -74972   -53958   -11076 
   37922    51696    -2062   -87520  -153061  -197672  -206743  -162371 
 -100408   -51078    -4814    44321    90073   122767   127449   111951 
  106281    92016     3194  -139622  -214049  -185772  -127415   -47202 
   62839   114139    49520   -63809  -119317   -69498    25411    63706 
    -893  -119414  -178197  -167140  -150982   -99403   -37882   -40203 
  -38695    -5157     4122    13209    30897    27977    30044    42492 
   26288   -16051   -32209    14071    82236   107330   101152    83596 
    8847  -119947  -221053  -243063  -180686   -62407    57889   144547 
  144100      139  -181114  -211316  -147765  -147826  -136925   -68287 
  -28119     9786    45563    35734     1875   -88711  -189939  -190956 
 -130829   -53929    46647   141241   167979    67517   -67543   -67265 
   50175   139417   147008   111677    38535   -87025  -177213  -115793 
   28769   103559    83732   -25150  -185869  -229468   -93283    76613 
  174294   158269    -4452  -190819  -240591  -164158   -32655    59193 
   29428   -50264   -78964   -67560   -47831   -17226      572   -23294 
  -54977   -41995    32166    97011    72420    29857    11875   -46935 
 -110282  -151983  -199269  -179173   -49431   117587   211113   144258 
  -29218  -137057  -121736  -104679  -121323   -67032    26488    33049 
  -31784   -83342  -109424  -122216   -91978   -14690    68883   138192 
  143235    47028   -70060  -125606  -112234   -45732    30028    65676 
   59039    17196   -54171  -111188  -131553  -126234   -85374   -22855 
   21274    40699    43769     6986   -90239  -176627  -159883   -84807 
  -20455    51601   100747    68952   -20656   -76931   -22418    81257 
  134592   114994    24602   -69653  -102833   -82109   -35278   -29195 
  -74632   -86940   -25895    66787    93880    13938   -74775  -109544 
 -137178  -147418   -92947   -41243   -76014  -131707  -114222   -46018 
   18581    56837    88042   134461   125656    38304   -20857    -3315 
   36894    23098   -32722   -47245   -46498   -63049   -46865   -17524 
