Origin Time       2021/02/13 23:08:00
Lat.              37.7
Long.             141.8
Depth. (km)       60
Mag.              7.1
Station Code      FKS017
Station Lat.      37.2842
Station Long.     140.3689
Station Height(m) 263
Record Time       2021/02/13 23:08:11
Sampling Freq(Hz) 100Hz
Duration Time(s)  237
Dir.              N-S
Scale Factor      7845(gal)/8223790
Max. Acc. (gal)   308.517
Last Correction   2021/02/13 23:08:10
Memo.             
[...]
  -10914   -16147      531     8648    -8276   -23431   -20609   -12912 
  -12575   -16735   -18301   -13139    -2182     4685       -2    -8243 
   -8442    -4361    -6370   -11858   -15720   -21169   -25532   -23170 
  -19869   -22742   -25825   -19780    -8438    -4739   -15808   -31727 
  -32076    -9491    26833    59019    64544    37604     2629    -8822 
    6519    21675    17126     3989     4448    20210    30954    23248 
    1309   -24825   -40941   -34280    -8911    11186     1154   -32441 
  -53165   -38379    -8506     -592   -13919   -21693   -18909    -6269 
   16529    24837     5665   -11824    -6394     7399    17030    22480 
    9755   -23018   -40328   -26373    -6592     1960    -2037   -13047 
   -9914     9028    15481     9277     8326     1499    -8563     5528 
   29988    32940    22231    14133    10149     6149    -8349   -26446 
  -24232    -3928     5344   -11179   -37118   -42813   -18195    10035 
   10863   -17820   -52510   -58700   -33432   -15049   -18431   -25273 
  -27263   -19809    -3377      514   -13448   -21105   -15989   -11056 
   -5190     1551    -2022   -10083    -8020     2141    15259    32510 
   46110    43502    27340    12343     8911    14033    17820    21126 
   26360    28125    28714    25103     4338   -24105   -33554   -19539 
   -6837   -10612   -18574   -25878   -34886   -29342   -10669   -11570 
  -35464   -46128   -29789   -13375   -12073   -12501    -9541    -8842 
   -8117     -422     8380     5313    -1690    -6739   -18505   -25429 
  -21701   -20355    -8267    26642    54656    51382    33092    22152 
   22770    29610    28740     8102   -15441   -15893    -8236   -16858 
  -28046   -29733   -23136    -2282    16694     7708   -16924   -20386 
    8374    35808    35001    17952    -5811   -20467    -7051      467 
  -20942   -36516   -39968   -47117   -40969   -20881   -12860   -16164 
  -12904     -633     8738     3325   -14485   -32908   -43839   -43821 
  -29848    -5053    14789    21613    17348      862   -13134    -5823 
   17439    35556    29752     5193   -16467   -18936     -270    11704 
     375    -7366    -2092     1574     5572     5759    -9995   -29311 
  -29810   -10515     9067     5825   -19924   -35530   -27191   -14855 
   -3747     1857    -8550   -13763    -1517    12510    28237    36200 
   14193   -17616   -27873   -27510   -31035   -30947   -25270   -15376 
    2168    20518    24441    13313     4675     5215     4808     4293 
   12360    25384    34420    32729    10544   -30334   -58245   -47742 
  -13656     9886    -1413   -31904   -44319   -34292   -16845    -5335 
  -13390   -26978   -20182     1123    21308    34373    29778     9186 
   -5004     -118    18913    38438    38406    17982    -5755   -24582 
  -26576   -14126   -14632   -21419    -9096    11523    20332     6462 
  -26287   -42286   -26580   -11929   -12700   -19893   -36648   -46136 
  -24938     1351     4315    -7211   -20937   -15928    16069    34072 
   17479    -1796    -3096    13670    40213    49711    28803    -6986 
  -35478   -29756     9694    34211    18924   -10312   -32017   -30277 
     -43    19885     4465   -18559   -22200      936    35486    41944 
    6781   -42786   -70725   -55946   -23222   -13691   -19188   -18976 
  -24285   -31893   -16511     9603    10885    -5435   -18841   -33030 
  -31604    -4568     8654    -5136   -19688   -27913   -19714     6859 
   19292    12177    10033    15186    26964    46148    44379    10701 
  -15333   -12226     4607    25178    34064    19390    -6235   -38257 
  -62214   -44050      220    23635    18156     -540   -10893     3769 
   24710    19465   -13640   -45428   -47326   -21776     2673     6431 
   -9213   -28140   -17113    25915    35622   -12051   -50743   -51968 
  -35256    -1371    12893   -22833   -46629   -13387    34527    54672 
   45033    19309    -2097     -203    18940    21928    -4715   -24881 
   -7861    20545    24405     7987    -7913   -13189   -11249   -13336 
  -17410   -12280    -2157     5397     6482   -11371   -34786   -19160 
   27553    44410    17108   -22863   -48277   -29639    29250    62511 
   27426   -29161   -37702     -243    25434     9236   -29623   -53380 
  -38870    -6886     5248    -8617   -29070   -30257   -13026    -7627 
  -15102   -22557   -37060   -46186   -31565    -3219    20638    22993 
    1844   -16930   -12680    10139    33723    32466    -2107   -34662 
  -26846     9494    42263    53388    30295    -5352    -8722    16559 
   33265    26770     5956   -11751   -17631   -20740   -26825   -30296 
  -27486   -20459   -20931   -40892   -67999   -74812   -59111   -43360 
  -35637   -33008   -37138   -36424   -13670    23841    41712    20702 
   -3673      787    11645    13208    15265    16787    19537    29380 
   34614    19932    -4168   -10751     6822    33093    48124    31793 
  -12758   -38279   -10219    32448    40270    16804   -23477   -56058 
  -35719    15458    17454   -31899   -64330   -53261   -19938    14710 
   32549    14828   -24906   -42844   -26001     3368    24106    15930 
  -18912   -35969   -11496    20532    29452    14828   -19354   -55209 
  -55888   -17479     6072   -15491   -38701   -27469     1663    25909 
   35221    31639    25246    17697    14323    15005     2127   -13192 
   -7111     6407    19425    36337    34562    16195    12718    14536 
    4437     -205     3496     2552    -2394   -17965   -40072   -35972 
   -7987     2778    -9741   -24803   -32279   -23188    -9049   -11145 
  -17828   -28309   -51676   -52972   -26229   -11650    -1024    17532 
   15414      201     -649     5844     2154   -14608   -20320     2875 
   26239    23140       25   -27495   -31128     3333    39764    40525 
   18081     5705    12440    26412    33868    26410     4722   -24791 
  -48895   -51881   -38048   -30375   -37247   -41848   -35630   -33735 
  -40238   -41076   -30551    -8762    17361    31654    30904    21940 
    9471     -769    -6721    -2706    12927    18214     5942     -494 
    3331     1372   -12469   -28580   -27255    -9356     7495    24030 
   32328    11017   -26852   -47544   -37874   -11265     3996    -4827 
  -22173   -32476   -29648   -13446    -2646    -8398   -11049     2301 
   27668    55325    61368    32470    -5686   -17589    -4320    10247 
   13782     1204   -14246    -6988    16344    27427    14725    -5987 
  -13331   -16156   -29093   -36067   -25712   -17563   -28096   -46049 
  -52666   -44444   -20723    20395    53920    46260    10685    -8421 
     117    13340    17489     7840   -15298   -32740   -33770   -30380 
  -26590   -20452   -19982   -24761   -21655    -8368     3010     3713 
   -1084     4968    28738    49769    46369    24181     1811    -4210 
   11236    32667    40397    24798    -7110   -25234   -15269     2714 
   14589     6373   -27585   -51003   -44818   -28178    -7897      726 
  -16011   -18323    10307    16717    -8901   -25428   -32325   -34600 
  -20355    -6084    -3542    -5443   -12190   -16837   -21597   -30982 
  -17868    12276    18168    13308    18557     3909   -32697   -51597 
  -37166    -1514    28335    26264     1706   -18824   -25429   -17030 
    1134    16332    19680    12924     9212    17248    29361    35164 
   22604    -9533   -28275   -15033     5899    18175    13899   -16029 
  -45921   -43632   -21226    -6976    -8857   -18592   -24008   -15917 
    6523    21304     1837   -37038   -54045   -36022   -11049    -4915 
   -7254    -2176     9049    22788    27005     4594   -25875   -17454 
   28983    60839    54781    20058   -28561   -52335   -32733    -7599 
   -5197    -9107    -1615     8788    10200     7210     4757      476 
    1953    19722    39235    36251    13063   -15056   -38279   -40478 
  -16791     3631    -5090   -23110   -21145   -11446    -6816     2450 
   -1097   -28557   -47823   -39754   -11213    12951     5061   -12987 
  -13039    -4002    15998    32557    14007    -9975     1459    21023 
   14377     -344    -5255   -10717   -12741    -6836    -7049   -14597 
  -19637   -18306   -15606   -16371   -12367     1794    15395    13963 
    -186    -5547     8646    27783    31018    18331    11974    15757 
   10203    -2137    -9273   -17778   -25359   -30639   -44200   -54544 
  -48880   -34796   -21959   -17393   -11827     1890     1676   -15928 
  -23805   -15768     3172    29601    33241    -3441   -36670   -28390 
    1324    28044    36273    12829   -12704   -11395    -3939    -2251 
    4881    15619    21744    21640    20509    17984     4491   -14735 
  -20163    -8353     6440    12734     9620     2438   -10505   -28185 
  -32910   -21115   -10648    -9437   -15198   -20082    -8710    13441 
   16966     1085    -6322    -8166   -16738    -9432    16345    27367 
   18576     4264   -18300   -40620   -33077     3680    29280    27973 
   14169   -11291   -33586   -26785   -15323   -26187   -33073   -26798 
  -26723   -22374    -6258      761   -11377   -32498   -46175   -43227 
  -22769     2428     4244   -13574   -22235   -18567    -4257    13589 
    8490   -18007   -28223      984    42680    54395    39158    19440 
    1019    -8230    -4955     1026     2241      -99    -2042    -5941 
  -10370   -12618   -22357   -32138   -25023   -11458     1412    11827 
    6980     1788     9807     5567   -11234   -15925   -10201     5518 
   27406    29917    10918   -13311   -28741   -19359    -4828    -9417 
   -6234    15180    24938    14023    -4986   -19996   -23314   -10897 
   11113    17788     2155   -11198   -15026   -21999   -30431   -28610 
  -16491    -7541    -3888     3605    10098    13991    25137    31282 
   11720   -18682   -27903   -12993     3018     6123     2488     -800 
   -5196    -9435   -11183   -17632   -33639   -50580   -56363   -46527 
  -29860   -19137   -16675   -23083   -34816   -27792     6303    38348 
   47667    30812    -1437   -10511    18937    54353    65524    37852 
  -14922   -38796   -12807    26909    50966    46149     7956   -40107 
  -65383   -62135   -45357   -25101    -5807     8066    14119     9531 
   -2101   -11013   -19491   -31437   -32138   -14886     -157     3438 
   14698    42225    74676    95116    82775    38970     3578     7596 
   36954    60299    59736    29995   -13398   -36560   -36568   -38925 
  -45732   -59806   -96905  -132224  -135413  -129276  -135361  -141058 
 -136042  -112009   -62764   -12825     3962   -10665   -35567   -54342 
  -46047   -11759    15028    20825    18949    22545    37670    49555 
   41796    30156    36842    50572    45607    30203    33350    50915 
   58432    51587    36317    23375    24961    26728    14598     3924 
    2663      778   -14500   -40720   -51902   -41040   -22746     1821 
   26333    32618    23958    25949    45373    57057    42587     9352 
  -15078     -577    41389    67977    55710     4618   -61862  -105760 
 -114316   -98945   -75803   -67347   -76459   -73916   -41315     4398 
   35823    49662    69427   106235   139810   154060   153489   144406 
  133679   119938    95499    74999    64579    49511    46172    58070 
   40092   -16582   -74557  -110822  -127426  -138846  -149986  -159943 
 -171252  -173977  -167497  -168567  -173449  -166707  -157084  -160224 
 -159142  -128436   -79983   -35885     3547    39987    74047   117822 
  170914   205440   199373   161960   120784    91353    73558    67578 
   56065    20317   -21529   -52695   -77098   -88156   -80720   -73643 
  -84809  -103966  -120278  -141741  -163341  -163155  -138030  -103291 
  -60215   -16586    -5593   -16742     2450    47074    73170    78031 
   78899    79046    89617   125628   166957   177130   163032   157792 
  166955   179671   190183   188856   171560   148424   130978   133932 
  156485   160080   124854    76023    30329    -7666   -26127   -20596 
   -9428   -23657   -64085  -106420  -141610  -165341  -174040  -174768 
 -174953  -183600  -201048  -206486  -189972  -173210  -176088  -194979 
 -218380  -232532  -227014  -213619  -214308  -227595  -228402  -201950 
 -160332  -124930  -108454  -100948   -72636   -18060    33224    68154 
   96765   123236   152556   182679   199733   204861   198088   174131 
  160273   173086   181090   173053   162604   140915   107754    76393 
   40084    -4646   -38502   -43807   -24536    -2714     4171     -371 
   -6448   -11450   -15510   -25978   -46248   -62307   -68199   -67548 
  -54379   -32494   -20383   -17478    -1243    32536    64079    85714 
  102327   113458   121655   131683   145474   166518   187938   193125 
  174532   142360   125304   139537   161395   162418   134854    80342 
   21487   -16532   -42728   -64196   -79847  -113745  -170112  -214505 
 -226940  -221140  -225965  -251523  -276536  -282893  -273234  -250888 
 -219460  -196794  -189557  -175564  -146470  -124514  -116311  -111330 
 -125531  -166752  -194142  -183398  -157816  -126175   -69286     8475 
   70085    93487    95563   102744   118625   133374   147378   156170 
  139340    96012    53654    34855    43144    65011    78355    63339 
   13020   -42853   -61580   -51777   -48147   -48274   -47125   -63844 
  -78937   -51603    -1830    33664    60114    85602   108487   141976 
  193671   239780   263765   277731   282449   275498   270707   264451 
  241529   208836   185414   185313   206269   221904   208703   167692 
  112330    61869    28726     4394   -23359   -49285   -55570   -47406 
  -59455  -103353  -161457  -224548  -279869  -303960  -300391  -298116 
 -305912  -313394  -319723  -325752  -327774  -323877  -308827  -276261 
 -223481  -155976   -87045   -26276    16456    33043    28636     6945 
  -30218   -66351   -83533   -73677   -34658    21918    75590   119925 
  158333   177689   164492   141637   136105   132042   108935    87596 
   94046   117134   137204   161563   193491   203755   172093   113742 
   53836    10993   -12596   -25747   -30361   -34847   -50726   -69194 
  -74779   -61329   -31187     8494    54105   100267   133479   146367 
  138842   110020    75562    53524    30550     3268      742    19651 
   27101    28266    38777    34824       35   -42749   -73807   -92218 
  -97004   -89275   -77784   -67537   -57137   -55836   -74443   -99111 
 -115271  -127820  -134094  -126254  -107472   -70726    -4861    64982 
  103103   124357   152486   154673   112294    71290    51625    28279 
    1983   -12448   -22700   -43735   -76284  -107844  -131545  -150124 
 -154722  -128263   -85058   -60214   -59489   -76006  -105902  -122393 
 -109362   -90134   -85546   -94297  -107154  -116391  -123364  -128893 
 -120391   -84138   -26473    28262    65038    82728    78349    56755 
   35455    28969    40711    59305    68112    65429    62920    63882 
   56223    35749    17828    15367    22414    23529    17377    18420 
   34009    63043    97960   121294   130404   140614   156284   168454 
  162720   127340    71957    30005    24093    32695    29816    22574 
   14303     5420    11263    19604     7229   -10095   -22883   -47104 
  -74429   -88724   -91077   -80937   -72755   -90344  -122196  -141304 
 -147947  -157404  -171888  -181434  -175683  -149963  -118679  -108422 
 -125516  -149997  -155275  -128731   -80160   -27426    12294    23504 
   12457     5448    14099    31359    50554    65831    72219    68918 
   50098    13826   -19658   -30441   -19164     1287    12760    14889 
   22149    31594    44888    79023   130388   180441   214755   226422 
  225009   217453   195097   166417   151802   138154   102841    60513 
   29141      819   -21169   -22761   -20229   -41382   -82593  -121084 
 -143368  -143167  -121038   -97650   -92735   -91805   -79794   -78598 
  -99173  -119558  -128428  -117309   -76320   -26372     8459    29887 
   45238    53712    53751    56442    68238    71818    58143    42380 
   34319    33767    43974    56801    54314    41219    30059    15233 
    2419     4496     5489   -14157   -47802   -76914   -88366   -82641 
  -70965   -68234   -83413  -105100  -112977  -104507   -89760   -68350 
  -35174     2793    41597    80233    96017    76632    47957    31028 
   29045    44165    62005    59455    36790    13709     2486    -1887 
   -9053   -20592   -32389   -40703   -41746   -33728   -22738   -14235 
   -3017    10953    17325    16244    12096    -1293   -23889   -40564 
  -34447    -4816    28104    48397    59751    67069    65583    52681 
   30920     3042   -11911     7788    43868    68436    76307    59062 
   25111     1452   -15346   -33710   -35087   -10663    20258    36063 
   31837     7304   -38002   -85295  -110211  -116306  -120233  -130570 
 -152980  -179809  -192740  -187803  -171657  -150252  -131418  -118370 
 -107682  -100404   -96331   -81330   -43306    10627    68188   119971 
  148003   141130   112168    73418    34257    16889    25947    42078 
   62920    93700   114794   111669   101930   102157   107825   111073 
  113719   118095   108513    73908    35999    11794    -5926   -16060 
  -16291   -22323   -37724   -45067   -44424   -50155   -55008   -46261 
  -38684   -56293   -96584  -134752  -156687  -163179  -153841  -138524 
 -133470  -133921  -130203  -125059  -111825   -83929   -56524   -41840 
  -40861   -51826   -58626   -51005   -36193   -16201     7704    32154 
   55294    73688    92064   116398   143399   163831   165049   148107 
  131049   123453   121192   119686   116953   113421   109733   104388 
  100666    95168    64855     6754   -45369   -67809   -61757   -39085 
  -16052    -5621   -12090   -15267      124     4444   -11404   -12696 
    7480    31865    50518    61623    71624    75548    69169    66923 
   68989    59880    39133    16722    -1976   -18220   -36988   -62233 
  -97563  -140836  -178784  -202995  -215352  -215168  -205119  -196420 
 -190993  -173531  -131722   -78160   -34971    -3037    20443    22593 
   11222    11711    20864    26145    27658    19507     3495      926 
   26689    65857    85465    76222    55055    29304     2485   -10751 
  -10922   -10328    -3862     8085    10639      697   -19579   -43467 
  -56482   -53010   -38070   -21585   -15876   -32636   -64835   -82389 
  -70023   -36960     9329    66596   119851   141690   132372   125030 
  128109   127237   129554   134960   123669   103608    95089    92034 
   86350    86391    96773   103589    86024    43549    -7438   -60396 
 -109675  -138925  -144389  -140398  -137883  -140090  -151993  -172010 
 -183938  -178953  -164729  -142685  -110292   -76100   -44871   -16482 
   -1239    -3564   -13076   -19828   -12663    11337    37461    60759 
   84834    99360    98474    90683    76057    46531    13238    -3009 
   -1923     7611    13949     6351    -1744      872     6930    18296 
   31592    34894    30248    22858    19145    21529    16195     3292 
   -4272   -18824   -49036   -72846   -79732   -79469   -69201   -44852 
  -21713   -11333    -8430    -8023    -9617   -13050   -20767   -34480 
  -47999   -53341   -55444   -63265   -68771   -57230   -27432     7493 
   24592    17837    15731    29620    35245    31314    33459    30457 
   15903    11254    24021    36953    43347    44292    33131    17876 
   16063    24521    29397    30631    39225    53207    58347    56043 
   57392    61211    59212    47956    34911    26187    13031    -8075 
  -25305   -31268   -25470    -8548     8395    12779     7614    -3150 
