Origin Time       2021/02/13 23:08:00
Lat.              37.7
Long.             141.8
Depth. (km)       60
Mag.              7.1
Station Code      FKS009
Station Lat.      37.2778
Station Long.     140.6349
Station Height(m) 440
Record Time       2021/02/13 23:08:08
Sampling Freq(Hz) 100Hz
Duration Time(s)  166
Dir.              E-W
Scale Factor      7845(gal)/8223790
Max. Acc. (gal)   379.950
Last Correction   2021/02/13 23:08:08
Memo.             
[...]
  -40560    10478    28390     3445     4537     4405    -2779    10901 
   14663   -18187   -50075   -13635    41482    28152    38145    92188 
   41422   -43453   -11082    33687    18104    20032    15865   -22634 
  -23028    10790    19930    13023    12279    17439    19280     9714 
    7349     3541   -23703   -24567     2667    18551    50649    30948 
  -64517   -62013    18241    29573    37991    57375    11146   -19997 
    4563     9070    -4846   -10687     1406    30672    22846     4278 
   36194    44760     4599     -652    12839    -1632    -1844     9954 
  -16054   -38395    -1841    36085     1362   -60709   -55092     4487 
   36398    41212    68265    91249    50819   -15372   -35004   -41628 
  -55598   -12502    43206    46843    66191    88971    28182   -53615 
  -31598    40518    21463   -25829    -6840   -11992   -50800   -38483 
    1868    36400    52207    38774    26917    17755    16009    30264 
    8873   -33617   -33744   -14497   -18192   -32219   -21500     4360 
    2933     -255    32626    54172    42958    16876   -38959   -69827 
  -38049    -4129    44772    82189    38155    21759    64750    46016 
    5040     1714   -10782    -9023     3978   -32073   -66715   -61443 
  -54456   -20969    42916    72922    74179    67549    27141   -13198 
  -22343   -28358   -25003   -18800   -15407    26308    69206    46256 
   13606    27913    16000   -23174     6427    34265   -14594   -40204 
  -12152    11890    36737    63751    43564     7497    31178    49484 
   20451    12619    11693   -10346   -23692   -31176   -43788   -44077 
  -28285    -6637    14304     5339   -11376    14662    35328    33543 
   33377     1844   -23772    -7005     8538    20066    22859    11272 
   16086    31128    34749    18686   -10531   -23147    -9333    19781 
   39816    15950   -15206   -12611   -31063   -44527    17906    69030 
   51574    31768    11662   -45030   -74290   -10948    34406      402 
   17734    54843    24347    41550    85839    44857     3267      222 
  -25824   -39114   -20050   -25120   -35932    -8252     7595    -1908 
   24268    44205     3541   -13300    12707    -5213   -16190    38156 
   47056     2454    13454    34371    19560    30272    28737   -17236 
  -32044   -20482   -13045    23090    46282    11373   -13763     1769 
    2251    -9806    -1148    -4360   -19881   -19241    -4966    43641 
   85336    67327    43532    15901   -36999   -40090     5017    14490 
   11599    24715    13659    -2123   -14959   -33064   -24329   -21385 
  -14598    36054    52124    34200    42595     8586   -63607   -57443 
   -3279    20000    53366    66606     8475    -7889    43143    41520 
    5065     2921   -19712   -48986       47    35052     1374    19022 
   40184     -297    16626    42988   -18322   -53692   -33291   -25512 
   -3168    38701    62159    66275    54349    33365     8446   -38893 
  -79316   -53306     7399    47980    64311    31234   -24544   -26056 
   -8955   -12606    -1703    11503    19152    32142    22466   -12694 
  -35000   -23107    -5443    11458    64135   107169    72971    12645 
   -3330     6847     9012    11357    -4610   -52388   -76993   -66307 
  -33239    20221    44568    56025    76154    47906    13146     3549 
  -53881   -98963   -41215    29930    52061    71470    71104    38912 
   41251    53146     5377   -42746   -49792   -59260   -61866   -37678 
    5390    44550    38074    16414    35041    44500   -11908   -47038 
    7780    35500    13570    55645   107496    78830     4421   -54109 
  -60166   -52859   -51787   -22721   -10597   -16078    29181    65929 
   50475    54889    54683    -7383   -44825    -4826    22797    12285 
    5462   -19241   -43632   -22095     9563    11790    -5144   -11195 
    7557    38225    60176    46440     8688     3929    18095    -6899 
  -20850      572   -33172   -64500    -2276    41054    41181    61719 
   31851   -22578     4509    45326    38167    47328    53719    -4360 
  -50608   -40405   -46089   -31176    52181    93074    59992    32857 
   -9271   -83085   -90752   -21033     3454    -7541    46242    80110 
   33093    38437    71983      240   -62002   -24634   -21899   -55478 
  -20802    37870    68972    80520    45711   -13285   -33590   -23051 
    6883    36165    11738   -24594    -8577    31544    50753    28212 
  -22686   -44236   -12622     1927    -3393    50849    72658   -12063 
  -53569    -7915    24399    18257    -9000   -19873    11075    46777 
   47333     4770   -35460   -25080   -23496   -48459     6852    86312 
   63136    17371    -1977   -28533    -8618    41273    36740    11117 
   14323     -490   -28725     1526    24344   -34400   -35534    57909 
   71527    19400     7666     2254    14882    32823    -6170   -27116 
   -5493     1185    12889     7045   -22488   -11654     3025     5104 
   55331    81764    16649   -44076   -56909   -44504    20023    68732 
   16848   -25380    10309    16486     1773    39083    45617    12717 
   20151    -7639   -75124   -54915     4145    12240    27217    61793 
   56713    17066   -15098    -9289    15214    16308    25205    50067 
   42363    18949   -13355   -60755   -66603   -43731   -14779    54234 
   76924    19214     3501    20779    10411    12303     6212   -34408 
  -13475    79474    96309    23619   -15288    -6380   -14419   -46346 
  -44514   -15114   -16224    -9094    15952    10902    19984    38323 
    4221   -20650    19897    56745    41476     7084   -27958   -48647 
  -21685     6967    -5726     2855    33515    29234    17073    16148 
   12780    23515    33840     9909   -22844   -21648    -3865      635 
   13367    37604    45403    28827   -11202   -26893    -1437    -3658 
  -12024     7819    -9485   -41436   -20557    14014    20001    19669 
   30188    32853    30175    34511    15421    -7512     8640    27874 
   35154    36366    27537    19824   -24007   -76478   -61593   -29740 
    4263    72612    93417    38817    -3574   -11248   -10663     7188 
   17003     3281    11541     5583   -39037   -32007     6681     5653 
   17660    37833    11511    12117    69384    73828    17841   -12997 
  -35699   -53593    -6093    47961    25400   -12962   -19248   -31666 
  -19828    28507    26153    -7458     5848    39317    41516     4715 
   -6764    50217    69996    -3978   -45828   -16416   -23669   -57302 
  -39123    -3156     8297     5161    11456    53003    78603    54387 
   51537    44613   -13806   -25049     5668   -21277   -31618    22955 
   24583   -17622   -11558   -10154   -16062    38600    61025     2566 
  -17712    -9856   -43954   -39897    20147    50734    55009    57919 
   43384    19785    10569    13409    -1050   -32589   -49427   -29566 
   29758    52251   -20852   -83147   -53968    -4013    24156    66808 
  116486   115281    67926    22777   -27021   -71948   -55498    -7936 
   15948    47885    71817    57522    48195    25505   -13625   -34759 
  -82632  -110254   -43100    33246    63208    63378    23764   -29648 
  -42714   -10863      346   -29921   -13622    53172    68323    25988 
   -4224    -1119     6435     7126    28587    57897    33112   -41442 
  -79191   -59077   -45229   -29390    20903    43501    11718   -11908 
   12927    65394    74337    28926    13659    34811    34997    19597 
  -10825   -77319  -114092   -47533    41507    60540    57843    74056 
   69711    35599    12240    -9325   -47576   -46199   -31927   -45863 
   13671    93673    61920    23265    31703    10534     -367    21497 
   19178    13149    27839    31704    22800     1956   -23850   -16533 
    1190    -2165    14566    40562    35411    18245   -21265   -44373 
    6863    26198    -8517    20079    68804    61194    47426    43891 
  -12289   -99272   -99987   -29789    11863    16541   -15535   -63481 
  -79353   -74131   -48631     7595    50625    49102    33324     9468 
  -28227    -9355    58993    88628   111194   141451   120393    61005 
   -6718   -49844   -53455   -41904    -8174    -4440   -58240   -63861 
  -26920   -25357   -17566     6903    -6299   -23970    15141    37469 
  -31945   -82343   -60902   -71192   -75674    -9024    13030   -32925 
  -44957   -21878     5292    35827    66522    95359   104512   100629 
  106124   107682    91054    54687    22725    25666    29582    13736 
   18673    34736    21510   -11373   -36313   -37156   -26701   -35002 
  -55647   -61226   -45200    -7450    52537   103034    98321    39915 
  -33601   -91463  -115834   -70649    51506   135460    98622    22161 
  -16081     5462    64191    92458   101460   125547   133837   106062 
   62896    50839    64257    58865    58056    82024   104364   103728 
   45569   -59950  -121724  -111100   -78376   -24663    35197    20503 
  -54865   -83905   -50017   -21463   -28425   -52154   -69256   -75195 
  -74848   -46697    12399    48247    39664     7811   -32421   -52527 
  -59923   -73141   -63194   -54726   -76543   -87392   -89052   -98261 
 -101787  -106367   -91848   -29906    27697    27648    -4491   -45526 
  -80287   -65785    -2523    58113    87868   127734   201675   237220 
  217580   207121   204295   181116   117687    -4860  -119889  -137292 
  -82891   -24268    39181    88230    51773   -31995   -39510    17043 
   22998   -23784   -25992    25120    53127    53940    44147    -7763 
  -68187  -107595  -157034  -167379   -89708    18427    82031   104233 
  157968   208269   168301    90532    24818   -10956    31861   102743 
  136767   175775   229624   250653   222718   123761   -34724  -131471 
  -93448     3762    51047    -9902  -116239  -176999  -223948  -252161 
 -214154  -156654   -85143    -6289     2212   -28217   -45971   -90985 
 -146696  -174047  -174360  -140159  -115917  -143241  -155177   -98012 
  -12071    51263    72017    67115    76431   104961   126939   151293 
  213511   279148   262880   177014   114250    87025    21398   -81521 
 -132838  -105474   -18917    74860    68010   -14813   -50377   -45274 
  -35650      805    39410    53616    85016   149683   198736   199594 
  160338    87826   -25000  -130412  -124800   -16613    70534    90443 
   90626   100423   108176   126949   182514   214177   178843   145940 
  120475    59051    23344    36906    16995   -46872   -90741  -113096 
 -162577  -238738  -298625  -330867  -341008  -335541  -342828  -367083 
 -364570  -268758   -70746    90558   120024   112120   101455    68673 
   86725   103299    10345  -102195  -121864   -63896    12371    66895 
  119311   186086   173399    21192  -118852   -92422    41843   157273 
  181566   114481    40497    23971    64066   109933   115272   132336 
  181626   178073    82413   -52330  -136424  -147340  -151830  -162220 
 -112464    25070   158286   167358   101744    71271    78721   113263 
  138888   109632    68359    42723    11040   -40062  -109663  -140125 
 -100560   -59173   -60467   -74514   -67336   -55598   -35334    69444 
  192418   147388   -20461  -115371   -87415   -21367    -3380     2201 
   54811    71213    14755   -30921   -54984   -73778   -64866   -28935 
   20052    28810   -25859   -40984    27336    79917    50396   -21735 
  -58241   -40784    13387    98861   144100   133415   178629   250263 
  222377   123979    35247    -5248    27260    74552    48994   -19353 
  -57866   -74266   -79127   -86352  -151746  -232017  -233066  -193797 
 -188851  -191771  -150385   -84411   -45954   -29398    -7827     1113 
   -3338    12201    50539   101640   164937   222521   245053   212086 
  136162    78943    90030   128282   127107    86557     6060  -112239 
 -175155  -127430   -38025    51248   135947   156462    75709   -42607 
 -102024   -98397  -111554  -149122  -153786  -126840  -112981  -139846 
 -155181   -78579    31494    87376   144120   227144   248911   196959 
  137764    80694    17663    -7493    22920    66927    97872    97501 
   72920    83416   118616   120510    84958     6404   -78722   -84789 
  -30024    13491    31507    15765   -18168   -23859   -17986   -45593 
  -97870  -137307  -139760  -108006   -88076  -128953  -178667  -152078 
 -100831  -119385  -176639  -191030  -128236    13745   167680   227214 
  208705   193517   178434   143961    91349    38340    30153    64651 
   90949    56508   -43189  -129420  -140788   -92990   -18432    64095 
  146649   215549   240086   209256   159892   144945   161010   128244 
   14661   -96001  -139469  -145778  -149918  -163071  -209569  -258681 
 -207531   -35669   125636   158315   106380    56701    50028    98529 
  114489    69435    76513   103705    20916  -118665  -143509   -29454 
   41758   -13315   -54750   -26067   -25631   -73593  -121764  -175146 
 -223152  -220772  -148031    -3684   123383   119777    40921   -18943 
  -34966    15091    62271    45374    28510    23190    30890    94278 
  132937    78412    22540    30713    60350    81715   103746   105117 
   73329    70140   112945   143136   149833   115123    24557   -55772 
 -117514  -176925  -176029  -125878   -95288   -85668   -68218   -20108 
   66486   147267   174426   157921   116756    73591    73265   115955 
  171521   193529    97603   -78837  -175583  -175792  -166484  -162766 
 -171653  -173381  -127912  -100481  -120108   -95523   -15071    29382 
  -14999   -96449  -123862  -122467  -154032  -135270   -31097    40647 
   81669   167246   228147   202393   123511    35908     9953    58064 
   86819    67775    66407    93615    96063    46849   -45882  -141241 
 -187624  -209676  -227765  -159745    29177   244274   378731   405400 
  329030   150612   -32728   -91592   -42452    14733    11561   -45627 
  -63668   -18843    10767    38361   103663   131394    61183   -33552 
  -28363    51802    52407   -19359   -20592    38082    41812   -31253 
 -124524  -194530  -244853  -260586  -175182    12123   154444   109868 
  -42522  -114903   -47592    56868    51783   -23063   -22878    32985 
   83732   118517   107985    79914    69493    52855    43783    45982 
   -9632  -124730  -187618  -123134    28449   162116   191629   140487 
   72758    -4357   -26192    70100   158174    92542   -35522   -46588 
   13867     1285   -68373  -130117  -169867  -195284  -205506  -131009 
   57967   227718   248972   158800    37762   -64565   -77755    19338 
  143495   171103   107231    73808    36782   -64636  -107343   -60247 
  -24696     7609    81330   154302   183940   196379   201883   136628 
   -8517  -140147  -203933  -216762  -193194  -150353  -121246  -123890 
 -147537  -161015  -135810   -54774    62878   138694   151368   156717 
  126139    14935  -107029  -166854  -142265   -30007    86778   107613 
   89770   111299   131029   144135   152416    98537    19888   -20661 
  -66478  -125273  -136536  -108403   -66422   -10678     3742   -29627 
   -8692    76337   114035    93204   109422   168797   192190   140904 
   51970    10490    16762   -33924  -139584  -203845  -205993  -123672 
   54174   166707    81414   -54384   -53393    31571    61391    18982 
  -55980  -129172  -116727     3747    94038    85348    56039    19202 
   -5833    38792    38003   -56309   -50685    60259    68924   -18964 
  -59778   -83803  -148767  -139704    -3908   140691   217059   228036 
  181681    79463   -33980   -59910     1829    28709   -17147   -21744 
   36728     3539   -97676   -98529   -58093   -23965    84213   159150 
   90040   -44016  -146191  -157283  -107071   -70175   -20682    41095 
   10218   -72970   -31116    95439   148400   150311   120777    23909 
  -53974   -58266   -47918   -37443    -4872    19460    -8322   -45054 
  -18546     7535   -38013   -39997    69790   131491    71790    41373 
   75780    44459   -44058   -51197    51216   141455   129770    76484 
   39506   -19407   -79721   -77734   -44780   -18578     6941     9390 
   -4617     6208     6265   -54008   -93459     1476   158884   203820 
  135136    41328   -89752  -192434  -145710   -17664    82853   126975 
   67956   -70259  -144855   -72153    45338    67385    50314    96975 
  101151    -9316   -97389  -104301   -87181   -69552   -67861   -40097 
   62428   153588   147768    80338    23800    42495   117832   127801 
   47352   -46279  -119967  -139812  -110308   -83412   -13628   122844 
  171263    44513   -70977   -31522    31941    33138    44948    34641 
  -43710   -63049    14847    32179   -27882   -12591    53357    21639 
  -61095   -78962   -60546   -22449    70699   160439   183425   157829 
   63097  -109468  -229028  -205140  -108087   -11213    49053    46279 
   -7173   -85391  -128956   -98281   -38925    36003    98980    63954 
   10975    69047   126701    66688   -16950   -49820   -34411    57316 
  153625   155910   124872    97722    60874    57657    51248    14006 
    2400   -33515  -107581  -106220   -46194   -11547     3352    -1842 
  -38367   -80196   -65346    46407   158841   139895    37665    -5038 
   20503    25338   -16645   -74065  -110776   -83860      552    41328 
  -15155   -55162   -23526   -16872     6137    97459   113170    49950 
   -4041  -102706  -168825   -76732    50868    86637    73758    51961 
   -5861   -84577   -71247    78470   203851   187423   130642    79920 
  -38441  -161850  -153162   -16702   119470   143067    58124   -30011 
  -29099    17508    -6616   -81846   -90543   -25965     9155   -39771 
  -82884   -12378    90418    77565   -11925   -70811   -87099   -22698 
  115025   164799    71787   -57052  -131118   -93935    20798   112710 
  145060   120680    43606   -42314   -77718   -85955  -104206   -63324 
   57095   148424   130500    18063  -118031  -205059  -176790    -4612 
  189743   243792   176295    77070   -25574   -78131   -62823   -27749 
   24405    48512   -14852   -66722   -29651     3689    -8486     8563 
   59580    63360     6682   -41617   -55566   -45234    -2366    40621 
   22959   -28980   -13587    48486    37771     4511    53196   113587 
  116604    87053    44728    -6466   -93483  -188045  -166452   -19345 
  111361   141770   109992    57925     4009     -419    27036    -6243 
  -89257  -137484  -110332   -31233    39988    89985   125932   110334 
   40022   -24598   -54376   -50614    -7130    26157     3277   -19371 
  -13575   -25463   -45138   -37264   -25037   -26854   -21154    -6837 
   13892    72921   131063    92018    17894    26613    37466   -11820 
  -19994     5737    -2215     7167    21513   -31139   -70688     3331 
  111109   111565     -537   -86089   -40751    67463   107639    59508 
   -6966   -39031   -34663   -14388    28590    55992   -11847   -81792 
  -32472    40143    40819     -521   -34601   -42495   -56979   -56131 
   26343   124633   134616    72847   -10858   -79174   -80785   -34832 
  -22476   -59031   -77472   -36583     1610     -986    26677    84501 
   84156    24111   -25243    -5174    63860    83049    52462    39154 
   11557   -24152    -4969    13861   -11778   -16714    -6964   -39298 
  -60396     3639    98697   123707    94806    86440    71378     8808 
  -41326   -39222   -27469   -36374   -47151   -22160    38503    53068 
   -8214   -25143    33899    30426   -32520   -19619    38966    48370 
   13582   -51133   -98379   -50781    54888    91467    31182    -4145 
   14935   -26453  -102315   -88654    -1316    62579    51059    15057 
   24860     8283   -68251   -38979   111338   156238    66037    -3917 
