Origin Time       2021/02/13 23:08:00
Lat.              37.7
Long.             141.8
Depth. (km)       60
Mag.              7.1
Station Code      FKS019
Station Lat.      37.6030
Station Long.     140.4368
Station Height(m) 235
Record Time       2021/02/13 23:08:09
Sampling Freq(Hz) 100Hz
Duration Time(s)  213
Dir.              N-S
Scale Factor      7845(gal)/8223790
Max. Acc. (gal)   426.044
Last Correction   2021/02/13 23:08:08
Memo.             
[...]
   10521    12746    29458    17247   -22604   -33864    16695    64378 
   58353    44046    31320    -8232   -35881   -28506   -24607   -16086 
   16051    34302    21286   -14189   -40506    -6980    44928    49208 
   40205    37625     7510   -34512   -37095    12402    67778    80869 
   43379   -17425   -29153    26487    54985    16472   -26410   -38857 
  -23221    12723    47291    62525    38190   -12380   -26423       87 
   11934     8527    26172    34095    -4914   -22603     3700    -6033 
  -28278     6767    48883    34612    -1630     6831    51520    61620 
   20883   -11200     3041    33012    28910     -476    -7227    -8284 
  -16212    12461    42392    27117    11394    11394     2022    -4133 
    2980    -2052   -11931     8322    24659    -3838   -21855    11284 
   43425    42628    29482     7608   -14763   -12341     6909    23814 
   40166    44224    14721   -23661   -22343    20605    64755    61227 
    3678   -48675   -57561   -29339    25502    67078    65938    43934 
    9278   -21394    -1952    37023    26680    -9505   -17149   -13591 
  -24475   -14438    28988    55074    37855     6905     4348    21891 
   14338      533     8823      648   -21828   -23750   -15349    10034 
   53148    69375    45881     9861   -15075   -22403    -6698    24395 
   15005   -23820      811    52772    47484    40100    53925    18031 
  -43151   -52018   -11890    35515    56335    39222    14575    -2525 
  -33004   -40261    17809    62919    31082    -8495     3661    24436 
   12255     -580    10887    17128    -5305   -31973   -22428    12204 
   19913    -1571    -3267    15595    13622     1853    31060    94389 
  105266    45407     9414    18378    16823     6631    13289    18353 
    -387   -16768   -18208   -28229   -36228   -24528    -9699    -4673 
     675    15252    29911    33185    26793    21325    18231    12961 
   24806    64397    88885    62581     5850   -36931   -34179   -18519 
  -42732   -66104   -38462     8958    37855    27711     2933    23276 
   63196    59806    29920    16858    32607    42082    10732   -12517 
    2706    15024    18134    11354   -12017   -15574    12731    40238 
   38546     3802   -30674   -21617    21450    36680     5223    -9177 
   23045    36109     9756    14867    42380     4221   -57362   -20150 
   63637    46537   -42971   -68265   -13676    35603    44942    43260 
   37658    20447     9626     4986    -3843    -1310     7933    13986 
   41135    80338    64831    -9682   -29614    43810    66140   -25154 
  -87315   -55220   -13599    14650    41535    19539   -40348   -50795 
    3762    55101    60566    43421    36207    25693     7203     4669 
    -896   -14258     5417    40309    40178    -3052   -51545   -43499 
   15091    53472    47858    26330    28081    56956    50241     2940 
   -5954    14010     4993   -13969    -4225    42163    71181    31333 
  -19317   -41454   -73271   -90626   -39891    50306    93779    46094 
  -11273    10625    47212    28528     2521    10669    31419    28636 
   19546    32771    20079   -19257   -17807    12040    15592   -16893 
  -38911    -1522    59148    60570     5900   -10361    27842    36092 
    2427   -10783    16904    49095    49761    38484    37979    12413 
  -46396   -77247   -47066     5243    27777    13614   -12312   -33006 
  -24399    39437   107478    80859   -14922   -41007    29569    70961 
    9748   -56704   -38348   -13829   -29744    -2785    64507    81168 
   34510   -10670    -3095    39957    51966    12888    -9153    16082 
   31603    22975    24532    18630   -25385   -46175    14046    65766 
   36890     8629    30249    40510     6999   -26765   -17909     3883 
   -9026   -18800     7038    16200     1628    14341    40084    35997 
   20259    11794   -18476   -58542   -40554    24370    34657    -6889 
    7420    43776    18360    11230    54329    53410     5613    -6801 
   40918    63157    17277     2486    41212    39224     1551    11871 
   39856    -2631   -56516   -20173    39846    16902   -35338   -27791 
   -9325   -27016   -18804    27506    35159    -4702   -18476     7017 
   15649     9130    30310    56548    49299    25308    13595    24300 
   40208    35374    19327     8699    -2841   -12704    -1999    27047 
   41600    33652    30334    27253    -3315   -43025   -45011   -21300 
  -15834    -7311     9725   -14755   -47054   -14339    50927    63147 
   19421    -5116    12633    28011    26850    48195    82136    45825 
  -21944     1966    66568    56120    -7904   -37885   -18821   -19344 
  -46751   -39671    -2886    12367    12631    41084    54691     4268 
  -28030    18998    81453    86204    44100    14478     1466   -11994 
   -2173    10654   -18848   -47293   -14280    45091    65059    48249 
   23491   -12997   -32522   -17957   -32437   -57662   -18031    40725 
   44593     2062   -21413     7460    40320    54017    54275    22343 
   -3110    26199    53496    30391    18111    35154    28472    22673 
   39070    35164    11697   -11821   -26663   -25307   -17358     -808 
   14937      453   -24652   -15458    10393    -3909   -45908   -33728 
   34107    42179   -23969   -29670    30815    40656    21560    50800 
   77234    31737   -23086    16553   104457   105343    40802    34231 
   52536      -68   -51564   -13586    19060   -43225  -108018   -76869 
   14612    74827    50573    -4638   -17431   -10824     1861    22258 
    1841   -40860   -37525     2380    28948    37017    45781    55343 
   62033    52682    31579    34321    33775   -12595   -45598   -23480 
   -5852    -7523    13927    32981    12688    -3518    21238    47305 
   48888    50107    42110     8379   -10974     4800    16027    -5991 
  -38450   -30994     8448     9436   -23153   -14509    39954    65481 
   28849    -1709     6826    -8532   -34673     3346    59861    53080 
   12726    -3049    12217    28127    18701     9818    18110    16981 
   -1740   -26064   -19650    31166    70360    77399    63780    12258 
  -42658   -41993   -10343    -9899   -34055   -38416   -40313   -50552 
  -21182    28169    52979    76563    79320    48506    51358    75000 
   56050    21737    23938    48157    24791   -43434   -48574     7491 
    7173   -33593   -32109   -16191   -19318   -27133   -30882   -31652 
  -34047    -9053    45211    72318    66769    58946    59744    66895 
   56778    30473    28718    36451    -3632   -48363   -21197    30569 
   23113   -31444   -45045     5761    24082   -10077    -1999    34006 
   21789    -8164   -13012    -8802      330    29508    56084    34014 
   -8862    -8699    13910     8598   -10881    -3003    17587    10066 
    9707    45698    58228    30748    21220    47189    56878     6953 
  -49189   -49129   -42111   -57017   -37723    10839    41007    51209 
   48485    33034     8694   -14299   -14615    13342    39760    29952 
   -5899   -24628   -13851    12857    50981    70833    45280    17957 
   21960    13898   -20983   -29216    -9698    -6416     5030    47243 
   63277    17408   -20159    19379    62537    34978    -4665   -19484 
  -32763   -47718   -58513   -35930    17302    41312    40236    51896 
   69446    98643   129220   117956    90058    81415    50357    -2843 
  -31556   -57306   -80994   -49702     2118     7585     2359    21051 
    7138   -55306   -81577   -42792   -17064   -28212   -30746   -19345 
    -317    29990    68318   103225   108075    90598    61263    14276 
   -3299     9687     -540    -8197    11218    27986    32794    27980 
   29812    39992    -1252   -84940  -106041   -72547   -76491  -104761 
  -88331   -11421    65113    63687    14559    17300    67635    63319 
   -2830   -29054     -646    12267      977     1516     8324    -2069 
    6103    54448    63767    11905     2551    51241    65335    43548 
   26497    -2724   -10285    34893    44579   -26862  -103357  -124776 
  -79752    13516    83909    69043     8596   -20800   -24996   -32570 
  -16167    36157    71266    46805     7808    12079    38623    55783 
   74622    95489    95604    72879    37899    -2187   -17263     -751 
   12698    15965    -1363   -45010   -56932   -16785    23101    35615 
   34757    42541    37773    -3491   -22172      -62     6750    17085 
   46300    33274    -7222   -12815   -11415   -10370    38433    88777 
   84870    60199    29875      318     2077    30127    60266    64064 
   39784    41797    80191    97360    57505   -23922   -91633  -114944 
 -120692  -121030  -118077  -131396  -138933  -109370   -52381    21735 
   96421   147793   168585   154294   116317    64677    -9458   -64785 
  -58008   -36860   -38394   -42155   -53190   -80435   -98401   -80801 
  -33201    -2829   -20181   -42782   -36863   -39707   -62266   -59575 
  -19913    36462   102694   175046   227236   225024   185890   141295 
   84568    50168    69084    75874    38003     7371   -10127   -48685 
  -83292   -76110   -60691   -77785  -112342  -137238  -122397   -40466 
   69338   123003   104909    83154    93815   106235   101947    87386 
   75440    85720   120089   149573   138732    90990    37108    -3555 
   -9705    14215    20514    -7344   -55579  -120907  -172627  -179568 
 -159606  -123464   -68555   -23710    -8232   -14702   -41937   -79026 
  -90076   -39376    61111   142568   164596   150758   123178   104279 
  107878    97071    79054   103894   137563   133631    97266    23379 
  -49119   -54722   -42994   -82780  -123873  -127454  -131803  -154205 
 -182861  -202096  -187218  -126846   -36540    44590    74044    62351 
   51268    40703    30273    44277    86339   144528   191397   198867 
  176601   145746   112028    81503    63791    43934    -2755   -46399 
  -51035   -43330   -40491   -35912   -48370   -74493   -82048   -74657 
  -83241  -109366  -114095   -69194   -10887    -3487   -47325   -95553 
 -128754  -140756  -128717  -110832   -98496   -74699   -19743    50973 
  107532   148570   185854   213844   206404   154917   101784    77558 
   46858   -10355   -43602   -26939     3665    33574    64625    86090 
  117965   183776   254938   290472   285901   235036   125128    -1773 
 -106627  -199741  -257403  -254352  -225319  -187806  -126364   -54499 
  -12290   -12501   -21794   -12899    15110    53495    88038   118570 
  134620   107816    58514    48666    99678   161684   183991   178781 
  164658   134744    74142   -35159  -138485  -163614  -156460  -154669 
 -130743  -117540  -135390  -152852  -185882  -236362  -258287  -254412 
 -241953  -186432   -76393    26073    63217    62094    76982   114174 
  165889   209542   221428   228806   239692   217397   164420   122146 
  118633   149355   189641   226485   264297   306261   341007   346046 
  298890   189197    76329    46750    53227     8760   -60332  -128595 
 -196287  -229582  -221107  -199419  -195953  -221259  -244941  -231562 
 -183568  -132138  -100442   -93307  -104629  -128965  -160812  -184581 
 -204384  -213644  -147355    -2700   117481   174042   198289   182125 
  140632   116893    99121    79361    91856   136985   174714   200211 
  226597   235600   230025   232927   228888   182545    93251    24332 
   18125    17247    -6031    -4989     7430   -12575   -68941  -146886 
 -214216  -252598  -266016  -265480  -255775  -222516  -175784  -141709 
 -123776  -121482  -144744  -198198  -250588  -252607  -173412   -28420 
   88361   118486   134393   177545   211640   247437   293464   315310 
  299220   256555   218157   206154   196431   157123   106057    93249 
  130277   188099   231615   223732   160019    72549    -4710   -55443 
 -105241  -166186  -201576  -215669  -251430  -300935  -325927  -318145 
 -280426  -203844  -113759   -70846   -73198   -62390   -32945   -13383 
   -9288   -32946   -78028   -80688   -17474    41577    62351    90393 
  144147   203829   258705   305405   347395   377592   373970   330046 
  254051   163737    94354    70393    73707    73924    60914    33021 
   -5445   -50332   -90047   -99522   -84086   -78046   -99881  -138372 
 -172604  -196453  -212660  -226038  -226280  -199319  -177696  -187930 
 -194485  -162441   -88518     7099    83288   130168   176770   226066 
  253727   247922   198579   101710     3399   -35465   -18816    -2158 
  -22832   -45331    -8542    56127    78551    68026    62876    72335 
   85368    72206    27287    -2042       41    -5460   -13008    -5714 
  -16155   -49831   -81051   -99523   -97934   -55379    43225   133704 
  127961    72449    58556    68661    52547     1387   -51572   -62865 
  -42371   -13670     6006    -3279    -7094    17446    36859    51394 
   67586    66788    50471    12545   -46028   -86655  -104056  -125801 
 -130729   -78008     8673    51378    17768   -17165    14087    45875 
    -426   -63690   -60809   -25683     2694    36976    59358    67701 
   97804   155845   225192   282097   315964   339519   323786   224575 
   99686    43247    31055   -15832  -101436  -195647  -278955  -317128 
 -290699  -217381  -139077  -114108  -144201  -154371  -119878   -85037 
  -65893   -46543    -2913    70497   133227   158606   162434   144633 
  100043    64916    69623    97328   123892   131589    99121    34191 
  -34254   -82819   -74142    -4595    66521   114423   157594   173130 
  129628    50155   -24624   -85928  -147649  -201613  -216814  -177462 
  -86248    23668    86517    73940    19681   -47725  -110180  -142738 
 -166217  -196588  -173065   -58696    74613   135453   154554   208846 
  270488   317295   377046   430825   457857   410445   220410   -24642 
 -159763  -191246  -224599  -277638  -323466  -333940  -289616  -227384 
 -172299  -112378   -51524     5664    52285    77267    78804    59953 
   52974    93764   162167   214219   218087   165188   107794   105271 
  131842   130855   106839    86094    56887     8193   -38149   -69776 
 -109347  -166932  -215310  -239620  -246203  -241614  -244732  -265234 
 -289851  -298282  -241844   -91550    67992   156396   234231   340376 
  407848   422597   432375   449173   422231   298161   130623    15813 
  -37924   -74510  -117042  -152585  -157158  -145131  -144240  -136016 
 -111125   -98135   -98340  -103149  -118582  -142878  -168767  -150218 
  -55183    36278    73708   110458   144400   144058   130904   126646 
  146943   179857   192963   176859   133726   108996   146214   199569 
  202726   141818    50053   -30208   -95917  -156595  -200565  -227476 
 -244825  -256174  -266876  -248332  -179010   -99793   -37817    16449 
   53245    67767    73629    65395    49549    54367    73079    77897 
   56131    21101     7908    20721    44139    82591   116992   119946 
  108714   111921   124837   113294    71095    40323    36899    24351 
  -21710   -66737   -65588   -38870   -37736   -74520  -121000  -149956 
 -171660  -195610  -205552  -180677  -104944   -10971    51372   108270 
  196411   275502   303670   278591   197764    88655     1142   -51198 
  -63684   -35638   -13397   -14249    15272    50244    15920   -29706 
  -19620     4349    30408    74158    93826    52431   -21659   -80763 
 -120573  -134778   -91376   -17008    29350    57501    99646   125521 
  118269   115942   108843    66866    15209   -14185   -20633   -18161 
    -924    18160   -13146   -67810   -70866   -46805   -46437   -56635 
  -51910    -2124    90242   127786    50480   -47688   -62023     2632 
   83149   119496   105286    83897    82026    85143    50787   -18706 
  -56720   -62428   -83173   -99372   -94937   -93850  -105607  -132796 
 -157284  -141701   -82212   -10617    43384    86246   140061   185940 
  189008   154809   121092   120969   154202   185749   184477   144282 
   66811   -16278   -54419   -66302  -105993  -160732  -191803  -187362 
 -153535  -129047  -131982  -121598   -86568   -54677   -25420      708 
    6461    20244    84288   174652   244310   274322   246172   154641 
   52332     9155    20293    34450    52878    66762    18883   -62795 
 -103711  -104267   -78344   -40154   -28753   -32630    -7495    28439 
   19467   -31234   -59895   -43398   -28449   -29967    -8993    35299 
   68970    71759    38975    13116    47470    94208    70470    18999 
   17921    40369    54078    59466    28578   -28645   -67313   -87432 
  -90467   -44991    35912    70727    37254    14608    28290    19850 
  -26069   -62118   -53844   -30400   -30312   -23483    28706    99229 
  139108   140611   126727   110049    89081    64245    47683    40192 
   25153      162   -35446   -72692   -92707  -112823  -138279  -129169 
  -78753   -33324   -18476    -8560    12638    26011    20985     -220 
  -19587     2675    50475    54940    24017    33243    94288   157013 
  203612   230893   210374   144312    70075     8117   -33527   -31217 
   17883    26635   -48598   -93298   -65745   -52230   -52332   -28285 
   -4873     6523     7038   -19718   -70483  -124794  -165149  -167005 
 -105429     4806    86656    93604    83523    98498   118993   140044 
  153307   152466   140772    96338    24553   -20812   -15407    10305 
   13005   -17767   -35456   -17724   -13389   -33173   -47012   -53458 
  -35892    26559    81607    62808    -1479   -55742   -92345   -99403 
  -68141   -17439    24455    33181    24371    32953    61214    79739 
   57944    24255    34287    58405    37592     4244    -3427   -20849 
  -54456   -81353  -108653  -116139   -89187   -65635   -52292   -28894 
  -13103   -12359     2015    30061    52131    73538    91546    90312 
   72584    51605    42302    53269    74660    85191    71712    51752 
   51641    61021    59103    49185    30249    -5417   -42276   -45862 
   -9987     5071   -44361  -101156  -110633   -83972   -32162     8461 
    2004     4239    35861    35922    29857    49990    36294    -2446 
   -5622    10378    21940    45018    72873    88325   103827   122674 
  137772   145362   108020    15773   -64284   -97964  -118409  -133367 
 -112726   -41710    37548    50676      407   -41503   -51667   -55891 
  -62271   -49397   -15836      294   -11330   -26576   -49081   -74572 
  -49150    32971    99851   135390   175086   202300   196155   167927 
  127759    95210    75678    41052    -5328   -15708     -206   -25049 
  -82435  -121782  -136772  -110632   -37531     8105   -23560   -69240 
  -75342   -71278   -62191   -24983    20255    54360    79473    89077 
   72538    30765      899    22783    61616    58187    35793    42137 
   48355    16212   -30585   -58716   -51437     -911    60415    80412 
   64687    51510    40423    34241    51834    66353    47294    21794 
   24808    41044    33604      445   -28800   -37075   -37498   -38514 
  -37936   -48593   -68369   -82715   -88082   -63559   -12614     9528 
    1416    24991    81648   115682   107959    81679    68777    81263 
   89097    52834    -6866   -14242    35862    57738    38033    34709 
   38928    23333     6731    -7670   -30127   -46067   -44180   -26617 
   -3491    -3898   -31283   -46124   -28549    16754    66148    73610 
   49559    31407    -5386   -53109   -60442   -39451   -12274    17142 
   14744   -22959   -37478    10027    78786   105268    97762    88942 
   69834    47704    44849    50213    45937    28622    -1355   -40933 
  -72384   -76152   -54965   -28514   -22613   -32977   -23206    -1266 
  -11109   -50380   -78761   -77464   -55100   -21280     9580    20069 
