Origin Time       2021/02/13 23:08:00
Lat.              37.7
Long.             141.8
Depth. (km)       60
Mag.              7.1
Station Code      FKS019
Station Lat.      37.6030
Station Long.     140.4368
Station Height(m) 235
Record Time       2021/02/13 23:08:09
Sampling Freq(Hz) 100Hz
Duration Time(s)  213
Dir.              E-W
Scale Factor      7845(gal)/8223790
Max. Acc. (gal)   311.277
Last Correction   2021/02/13 23:08:08
Memo.             
[...]
  -21406    -2813    -9317   -39297   -44725   -17003      384    -2012 
  -19904   -46214   -44066   -14315     6021    17932    34380    51124 
   63035    54471    22229    -1325    -3824   -11259   -23608   -11904 
    3105   -16240   -27936      741    12765   -12131   -26770   -29606 
  -44902   -60971   -65898   -57333   -23215    23857    31283    -9308 
  -30456    -4361    24552    38014    48162    38530      990   -26709 
  -21748    -9671    -4595    13725    34253    20318    -2216    16487 
   53015    63486    56631    37056   -12164   -66452   -93542   -86448 
  -38373    16502    23305    -4378   -15903    -6111     2052     4430 
   -9728   -51884   -81106   -61508   -20610    18855    55948    69881 
   43567    -1772   -23352   -21159   -27314   -25893     1837    28397 
   38499    34635    23228    23641    30029    12806   -17894   -36549 
  -50276   -52948   -26671    10802    30759    31857    30470    25678 
    4299   -21818   -23012    -5275   -16089   -57086   -71652   -51024 
  -30395   -13533     -583    -4878   -15203   -18846   -24144   -26712 
  -15300     -824    10631    27360    36015    29763    30939    32397 
   17159    10134    18800    11087   -16065   -39317   -55410   -56010 
  -30348    -7915    -6261     1514    14797     3105   -23187   -25880 
  -10774   -13892   -25671   -15557     6554    16779     2729   -20146 
  -13494     2180   -22909   -51876   -41014   -30890   -39519   -35811 
  -31043   -43295   -31857    17826    43910    29207    26774    43027 
   45976    33147    17969     8934    -3688   -26006   -22878    23877 
   71840    84419    59120     5157   -42492   -47619   -40959   -59100 
  -60821   -35888   -34231   -40763   -15484    15433    19314    12765 
   10588    -3797   -29245   -39796   -32143   -22808     1594    45628 
   51417     5436   -18100      931     6944     -263    14139    23554 
    6831    -9198   -15784   -22600   -22092    -6334    11302    27222 
   44685    34029   -11862   -39096   -18250    18623    29917   -10582 
  -79934   -96676   -34983    19757     7882   -14639     3561    22909 
   11808    -5320    -7596     1957     6686     7580    22029    26389 
   -1614   -11796    16036    12089   -27689   -23762     8383      531 
  -17716    -1502    11345   -12027   -22307     7501     7080   -39865 
  -52720   -20298     2363    10118    22283    38198    49686    40981 
    2425   -47916   -72652   -52992   -16243    -2390   -13004   -19122 
  -11011    -4294     4340    31450    54731    36976    -4457   -19372 
   -3708     4120   -10196   -24678   -16255     5431     2342   -20626 
  -11601    20916    30118    19892    -8122   -53352   -74729   -59057 
  -30357   -12198   -13953    -6366    18878    15869   -13458   -16004 
   10057    17320   -14531   -48523   -45091   -13506    19133    35005 
   30298    21216     8019   -20304   -47926   -56617   -37012     7017 
   30273      599   -32358   -18925     6319    10393     5996   -16579 
  -54045   -69039   -67184   -52192     5625    73477    79254    25918 
  -19688   -20704    10420    33124    19122     3634    11697    13169 
    7711    13150     9844   -12244   -26238   -29579   -39104   -31496 
   -6874    -7083   -15660    -1991    -4195   -33990   -44589   -33399 
  -13420     2928   -26765   -55996    -8203    52994    55121    34987 
   25914     9516   -12290   -17635   -18346   -26643   -25227   -21016 
  -27233    -8777    35052    49975    44809    55524    49758    14698 
    5653    10908   -35509   -93320  -101709   -88973   -53946    16132 
   58137    59170    63634    36875   -38493   -75906   -51838   -51684 
  -92801  -107778   -83101   -43673    10061    61465    88582   105939 
  120680   114120    79494    21035   -41145   -73394   -87027  -101023 
  -69228     8158    45026    32470    21523     1844   -28304   -26550 
    5968    17297   -13413   -32952   -14455    -6670    -7840     5661 
   -7905   -37066   -25899     4646    21775    30649    28868    18274 
   10696    -9868   -57645   -86692   -57716   -17890   -10835    -7726 
    6392    18090    33642    48182    42851    10133   -41000   -81376 
  -84869   -51313    -5362    25606    28416    10642    -1389    10627 
   46934    83803    83608    41156   -18277   -66573   -75149   -51517 
  -50639   -78074   -77431   -41033     1242    26420    11658    -7573 
   21694    58438    43934     5660   -13895   -21818   -32593   -39706 
  -25446    13109    56868    85668    82845    46793     -360   -27391 
  -29959   -41832   -62831   -61344   -45746   -33205   -20065     6612 
   46660    63209    43109    31256    51102    59941    19630   -38013 
  -60714   -48564   -32400   -23629   -16029      -24    14777     3289 
  -23422   -29548    -6390    14404    -5485   -50673   -75007   -70884 
  -56305   -41058   -32638   -19893    18330    48701    24085   -18786 
  -17832     5717     1453   -19431   -23566    -6390    24786    55449 
   62973    64145    94846   118639    82671    18792   -29722   -69994 
  -79537   -21664    42404    19557   -62756   -96917   -61005   -30998 
  -40776   -53906   -49239   -33554   -12779    -3173    -9593     4145 
   39464    32636    -8203    -6995     9454   -15229   -33840   -21875 
  -29052   -41270    -3562    49836    62510    44991    22218     5691 
   -9830   -31226   -36796   -24376   -17668    -1355    38974    63686 
   65850    77934    66476     -244   -68280   -98803  -121111  -145802 
 -140431  -100769   -42556    20488    48587    30418    13636    30487 
   61271    77677    74619    37107   -36806   -76354   -29376    49212 
   86992    74511    37044    -2346   -35321   -61662   -71278   -53315 
  -24753   -23193   -47875   -56432   -44955   -31612   -13967    -4064 
    5184    28923    41334    39098    32755    14285     -927    -3391 
  -12409   -31217   -47379   -52060   -35455   -12785     2258    41596 
  103098   136757   118274    40613   -66579  -123576  -105233   -69021 
  -54328   -55676   -56216   -37396    -4131    14571     8522     1846 
   17366    38219    25340   -12741   -23928   -17662   -33548   -27506 
   42889   107010    87963    32175    19400    41351    41526    -2644 
  -30620     3350    23868   -23510   -76999   -77184   -61789   -82495 
  -90994   -48848    -6147     7299     4868     5841    12444    18864 
   37353    37426   -21759   -77049   -69025   -49283   -35827    10339 
   61677    78030    78610    95445   115911    96136    31008   -29046 
  -40941   -34287   -42935   -36458   -21439   -35631   -48367   -32564 
  -21713   -36525   -44404   -31125   -29577   -31750   -24729   -44054 
  -85205   -92830   -57742   -40200   -45337    -1146    86297   134060 
  126659   108562    89907    61118    17377   -18080    -4878    13806 
    2593    16511    47584    45256    22485    -3638   -30061   -45593 
  -60185   -90784  -123986  -140128  -127492   -83550   -32356     4444 
   29382    46354    43298    19192     4317    13358    26933    23221 
    5877     4982    21776    24929    19025    30815    48574    44007 
   24381    -2689   -39633   -52473   -45060   -61631   -76488   -58051 
  -36852   -21529    15533    56263    59624    41646    30137    17131 
   -3978   -33234   -53518   -31198    22214    44545     -594   -49601 
  -29470     3437   -13134   -30736   -11543     5107      403      853 
   -5911   -25010   -17475     7145     1775   -36298   -52483   -20633 
   10735    23080    40547    36035   -12893   -42012   -12780    10029 
  -13162   -35935   -13726    27854    41785    43355    39949     3910 
  -30774   -26308   -20460   -44377   -64480   -55788   -36211   -13527 
  -12267   -57816   -83805   -29151    36618    31449    -6669   -16922 
  -12864    -1412    29281    52200    55053    58342    58849    47270 
   35780    26273    20794    10805   -26430   -41273    -7753    -8014 
  -48440   -53952   -31733   -37141   -59659   -51081   -22945   -14708 
  -23714   -28202   -11591    17420    30230    34661    43441    25675 
   -6211     1520    18638     1529    -8604     9522    17649    -5784 
  -35853   -29980     8999    28275    11275     2018    10461    15901 
   35548    57555    39900    -3168   -28206   -24736   -21586   -44388 
  -68324   -47170    -2130     7041    -3582     7287     7226   -34689 
  -70731   -63813   -48254   -38250      483    51310    53590    27013 
   40236    77180    78294    45041    -1674   -60997   -91693   -52371 
   18384    51759    18342   -24074    -6099    19772      -67   -13891 
  -13613   -53765  -111223  -116375   -52353    43575    93478    68658 
   29482    -2705   -31341   -33551   -26487   -31830   -51470   -77996 
  -74287   -28872    26419    59873    69552    70042    47877     7416 
  -19295   -33859   -35974   -25448   -47551   -97316   -87728   -13644 
   30177     9155   -15944     4777    26572     3855   -15522    -8522 
    1001    26103    45974    27091    12954    24340    27816    27703 
   40927    42665    15832   -11368   -32641   -57315   -60076   -44807 
  -34114   -36347   -61547   -78877   -61582   -31812    -4931    16799 
   28170    32420    42120    43325     4808   -41987   -43467   -18723 
    1445    23101    30618     9109    -3931    13312    19346    -5896 
  -14121    11524    21712     6754   -11792   -33305   -25002    15435 
    9921   -38875   -45550   -15655    -8307   -23949   -28104    -1814 
   31675    37261    24510    19741    22559    20424    10608     1676 
   -4664   -10729    -1607    12796    -9686   -44784   -38209    -6779 
   33081    71331    55082    -9127   -51567   -66702   -92919  -112687 
  -97073   -76065   -70403   -63120   -55665   -36844    20277    65909 
   40587     -533    14705    56381    58814    39841    52398    78645 
   96549   109178    97082    53014      133   -23373   -18632   -30831 
  -50591   -48613   -39846   -23313   -11736   -46500   -93870   -95638 
  -87960  -108697  -107493   -62621   -14721    21166    39056    35205 
   33006    54629    85271    64405    -6401   -34333   -18031   -19408 
   -5300    36533    44950    23633    18069     8141   -33667   -43526 
   -4839    -3242   -21752   -11022   -19138   -42649   -37392   -16100 
    9609    28602    13878   -16320   -15600     4837    -5306   -37620 
  -50550   -52882   -44019    -5401     5832   -27459   -15681    30487 
   26793     2376    16807    60045    82898    54276     3470   -18515 
    4005    28903    23434     9486   -17849   -63456   -78615   -45076 
   -1011    14959      -28   -28335   -67625   -97534   -81633   -31286 
   20066    51062    55166    51937    60500    79816    92805    86089 
   53782    -3885   -60894   -94313   -97752   -71740   -36162   -12645 
  -15029   -41686   -58696   -29023    26202    45635    33600    36128 
   45027    39179    12028   -41624   -80133   -62611   -26919   -11329 
    9675    52475    81795    76378    57191    24772   -20398   -29089 
   -1445      453   -12852    -4850   -12594   -38952   -33184   -23807 
  -47835   -53609   -26014   -12891   -11568    11240    46020    64048 
   56115    25099    -4051    -9755   -21651   -49580   -45979     6667 
   68933    85824    44903     3285   -10520   -35402   -69915   -79444 
  -73300   -71845   -69934   -47245    -8743     9402     -126   -19805 
  -43472   -66039   -69765   -40641     5302    43109    68089    80083 
   73059    60837    62965    61434    44919    29435     3477   -28683 
  -15940    45454    78096    31282   -26632   -13014    26994    16991 
   -8669    -8942   -30551   -73280   -76264   -51240   -42156   -50634 
  -67674   -90697  -105291   -88310   -61433   -66233   -71593   -31882 
   30034    66168    61396    38824    24861    34755    58494    57419 
   27045    29396    90998   129690   111358   101734   104973    81858 
   23253   -56531  -106975  -113336  -118345  -128530  -120051   -97086 
  -92051  -122304  -153742  -157316  -144423  -101368   -14407    62964 
   80904    50669     5794   -18528    -4900    33511    83340   128822 
  144292   129469    97598    63196    62378   102903   142260   139036 
   80906     1588   -44197   -53114   -74484  -116401  -130581   -98388 
  -45642   -17652   -40755   -81148  -118112  -166580  -187957  -154271 
 -117072  -111121  -132451  -153328  -111647     5979   133903   222592 
  265229   248904   193239   167611   185469   177623   105024    13828 
  -55085  -105868  -125710  -105071   -64806   -26743   -19222   -48766 
  -74817   -72083   -64716   -77715   -93802   -98145  -110585  -130162 
 -139455  -124119   -52288    60328   140915   172469   189525   192152 
  164434   112637    62282    49667    76171    92816    64658     9811 
  -41378   -72134   -66266   -33438    -7329   -20656   -90605  -170662 
 -209563  -227225  -228923  -191277  -136586  -100523   -85140   -76103 
  -68119   -60540   -44612   -10390    44270   100444   124835   108315 
   83173    92576   141324   199881   236880   221985   150901    72864 
   49731    75150    79296    44003     9304   -13436   -15998     6091 
    9633   -16409   -27427   -20980   -33515   -71537  -110833  -135869 
 -166058  -208207  -225718  -197638  -137315   -78124   -43866   -26497 
  -41555   -95253  -128783  -120094  -104377   -90167   -81433   -89367 
  -86001   -40555    16209    37430    49477    96392   146875   172431 
  199650   235068   262920   280825   288123   289261   281526   238110 
  149100    45729   -26565   -47800   -41185   -24864     7684    42145 
   56755    44147      635   -50415   -82763  -106467  -125374  -134639 
 -159615  -222619  -296407  -331163  -317440  -276239  -225016  -185580 
 -150090   -92240   -20561    50654    99320   100107    76416    61292 
   57576    50670     7813   -71559  -114327   -73179    11962   102772 
  178509   222444   255071   278048   273847   252648   209123   132152 
   34825   -64346  -144294  -203292  -254527  -275448  -229159  -121485 
   -4739    58720    58511    30528   -10303   -46780   -60724   -82456 
 -120366  -153731  -176014  -160548  -105999   -41820     9931    33326 
   62806   121767   176994   217709   245161   249253   212880   124680 
   42152    14335   -12025   -62289  -103492  -140764  -171239  -181221 
 -184171  -187119  -190485  -178649  -118423    -9018    95264   147866 
  152230   100759     2409   -66359   -68229   -46608   -35576   -34778 
  -37523   -17674    51609   129860   161941   176044   201949   204230 
  152679    47980   -45250   -44744     6423    28007    16289   -20672 
  -60041   -68546   -47918   -15437     9142    27955    48824    47895 
   18148   -18052   -45257   -58010   -59501   -57384   -52833   -42360 
  -34114   -46264   -76455   -79994   -18200    63066    90208    68759 
   33313   -20997   -92450  -155457  -188315  -163706   -82296    -7962 
   14949     5979   -12202   -14905    25882    82397   105324   108696 
  127145   142696   122584    62527    -3535   -32401   -43005   -67614 
  -83231   -58664    13783    89068    92026    37312    17612    53021 
   68959    17587   -74097  -141752  -150716  -146435  -166353  -189279 
 -188485  -115924    26033   117142    98456    41636     -267    -4160 
   40775    82202    92935   107788   111339    61271   -17220   -75038 
 -102417  -105497   -92056   -83614   -81612   -55926       72    44140 
   39737    26383    57068   108391   139661   137295   110797    89892 
   69017    16792   -44437   -49373    17905    88815    91210    34492 
  -33794  -100388  -152289  -165326  -135221   -70356   -29497   -59375 
  -79386   -45015   -35557   -42121     -999    17028   -44421  -100741 
 -104070   -93960   -83347   -65897   -58091   -74440  -100429   -91639 
  -23791    49754    75330    75579    73022    68172    63701    45642 
   13177    -9985    11780    83188   139480   158382   189827   233928 
  257577   259189   234705   166857    78957    23031    -9506   -56668 
 -102878  -137434  -181792  -222392  -237286  -243544  -253025  -249876 
 -220888  -170928  -123483  -102294   -99265   -85777   -54361   -18242 
   15376    44556    62407    70607    87717   125678   180941   233666 
  236758   167293    70380     1933   -19499   -11028    -7308   -20574 
  -36979   -49561   -66850   -89029   -91345   -68779   -53450   -53689 
  -51146   -40585   -32375   -40051   -69163  -107946  -101081   -25335 
   33856    44439    63695    96727   148724   216056   238585   213655 
  165647    81796    -7253   -39033   -18991     2370    10008    -9676 
  -64925  -114910  -137627  -133652   -93884   -49451   -44678   -74351 
 -110843  -143502  -177060  -210211  -226215  -197206  -107202    -4351 
   46371    65801    90575   102805   100750   100091   105267   131959 
  183467   225313   212151   131076    42485    27201    53038    45222 
   24958    12538   -20947   -92850  -190582  -264971  -294505  -286357 
 -238543  -183980  -151794  -115655   -50581    21085    71502   104750 
  131645   169296   227218   281568   315426   318319   265216   164461 
   75922    42426    35654    19587     4799    -8611   -37970   -83112 
 -151322  -239105  -306462  -326922  -303327  -254743  -218290  -198977 
 -153979   -71965     5891    52012    80370   110116   141574   170031 
  181766   153149    90671    43530    55613   114222   161212   173554 
  178719   165392   110417    52874    21922     9528     -265   -38537 
 -109688  -187895  -257133  -295600  -269523  -180735   -83619    -7047 
   56862    77315    52917    57496   105869   119317    48323   -40450 
  -48223   -10054   -21332   -55742   -41269     5651    27749    17297 
   14856    37030    54986    42280     -743   -52878   -91681  -114124 
 -126441  -131668  -127985   -91844   -13468    57906    87428    95663 
   86636    50980    21332    22358    19962     3271    14300    49601 
   72372    82676    73472    20313   -51525   -75425   -32409    20441 
   29465    12279    13235    11186   -39505  -103792  -130422  -124140 
  -83905   -30480   -31288   -78194  -105817  -112671  -119749  -111075 
  -67390    -3028    41238    54071    61175    74098    94922   126198 
  142996   100012    -6342   -80619   -41715    35237    59737    44010 
   15849    13873    60758   100456    74912    -5215   -61155   -43254 
  -19291   -42757   -81221  -121551  -156104  -156232  -128089   -98143 
  -87335   -86954   -44961    48485   126003   141096   116023    91247 
   92674   118023   132985   111576    62826    14527   -15786   -27068 
  -11824    36092    81907    74220    25034   -16146   -45971   -80831 
 -113030  -129169  -134974  -150704  -170109  -166523  -142068  -113321 
  -87759   -73002   -56971   -15257    40586    88624   138978   196398 
  235934   237523   208116   155907    83249    24327    20181    54874 
   73264    46606    -9027   -54846   -62329   -64492  -103216  -128366 
  -92144   -47588   -61173  -126659  -188053  -217073  -186013   -52381 
   80049    76657    24015    -4429   -44718   -19197    76588   107044 
   75641    46985    14426      743    23754    34777    14580    -4504 
   -8446     6924    36115    51729    51594    37735    -6304   -48872 
  -53424   -64131  -113809  -146801  -113625   -44274    -2133     2412 
   23642    74784    84898    10422   -88762  -127318   -90657   -23845 
   16830     5686   -20574   -14395    18652    57535    94709   102872 
   70767    46148    57565    55297      226   -54477   -54959   -24513 
    3883    12533     5328     8522    -5393   -57242   -88009   -82181 
