Origin Time       2021/02/13 23:08:00
Lat.              37.7
Long.             141.8
Depth. (km)       60
Mag.              7.1
Station Code      FKS031
Station Lat.      37.3364
Station Long.     140.8132
Station Height(m) 399
Record Time       2021/02/13 23:08:06
Sampling Freq(Hz) 100Hz
Duration Time(s)  176
Dir.              N-S
Scale Factor      7845(gal)/8223790
Max. Acc. (gal)   296.515
Last Correction   2021/02/13 23:08:06
Memo.             
[...]
   21242    18821    21303    25203    19218    13254    16147    17069 
   16085    19575    21057    21431    23313    23047    23549    23130 
   20133    22829    28439    25091    20174    22855    19846    14077 
   18623    18855    14173    20758    23965    12258     8857    18296 
   18952    16555    21604    22943    20171    20274    22921    23168 
   17856    13810    13059    12938    18200    25162    23944    23295 
   31232    30892    20731    21298    23059    13610    14719    24884 
   25845    26265    19969     8255    14694    20861    15159    17730 
   24313    23876    16335    16781    29147    28632    18782    13744 
    9250    10967    13653     8685    11182    25235    32320    28395 
   29860    32217    18161     6752    18611    29934    24143    24729 
   30033    17780    12077    21168    19606    20534    29546    24241 
   10682     8186    11051     9105    15943    26946    23353    20649 
   21047     8297    -5316    -5552     9369    30036    35590    31133 
   34928    39486    33361    20425    16433    23396    22663    21529 
   25432    17093    12310    17494    14580    19917    31214    19029 
    6725    18414    16583     -184     9884    17076     7261    33131 
   56423    24595     5395    24416    15228    -6389    19575    32522 
    -346    17450    55128    15766   -15422    17475    22468      510 
   16208    27546    20397    44247    58676    39312    34149    25551 
    6519    11149    17173    13012    14840    21251    20470     8464 
   11084    14716    -5833    -5125    17143    11159     6393    29276 
   29281    23199    51952    53727    21670    12151    15410    13412 
   10154    11456    11030    15105    35320    32463    12213    20283 
   25174    13286    17960    21593    20846    27317    10982    14616 
   55166    33070   -13655     7651    26163    -1879    -7658    27378 
   39522    30033    47780    43927     6970    13683    37476    35216 
   44845    44536    17915    24312    38273    11075     -930    12118 
    3354     2890    10702   -13131   -11988    28252    31499    26353 
   39333    10099    -9625    27328    45212    36895    41300    47158 
   33409     6928    -3738   -14253   -29497    -1707    34430    13568 
     861    37993    44782    24414    34504    52909    45763    14895 
   13146    39978    23700    -3310      414      463     3071     8864 
   -3762   -19749    -8496    35456    52097    31193    46716    58853 
   20922    13277    24661      918      745    28950    22157     2199 
   10014    22269    38449    65318    49589     1721    -5202     5580 
    5316    33806    44782     6855    22690    68200    34254   -11699 
   -8274    -8398   -13462     6259    27916    22731    10559     7817 
   14177    42377    50210    24509    22378    22962    16074    30296 
   37813    34649    40373    51705    43380    11529    -7101   -15520 
  -24480   -18550    -4652    12607    36448    39496    26887    41111 
   44558    23449    26469    22638    10920    32913    37150    -9437 
  -23720    22658    25490    -9514    12722    35847     9863    11800 
   45339    38387    14270    23575    36293    40764    30453    -3766 
   -2504    14913      -18     1192    23141    35271    23795    16271 
   46641    40231     -584     6053    20640    19889    27997    31109 
   24316    23488    34811    23738     5105    22007    18203    -8120 
    7642    35171    42948    49959    53488    26588    -4156    12079 
   23604     8414     7604     4020    13342    23330     6720    13952 
   14760   -17257   -14088    25029    43286    36578    33816    28871 
   17660    16310    21471    12452     8442    46176    52672    20588 
   47729    63859    20775   -15805   -35780    -4063    48876    37287 
    2505    16804    45846    20166     2143    18265     2327     5078 
    9651   -21797    -3925    33331    32675    46919    82343    43348 
  -50677   -30206    42302    20737    11546    58068    65304    44631 
   56207    44358   -39309   -52920    16519    16900    14243    57881 
   47931    14625    13207    12930     3121     -872      116     9346 
   35568    39949    25004    30662    19658    -1115    13763    28011 
    9444      392    28262    41334    29884    28706    29639    29732 
   29273    35230    43035    18806   -14809   -10309    19404    28706 
    5359     2710    54665    67830     2122    -1852    47147    18543 
  -22505   -20925    14817    73863    50323    -8554      992    11094 
    9043    18858    15847    23400    58558    61465    18738    21267 
   55572    17551   -39685   -10501    15859   -34994   -18952    62883 
   43355     8900    53670    48898    14042    26202    19797    10957 
   23685    11535     3739    35537    51865    15106     4461    35974 
   12537   -31576   -16588    14092    21043    15210    25929    56532 
   60781    35183    12282    10547    19695    10705     1298    24775 
   47061    18185     2498    32628     4872   -42807     3033    48521 
   15958    13238    34846    -2238      795    74974    76323    14694 
   27210    68081    42201    15450    22117    18042    -1355    -3785 
   19602    -2566   -36761    28213    68061     8333    12587    55476 
    7592   -24764    32142    42472    -4077     -745     9282   -11178 
   -9347    16171    25131     5401     3897    39428    62249    62131 
   54576    35282    26688    40288    37733     9587   -12576   -14293 
    2223     5047    -1968    29805    37669    -4249     5023    35229 
   24273    14955     9726     2735     9706    38271    65151    28158 
  -10935    36649    65901    13182    -3974    36529    28466    -2027 
   24938    46283    25839    22638    36586    29479     2945    -1908 
   26028    44467    34715     1227    -7325    27569    20999    -7229 
    1494    -1960   -11693     1529    10624     9849    24745    47568 
   44297    47591    69060    49519    12465     5692    16726    31047 
   30554    17458    -6187   -19951    20348    43279     6477    -6876 
   16627    41547    27704     -128    15257    16360    38819    74817 
    5792   -33525    21849    31761     7854    15971    30628     7420 
  -17460   -10133     5894    37469    40780    12428    41994    85854 
   77596    64250    39382    -9655    -3342    35482    15130    -6277 
    4329    -2343    -8144   -25668   -30870    22453    28120    -9525 
   41503    93141    39533     9466    40729    16796   -17656     8395 
   25124    14060    20652    22542    14625    45720    61037    29131 
   34179    51624    26727    15345    26886    -1922   -28009    11700 
   28753    -1329      257    10134    -9621   -26541    -6849    19615 
   19394    25878    40221    55834    52613    17980    24362    42871 
   30758    17433    -1733    14824    24112   -11079    23414    84473 
   55431    -2891     9514    46746   -12306   -69561    -7528    41974 
   32745    30835    39523    41485    24764    18014     9192    24240 
   65970    34186    17678    42687    10289    -4139     4078    11838 
   29218    26734    29517      934   -20777    34137    58318    41555 
   60513    50770    10199    29875    19907   -39820   -20926     9636 
    8021    28379    34759     6222   -27167    -5054    46113    22385 
   -4700    48170    62949    15776     5871     8465   -11460    -3273 
   55202    86829    29355     -521    65857    76040     2689    -8533 
   24687     7267    -8382    25236    26572   -22455   -36242   -18135 
   -9477    -1266    -7067    -7069    39784    61834     1213   -20356 
   69107   111411    31220    -4704    58725    60832    12683    32001 
   30717    10548    43371    30700     1472    13066    -5228    -7009 
   17456    -3237    -6373    31757    44807    33417    20907    43430 
   65843     7684   -22115    18341     8487   -18698    -3730    37882 
   33010   -35654     -486    79964    25759   -16915    34813    43166 
   29975    62542    55956    16686    13536    11161    13319    29455 
   21986     1420    10196    31403     1348   -17550    45739    70881 
   -3342   -38337    30393    58634      552     9715    31675   -23693 
  -21660     1148    -5544    25257    22707    11246    68983    76858 
   -2282    18185   102753    62229    16453    31087     6419    -4293 
   24167    36154     9595   -15693   -16308   -18509    19588    46125 
  -21224   -49470    27912    77888    58106    33995     9891     1896 
   13061    18204    59971    55706    -1638    40097    49648   -13269 
   10909    35668    25208    24679    18786    23812    -7801   -12181 
   45666    18777   -13629    36171    34461     5557    12456     6309 
    9215     7777    14015    75362    70680     9814    15776    23307 
   25230    35365      634     6424    60940    44485    10566    34782 
   37597    13158    27191    47995    31133   -11735   -28610    -4212 
     853     4268    22281    15510    34368    43702    11473    19290 
   17517    -9255   -11340    -2716    42932    64507    14539    -6457 
    1455    19462    60386    28221   -15511    41608    41454   -29060 
   -3395    25069    -9289    17784    70731    44467    -4629    15214 
   58648    22661   -18323    27163    45725    30447    46828    30986 
    4409   -16302   -43050   -22445     5682    14303    42192    94149 
  133208    70198   -20510    -5559     8928   -17864   -15689    16713 
   73072    47815   -35028   -17072    13293   -13490    -5871    20187 
   17477    21397    43609    39127    15195    17656    34306    40906 
   47611    31488   -12810    -9948    16972     5171     7088    13598 
     899    31558    78340    59972    21674    37644    62094    51277 
   22947     3508     9185    -4392   -16681    20956    23823    19071 
   61156     6957   -69897    -1756    50982    13684    31657    84982 
   44852   -40409   -34277    19072    -2224   -35068    20506    60207 
   26731     6478     8900    18663    13657    -4144    14035    23845 
    2982    14130    23731   -14611   -12526    30596    18015    12189 
   27888    -8267   -11423    37543    28822     7616    51403    58931 
   17424    39789    68193    40895    31742    62086    62619    15388 
   23600    71045    47266    21883    19699     -483    25798    57663 
   51800    51634    35872    18736    26099    25486     3268    11481 
   57812    38875     5239    50178    50913    -3068    21074    71585 
   28728   -45580   -40586   -14763   -24560    -9999    12378    -1059 
   -2085    21753    22732    16900    20499     -762     4932    53604 
   32279   -33269   -28053   -10671   -31691    -1069    46789     9540 
  -33474    -8070    17381    -7376   -34326    -9011    25763    41239 
   61636    57689    28678     4833   -11495   -10415   -11406     1192 
   55023    55676    -9136   -23210   -11585   -15975    19809    53092 
   35217    30993    75020   105729    71963    36679    44710    41986 
   28528    12349   -22485   -17863    -5983   -30817    10451    60714 
   16750    -7817    30331    53865    49642    67020   100832    79000 
   46365    60997    61622    37389    23660    14688    -5555   -20054 
    9460    52104    29428     4807    80104   111238    22221   -40725 
  -84380  -114357   -52706    14458    26345    26067    19812    22172 
   24652    14928    47842   106718   128314   121200    84555    30160 
    2376    -1553    -8097   -30726   -31642    -7013   -34284   -69003 
  -30960    14258    15349     3726    -3199   -13097     8050    41526 
   -5628   -45284    21041    57105     3883   -13035    35814    53748 
   47347    74637    85733    62924    48217    47263    63483    77473 
   54934    -3902   -58801   -37824    11450   -16312   -32556    12723 
   11583   -22374   -38777   -48945   -39405   -17319    18002    46554 
    8388   -29038     5664    42061    78194   116333    96745    85820 
   93907    52640    38188    58414    34904    19252       40   -55197 
  -53028   -36313   -53701   -35822   -27076   -27068     6754    15369 
   40841   105925   104498    66945    65283    65462    55980    44018 
   53958    81498    61087    30017    42111    55486    80383   119666 
  115477    75435    23467   -35077   -69072   -65229   -55375   -68841 
  -70860   -49050   -28769    11867    37567    32675    49414    49513 
   38388    47024    38642    49304    57323   -17679   -89753   -69101 
  -27534   -23032   -25910   -39954   -69388   -51991    -1224    13648 
   22989    45543    56123    94981   162492   165144   105885    95535 
  106309    57653    20629    36807    43483    28463    40454    83070 
   93667    57528    28273    23410     3908   -49331   -90174   -82934 
  -63690   -63834   -60465   -51148   -49997   -37233   -59404  -123070 
 -113699   -73048   -59668   -22292   -21130   -20094    62490   119808 
  126199   130374   101911    64166    64050    57703    17833     2404 
    9040   -20785   -47972   -18223     3873    -5806    24611    48189 
   26180    64787   129078   129639   139691   147718   117686   119272 
   99677    38392    51305    90458    51705    10142      872   -40374 
  -38877    46638    84501    76887    81052    31700   -58117  -114355 
  -99534   -40567   -26153   -39777   -16544    10411    16410    35533 
   58842    49181    47799    75713    43958   -28123   -20152    22674 
   10326   -28321   -57705   -62081   -46705   -48930   -61848   -65083 
  -80877  -118107  -165483  -181855  -153611  -158565  -174603  -111526 
  -43544   -60079   -73596      322    59599    42897    57073   114153 
  149602   191411   238659   258893   290790   330613   321536   283524 
  264420   264267   247540   197588   141147    69894     -693   -17176 
  -32225   -79263  -107743  -118832  -103329   -60812   -43825   -30419 
   -2759   -11111   -26316     3950    39449    65415   118017   139475 
   81668    24707    -7607   -53233   -85631   -91963  -116716  -160643 
 -130418   -40517   -33444   -56835   -10839     7184    -3570    27018 
   27449    21413    67081    92865   110124   118797    68319    33787 
   27486     1856    -6308   -15195   -29772    18355    96919   148235 
  180242   192267   181500   133143    67606    22059   -30628   -58534 
  -54772   -74422   -51817   -13621   -46549   -70875   -93533  -140024 
 -127082   -98544   -93378   -60320   -23182     2741    38322    64395 
   70764    66025    71196   107308   129520    97900    52726    24844 
  -16883   -73133   -82391   -81234  -127241  -116279     9320   153238 
  197430   126003    78578    94711    95014   120263   155024   135962 
  129681   139572   119022    84959    38731   -10644   -40856   -27680 
   10685     1547   -21077    17591    88923   140898   153910   150002 
  137768   105756    74580    44648    26588    16803    -8213     9192 
   39037   -11063   -69311   -78005   -75951   -59143   -51518   -93305 
 -118431   -71211   -18106   -12386    -7079    20214    17887    -6403 
  -12290   -15655    -5289     4981   -24510   -39374   -45512   -90612 
 -106118   -86888  -104938  -141254  -139523   -78710    16684    84470 
  105116   111704   105232    85995    75351    77967   108530   142033 
  159066   187679   165793    65464   -24093   -58831   -42240   -46570 
 -107202   -98863   -37989   -53080   -61437   -41516   -87504   -83174 
    6250    27946    -2143     -356    41469    96699   110184    88203 
   78300   102969   138176   139171   119286    82725    34075    31714 
   63359    65504    49368    76045   124389   112707    67945    35070 
    2092     5744    23465   -10478   -32281     2458    17759     7501 
   41434    60936   -10751   -44604    37002    91219    81504   110091 
  150263   138402   117170    98990    44795   -16904   -27504      801 
   -3257   -46481   -46936   -15269   -34707   -69138   -68701   -61705 
  -51382   -41229   -38592   -29405   -44876   -85135   -80453   -42635 
  -36319   -36431     4808    40161    29019    25501    40217    49832 
   55046    34426    28675    66663   109669   125656    67000   -11566 
  -39528   -40447    20902    97750    86829    33066   -16135   -38557 
  -31843   -36798   -28277    10168    37705     1576   -71516   -68085 
  -36016   -27247    56054   155911   181398   188689   182773   109328 
    6216   -13971    22495     8332   -21902   -32096   -15001    42961 
   38848   -24767   -52724  -106735  -140867   -64366   -13155   -33211 
  -32579   -10134    11588     7132   -22648     1652    82123   128591 
  137459   132680    96453    65875    47979    15705    16524    31896 
  -17975   -69147    -7751    68731    26939    -6585    33089    31892 
   -3466   -40205   -52197   -30693   -44505   -24761    62849    90601 
   72846    73048    67429    61391    47830    15762    11345    47511 
   66532    59510    58522    21328   -52401   -72879   -16815    51833 
   76206    68154    41488     7940    21628    53468    32327    18424 
   64706    90761    90579   106417    74564    23255    32304    50877 
   39212    -5197   -62071   -61954   -19241    10299    14407    -5080 
    4908    40949    38881    18381    10887    16542     -345   -48273 
  -48452   -23483   -38809   -44666   -19539    12069    33990     8189 
  -44273   -35862    34105    77334    64708    26366   -13153   -28960 
  -17136    -2830    -7730   -19014     1564    38502    35112    32772 
   90094   110700    50334    29436    42168    -2118   -28320    19751 
   80060   120964   101347    50198    60451    52780   -30138   -56789 
   10899    70093    69935    48656    46049    29546    -6573      295 
   31868    22270   -10181    -1969    55283    92827    69827    46996 
   41794    -1250    -7033    47954     6678   -85656   -89972   -58988 
  -51802   -79409   -91300   -52752   -49449   -43511    25166    75559 
  113044   140672   116895    95918   101991    91743    42988   -10390 
  -21914   -11958   -17911     -189    68646   100835    65246    31276 
    5350   -24619   -34032     -537    41862     7071   -67524   -69865 
  -36350   -29651    -6654    33939    41300    30553    25974     4878 
   -4216    38668    65564    57551    78502    98941    85657    64804 
   43085    23787    22837    30530    -2529   -36751    -9710    -9941 
  -41031      924    65267    90941   102917    72057   -16282   -76801 
  -48914   -19010   -73106  -106741   -47691     8784    53869    94776 
   72492    55961    87566    88142    61581    67768    63254      905 
   -9784    51587    40907     -193    28719    40344     1414    -8507 
   25736    56767    52451    42867    39422     4936   -17240    -7865 
  -44340   -73583   -41840   -41746   -32514    30454    41832    20267 
   26943    39399    54747    61712    55038    43120    15727     7075 
   56166    88333    38767   -31147   -80653   -81060   -14438    33551 
   51241    69323    43522    31563    54800     -739   -76967   -55094 
    4742    59263   114550   132613   123184   103210    49616   -14920 
  -44155   -33633   -12707    11774    35951    17352   -12186    -2434 
   11340    34149    62866    61052    55152    35083   -22316   -56783 
  -43818   -14866    36833    86260    82339    53987    41820    38511 
   41914    55421    50630    17608   -15338   -37926   -33772    -7215 
    9998    40500    71676    64752    56150    33774    -8741    -5462 
   17382    18515      791   -33331   -24316    13914    10713    13373 
   44236    35387    -1972     -753    26476    37959    29654     6038 
