Origin Time       2021/02/13 23:08:00
Lat.              37.7
Long.             141.8
Depth. (km)       60
Mag.              7.1
Station Code      FKS008
Station Lat.      37.4363
Station Long.     140.5668
Station Height(m) 430
Record Time       2021/02/13 23:08:08
Sampling Freq(Hz) 100Hz
Duration Time(s)  300
Dir.              N-S
Scale Factor      7845(gal)/8223790
Max. Acc. (gal)   430.744
Last Correction   2021/02/13 23:08:08
Memo.             
[...]
   25054    43688    73641    63355     -893   -32860     -765     2608 
  -19014    12349    26114     5906    29497    34487     3684    18804 
   44527    13558   -28012   -16228    13095    22923    38061    68694 
   83164    46079     8032     9309    -3095   -18597   -15704   -15774 
    4918    29533    37867    48423    37933    19912     8059   -16816 
  -20972   -13813   -18160     6658    46853    58658    39069    18283 
   38144    50647     4957    -6525    25223     2737    -4621    27082 
    5868     2432    49095    46341     1769    -3654    13374    -2293 
   -1526    16100     7125     4072     8087    42669    75037    31315 
    3603    18717     4514    -6245    11880    19263      486      214 
   29087    43499    44074    35494    20321    -5339   -48011   -36128 
   11909    10372    15530    34307    33088    65925    65281    -4814 
  -13099    -4355   -48555   -10470    62826    33041    21192    59540 
   25785    -2265    33949    28057     3106    14939     6739      438 
   21995    13814     2176    19797    30669    31756    14665    -9420 
   -2250    13009    26306    36968    26482    18997     7468   -17167 
   -9319    17918    19130    12723    28351    26505   -17922    -6042 
   58136    31313    -5151    51466    62073    19417    25504    16217 
  -24178     7092    63150    16534   -38705     3380    24946      334 
    9864    12243    -7048    -7279    17536    56467    42257     -166 
   26658    25901   -23147    18399    56752    14616    18152    47252 
   31025     8170    -8996   -17130     1294    31920    28904    20055 
   61466    48767   -10590    35784    67582   -24371   -60872   -21425 
  -51020   -48423    46669    62591    42639    81818    61295    -4355 
  -26779   -39559    -5973    64976    56072    29659    35970     -622 
   -3267    38438     7673    -5304    71570    72033   -16047   -17536 
   -1074   -25758    45079    80393    -9913   -34306   -10782    -7172 
   10677    29940    58004    56587    39523    16696   -42044   -33647 
   -3460    15233    88620    36221   -61615    30996    78857   -16058 
   -2496    64044    17755   -11291    29087     8490   -36015     4739 
   41844     -139     1425    60254    57801     9894    14378    54184 
   13151   -29747    19219    15888   -10596    25127    21026    20321 
   46801    14850    10963    40734    14274     1850   -19327   -56417 
   13641    54534    -4417    18226    49481    -2192     -252    48621 
   41764    -2149   -13047    15865    16453     9028    52428    76557 
   40886    17801    24973    -7676   -38284    15862    22353   -52251 
  -14526    57889     3623    -1755    62267    11901    -4059    69396 
   23496   -30684    32937    55081    18628    37713    67724    21913 
  -27249   -28615   -30339    -3543    39594    42735    31649    14673 
  -15367   -28328    24123    62307    -1386    -3603    59225    20466 
  -15796    13655    17045    18505    47434    44435     6116    10141 
   38168    27576     5887    -3370    -2428    -1090     5277    22168 
   11973      113    12486    15931    16827    20412    33615    41361 
   12545   -11254    -3883    11680    43209    61183    -8182   -30295 
   79147    76889    18873    78675    24896   -85221      851    69977 
   -4417   -16919    20736    -4217       18    52465    48432    10226 
     753   -18041   -53982   -35461    17019    17008     9702    72369 
   91868    23433    24622    40369    -4251    10339    15350   -34875 
   -8966    45999    28125    22472    78699    65188   -21317   -31198 
  -38045   -94192   -17568    77537    32618    54990    85207    12783 
   26256    23836   -28343    32169    44965    16551    43723   -22534 
  -48749    56619    53875   -15849    -5425    -6068    -8349    43644 
   62008    38511    16555    -7946     4517    38785    14862   -33305 
  -23202     8247    17035    41557    55219    25286    22837    33970 
    1671     7437    53981    25705   -32709   -15681    17072    21631 
   45516    38007     1223    11935    18108      681   -18524   -28240 
   10754    20625     5158    55301    55250      834    40490    70602 
    9504     6374    23361   -48189   -34001    81012    84295    42086 
   33211   -36261   -69043    12374    48041     6227    -1370    -6084 
  -19278    19473    20260   -20164     4102    23367    27920    58020 
   50095    51985    60797    19894    31387    51965   -16684   -46323 
  -18378   -30646   -20818    45814    60261    10821    29192    80590 
   42234     9452    -5352   -86645   -84947    23836    55159    33326 
   61203    69461    16752    21119    65260    40076    35198    56394 
    6895   -46961   -61358   -37570    26262    69630    60239    -1506 
  -41530    -8884     2934      834    31573    35407     6374   -14557 
   12226    44404    40822    66027    59701    16428    41744    20961 
  -40228    18142    48204   -17308    17693    69456     4241   -24196 
   -9320   -38072   -24156     5238   -10944    22324    65016    21714 
    7280    36038    12013    20884    29222   -35513   -28721    27915 
   37316    43270    54310    72096    82755    62703    17585   -29317 
  -37643   -38809   -28998    30596    67552    54965    28564    -1536 
  -30387   -54392     8086   101290    44454   -13108    10037   -71525 
  -77364    75080    75849    20251    74800    34337   -54392   -14017 
    7620   -10515   101008   146518    12178     6180    44636  -105930 
 -132568    39847    63987    26057   111443   102226   -16380    -5016 
   27668   -42811    -9167    71042     -348   -14943    58662    -6095 
  -29593    69120    42007    -2933    45767    14493   -43690   -17620 
   -2818   -31055    21104    83482   -30468   -77868    79813    94290 
   -5101    52474    94949    -7836    -5521   102278    31999   -90852 
  -66330    -4982    48219    28219    -4666    79679    66352   -14702 
   26488    18310   -27472    14319    32093    -6366   -24385     7207 
   46714    57654    37461   -28310   -38052    52793    79848    46881 
   42338     5316   -23247   -11416    -8370     3561     -904    38416 
  106934    31033   -31302    35411    15137   -40408      565   -20271 
  -74935     6993    34217   -39145    34318    92411    34118    66367 
   63400   -12209    22959    65720    49632    40219   -13134   -74549 
  -62155   -10870    62791    88591    36828    60991    67922   -47117 
  -42182    16204   -39657    -6108    53292   -31908   -48550    29991 
   10218    -7389    80451   106976    35445    45346    75496   -36050 
 -102837   -11034    34766     6925    47029    79471     2432     3572 
   85737     9952   -20934    67761   -32381   -90224    32350     -981 
  -56458    35667    59687    -2976     1857    68189    48976    15299 
   88631    45223   -84392   -17367    76744    31799    27615    81556 
   29625   -69800   -20927    70789    26973   -20679     3711    11156 
  -15041   -11130    60000    52373    -8031    43201    26893   -38074 
    2316   -19410   -35503    36848    59886    70807    69369    45396 
   45011    12783   -38962   -27400    57940    51688   -48593    22596 
   68851   -68642    17159   158032     3443   -60805    19982   -34294 
  -49499    18566    -4549   -50198   -16198    59077    92005    58347 
   31529    31286    -9223   -43542    27930   109795    50163   -15651 
   42456    15322   -54257    31461    52639    -5155    53465    84115 
   10107   -40305   -28298   -30565   -32571    24273    21841     -473 
   54318    35387   -23977     -174    43644    71413    79321    45936 
  -19446   -43627    -6340    49455    84164    -3731   -71502    19080 
   12711   -39019    52909    69406    10446    45314    38896   -54861 
  -67066    -2434    24266    58349    79856   -16067   -37203    66251 
   34561    30069   130891    56920   -14304    16362   -39460   -59479 
    -742    18854    -9925    -4665    51757    26208   -19310    27480 
   62610    38176     -712   -33806   -59555   -54989      808    69731 
   82595    53968    76334    89102    32994    38735    55867   -24560 
  -49712    -5911   -21014   -40154   -29215   -15384    16949    51511 
   63026    31943   -10241     5617    40629    24034     5860    28431 
   14632   -26554     7740    72102    77842    46519    23175    32204 
   45144    21093    -6876    -4108     5625   -24503   -31714    32248 
    6982   -33868    49473    22642   -44471    29867    35623    38731 
  117297    44718   -41392     1696   -14661   -31962    45744    65071 
    3936     1695    78158    52872   -44319    22913    63941   -57191 
  -42417    41967   -15250   -28296    52159    55509    12434    13297 
   27079      253   -52224   -11911    63383    -5285   -15515   116922 
   73441   -11553    87708    74703   -29647    44594    55468   -96770 
  -64700    57403   -19831   -42271    76740    30751   -31028    85392 
   84067   -23380     2961   -10504   -58774    26368    31349   -49204 
   21478   123912    84707    27874    55004    22536   -51174     9077 
   50588   -25074   -29038    15727     4357    21888    71964    44026 
  -16062     8968    28647   -45598   -71274   -11280     2274   -13895 
   11769    34383    30095    60625   104741    50228     4459    83489 
   63975   -43321     5354    35502   -70488   -56620    74124    89590 
   34200    53107    63764    -1898   -30485     2400     2924   -35831 
  -61938   -51615   -29532   -19562     7701    37812    22940   -14659 
     303    51221    24402     7410    55367     1098   -33328    29826 
    -918    20985   151027   132237    53412    73616    64609    10686 
   42438    98876    43792   -20717     5020     2178   -35159   -27727 
  -43139   -69238   -46722   -74568   -97482    11507    50573   -29293 
  -23696     2006    -9979    25066    79938    97916    56371    23274 
   49238    58283    62133   101248   111269   114517   129297    57159 
  -11318    28634    14913   -29544    19912    11982   -44541   -41081 
  -82206  -119724   -90971   -79897   -24641    72382    90045    42673 
    3014    -1865    13042    35460    37251     4070    -4611    16807 
   34506    45528    73985   113105    93421    96437   112189     8082 
  -15317    17307  -106443   -90599    57678   -18234   -89820      714 
  -34183  -114470   -31891    26230   -27876   -58163   -67549  -102691 
 -108126    -6617   117221   117142    91474   108853    96404   119859 
  157613   140576   141733    98043     8883    14357      907   -43618 
   34971    33826  -110215  -113985   -51441   -87473   -65512     2677 
  -38711   -76204   -42298   -55399   -52456    34507    64270     8433 
  -10071    29802    27492   -22837    60889   218235   202932   176180 
  223021   121878     1350   -11803   -49204   -48172    26318    51089 
   28125    12252    -2948   -45847   -78035   -24220    40925    42426 
   15511   -55445   -94356   -41461   -27685   -34584    15263    56610 
   91168   139477   173040   140634     6527  -125221  -177634  -200186 
 -199014  -145257   -44181    63243   146241   198363   195947   192655 
  231793   226226   215639   246294   165354    37760    41715    18566 
 -101432   -90396    -4041   -56151   -75413    33596    -9722  -162540 
 -161913  -147814  -222621  -239199  -196862  -135240   -74254    -6297 
  106849    98809   -32067   -10933    84520    63695    42554    76252 
   81862    43195    18374    57566   102645   108198   109750   104815 
   80987    27970   -17119    34757    84792    32232    31152    73313 
   -6882   -78333   -26823   -21505   -65784   -32451   -28378   -94427 
 -123545  -154491  -148177   -33021    63323   138678   213819   170892 
  103347   105417    94514    92057    98165    87411   108027    92223 
   50410    80557    66731     8329    50186    64559   -26225   -71417 
  -83921  -119624  -126667  -145561  -178518  -134137   -27089    84113 
  192888   263929   215913    97081    63481    54399   -66676  -138260 
  -43803    -5532   -75482   -55888    14531    23637    40899    80287 
   69732    31654    17521   -19084   -49123     5994     5470   -66781 
   -5404   102038   118678   129300   114552    22545   -72210   -99164 
 -105051  -138731  -110182   -48760   -58395   -12252   131973   205421 
  190771   170900   136240    71551   -14805   -94747  -131256  -133261 
 -115528  -112321   -92512    32622   128268    91176   110889   218493 
  195265    55429    22952    12306  -131291  -144942    57734   138753 
   59487    20484   -49878  -185171  -191393   -80325   -15369    -5146 
   10685    59181    77480    40998    29458    36852    73967   135082 
  125217   122087   166182   159813   131151    65766   -26786   -83818 
 -207943  -277592  -131935   -55895  -107752   -49813   -12027   -90759 
  -85198    14432    84063   119133   135085   131645   121005   137065 
  146904    64741    21006    88712    63439    12468    58644     8733 
  -75535   -23026    12064   -59779  -124637  -130793  -152166  -196284 
 -148564   -15913    51603    18427    40072   127226    88666    27305 
  116090   144931    54471    80993   170829   100299   -57832  -110918 
 -110340  -154575  -125101     7256    62132    40844    82823   151544 
  209027   295637   358661   359414   313189   224073   100762   -69346 
 -241902  -316869  -257829  -144074  -110775  -135341  -125078  -112287 
  -81776    19288   119064   144067   121910    93981    68851    76378 
  135511   191162   197000   141829     5297  -132205  -127650   -14021 
   52567    -1251  -112468  -197375  -291429  -381654  -365376  -277686 
 -167644     8456   234076   420633   467453   368146   251935   209499 
  186254   103482      278   -80322  -184175  -271532  -269204  -210628 
 -112267    22014   163398   304410   382089   325830   193576    99612 
   55343   -14786  -107235  -131302   -83583   -67271   -98362   -98923 
  -65020    14258   148660   178348    51169   -54993   -99873  -110976 
  -23376    97380   149966   163205   148290   102721   100340   173664 
  224351   175471    80815     8325   -59148  -140328  -157030  -108286 
 -116569  -160469  -167364  -159916  -115233   -39096    -2648   -29165 
 -113397  -177877  -128474   -43649   -24325    20835   172180   298389 
  266467   180482   174278   131241   -16853   -56775    32584    -3142 
 -106671   -35536    82233    75720   108951   230100   227813    85074 
   -7017    -6303   -25353   -87467  -126504  -138599  -147079  -121236 
  -41850    16675    -6007   -38465   -24387    -2623   -22157   -96155 
 -129321   -50778    29708    39189    44315    69904    76242    76458 
   96155   122157   178792   232170   205723   177854   178699   125115 
   52843   -29362  -122979  -114262   -49932   -51089   -71437   -59690 
  -10295    19464   -24487     5321    92427   -21181  -172782  -116401 
  -80423  -112648   -63369   -67865  -139428  -136779   -77120     5027 
   98685   171462   199012   226648   307120   317495   196686   120241 
  131611   105884    33836   -28215   -58071   -73704  -106780  -104571 
  -27436    30905    -4151   -73820   -97865  -104367  -127353  -102720 
  -49086   -32377    17903    91045    54272   -41011   -20881   110111 
  189758   187327   210228   224305   135243    -7450  -131939  -183817 
 -156998  -152475  -149970   -52940    61218   116892   156232   180496 
  134950    43218     6158    11836   -35600  -123796  -182525  -193378 
 -170579  -108039    25230   206388   340309   366997   280713   128552 
   37523    23272   -12746      916   121585   121456   -73349  -152544 
  -51997   -44537  -107925   -79798   -60575   -91752   -63880   -18580 
   -4430    61454   138446   132862   105867   114804   126482    78776 
  -29701  -114771  -188017  -236277  -138566   -22808    -3708   113373 
  270143   232773   150314   172444   143364    20767   -62895   -75068 
  -72231   -95000  -131542  -143758  -124999   -97514   -83864   -23456 
  138821   245790   189436   112514    69958   -29928  -180362  -235160 
  -73727   134855   140815    62365    60231    12835   -68249   -34142 
   64079   150192   188176   104727   -23079   -55447   -22189     4731 
   32044    49890    29323    13026    45569    53711   -32651  -123194 
 -129289  -122447  -150284  -134724   -32881    92654   139955    94257 
   69627    83170    39437    33729   135899   128664     6790     8012 
   41686   -69344  -185592  -175177  -111620   -35182    74656   165950 
  241606   308184   234231    80468    72563   139977   102559    11620 
  -46392   -93114  -127275  -104336   -38686    -4762   -35560   -87694 
  -97276   -32753    42268    43217    46026    98668    27465  -184158 
 -282603  -214915  -148425  -107546   -22964    80869   135727   138834 
  142558   160212   203958   286256   311855   236799   171711   152690 
   98215   -19349  -132899  -161646   -93565      380    57195    87011 
   43281  -105502  -194368  -203932  -272587  -272014  -138878   -69269 
  -82127   -77260   -44563    37029   149651   193449   184796   223165 
  250994   189888   131256   195740   319123   275543    41102  -142848 
 -164234   -89376    45196   182254   220160   128772   -66201  -261418 
 -292856  -198468  -150030  -131654   -82017   -68909   -97534   -64466 
    9211   -22711   -90988    12650   196546   242913   198139   178627 
  154251   107724    79039    40385   -28566   -55813   -26385     3395 
   67829   184266   217977   105000   -16136   -29519     1784   -12901 
  -48093   -82896  -151657  -218378  -224048  -185382  -134794   -70843 
   -7878    32595    82603   123167    98625    96676   160269   172741 
  157501   197017   160068   -37315  -225884  -260004  -198065  -127869 
    8672   244512   416136   392081   234480    77699   -25909  -134478 
 -205533  -119442    11094   -22076  -154172  -163529   -87640   -93256 
  -57929   108847   213707   190097   111195    14812   -58961  -141704 
 -204148  -134323   -15387    11691    15858   109223   225980   238111 
  160677    90479    41327   -39012  -145939  -146678    40447   181604 
   79336   -11387    58695    19171   -99523    -2810   106583    -2601 
  -38904    27533   -92435  -179818   -17702    72914    42267   107261 
  129801    65969    50969    11979     7769    89044     6563  -156478 
  -95280    12818    -9961    53654   198987   158120   -40369  -152112 
 -106910   -37215   -58986   -69901     2533    -8463   -43947    87299 
  197001   146724    82327    60093    53366    20128   -19853    20355 
   58637    10141   -40032   -38364    -6770     6237    -9886    -3326 
   24004    29118    27907    67803    98605    35067   -54237   -84569 
  -69492     8158   115141   134531    82651    62010    45242   -20332 
  -57159   -35650   -45385   -62068   -10860    44118    39987     3504 
    2112    59910    97930    87963    87983    76488   -15886  -114150 
  -78628    30227    90844    99589    43837   -26577   -16293    -7365 
  -55185   -16636    86849    59019   -31951   -16846     5823   -62503 
  -92368   -15040    51522    77132   115781    81622   -15483    -2473 
   31630   -29690     9140   133529   131085    80338    48937   -28428 
  -76185   -37446    19197    13957   -38931   -42056   -34989   -81814 
  -49157    91874   171830   168582   161223   113310    21751   -21594 
  -42925  -115268  -130901   -48454   -32508   -64746   -28611   -34488 
  -74359    20370   113410    63039    44478    84792    47395   -33077 
  -79122   -47754    65126   164671   187527   126366    -5714   -91922 
