Origin Time       2021/02/13 23:08:00
Lat.              37.7
Long.             141.8
Depth. (km)       60
Mag.              7.1
Station Code      FKS006
Station Lat.      37.5031
Station Long.     140.7588
Station Height(m) 472
Record Time       2021/02/13 23:08:06
Sampling Freq(Hz) 100Hz
Duration Time(s)  193
Dir.              E-W
Scale Factor      7845(gal)/8223790
Max. Acc. (gal)   525.503
Last Correction   2021/02/13 23:08:06
Memo.             
[...]
   84242    97677    59166    -9370   -76199  -100149   -64091    -9382 
   21138    27625    17909     1236    -9224   -16051   -22149   -24425 
  -22192    -7199     8472    -1696   -21444   -35267   -45910   -24232 
   24008    47463    32432    -6164   -35336   -25597     4318    25713 
   26935     6288   -17005   -18770     2859    16538   -10081   -60994 
  -97640   -96669   -49455    22118    81240   106010    75936    -4716 
  -72445   -68500    -9347    47671    61331    25995   -27255   -55383 
  -36391     2232    -1860   -58521  -102782   -88808   -27633    40136 
   53939      673   -56116   -57569    17907   118871   129539    40462 
  -45308   -84171   -64573    25405    94362    62874   -11071   -66313 
  -73336   -19462    20602    -3148   -45052   -79369   -86437   -41916 
   12102    34149    27148      881   -11167    10000    33407    34365 
   10810   -22493   -45819   -50248   -19132    25843    28428     1360 
  -20310   -45279   -62741   -57279   -45829   -33832    -4256    39044 
   54878    35950    16852    -2424   -12409    24925    87235   113591 
   80707     -248   -90467  -129793   -99767   -40169    15597    43298 
   15033   -42583   -76245   -82150   -63791   -24545     2272     9864 
   12222    30069    85320   122320    88750     9717   -89957  -135047 
  -58266    36297    40922     1395   -34148   -61200   -39830    22651 
   39997   -14528   -78804   -96159   -46778    50811   119281    97302 
   24633   -37635   -67290   -45185     1030    11587     2409     1868 
  -15726   -36944   -34419   -28686   -16002    13991    26735     2438 
  -44227   -77483   -56227     2770    45018    52990    37338    11661 
  -10389   -15720    -8523    -8490     1235    29088    22385   -30786 
  -78958   -89687   -56524     3528    53578    58336     9271   -41856 
  -53573   -43191   -21597    -2737     8256    35340    57261    45604 
   20927     2733   -10222   -29949   -37396    -3693    19197   -13498 
  -36076    -2764    37365    48828    28278   -35345  -116209  -147231 
  -87767    16910    75273    62761    13090   -37956   -42036    15202 
   72763    63067   -11896   -82111   -75695     2101    64339    53600 
    -187   -54429   -69203    -5290    87134   103756    36904   -52817 
 -141394  -179311  -102161    24966   101949   131963   103470   -10106 
 -115372  -108716   -22635    44096    30103   -37967   -75188   -40301 
   43841   112315    95242    -2658  -113355  -171308  -145393   -60439 
   14940    35469    30994    38828    43502    36170    36306    37620 
   13277   -11495     9080    43939    34673   -14759   -58405   -69376 
  -54702   -35889   -41945   -64309   -64584   -47791   -15287    30890 
   42668    25921     9715    -8351    12187    58023    52427    12352 
  -24709   -50468   -24486    26812    35469    17383   -16681   -67455 
  -77731   -47244   -34366   -39299   -36923   -25404    -2150    29069 
   39336    29689    37611    44174    19953     6274    18500    28984 
   51815    74328    33327   -66665  -159501  -184265  -116490   -20329 
   20094     6234   -30701   -61123   -36367    33579    83316    77684 
   13644   -59796   -53320    44019   140697   158556    89727   -36714 
 -153187  -178413  -106413   -12661    40009    51344    34653    -4425 
  -42496   -71298  -101603  -114843   -91303   -32640    56458   126527 
  116864    50140   -22704   -71231   -49986    39583   103037    66600 
  -19075   -67645   -70569   -31008    48281    87320    31731   -72621 
 -161335  -158379   -56755    24354    54191    83327    68949     6497 
  -24792     -839    36633    46840    52655    80075    75620    -5508 
 -114137  -165115  -147872  -105291   -38445    38533    61950    14052 
  -59664   -91336   -55374   -16366     3264    54846   107897   110031 
   97632    90917    51783   -18463   -58017   -28534    20656    28336 
    6454   -30843   -86537  -128934  -135089  -113023   -80626   -57404 
  -55988   -67436   -51580    -4993    43927    96404   111208    64945 
   39838    62376    83247   102729   112750    56961   -55463  -122395 
  -95096   -39812   -12548   -16417   -37072   -40575   -40331   -57400 
  -59686   -63782   -63622    -1572    78301   121047   124175    60324 
  -39262   -95858   -85650   -11389    78023   100989    42653   -65543 
 -147268   -97823    43753   109628    42071   -66569  -134731  -118964 
   -9792    95642   120561    80731   -21188  -114550   -90983     6227 
   66576    57946     4271   -49947   -57797    -5233    57177    45382 
  -30276   -73693   -70467   -50723   -10644     6666   -16862   -21654 
  -18063   -40744   -44045   -17599     8054    38105    46938    16409 
   -3936    -3520    -6200     2859    27079    34975    10652   -14918 
  -13653    -1047    11508     1553   -57866  -111397   -98869   -42882 
   10774    15218   -33245   -52708    -3434    64566   119117   123994 
   49682   -40433   -83701   -56864    44104   115666    68539   -33633 
 -129512  -177138  -105791    15961    60119    36891   -29130  -125020 
 -138001   -23625    89711   127954   124688    57655   -60139   -97926 
  -25362    57273    95149    63909   -26635   -92518   -91805   -49555 
   -7256    -9246   -37625   -56758   -71185   -49929     7086    16228 
  -29644   -50720   -20804    21640    51528    76288    86054    65639 
   23538   -22368   -21852    38396    61013     9477   -26307   -17537 
    -575    15169     8745   -39449  -101471  -134233  -140996  -139529 
 -100037   -25967    34483    82332   107754    80410    40981    20812 
    3915     6523    26036    28443    17687     4716   -16367   -43987 
  -57294   -36062    -5177    -4317   -40975   -92048  -104311   -52752 
   24534    75563    62722     8437   -15776    12568    58162    67383 
   15585   -44344   -51486   -11146    43663    72819    50580     9660 
  -31919   -85657  -112189   -97862   -75610   -40617      718    18148 
   15044    12395    13497     5609    -5013    -3223     9514    42738 
  103150   154847   139098    37399   -96834  -183702  -171151   -77083 
    9057    32462    29826    26685     6912    -8769    -6262   -14520 
  -36809   -66441   -91979   -62776    22264    92194   116132    92583 
   12978   -68573   -79641   -32186    18759    36440    16281   -10353 
  -16575     -839    19226     4988   -46654   -92765  -116922  -109723 
  -51715    20895    52471    44328    19881    -5294   -17474   -23024 
  -29201   -26852   -18987   -21367   -27498    -4027    42940    73894 
   92578    83030     8738   -66191   -54000    29365   103615   112980 
   56178   -51648  -160292  -170326   -76285     1310    10025    -5628 
  -39533   -83018   -70677     4742    66244    77963    73175    58297 
   22215    11009    29334    -2266   -56677   -29042    37781    50199 
   26287   -21304   -93301  -109779   -56347   -23693   -19651    -3335 
   -2253    -8738    17856    22648   -40817  -123894  -177839  -178430 
 -134696   -91561   -72349   -74655   -77202   -49558     6227    71697 
  127151   141643   122250   111545   123597   160016   213760   239252 
  209364   141579    66154    28945    28791      461   -72897  -163682 
 -245305  -274414  -251195  -221630  -200898  -189260  -188948  -189217 
 -179992  -145480   -60119    68763   179097   224301   234682   243318 
  236482   223449   220272   197907   148890    98552    50962     7018 
  -41578  -116409  -197932  -238821  -210895  -152680  -151771  -180647 
 -148541   -90298   -31455    66349   149004   166525   152875   115119 
   69287    73114   118674   153180   158573   122871    49999   -19977 
  -64324   -84508   -96800  -128366  -161485  -152709  -100718   -36143 
     981    -2108   -20610   -42769   -49742   -18832    24910    60913 
   87932    96213    96935    85814    37540   -31395   -93881  -139218 
 -154113  -139907  -119658  -122288  -146620  -165418  -176474  -169537 
 -124533   -68455   -14384    49607    95202   110408   120698   129042 
  139180   164053   187429   197588   201496   186370   143347    81465 
     961   -91318  -179481  -243851  -251206  -198157  -129146   -85822 
  -79888   -90211   -90180   -75936   -38070    16232    47008    56243 
   67589    70352    55844    33755    27797    48996    74325    96962 
  115915    92715    12880   -72242  -110926   -95253   -43498    -2228 
   -2232    -6319     6617    11550     5771   -22665   -93883  -172274 
 -214509  -212118  -173599  -125432   -84955   -52829   -29153     2421 
   51241    96832   126700   147075   150001   128846   121667   154809 
  179311   163854   140551    94379     1067   -77562  -128488  -208901 
 -281221  -289465  -269379  -234639  -175389  -137222  -122014   -71541 
   13895   109973   213119   289947   321835   336322   337740   321854 
  317227   331398   345435   354375   328838   225826    75589   -40737 
 -101343  -171196  -282943  -367390  -381917  -371529  -369303  -371457 
 -362651  -326077  -281804  -239801  -168366   -87600   -40720   -23303 
  -34263   -59219   -49702     6489    78371   138083   177782   195844 
  182422   143972   114766   113001   117242   114408   116993   104733 
   54278    11568    11508    17856     7156   -20367   -75941  -137077 
 -172731  -194701  -205567  -204647  -220197  -239253  -211623  -135488 
  -47374    29033    95476   161223   217355   255741   282216   288156 
  253620   170667    56030   -49063  -117906  -155653  -164916  -152907 
 -155819  -190572  -229687  -255518  -266448  -252809  -215534  -164639 
 -111742   -66698   -20568    33529    82539   122800   172554   236526 
  288658   314172   323616   323374   317290   295162   236227   157330 
   84294    16098   -46338   -94244  -120814  -143444  -187562  -241471 
 -293538  -343336  -375713  -385198  -360672  -299045  -244576  -188335 
  -45469   162554   317559   407083   479298   513349   494631   461216 
  445699   446559   445651   438666   421133   381071   310811   198126 
   52297   -97471  -240389  -364733  -448191  -491698  -518269  -526971 
 -505224  -481079  -473056  -459804  -446748  -456305  -474851  -459831 
 -383281  -263370  -141913   -51116     8741    53410    69674    62820 
   85855   151833   220486   265871   294135   325135   364930   401768 
  426185   430401   408419   367306   323711   292570   281952   290453 
  312576   349139   384266   358720   239368   102384    17874   -65140 
 -160108  -189006  -152280  -120931  -139936  -201199  -262229  -329011 
 -412993  -473455  -508707  -540049  -551981  -544140  -539588  -548298 
 -554692  -529935  -459738  -345114  -212456  -104711   -12253   100835 
  214223   299438   371142   443164   501757   525702   525226   532980 
  541995   531230   515536   481287   383950   234037    74196   -68068 
 -180091  -276288  -352213  -371673  -363094  -386688  -432434  -464589 
 -462009  -419149  -371306  -344007  -308121  -244518  -159723   -40131 
   98348   206365   296296   396300   463834   452266   379480   289530 
  195417    97395    17448   -35145   -77917  -116237  -146580  -179401 
 -210699  -221983  -223797  -226184  -201484  -130204   -22584    95519 
  172964   195467   220808   262280   280153   278482   266089   227388 
  175806   129331    73620     8306   -46647   -99269  -152061  -172562 
 -161960  -159152  -171109  -182831  -190162  -182780  -151081  -103559 
  -49160     4117    39424    48608    44420    52280    85421   130832 
  177056   221194   251147   251255   205399   120114    42361   -11340 
  -82355  -160416  -176962  -153310  -172916  -211449  -214284  -230008 
 -282663  -322909  -323118  -280978  -232441  -201483  -137200   -31101 
   62834   134881   193931   241759   295617   352459   388631   396528 
  375310   311607   209143   115398    70789    69442    85324    89664 
   59289     5240   -38072   -75571  -135004  -204952  -261118  -291987 
 -302216  -320144  -347940  -353829  -323397  -261989  -196256  -167972 
 -176049  -177488  -150529  -104139   -60304   -36490   -17474    15607 
   55051    97811   146395   201294   265960   324298   359924   380862 
  379694   330284   247459   182302   143201    94895    37735     1281 
  -19722   -43498   -59038   -61281   -76582  -117190  -164806  -212117 
 -261886  -299195  -303542  -268172  -201259  -125620   -75743   -65838 
  -68947   -59512   -44304   -30427    -2517    47754   106470   158163 
  178989   169052   193008   269060   316691   295866   240509   163534 
   60173   -33160   -71104   -68504   -65028   -61121   -56317   -77066 
 -128092  -190726  -259691  -325274  -360768  -361102  -351741  -341890 
 -293815  -175185   -28588    73313   120908   154660   185774   195463 
  185199   171293   174163   213950   281124   331371   317833   237172 
  112085   -22048   -74960   -24148     6130   -35483   -77954  -116075 
 -169179  -176493  -123060  -103443  -152687  -186351  -159876  -107308 
  -49974    -4444     6150    -3235    11951    62486    98581    97690 
  102529   118366   123341   137867   167813   190011   193644   176065 
  137951    77074     -700   -64435   -89905   -93866  -109981  -143772 
 -189410  -249295  -300666  -310065  -275467  -220060  -171088  -134982 
  -99046   -58949   -12156    37951    69221    76212    74887    71255 
   77245   115028   172762   222671   276231   335839   356647   315620 
  240325   170306   116664    60474    -2886   -62025  -111122  -142917 
 -165788  -197127  -221705  -225185  -232168  -252229  -259812  -248780 
 -237190  -228487  -222859  -245926  -304487  -344285  -333286  -308838 
 -271632  -177484   -45102    63381   133810   210506   317559   422019 
  500246   543449   530109   465497   377847   286042   211902   164864 
  117765    64242    35336    24757     4801   -22704   -57543  -106263 
 -160979  -211785  -244636  -239881  -207019  -179112  -161033  -122496 
  -51316    12897    51105    96049   135221   129833    96045    50363 
  -10982   -75280  -136543  -188873  -222038  -250261  -270774  -262565 
 -245269  -240992  -231333  -198219  -152034  -111149   -72783   -13890 
   69564   142734   192662   254045   332371   400743   442948   440317 
  390275   302437   173550    41758   -10084    24093    53145    35974 
    9489   -24826   -98730  -190409  -266789  -359334  -453481  -453863 
 -354960  -257424  -219978  -196325  -129975   -44872    17425    48967 
   70096   111403   148408   140715   109437    82993    77727   113984 
  175514   240250   308666   340376   267065   107364   -28112  -103324 
 -176366  -241895  -268263  -254168  -182154  -101457   -81827   -89202 
  -86509   -84570   -99634  -162515  -260770  -308699  -253041  -133913 
  -19822    73666   170158   256072   302217   323519   344360   363372 
  371942   366056   329718   248968   141642    36360   -39193   -76200 
  -99616  -115418  -111856   -94887   -72787   -69520  -111962  -180237 
 -239900  -291043  -342970  -380247  -384802  -357482  -294375  -188740 
  -63744    39351    98248   118902   122933   129415   143194   148289 
  125597    92835    84472   103904   133604   155541   138177    55239 
  -40078   -59474   -16059    33453    84180   112255    88213    37511 
  -17558   -71439  -109545  -132796  -152656  -164173  -157293  -123844 
  -59610    10982    59503    93653   126750   146007   126152    69402 
   34364    68733   128308   155910   162599   161840   149381   132823 
   98400    26823   -60131  -130466  -177778  -210335  -231399  -241313 
 -248175  -247723  -226972  -192549  -147101   -86252   -31025    -2631 
   13270    35376    45496    23726      558    19469    70123   105714 
  108206    92520    68377    48174    52502    69385    71802    65245 
   53229    20872   -18496   -40609   -54801   -69955   -67200   -50773 
  -49675   -51937   -37683   -25508   -13069     9721    14189    -5755 
  -32729   -74515  -121293  -129185   -78231     -928    53234    71614 
   72466    56054    16637   -18898   -30773   -34870   -31915   -16124 
  -11506   -22461   -25392   -17454   -10663   -18412   -43286   -62807 
  -64176   -41763    16609    81619   118909   140579   153345   155877 
  159835   156390   129591    88495    42052   -13855   -76204  -130701 
 -166862  -193499  -213918  -208496  -176585  -133374   -79799   -42688 
  -54689   -80468   -87131   -93021   -86124   -48524    -7935    25216 
   71274   116785   125454   112990   127809   175483   226721   259141 
  256150   206649   125687    44975   -14011   -44988   -61858   -81631 
  -86375   -63823   -58523   -98531  -147002  -179494  -209009  -226284 
 -193915  -113298   -61565   -89418  -138272  -149065  -119956   -61963 
  -14238     5152    35343    76539    93715    99634   118952   142886 
  160023   165406   146111    92427    22701   -20746   -23666   -10003 
   12484    44305    55350    28560    -7032   -25624   -35438   -56123 
  -81110   -73581   -43101   -45777   -62117   -42516   -31167   -65927 
  -95831   -86397   -54939   -14975    26146    55892    74524    89256 
   92553    82081    65502    43185    29535    39903    47754    20914 
  -26214   -64849   -95916  -126503  -143924  -138578  -119877  -100369 
  -76580   -38362     -909     9119     -361    -1528     4737     2292 
   -1561     4804    18129    44119    83596   101440    73870    30900 
   15445    35199    55476    50874    43283    46577    37646      -66 
  -58754  -111267  -129951  -129629  -144377  -162010  -161859  -161997 
 -164268  -137353   -68512    12761    59583    70444    85777   115067 
  143298   163786   171023   162811   138191   108711    94074    88754 
   78908    59259    15103   -55705  -125945  -178413  -209385  -206037 
 -178438  -159332  -150558  -132501   -96572   -41292    17093    55574 
   73812    77047    69538    64983    63879    49358    19264    -7896 
  -14207     7873    43367    64270    70471    72172    56404    25678 
    7157     1629   -10056   -21593   -12567    19410    52180    53075 
   24880     -576   -31091   -85614  -134163  -144026  -123655  -101578 
  -98737  -112014  -123723  -121729   -93931   -42996    -5273     3175 
    4695     3333     -495    18886    67193   117329   144267   140582 
  108233    51085    -7569   -39506   -57159   -81345  -100161  -108764 
 -115744  -109485   -87176   -66715   -42612   -10928     2154     3376 
   25486    56347    75656    96314   120949   130851   114727    78484 
   36327    -6561   -44535   -62619   -62409   -55560   -42036   -23174 
    1412    25288    20233   -11726   -37308   -58070   -85426  -101048 
  -88700   -41767    32236    83895    79651    52620    18362   -39588 
  -82885   -70706   -35533      869    61458   119442   119556    76002 
   32066    -5003   -38932   -56079   -53342   -61303   -72189   -36406 
   21589    41578    24154   -12949   -58441   -94070  -102546   -68126 
   -7350    39505    56227    51826    57065    82100    83671    50292 
   14990   -23191   -56764   -54413   -32817   -14748    -2983   -22663 
  -73035  -117031  -146831  -165424  -148841   -91019   -25469    18948 
   33004    28730    32201    49468    77646   115273   141717   137308 
  106316    74588    68783    81035    88240    80711    49361     8167 
  -11114   -18684   -42384   -72450   -96083  -125620  -159120  -175973 
 -168366  -140084  -101575   -67018   -43664   -34819   -33239   -25161 
  -13575     1436    32236    69619    92084    94783    84358    75546 
   74977    59821    20544   -16536   -40554   -51818   -39402   -13379 
    1985    -7838   -39722   -60417   -53866   -59270   -89920   -88638 
