Origin Time       2021/02/13 23:08:00
Lat.              37.7
Long.             141.8
Depth. (km)       60
Mag.              7.1
Station Code      FKS018
Station Lat.      37.3961
Station Long.     140.3622
Station Height(m) 245
Record Time       2021/02/13 23:08:11
Sampling Freq(Hz) 100Hz
Duration Time(s)  180
Dir.              U-D
Scale Factor      7845(gal)/8223790
Max. Acc. (gal)   138.892
Last Correction   2021/02/13 23:08:11
Memo.             
[...]
   11426    11427    11430    11433    11429    11426    11426    11429 
   11431    11433    11427    11423    11423    11423    11427    11437 
   11438    11433    11427    11422    11422    11427    11431    11429 
   11422    11419    11423    11426    11426    11427    11430    11429 
   11427    11430    11429    11423    11423    11429    11434    11435 
   11431    11425    11421    11421    11427    11433    11427    11425 
   11430    11431    11427    11421    11419    11423    11430    11437 
   11438    11434    11426    11418    11419    11426    11434    11434 
   11427    11422    11422    11427    11433    11435    11435    11429 
   11421    11416    11421    11423    11423    11427    11435    11441 
   11434    11423    11421    11421    11429    11434    11433    11430 
   11423    11416    11421    11429    11433    11434    11433    11427 
   11425    11425    11426    11427    11426    11423    11427    11429 
   11422    11422    11427    11434    11434    11426    11421    11421 
   11422    11425    11430    11426    11426    11433    11430    11426 
   11429    11430    11426    11425    11425    11426    11425    11422 
   11423    11427    11427    11431    11434    11431    11430    11434 
   11437    11430    11418    11414    11416    11421    11427    11433 
   11433    11431    11427    11426    11423    11419    11423    11430 
   11431    11427    11419    11419    11431    11439    11437    11429 
   11422    11416    11421    11425    11427    11427    11423    11418 
   11423    11431    11433    11429    11425    11426    11433    11435 
   11430    11423    11422    11422    11419    11418    11421    11423 
   11426    11433    11435    11434    11426    11419    11418    11422 
   11430    11438    11435    11427    11421    11415    11421    11429 
   11429    11426    11427    11429    11429    11426    11422    11423 
   11427    11434    11438    11434    11427    11419    11415    11419 
   11422    11426    11430    11431    11431    11431    11427    11421 
   11419    11426    11434    11434    11430    11427    11421    11415 
   11419    11426    11431    11433    11429    11427    11429    11426 
   11426    11426    11426    11427    11429    11430    11429    11427 
   11430    11431    11426    11421    11425    11429    11433    11433 
   11426    11416    11419    11431    11435    11430    11425    11421 
   11423    11431    11434    11427    11421    11421    11425    11434 
   11441    11430    11414    11412    11426    11437    11434    11425 
   11421    11425    11433    11434    11430    11421    11416    11422 
   11427    11434    11439    11430    11421    11419    11423    11429 
   11429    11426    11430    11438    11434    11425    11421    11422 
   11426    11431    11431    11423    11416    11418    11423    11426 
   11430    11435    11434    11429    11429    11427    11426    11423 
   11423    11425    11426    11425    11421    11422    11429    11433 
   11434    11431    11425    11419    11419    11427    11434    11426 
   11419    11426    11434    11435    11430    11425    11419    11421 
   11427    11431    11427    11423    11426    11433    11430    11419 
   11414    11422    11434    11437    11431    11425    11423    11426 
   11429    11427    11423    11422    11425    11430    11431    11425 
   11418    11421    11429    11434    11433    11427    11425    11423 
   11422    11429    11433    11430    11425    11422    11425    11427 
   11426    11423    11423    11423    11427    11435    11439    11431 
   11421    11418    11421    11421    11419    11422    11431    11437 
   11431    11425    11419    11418    11423    11430    11430    11427 
   11425    11426    11429    11426    11425    11426    11425    11423 
   11426    11426    11429    11433    11433    11429    11422    11421 
   11429    11434    11430    11426    11425    11426    11427    11429 
   11431    11430    11425    11421    11426    11430    11429    11427 
   11425    11421    11421    11425    11426    11429    11431    11430 
   11429    11429    11426    11425    11426    11427    11430    11429 
   11423    11416    11419    11430    11438    11435    11430    11429 
   11431    11433    11429    11425    11422    11422    11423    11426 
   11427    11430    11429    11423    11421    11425    11430    11433 
   11430    11427    11425    11426    11430    11433    11433    11427 
   11421    11422    11427    11427    11423    11423    11427    11429 
   11431    11434    11430    11425    11421    11422    11423    11427 
   11430    11430    11425    11421    11426    11435    11438    11431 
   11425    11423    11425    11430    11431    11429    11431    11433 
   11426    11423    11423    11421    11423    11425    11421    11423 
   11431    11434    11430    11427    11427    11423    11423    11427 
   11430    11429    11429    11430    11430    11429    11426    11429 
   11431    11433    11430    11422    11419    11419    11426    11430 
   11429    11429    11429    11430    11434    11427    11418    11419 
   11425    11427    11430    11429    11423    11419    11422    11426 
   11431    11434    11429    11422    11423    11431    11434    11433 
   11427    11419    11415    11421    11429    11431    11427    11425 
   11426    11423    11422    11427    11431    11429    11430    11437 
   11431    11425    11427    11427    11426    11427    11422    11418 
   11423    11427    11426    11426    11426    11427    11429    11430 
   11430    11430    11429    11426    11423    11426    11429    11431 
   11429    11423    11422    11427    11429    11425    11421    11423 
   11433    11435    11429    11425    11426    11422    11425    11433 
   11430    11419    11418    11421    11427    11435    11435    11429 
   11426    11427    11429    11429    11425    11423    11425    11425 
   11426    11429    11429    11430    11430    11429    11425    11421 
   11421    11425    11433    11434    11429    11429    11430    11427 
   11425    11425    11423    11423    11423    11423    11425    11429 
   11437    11439    11431    11425    11422    11422    11426    11430 
   11431    11429    11425    11423    11423    11423    11426    11429 
   11427    11426    11425    11425    11429    11434    11433    11427 
   11423    11422    11423    11426    11427    11425    11423    11426 
   11429    11433    11433    11430    11427    11426    11426    11425 
   11422    11423    11426    11429    11426    11419    11418    11422 
   11427    11433    11437    11437    11437    11433    11421    11416 
   11425    11430    11427    11426    11425    11423    11427    11426 
   11422    11418    11416    11414    11406    11400    11404    11406 
   11400    11398    11399    11403    11387    11322    11241    11198 
   11190    11203    11256    11321    11434    11686    11920    11870 
   11585    11207    10860    10800    10982    11113    11314    11701 
   11923    11896    11811    11549    11152    10751    10046     9313 
    9406    10254    11198    12060    13108    14261    14516    13311 
   11232     9194     8592     9695    10937    12023    13077    13228 
   13481    14559    14596    12846     9597     5572     4306     7234 
   10223    10999    11291    11931    13575    15878    15647    12402 
    8870     5910     4260     4980     6151     6461     8124    11233 
   12866    13127    12903    10748     8081     7119     6370     6114 
    7619     8479     9292    13328    17220    16939    15103    15183 
   18989    23835    23457    19516    16336    11322     4839     1055 
     892     4396     9598    14659    21235    26188    25114    21255 
   16777    11840     9886    10179    10015    12641    19934    27286 
   30132    26627    17437     7491      149    -5838    -9963   -10909 
   -7431     2474    14705    22603    26023    27314    28243    31166 
   32250    24948    13255     2830    -6465   -11406   -11029   -10512 
  -10964    -9589    -4187     5483    13239    13146    11078    12976 
   15751    19973    28291    35757    35919    28420    18684     8139 
   -6253   -18411   -21064   -14974    -1655    12700    23134    33218 
   40297    38655    30753    18796     6515      812    -1402    -2851 
    3715    12850    10863     3985     2589     1088    -3844   -10511 
  -18843   -21675   -19032   -18939   -12633     4634    18634    28876 
   41083    45296    41746    37447    25253     8410    -4282   -17560 
  -23711   -12918     3090    17957    33107    42415    46206    49117 
   47008    35796    19345     3030   -10207   -15865   -10729      220 
   11740    25420    38816    45904    46668    41380    32501    26172 
   19703     5667   -16765   -36073   -35361   -18844     -224    20860 
   37242    44501    53951    58428    46849    29508    14073     -305 
  -10200   -12325   -10211    -4696     8046    27849    47154    48297 
   24399    -4600   -20139   -24740   -20061    -2490    11171     8787 
    8114    16313    19444    11832     1945     2200    13845    22507 
   22843    29843    45077    48363    33907    11859   -12077   -27953 
  -26773   -17949    -5486    15858    30874    28487    22144    18187 
   15678    14720     5690    -7029    -6041    -2718   -10390   -10303 
    3180    10359     2249   -13250   -17128    -3820     6547     5624 
     615    -3769     5656    28506    39199    35618    35446    37638 
   38624    39101    35803    29299    20125     6937    -9281   -22310 
  -28830   -29872   -14057    16891    36672    41072    38574    23044 
    1333   -14733   -29556   -36269   -22509     -608    15920    29839 
   35251    26002    15762     7813    -6446   -19884   -30299   -32676 
   -3624    44950    71429    68844    53117    35776    26811    18785 
    5366     7338    24915    29497    18420     6203    -3312    -6523 
   -1599     6239    15493    24460    22219    11113     5834     1190 
   -5227      456    17253    38074    52828    47815    32042    16799 
     930    -8421    -8695    -8249    -7776    -4118     5088    24085 
   45457    59259    63375    50793    30399    17886     2682   -17825 
  -32436   -41295   -39873   -26941    -8379    18511    42580    47152 
   40491    33809    26605    16168     2604    -4560    -1363     8237 
   25899    38751    37341    40606    47699    42075    28590     8761 
  -13846   -23328   -21830   -24088   -30831   -28745   -12286    11811 
   35676    46168    44270    43305    29193    -4760   -29785   -34458 
  -29862   -19703    -3399    19589    39035    39560    31359    32082 
   29003     9880    -8745   -21701   -33967   -27859    -4487    10358 
   21898    38635    43785    35779    21327     2747    -5112    -2003 
   -4677    -7226     -824    -1522   -10779    -9478    -3789    -7024 
   -7732     3954    22755    39780    48768    54363    62445    58132 
   31800     6161    -6673    -9922     5084    20054    14705    11431 
   10517    -2700    -8380    -6866   -18671   -29945   -22874    -5351 
   15516    34219    32274    15184    16988    33091    36030    34191 
   36936    32738    19472      418   -19645   -23623    -9794     3908 
   25405    62086    81915    70302    49970    36856    32910    32989 
   29633    21918    11137    -4364   -27166   -47290   -49216   -36217 
  -14297     6482     9622     9822    20983    27093    25034    20657 
    9896    -4799   -16470   -22176   -19404    -9157     3692    19519 
   39409    56519    66258    64984    45058    14862    -5023   -12096 
  -21004   -29079   -11477    30730    65385    77637    73489    59634 
   38927     6496   -33011   -55620   -49756   -27880    -3024    11645 
   10670    12364    18959    12980     4032     7535    15047    14551 
    4399   -11159   -26122   -41347   -55192   -42774    -2390    27973 
   46624    73282    89232    81055    62113    36494    10476    -9872 
  -35060   -54371   -47941   -29099   -12488    10633    44933    69195 
   64673    48536    37508    25755    10241   -13895   -44562   -59078 
  -48211   -27886    -5140    29857    63551    65184    45045    31216 
   23769    15757     2490   -10087    -8433    -1279     4240    16908 
   36532    54021    56241    42237    25494     7519   -12587   -28995 
  -38080   -31121   -11118     2316     5297     9848    21082    33304 
   37906    23950     -893    -1981    24316    43224    38288    16843 
  -10106   -35367   -52490   -44868    -7318    29057    37678    35317 
   46352    56417    37500     8868     4518    14157    18700    13957 
    5354     6539    14123    19147    13829   -11526   -31765   -25145 
  -10590     4140    15777    15869    21432    33419    31047    25370 
   21011     2874    -5471    10150    17119     8360     6643    14246 
   22023    31341    43330    49850    40486    19572     6230      571 
   -6272    -9155    -6381     3515    15304    28250    54946    72404 
   60820    38718     5728   -35742   -65495   -80846   -78165   -52509 
  -10507    38645    80092   104382   114536   109787    84966    43262 
    4170   -14399   -21830   -36130   -56802   -64353   -46535   -20402 
    3233    36072    72199    89279    84217    60971    19641   -16164 
  -29986   -37412   -46122   -49975   -37624    -9892    20503    60122 
   97622    97563    61411    11334   -41014   -77275   -85279   -68558 
  -29392    19876    57442    76796    86846    91021    83452    61074 
   25029   -12379   -43565   -75438  -100665  -112399  -103110   -62006 
  -11619    38568   101958   151663   157018   126667    76497    18314 
  -32791   -72666   -95187   -79718   -38542    -6181    25790    66652 
   86416    82480    79785    70579    39451    -4760   -38907   -46025 
  -42010   -37436   -20572      318    20295    40185    45819    34317 
   13950    -3283   -15167   -29515   -38726   -38765   -31063   -11179 
   18320    56648    90416    99253    91281    73248    43679    17379 
    4027     5620    16671    21448    17915    12795     8661     3551 
  -10227   -26894   -18037    17510    30964     9112   -12318   -26866 
  -36347   -31846   -22036    -6820    22265    47304    48269    35696 
   13319   -28063   -57198   -47047   -19948    10733    35078    40753 
   53563    76723    75465    48971    20795     7670     4375    -6524 
  -11627     5042    21463    19765    13959    11060     4368       -9 
   -1979    -3696    12328    42111    52034    37033    20245     9545 
    1391    -7904   -22310   -34728   -37158   -36720   -33956   -10463 
   31595    62247    74097    78239    70367    52654    37588    23228 
    3672   -20218   -41611   -50029   -35927     -425    31433    52848 
   79419    81571    47366    20532   -12340   -72378  -101675   -83677 
  -62137   -33336    10885    48435    82294   104356    96431    84119 
   67822    19249   -29181   -46728   -62043   -82827   -91876   -84967 
  -47399    15261    69819   111615   141052   138561   106060    69452 
   35970    -5027   -48074   -75870   -73494   -41751    -7576    10255 
   20449    29277    33574    44093    58486    42206     1117   -25458 
  -45693   -64763   -57107   -42600   -36437    -3117    44280    72940 
   97033   101844    74205    51556    37534    10093   -23618   -53423 
  -71786   -67182   -36744    11858    49503    51356    45372    55507 
   54654    39644    32175    22194     2091   -16551   -21419    -9217 
    5961    22532    48249    69438    62305    17112   -31553   -40497 
  -26979   -17151    -3943     1491      318    18638    39546    53667 
   76928    84635    63903    35727     4861   -27135   -50770   -64696 
  -66827   -42095    11697    63699    74726    45354    17949     3204 
  -18755   -41864   -56147   -48374    -6673    38487    65959    87628 
   92481    73974    55298    37004     6388   -23257   -46633   -68250 
  -64033   -27353     3060    13096    28452    55825    81110    97039 
   88234    49831     9603   -28597   -77464  -103694   -86621   -60421 
  -32610    15786    63001    85149    83982    58691    21716    -9579 
  -25428   -17301    -1818    11527    38205    68092    83268    75706 
   32898   -20301   -37596   -25817   -15876    -8340     -171     4966 
   12204    17645    13690    11713    15585    10696     6805    16487 
   12835   -11028   -28514   -35229   -29525    -8361     6678     5921 
    3368     5705    11198    14084    16518    29123    40196    43722 
   55281    61497    49516    39467    26946     2731     2604    24547 
   25307    24771    37017    27874    15253    17111     2188   -22296 
  -33984   -43915   -55737   -63587   -52593    -1235    59564    75670 
   57518    36266    12320    -4329    -2516      901    -3566     -895 
    7735     6319     5391    13448    12403     6274    19125    41062 
   54619    67509    61514    23413    -1818     3022     7161    11037 
   33512    50360    29417    -3978   -21474   -31205   -33099   -28007 
  -26431   -25195   -17012    -9013   -10176    -2712    23899    48172 
   62525    60636    35239    19079    27684    32000    30099    37203 
   27932    -9706   -26453    -8671    -3248   -17277   -28229   -23238 
    5921    31909    34304    40370    55992    59869    52502    40394 
   25535     8654   -17317   -39715   -33377   -11199    -8109   -24551 
  -30460   -21583   -14995     6386    54768    93214   108113   113001 
   91363    44408     -747   -35703   -51759   -50101   -43769   -30267 
  -15354    -5952     8429    31278    45809    34909    15441     9606 
   11550     8324    -6062   -12164     -342      121    -4904    18319 
   46912    43146    29027    26019    16097     2752    -4105    -6887 
    7908    32433    36146    19261     9444    17886    26080    16524 
    1763     8445    19476     4703   -10142    -4853     5860    10547 
   -5641   -33700   -34317    -5977    11476    13008    12987     -263 
   -4791    18719    30979    30561    41045    41177    27468    23404 
   28867    36081    31317     -170   -25045   -13270     1368    -5621 
  -19862   -21818     3168    36853    46352    33075    18029     6251 
  -15199   -41986   -52535   -38824    -2818    33489    45430    45139 
   48296    43560    20372      -66     6347    19357    13444     3684 
   11475    30009    43656    49342    39569    16079     6265    13095 
   21851    37138    45990    31380    10959    -5823   -26981   -36840 
  -22643   -13259   -29405   -43416   -27193     8646    37767    55051 
   66344    60943    31703    -2907   -18604   -19492   -20764   -13759 
     662     5935     4280     4264    20181    59406    83893    70545 
   54646    45185    22667    -1880   -12309    -7492    -6430   -15849 
   -7618     9915     8843    10276    32890    51862    43627    12660 
  -23025   -47609   -57226   -50572   -27575      456    25135    39637 
   41671    42481    38634    24656    14088    12271    19171    25836 
    9012   -18177   -15712     7345    10346     3518    21477    52631 
   70555    64948    41598    20968    -1189   -31625   -47664   -42434 
  -22080    10416    31384    28788    30510    44127    44911    34060 
   23166     9146    -9057   -29046   -37211   -23334    -1003    12320 
    9520     4214    17836    34743    31637    24201    22854    22975 
   27238    20649    -2199   -13258     -704    12879     3979   -23735 
  -47892   -46319   -12039    39864    84489    99015    76932    28648 
