Origin Time       2021/02/13 23:08:00
Lat.              37.7
Long.             141.8
Depth. (km)       60
Mag.              7.1
Station Code      FKS002
Station Lat.      37.8449
Station Long.     140.6013
Station Height(m) 42
Record Time       2021/02/13 23:08:07
Sampling Freq(Hz) 100Hz
Duration Time(s)  300
Dir.              E-W
Scale Factor      7845(gal)/8223790
Max. Acc. (gal)   493.624
Last Correction   2021/02/13 23:08:07
Memo.             
[...]
  -87346   -48737     4530    34932    18663    -4564     7709    29583 
   22627   -22809   -69317   -65614   -33168   -11593     4635     5728 
    4687    42203    68264    16780   -66657   -93545   -51667    -8901 
   18183    60598    67174     3589   -57931   -69411   -44612     -184 
   46372    64920    19175   -61630   -79243   -27769    12987    31864 
   37677    15712    -6629    -4507    -1128   -29215   -67433   -53600 
  -13431   -21649   -45090   -29269    -7511    10899    51314    72017 
   41162    -5194   -36856   -44810   -36108   -16039     8681     -784 
  -22373     -658    18941     3303   -18099   -37615   -31785    -2253 
    -279   -27831   -46429   -29265    15358    49060    63115    59768 
   21936   -30113   -61163   -77280   -74256   -21610    52421    68682 
   17127   -31614   -20424    38307    56501   -18519   -96583   -95928 
  -55424    -1865    59250    76647    42368     4571   -16097   -30028 
  -49951   -46712     8228    53545    35725   -20568   -69468   -56778 
   14848    63992    30534   -58641  -101218   -46440    42561    83498 
   31199   -59316   -75720   -35884   -14256     2956     5817   -21797 
   -4588    49653    30123   -59784  -130130  -114930   -22500    40544 
   12928   -57188   -75753     9532    95400    80696     3213   -97133 
 -144487   -60192    42399    43220    10905    10304    16657    11141 
  -32668  -108411  -114223   -23172    50051    45206    -4239   -38595 
  -12145    14813   -25335   -66455   -65010   -58164   -19695    59421 
  116310   127022    74617   -28863  -108639  -145002  -141215   -69012 
   34365    91845    85193    25142   -57114   -73404      533    50453 
    9830   -61360   -86825   -25321    58742    50494   -19966   -46372 
  -20542    12960    39033    47673    47150    66951    53347   -32652 
  -88719   -87265   -87463   -57126    -7550    17167    56033    84223 
   64328    46877    24900   -34003   -74416   -54256   -30964   -46724 
  -51428   -13117    41426    64026    32417     -472    -4793     -664 
    7688    -4249   -32463   -38955   -47719   -67896   -64955   -37103 
   21193    94946   110621    41111   -57923  -123406  -110509   -36683 
    3279     6403    44486    68616    24630   -39837   -76621   -54747 
   -6384    -2675   -16407   -16339   -25745   -12966    19572     6247 
  -26599     -926    68578    97881    44228   -50101   -92036   -44464 
   29555    72490    62533    -9556   -91696  -112398   -52483    56519 
  128204    92595    -6845   -67562   -57435   -49041   -80250   -76468 
  -15734    39970    67365    48851      162    -3060    23699    14980 
  -11088   -45081  -102892  -121544   -48824    43438    55247    -4203 
  -27900    16136    22458   -36720   -59422   -52473   -86529  -103477 
  -62376    -2087    66985   110570   111878    88824     5428   -93154 
  -98005   -53670   -47146   -59339   -54280   -16569    37030    42634 
  -17157   -65352   -31029    32263    28468   -26973   -73399   -86171 
  -45141    42329    91465    33338   -29010     7452    43186    -2783 
  -68559   -77992    -5965    65101    44953    -7160   -12830    10505 
   32258    25884   -27895   -74414   -46338    18879    47274    23923 
  -19045   -23407    -1672   -22077   -61468   -99172  -145727  -117428 
   -1660    76534    80755    49407   -11435   -41231    12210    47383 
  -17339   -86213   -74285   -31000   -24340   -34703     5258    59053 
   37322    -8329     7669    42209    18908   -45577   -72195   -47237 
  -21346     6203    56714    52215   -66307  -172903  -141955   -16692 
   87095    82015    -2083   -38734    20353    77431    31758   -68688 
 -127890  -120549   -40821    61823   112082   105397    45693   -36761 
  -73934   -68952   -50423   -11707    20132    11352   -19353   -43305 
  -28630    27228    56702    45538    38653     1555   -65288   -39046 
   74950    93162   -19872  -117883  -129779   -41397   111780   163391 
   55246   -80851  -140341   -91045    11369    45978   -10193   -58222 
  -31687     6775    -1480   -16032   -28620   -50915   -30055    17574 
    6917   -28810   -14685     9898    -4328   -42051   -78601   -90074 
  -69431    -4918   109098   175676   113976    -2342   -95698  -159934 
 -175369  -122578   -18419    93417   148103   103138     -167   -68639 
  -55656     7645    43514    13452   -22415   -27870   -30067   -15604 
   -4761   -31958   -28390    15593    31780    32076    21998   -17253 
  -52465   -67115   -52232    13599    62156     9579   -66285   -48590 
   22994    65477    66557    14787   -48338   -22898    47791    40965 
  -16236   -51371   -66329   -37017    25699    22094   -38896   -28856 
   69376   112857    13559  -116615  -134100   -48624    35924    50750 
  -21234  -137794  -147330     7078   129784    81369   -60693  -162368 
 -114361    42418   109036     8954  -131475  -177542   -88635    64064 
  159626   146591    55314   -27333   -36019    -1888    17759    -2721 
  -36313   -19410    30300    24798   -38006   -85788   -82351   -42044 
  -23392   -36733     -687    67790    67786    27378    26114    39753 
    1248   -65307   -71813   -28979     2744    22578    20768   -10077 
  -46947   -66810   -36223    30593    55736    17409   -11111    18068 
   55358    43170   -20032   -89291   -86246    -2528    67848    59724 
  -25718  -117871  -104224     -562    71543    61090   -16479   -91577 
  -56384    48853    69606    22337     5324   -17554   -57928   -66946 
  -73942   -62671    21328    80887    30145   -35224   -26995    12005 
    6922   -44363   -85402   -74961   -26882   -12982   -44167   -54850 
  -46238   -12577    63668    92723    40637     3631    10943       94 
  -35334   -62931   -71616   -24991    54687    76900    50571    16664 
  -19062    -3890    43729    23404   -56708  -125518  -148354  -107779 
  -32378    23161    40039    38500    51684    65650    46862     7902 
  -36632   -63157   -61547   -72963   -61385    23724    94717    71876 
  -13130   -98845  -140319  -104984     1098    82622    64380    23161 
   24613     8206   -21398    -2334    -4305   -68056   -83451   -24078 
   27687    40363    23997     9229     9956    -8487   -48940   -56408 
  -12738     5580   -17536    10507    58045    27545   -45052   -95377 
  -87889   -12325    46826    14246   -46701   -33142    37204    66536 
   32791   -42245  -126449  -112986    -3955    63891    71956    23070 
  -87511  -126188   -47725    55021   122450    81596   -39402   -77437 
   -7574    53341    39070   -15468   -20706    38152    68249    22239 
  -49351   -78486   -43375    -2249    -1756    -5505     3701     5486 
   28097    84566    83357    -9661   -84808  -101448  -111518  -117447 
  -82683    11084    92913    77773    13271   -24085   -25008   -14747 
  -42685  -105907  -128926   -58598    64461   112426    37054   -53811 
  -64751    -3796    53036    51325    19159   -19477   -60691   -65673 
  -23006     1062   -48921   -94981   -30952    82541   132084   106402 
   42010   -12128   -43544   -81500   -95033   -43695    26655    48107 
   37952    65709    92448    17605  -107018  -143374  -104998   -89710 
  -53396    50936   108328    89235    71244    12550   -75910   -62985 
   17235    23947   -37023   -70313   -39922     5148   -13059   -65584 
  -50122     1166     8986    -4820   -41503   -91885   -53185    57485 
   98189    74866    56189    -9864   -96040   -72708     -862   -22627 
  -80234   -52436    55904   134343    98644    18351   -15723   -32213 
  -57331   -76594   -86526   -69268   -24385    39742   121026   150687 
   75922   -40486  -107032   -83196   -16785    -6142   -59043   -81795 
  -19190    72327   104233    69280     9142   -43833   -54970   -45095 
  -74440  -124795  -131295   -55996    90143   182121    94797   -82938 
 -169904  -118368   -12285    38318    16638    -3175    18350    49446 
   43374   -28183  -126435  -130103   -33281    22890    29542    39924 
   14723    -8791    16348    46562    73499    73552    26322      513 
   12938    19071     7946   -24803   -61403   -72837   -56093    -3192 
   50452    21609   -58564   -57649    32911    79165     9412  -114967 
 -192358  -153025   -35633    32521     2774   -67451  -102199   -55561 
   31588    48770   -42012  -131152  -129182   -82648   -31712    18333 
   31396    21539    31704    31259    -6643   -34195   -24140    -3262 
   43540   106369    80505    -4731    -4391    57306    83982    66006 
    7892   -54853   -37193    51819    96955    76901    38331   -42223 
 -118303   -84802     1509    35646    27591    -5454   -49805   -54006 
  -21780     9653    33278    44776    44172     4129   -84396  -128985 
  -92718   -46661     7865    68013    30063   -84763  -121281   -55279 
   35094    86628    61371    -1165   -47490   -65796   -39934    -6470 
  -24464   -50156   -18559    43825    66793    34017    14570    36472 
   41877    22064   -24108  -115620  -154075   -62005    60080    96653 
   57068    14569   -27738   -91875  -105768   -38523    28273    65306 
   88650    53196   -56624  -172195  -214945  -125751    39118   115992 
   75393    21778     4502    27849    67173    56538     1383   -15412 
   24706    46604     1401   -48878   -38259     6858    65601   109382 
   41650  -101981  -139911   -42508    57744    73356     4206   -77396 
  -90490   -58438   -25510    23102    36450   -28918   -68501   -27530 
   17890    48455    79239    54488   -46323  -140988  -175851  -170908 
 -129219   -80715   -85001  -111391  -108128   -70372     1804    67096 
   96399   100330    55900   -24169  -109201  -200164  -218087  -113370 
   10755    72648    69165     1742  -104334  -184860  -169036   -53805 
   81098   162064   185315   182702   145454    82767    49681    24873 
    9437    78493   176386   225756   257107   223813    70904  -119502 
 -276056  -366719  -310571   -87114   175917   316356   277028   123859 
  -49755  -156645  -116706     6390    38240   -56868  -177873  -258696 
 -276500  -207156   -82883     3271    24192    33214    61875    99405 
  112854    93563    69207    26252   -43540   -79211   -83187  -139820 
 -234085  -236783   -92318    85675   160589   153207   149397   128501 
   68959    37314    31484       83   -23558   -25493   -17960    44008 
  114089    75497   -42319  -135884  -164366  -106479    20749   129640 
  165577   158859   118358    -1552  -158090  -220194  -158966   -44471 
   78362   161056   147733    57514   -20363   -22605     1838   -15919 
  -36971   -25618   -16667   -24020   -34695   -21739    -6424   -87859 
 -223029  -230265   -98961    47255   159910   222274   210928   134879 
    9624  -115514  -145018   -81326   -47051   -90381  -130272  -105294 
  -40670    26584    69589    49064   -23396   -65396   -24136    69970 
  145731   146450    82686      -47  -110023  -224768  -239712  -169360 
 -143629  -170679  -195320  -223519  -213077  -100957    54550   146542 
  158822   127359    59880    -4480    21782   118885   137883    29392 
  -86871  -120568  -110219   -91601    -3449   131751   170619   138126 
  138487   109354    28402   -28610   -55765   -31286    59474   122820 
  132410   163852   201896   167706    66548   -38916  -118824  -176805 
 -202450  -163597   -72485   -12904   -31108   -51822    -7373    30998 
  -16185  -113865  -179487  -155255   -45697   101428   220533   252034 
  204348    98942   -24750   -83678  -135012  -263644  -364406  -362487 
 -267186   -67278   122135   129973   -42693  -235641  -281156  -149650 
   57441   214818   255798   240104   243861   227029   150136    25471 
 -111735  -169109  -128854   -59431    37019   124869   106505      -60 
  -88927  -140591  -209761  -247401  -164115   -37181    27810    64847 
  123735   184337   172974    39348  -112101  -135592   -52111    53979 
  163834   261816   307299   257937   121429   -23484  -109109  -114201 
  -40293    77635   172463   208561   200512   141365    31332   -90637 
 -219462  -328764  -351012  -308893  -272968  -242600  -199805  -159391 
 -116591   -63545   -33403   -29805   -11535    22871    40517    30040 
   13718    34268   113262   197951   195523    95801   -18387   -89213 
 -113436   -75879    33841   143275   173448   159381   161137   157929 
  103947    13846   -57159  -103819  -129155   -90451     -610    63294 
   55837    -2886   -50812   -68168   -94977  -138084  -154888  -120503 
  -53569     8583    44921    58307    49744     -553  -114052  -268444 
 -387085  -392139  -269403   -89908    51294   107566    58608   -89062 
 -249473  -339032  -372043  -354775  -245548   -86822    46271   151772 
  232896   289584   291111   144080   -96871  -215227  -156814   -23356 
  153585   325397   388227   346470   237193    45856  -140756  -184154 
  -73597   138060   358929   459229   450824   400812   268964    91947 
  -16194   -84441  -185298  -250793  -220152  -186241  -228779  -296978 
 -327866  -316969  -282637  -261902  -262430  -212333   -75384    85730 
  205605   250299   206151   107180    14303   -55306   -97767   -57916 
   69458   191231   247943   232464   145050    35179   -45439   -94296 
  -91972   -26958    46785    85145    91296    75617    40698   -25658 
  -99269  -118620  -105281  -120214  -154653  -188893  -202061  -162899 
  -72562    80414   286595   450117   496449   424095   237779   -11346 
 -185944  -215954  -160378   -40751   119422   187554   124228    11198 
 -131996  -265945  -327369  -368664  -392658  -298953  -133627   -32852 
  -35135  -119553  -209461  -207189  -108731    25328   145381   256999 
  393327   478388   389133   158248   -88892  -298888  -459602  -526711 
 -466758  -266068    63100   361296   432133   281493    26698  -211800 
 -348297  -414853  -400682  -269187  -149220   -58985   129335   326882 
  416072   454331   426031   297109   170702   126079   180333   291390 
  300188   151695    -1759   -95122  -220288  -380347  -465089  -415179 
 -256630   -61349    80881   148510   176029   137200    11246  -133462 
 -217787  -216672  -152203   -40089    99141   218956   293733   268783 
   91800  -148647  -321009  -384785  -316357   -95297   149520   209278 
   96516   -19931  -104889  -184936  -212107  -136907    -8430    22931 
  -70578  -117807   -56990    23085   107083   195521   227217   167980 
   39133   -96329  -177379  -211940  -221321  -151252    11461   141754 
  160744   139538   147946   182071   216484   221769   191079   151070 
  112687    56397   -41667  -160132  -229012  -211458  -115874    16884 
   87108    39133   -47969   -98745  -138905  -196238  -252783  -289446 
 -286626  -219366   -87339    74929   202617   239842   209934   191997 
  241342   338719   397245   365573   262368   126810     4151   -96157 
 -170410  -171055  -105889   -42584   -11750   -23758   -80950  -159772 
 -219942  -206509  -108130    -7724     7663   -27379      136   103342 
  173736   143945    54340   -45211  -120240   -78147    83797   191178 
  148871   -10023  -212195  -324488  -327920  -300385  -227137  -152278 
 -128615   -57964    54140   118898   179977   257116   292492   269971 
  205645   107596   -51233  -269393  -431123  -445489  -343522  -154603 
   49311   130739   123693   159035   203107   180763   105347     4151 
  -57586   -17265    53497    49063   -10004   -39468   -28169   -35951 
  -91281  -169996  -227133  -213173  -132575   -46753     6246    41081 
   82891   129124   164999   184944   200133   208765   140640   -39089 
 -228883  -342694  -349837  -171848   140139   336818   327090   234018 
   92593   -83822  -188713  -188218  -107854     3291    56575    72284 
   99154    62097   -50510  -120253  -115908  -119151  -116202   -11160 
  146948   236891   255903   219010    96433   -77549  -227885  -341818 
 -412028  -362267  -161919    76167   216931   235980   142183   -41474 
 -163953  -128476   -44504    24148    82449    92080   105227   136274 
   77677   -35352   -91856   -89140   -36624    47934   103049   104267 
   42271   -87185  -199200  -224405  -204688  -164805  -110270   -97706 
 -134441  -158527  -147518  -128436  -119641  -101133   -37030    83432 
  236254   349505   341713   212384    40165   -91188  -140078   -94448 
   37822   181241   242833   226173   167441    45122  -127187  -246223 
 -233983   -95604   108217   268058   320529   288604   182179    46143 
  -30685   -62182  -109692  -174791  -218147  -196207  -137805  -107396 
 -106258  -116025  -118066   -66982    56982   198954   273946   246566 
  112438  -118345  -352151  -478371  -479360  -361218  -126773   139214 
  309999   333180   223611    15450  -193822  -278873  -213536   -28845 
  181704   214878    53379   -96531  -148909  -106520     -708    53153 
   25787     7959    72640   186529   251546   213733    74694   -63985 
  -94630   -70139   -40479    12491    30002   -32219  -122150  -199197 
 -270264  -321772  -292771  -160369    21313   167913   188073    83691 
  -33114   -88896   -74154   -14642    68127   198752   324195   332047 
  236783   121350     3200  -127967  -249124  -319519  -314466  -234860 
 -137474  -113591  -153771  -162576  -125410   -80468   -33477      360 
    5233     -550     9886    26091     4174   -52266   -87966   -81881 
  -45316    14500    66013    86125   109560   126932    68862     -656 
   51115   170505   246157   271540   221707    92940   -17601   -54707 
  -54168   -27432    48011   132412   173518   200022   220367   166909 
   17509  -157512  -270531  -289403  -231774  -129540   -36136    33357 
  104178   116005    17662  -110825  -196504  -250389  -306485  -318435 
 -171375    84882   267988   336783   320845   170145   -88546  -295785 
 -385365  -389205  -260126   -33037   101937   113108   106367   110230 
  156458   227322   186237    19102  -115226  -133625   -82597     5347 
   90686   110319   121662   185522   224210   202662   123547   -25625 
 -141497  -161053  -164467  -165060  -132117   -73510    28039   137253 
  169695   116806    11009  -103842  -157212  -124849   -44316    21519 
    5035   -57138   -55098    -5086    13462    -8471   -61599  -135070 
 -216345  -263885  -213372  -100183    -2875    75246   129726   126130 
   72378    -1323   -86522  -162957  -199222  -183613  -108043     7500 
   96653   121242    87004     1393   -87589   -96151   -16228    69450 
  106991   127056   168178   214145   227349   182852    92175    18149 
  -19828   -60469   -73695   -10322    78852   108819    70178    13328 
  -41635   -95744  -118519   -88847   -21787    56331   126590   186108 
  226014   205438    77256  -127178  -290205  -350196  -323349  -192589 
    4978   117882    87239     6933   -38375   -36814   -29378   -59370 
 -103512  -125158  -151430  -198826  -218273  -168698   -68044     8559 
   -7782   -78366  -112347   -90568   -51151   -30415   -27484    -8127 
   31002    47321    23147      606    17211    58745   105385   159493 
  223393   272856   238416    99484   -40459  -101212  -102107   -58214 
   10077    40711    24196     9775     1815   -34118  -114975  -221995 
 -294478  -280130  -166916    19468   192144   265029   244783   197279 
  162626   120591    36539   -74347  -172921  -229660  -206788   -95705 
   44493   147116   200570   203314   125000    -5182  -109610  -193306 
 -272752  -273619  -155344     9502   120926   131022    64895   -15508 
  -52039   -29127     9332    48147   100226   129624   121127    87264 
   14254   -69597  -101637   -75420   -23229    31522    60675    65673 
