Origin Time       2021/02/13 23:08:00
Lat.              37.7
Long.             141.8
Depth. (km)       60
Mag.              7.1
Station Code      FKS004
Station Lat.      37.6799
Station Long.     140.7346
Station Height(m) 488
Record Time       2021/02/13 23:08:06
Sampling Freq(Hz) 100Hz
Duration Time(s)  201
Dir.              N-S
Scale Factor      7845(gal)/8223790
Max. Acc. (gal)   312.281
Last Correction   2021/02/13 23:08:06
Memo.             
[...]
   48537    11319   -20880   -35151   -35965   -19596     7052    44292 
   58490    19398   -19020     2575    21748   -28127   -48497    13849 
   52100    41898    25336   -10625   -41671   -17679    34425    39715 
   -1537   -16729    -9787   -21713     4595    76006    60632   -45551 
  -65043    29633    67217     8954   -15421    16977    27913    19638 
   23392     4985   -40617   -39475    12619    21794     3315    30496 
   31529   -12579     4403    38129   -12406   -57127    -4916    38793 
   36351    70000    43245   -72481   -62623    36589    -5246   -88087 
  -11133   101421    82651    14462    -6997    -5150     2413    32355 
   62145    21948   -58446   -69330   -10520    52795    62849     4009 
  -40682   -39781   -26347    31239    80933    44317    23179    46932 
    9468   -36397   -18616   -14108   -21425    24787    48969   -21901 
  -66368    16653    86159    25421   -37770    -6297    23537     6151 
   11276    12442   -33953   -35974    27572    34693   -21284   -20312 
   17043     8725    16302    44024    24295    22018    54557    33106 
  -26906   -38056     5355    17496   -13841   -10000    17925    13458 
   -6727     1690    17026     9321    34878    51171    -9976   -37088 
  -14721    -6921    29683    51151     3904   -28543    -8756    12634 
    5227   -15179    -8325    10309    -1119    16210    77916    53869 
  -53203   -65963    13675    16106    -9841    58388    69419   -33207 
  -54888    -9861   -12291      842    34738    31618    34022    60332 
   53532     6825   -21246    -4692    17784   -10129   -55787   -21393 
   45347    49087    23889    -5593   -36518   -50106   -29775    25289 
   21695   -11670    53977    83037    -1759   -19290    18952    -2820 
  -39820   -46545    -9810    44348    55722    49782    34438   -10890 
  -15028    21779    17933     4326    16390    -1890   -54054   -48462 
   46808    91314     -305   -69176   -22428    36553    62611    43803 
  -20094   -18990    38028    22592   -12725    15935    31995   -21527 
  -68638   -15376    72094    57535     2706    27124    25938   -70325 
  -65051    64713    57208   -63684   -38956    78127    75180    -7786 
  -22815    13072    -1782   -42223   -14172    33208     2317   -43241 
   12444   100286    73175    12731    22674   -10142   -64299   -19927 
   22473       71   -11835    -6099    -1911    -1285    14050    28966 
   -3473    11516    85216    32143   -78651   -46722    26921    10061 
  -11700    27232    57041    30009     4706     5981   -14968   -20700 
   27799    43472      891   -33079   -43579   -12683    47353    33340 
  -14374    33863    71412     6759   -20155     3879   -29967   -68650 
  -31546    11299    -2623    22265   108878   102212     4159   -35406 
  -30827   -48963   -36734    24205    42784   -13691   -24395    57061 
   70865     9792    42109    81869   -16317  -109264   -55084    54981 
   71359    -3597   -25490    21112    -3518   -69394   -43333    39401 
   77002    28738   -36572   -10034    37111    28480    38650    32098 
  -26613   -28679      989   -22018   -44902   -20548    27390    53901 
   53601    60299    74925    60336   -26508  -122852   -96755    20937 
   63421    -8712   -29335    56328    77040    13837   -16175   -17683 
   -6615     8958    11794    34061    64812    64608    18619   -26789 
    4608    20652   -56570   -95962   -36132    44258    51295   -20696 
  -44082     -668     8995     7804    41260    57152    30890    -1671 
   -7330    22738    32560   -17944   -33966    40428    82476    19515 
  -46728   -45567    -4907    38747    35577    -4379    -2134    38880 
   69149    50306   -35287   -74137     7558    71490    15913   -72207 
  -64355     3591    13074    24281    90011    77284   -37879   -76071 
   13446    38129   -47092   -48915    30535    14057   -43063    26855 
  120928    60231   -52398   -36043    65946    73272   -39117   -98953 
  -43425    26859    50371    24108     6772    34460    23311     -792 
   52488    75521     2401   -65894   -76360   -56899   -41511     8317 
   96954   110079    37694   -28281   -75720   -88935    -3956   104147 
   83597    11704    11391   -20271   -92469   -45104    63331    70888 
   42037    36667   -34807  -128416   -84618    75413   149844    76916 
   16372     5271   -56683   -82336    20772    73923    -5598   -22279 
   42282    17100   -46133   -25528    -1705   -18474    28869   103673 
   73022     2126   -15206   -30026   -41010   -21118    -9992    36864 
  113074    63741   -39907    -3731    50263   -27398   -97355   -37122 
   67311    98307    48625    -5113   -14729   -18904   -30638     3092 
   45166     8041   -52949   -18759    35017   -42981   -96055    36495 
  121073    39380   -16158     4290    16706    10525    24209    45219 
   -6790   -58293    37250   113373    -3723   -74328    34341    45320 
  -93575   -93391    26308    15925   -30894    44653    87744    29600 
   15188    48602    47633    47753    53983    -4009   -68291   -49364 
  -28138   -55930   -42404    14998    17496    -9844    28143    69763 
   36202   -24699   -60786    -8121    64338   -22812   -96510    57384 
  172288    62545   -47984   -25663    15174   -27299   -59580    27074 
  105371   102081    89043   -17263  -180446  -153855    -5514    35376 
   17836    10563    -1263    56689   114382    40058   -21004    10863 
  -19233   -90027   -51413    61827    88267    15205    18125    80057 
   32414   -40744   -34121   -23240   -46282   -60015    -8496    58008 
   56874    34992     2988   -58500   -54268    25768    57229    45092 
   72490    77741    15149   -33435   -61353   -81827   -36131    38992 
   75956    78457    67652    57950   -11619   -96380   -55687     4306 
   14098    55213     4101  -114963   -37939   105131    26622   -81758 
   21296   113259    11291   -63710    14582    56057   -14272   -51683 
   -9234    43200    68423    43349     4434    34689    83940    42859 
  -33492   -52033   -71999   -91392   -20444    41447    25516    43552 
   71749    41150    12664     -519   -23403   -16189    35559    50305 
  -12017   -46630    -7830    17833    19865    38245    43042    14752 
  -31509   -79648   -55984    63701   114590    33232   -24792   -14845 
    3333    -9462   -49631   -37933   -21050   -45717    33543   168318 
  138848    10197   -34646   -47575   -88871   -43557    68227    64574 
  -40759   -74424   -15627    35640    50367    23742   -21780    -3056 
   57357    75483    38523   -20136   -20991    22875      749   -45571 
  -10521    29411    -4421     -687    65111    52151   -24262   -21162 
   38803    17178   -44926   -18436    21816    -9664   -32687   -21806 
  -30345   -38765   -20151    11924    70117    98996    36252    -8363 
    7996    -1092    16938    93148   114620    63132    -2515   -64902 
  -90791   -41783    20792    -6944   -66729   -45056     1551    -6318 
  -16229    35667    89063    53785   -10285     -148    25500   -29544 
  -84767   -36563    42319    76912    92466    76684    17528       18 
   47160    27510   -79801  -105741   -18131    10924   -45431    -8341 
   98725    80599    11453    19384    10979     3217    47167      -54 
 -107736   -69576    61867    85218    13946   -14926   -23637   -55791 
   10008   135056   110772    11944    -8166   -37708   -89081   -33216 
   85533    96603    18563    13738    45524   -29988  -126605  -100160 
   -2997    67493    61110   -22218   -78125   -40771    25122    57476 
   63423    64045    37206     8618    64432    92601   -52213  -170722 
  -85761    41752    73464    51961    32159    16723   -19410   -40327 
   17425    71606    28659   -39117   -70989   -38959    67043    95202 
   -3168   -34514    14496   -18472   -65350    -3823    47622     7373 
  -28840    -7322    61411   129367   102818     1308   -57115   -41126 
   11669    22284   -61133  -102984     8803    93294    -2752   -72405 
   72414   209005    81163  -142603  -160351     3592   130856   120375 
   31950   -31367   -62387   -84804   -46512    36171    83316    92357 
   37196   -65261   -49524    83891   118197    29403    -7217    29092 
   30030   -17994   -52857   -27064    15755   -30875  -121824   -69498 
   93924    74237  -118921  -125709    26941    51811    35355    64785 
   11151   -29392    85305   212213   160872      788   -35818    11466 
  -68816  -172251  -117417     2733    56258    43325    44980    71560 
    1418  -109984   -61145    58720    51381    -7036     1183    10787 
   -4985    12654    -7447   -95227   -97060   -29278   -42344   -66779 
  -10378    30377    23271    48501    73468    56890    60122    38549 
  -51888   -49234    79952   111497     5593   -27700    33582    22243 
  -15861    46637   114988   104296    50403   -24243   -56853    -2439 
   23747   -62769   -78669    48157    54549   -59667   -44890    40157 
   28147   -51748   -75496   -13994    15322   -14143      429    65448 
  110151    98992    26654   -38371     2529    65426    11092   -56023 
  -35592   -47449  -104843   -74441    25582   109228   151630    76067 
 -106366  -185888   -80455    62353   154599   194217   135344    -5541 
 -106540  -111267   -58131    22000    70351    36039    -9686   -17054 
  -46450   -84145   -48027    19813    20121   -13344     3956    27672 
  -22701  -100697  -120379   -60262    22131    28984    16254   108357 
  208022   178518    83111    27556    19662    16031     8815    22497 
   26103   -16953   -54075   -62749   -83477   -65423     2224    -9526 
  -76030   -48640    26978    13716   -63084   -57704    43969    52432 
  -74200   -97899    27214    56070   -10697    48357   154078   116968 
   68022   132671   147513    36472   -50857   -45126   -26616   -47557 
  -50230     7361    29430   -45069  -107801  -106137   -98123   -37297 
   92271   117992     5737   -32726    50369   100082   130052   195894 
  173056    44456   -53036   -57103     1857    32344    25311    42893 
    9880   -98327  -146658  -113270   -63570    -4901    36953    40377 
   44190    56835    44415    25498    17842   -21250   -40242    50333 
  122773    49385   -28458    -7420     -213   -49303   -60458    -9531 
   59487   127102   148447    69384   -68296  -132800   -53685    48543 
   39091    13144    58816    13003  -158121  -211149   -82502    91987 
  232754   258596   151210    -2920  -135837  -175477   -99766    -7622 
   36516    76891   105906    69213    38437    53850    15068   -84007 
 -139672   -85969    11778    10166   -49044   -44142   -13069    17226 
   34362   -16968   -62883   -49106   -73020  -127967   -79866    76697 
  183150   139403    51655    38367    31156     1953    46176    80419 
  -14164   -99365   -78619   -54276   -45370     8745    49546     6597 
  -53985   -71703   -79837   -81935   -56170   -39621   -49594   -46332 
  -25679    -1186    29450    45438    31715    -5717   -36880   -12278 
   64033   132841   142383    97727    54793    32362     -781   -49731 
  -72173   -14087   107757   137189     5886   -70495    -9200   -22123 
 -111516  -107046   -63909   -90085  -129450  -109961   -50473      -62 
   30049    81214   161246   175992    94967    16341   -13753    16742 
   97675   123421    98500   110389    84234    -9850   -42727     7657 
   50924    54016    42765    30312   -14789  -101574  -155486  -132710 
  -95499   -38979   110494   227843   145532    27820    65777    84665 
  -47034  -127317   -61796     3762    27641    73596   131851   163517 
  169740   134381    32341   -39237    19984   102660    85047    24441 
   -6112    -6928    31550    67524    29968   -23920    -9811     7736 
  -51268   -54630    90733   122787   -90142  -262369  -258476  -195883 
 -114014   -50494   -56648   -96657  -107597   -18540   120503   124428 
   23350    27567   126993   154850    89040    37523    34524    -3657 
  -63621   -13522   107314   159852   148674   103632    32744    -8764 
   -3114    -7807   -68569  -132464  -159668  -208973  -255992  -196041 
  -42180    66663    36705   -13470    39592    50321   -65279   -91767 
   34335    61773   -51761   -58002    47645    70174    48721   119718 
  238555   283290   240015   165825    60798   -72323  -170602  -198900 
 -154707   -36450    90034   102095    12283   -33585   -39031   -95116 
  -96661    49113   195045   215426   130493    15500   -35403   -21745 
  -21149   -64179   -93885   -13882   140595   189997    64469   -69034 
  -93013  -135442  -206651  -155997   -55360   -12472    23874    41863 
   15529    13491    97154   218949   241813   132773    -7435   -66874 
    5247    86883    62210    30858    32092   -37073  -141376  -164525 
  -86363    54419   124482    11653  -121045   -91953    -4386    29007 
   65804   133693   165651   137956   139926   176203    68661  -156486 
 -218737  -121408   -90144   -72974    31957    51528   -47375   -45574 
   16233   -25069   -18711   106461   128663    31618      781    38982 
   41982    21477    17382   -35965  -122127  -123570   -64084     4352 
   93691   177188   217742   152042   -12691  -124394  -111875   -22698 
   72119    40944  -105919  -141845   -25713    63539    47112   -36001 
  -78618   -41393   -68743  -170662  -173581   -97807   -87010  -145030 
 -164093   -76427    33779   106562   185429   211268   159746   141168 
  176374   225873   262684   229086   157378   163431   182078    37662 
 -181421  -277585  -272551  -204044   -56587    41642   -22204  -147337 
 -191412  -180689  -202965  -230677  -202525  -107946    24285    67905 
  -28210   -60879    52803   148446   218088   314914   334243   247040 
  114349    -7157    -1806   134553   207724   115132   -11132   -61055 
  -94622  -108662   -29901    37459   -40529  -197737  -295802  -269049 
 -118436    75809   194528   223102   213275   163395    77386    -4078 
  -55841   -72158   -44886    13817    74241   151509   237073   262530 
  210795    84157  -111106  -278143  -320350  -245801  -120548   -13077 
   29713    13675    25180   123511   199759   134600     4688   -43964 
   24841   119888   102077   -18292   -53472    58603   154566   140088 
  109439   110227    69356   -23841  -117578  -188407  -219611  -216583 
 -171027   -52137    76148   116930    68978   -14586   -39380    52089 
  122962    50210   -42234   -24393    51382    64288   -21370  -114698 
 -167347  -197768  -150855   -36126    12557   -33465   -84651   -94124 
  -83836   -74420   -26811    55119    72478    52929   107380   151565 
   85939    20506    45121    73788    34102    -5458    14212    44113 
   23886   -31649   -66154  -111334  -194004  -210415  -116469    23674 
  103906    91606   136630   197343    91029     2381    93676   172250 
  155420   136821   119446    44551   -78129  -136062  -101312   -92021 
  -98948   -41386     4874    12276    65130   101244    27915   -64301 
 -112436  -140208   -90317    18621    66020    74927    92122    58997 
    7734    26904    92811   141519   154820   152140   129628    51297 
  -45652   -84666   -41094    48192    78314    53430    84865    82984 
  -37503  -107978   -70094   -36468   -39698   -67482   -61601    16692 
   53724     5058    -9008    35452    41073   -39592  -159471  -226596 
 -184972   -41665   105449   125203    73383    95953   132451    84370 
   31306    22928    -7890   -71593  -103778   -72100   -13101    22384 
   16191   -54027  -165316  -214644  -178826  -117427   -36250    67246 
  147800   164579   142098   154560   205862   184281    22594  -123249 
  -41381   156182   191745   112406   114489   110552   -37393  -170047 
 -126708   -48284   -44585     8183   110864    68548  -110805  -186187 
 -103663   -21957    32746   105722   110241    38086    31774    89243 
   99647    61290   -14611  -111361  -122874   -41172   -23826  -115994 
 -162218  -111528   -63184    -2963    84520    98469    54831    37492 
    5934   -32097    48643   184535   182405   109653   107812    97102 
   34981    35606    88916    36046   -94309  -112045   -34022    -9394 
  -35553   -24012     2188   -53728  -135288  -104194    -2542    47093 
    7375   -92853  -162712  -153779  -109414   -45215    27306    82073 
  120158   115179    78989    61404    20603   -34191    18766   129789 
  106909    -6350    -2884    89716    91725    16773    -6355   -17460 
 -116756  -203389  -165441   -91245   -24256    86385   158364   109175 
   40605    61306   118455   100869    19907    -3380    57840    72451 
    4257     3370    61392    -4900  -140417  -149276   -52990    -3241 
  -68521  -154450  -130532   -54762   -36981   -35371     2624    60354 
  131939   175608   118554     2425   -67390   -76862   -55212    14146 
  153323   272964   229749   102001    75292    69824   -45678  -127151 
  -55934    -7325   -99214  -134073   -17095    55827    48929    86050 
  127001   117451    83535    16615   -88905  -191058  -230623  -218760 
 -202196  -124285    38886   158762   169616   155684   169145   152834 
   79543    43258    73815    40674   -72387  -109529   -39166    22019 
   14179   -14875   -17871   -53762  -148953  -182046  -113247   -20420 
   80287   157495   159086   106018    40520    15299    38306    52756 
   43899   -11458  -125815  -185801  -125837   -61936   -85261   -85629 
   37010   131179    89689    55661    81889    89446    93787   109888 
   90352    20846   -44045   -27124    11620   -45038   -85572    20607 
  120135    72584   -17259   -27255    -2045   -42735   -98464   -67729 
  -27271   -62734   -90354   -69457   -79751  -108217   -39162   148527 
  300754   279100   186664   152417   116667    59688    22339   -48882 
 -150877  -191020  -170518  -122085   -44751   -28842   -95493   -66992 
   88383   173692   127618    82459    99920   106621    58650    -6432 
  -74825  -152049  -200821  -201750  -169275   -85001    56821   172447 
  187104   161374   164134   115923   -26167  -105100   -30701    53680 
   33284   -34884   -41535    49646   139828   148014   131826   108414 
   19691   -97873  -159875  -168191  -157208  -121651   -48208    56604 
  135384   131224    87022    37974   -40220   -99121   -78845   -11303 
   38973    32692     5748    28009    92634   123608    58557   -76943 
 -190555  -218007  -159094   -47702    84245   180068   179779   121205 
   87035    74486    64589    82279    69330   -17138   -61364   -30249 
  -31602   -73313   -91365   -82420   -37978    57775   108538    24948 
 -104255  -152058   -91052    26742   108984   122547   117703    92605 
   13073   -34542    11492    26125   -68863  -157446  -127411   -34160 
   -7187   -11260    79438   174617   154641   119034   108765    47549 
  -19730   -21037   -11952   -29803    -6246    24406   -37211   -96472 
  -58264     3218    34747    16505   -31584   -15052    65940   139375 
  160975    69747   -82013  -158072  -172643  -163225   -82509    52223 
  140454   111801    56501    90343   129309   105106    81702    22179 
 -104396  -151297   -61020     4970   -39307   -67414   -23684   -22415 
  -46125     -934    34577    17824    29288    53686     2484  -100573 
 -111538    -9369    55678    68505   102443    69886   -47008   -90494 
  -25469    58878   105973    92275    48699      695   -57771   -54275 
   34639    77558    31286   -11894   -34014   -66344   -55217    28337 
   63790    14419    22027    83490    82548    49396    13259   -59949 
 -111994   -91891   -53767   -39887   -39239   -49746   -49531    42758 
