Origin Time       2021/02/13 23:08:00
Lat.              37.7
Long.             141.8
Depth. (km)       60
Mag.              7.1
Station Code      FKS010
Station Lat.      37.2342
Station Long.     141.0016
Station Height(m) 50
Record Time       2021/02/13 23:08:05
Sampling Freq(Hz) 100Hz
Duration Time(s)  300
Dir.              U-D
Scale Factor      7845(gal)/8223790
Max. Acc. (gal)   331.918
Last Correction   2021/02/13 23:08:04
Memo.             
[...]
   17567    18343    19623    20424    20075    19475    19785    20891 
   21724    21802    20850    18242    15750    16619    20395    23121 
   21496    16448    13424    15109    17922    19296    19116    16726 
   14476    14771    15542    16661    19414    20775    18790    15568 
   12916    12263    14096    14669    11281     8683    11227    16268 
   19735    19603    17088    16591    18905    19990    18689    19360 
   24128    25820    20191    17929    26561    36913    39106    34599 
   29162    24162    20449    21566    25218    25920    23758    21327 
   21456    23032    21246    20152    25614    30370    26698    18000 
   11596    11433    13872    13992    14189    15645    13350     6034 
    -128     1988    12247    19746    15608     8568    12964    28453 
   42846    44126    30871    17352    17795    24252    17108     -129 
   -6771    -4699    -6135    -1610    15392    30854    35405    32314 
   29100    28291    20586     8834    11815    20673    12063    -1413 
    4145    20262    23037    12398    12303    27078    33412    26229 
   22991    27396    26527    12222    -5633   -10879    -3863     9494 
   29236    39989    24599      854    -3526    14397    39414    43097 
   14135    -9643     2647    26468    34414    33119    29200    16422 
    2602     6940    25552    33350    22266    12752    22605    37926 
   36598    26181    28861    44999    49513    31558    17803    25806 
   34306    23152    11770    30472    54283    41787    19542    17448 
   12862     6424    19427    33720    24957     -978   -13664     7658 
   33596    38890    39268    27560    -4097   -18956    -4688    10498 
   19040    28171    34200    37388    37582    29809    23560    22144 
   13255     5247     9238    14516    15672      924   -39140   -56150 
  -15458    29968    38959    30034    28741    49333    66737    43028 
    5013     1746    25305    46283    50830    23662   -14640   -17533 
    -189      687    -3353      333     4909    15284    35735    49721 
   42874    17818    -6482     2917    37827    42172    13130     5390 
   26671    31510     1117   -27541    -8330    45982    67674    34130 
    2829    11304    31441    34044    25222    25180    37102    41523 
   22800    -9595   -29303   -12991    34290    57406    19087   -17045 
   14530    65688    67504    33255     5128    -2147    12347    31896 
   22846   -13193   -34015   -28691   -21348   -10901     7447    17053 
   25092    40722    39082    24414    35982    63891    60786    31564 
   19782    29485    41914    48662    30784   -10524   -31509    -8185 
   34009    51355    18418   -38304   -64203   -39541    18269    70726 
   72046    36761    22890    22181     6651    12245    49378    67055 
   43868    10111     1517    15255    23787    32017    38511    16717 
   -2412     5016     1219     4345    40393    58452    33313    -6704 
  -23363     1251    27333    23781    20097    28923    19866    -4158 
    3542    40008    45234    10681   -15670   -19646   -12509    16420 
   57183    70401    54542    33768    16802    14504    28532    34406 
   22578    15939    18091     4579   -13872    -5761     8279   -11742 
  -35991    -4548    56242    78058    62284    40485    24606    31865 
   61453    67583    22071   -16889    19194    71497    30769   -67305 
  -90890   -22701    34832    33821    15234     -199   -19029   -12974 
   31268    66114    71918    70113    32698   -47576   -74557    -1525 
   69662    44521   -26634   -27634    42836    67163    26821    27900 
   72141    63267    -5196   -53631   -16664    74741    94331     1197 
  -68056   -14627    64633    66403    30530    20220    41141    56497 
   22431   -23826    -9212    29616    26512    19286    27369      575 
  -38900   -32868     7065    34873    28283    29137    69418    90748 
   67795    49773    51703    59925    56378    19805   -27936   -41323 
  -12364    13945    -1679   -18823    -4534     4032    21640    71802 
   78644    16827   -13971    26365    51397    22581     2478    16295 
   23967      434   -22762        5    50180    69083    43540    21028 
   34187    45139    21662    -7087   -22261   -34678   -35237   -16271 
   -3923   -13398   -16220    -2975   -19291   -61890   -54278      845 
   33230    41856    54176    72247    72403    22536   -30642   -29830 
  -10581     2963    26248    35394     2655   -32111    -2578    64482 
   76326    22458   -26065   -12703    49898    80873    44645    23888 
   62849    60232   -18261   -50760    -3878    50101    75097    42797 
  -11233    -2349    46110    66995    52687    30358    38801    63329 
   55574    36734    29743    11233     4379    34311    51943    29239 
   10698    14014     5336   -10843   -10153    -1651    15893    38358 
   43243    47622    62837    49593     5300   -16306    -2614    21621 
   52521    57358     5979   -41204   -31573    13822    57487    57061 
   21778    14162    29663    25481     4927   -22455   -47367   -50901 
  -34774    -3802    22530    17108    24075    63572    57801     6192 
   -6945    40398    92907    72982     9296      851    26820    29115 
   11196   -33255   -71772   -32921    56949    91219    39052   -11649 
   13906    70144    83362    77427    91490    96992    84028    57559 
   14499    -2627    -1777   -40622   -79327   -70625   -37368       21 
    8334    -3672    22134    49430    30346    18000    33831    34326 
   12857    -4287      380    32566    59521    23916   -46624   -50877 
   14446    54183    25617   -29250   -40544     3215    45185    58095 
   44631    11165     -801    36360    65101    20472   -24166    27376 
  100369    85761     3966   -49916   -32046      596    13995    42291 
   82336    85498    26686   -31509    -7608    52265    57889    11778 
  -32055   -19981    43719    72532    30342   -18179   -21946    11808 
   37396    21463     -757     9447    40383    60154    41440    13050 
   26936    60868    72314    60655    27787    -4712   -13113   -28857 
  -52232   -39906    -7157    19364    39056    31934    13266    36166 
   65011    34889     7395    29925    29182      193     6477    24696 
   17847    -2161   -29108   -25875    31336    58534    15597   -10072 
    5572   -10011   -58487   -67468   -22195    31734    67319    72931 
   56200    55413    73754    86476    94278    77535    16370   -26658 
   -5320    14612    -3080    -4082    10488    -2637    -9065    11551 
   17502    34094    81349    83801    28436   -18981   -17658    45642 
  110776    91991    17100   -19830     3276    21505     5655    -4792 
  -14841   -39098   -28642    10909     3284   -35888   -24420    21803 
   32341     8403   -14943   -25918   -16815     -923    -4545   -10424 
   -2608      861     6444    26860    46425    59293    79714    93002 
   64362    16733    -3950    11107    57366    91423    65167    -2516 
  -67088   -63163    27415    73531     8565   -38866   -12376     3366 
  -17325   -28443     -333    53260    83717    77452    68077    61236 
   49647    50423    58406    45755     2809   -49870   -50295    31286 
  104715    78193     4924    -5935    43112    59321    14354   -31872 
  -38974   -28483   -24753    -5346    41941    74258    68516    48544 
   44122    71798    90310    49320       10     2619     6822   -33146 
  -63556   -44350    -1972    29029    15822   -12359    19303    65743 
   39891   -15375   -35140   -17525    17788    26987     2342   -11137 
   -2160     4990     2083    20962    53115    21876   -43186   -41138 
   22839    84615    79181    11535   -21481     2068    28159    37451 
   46184    69815    63124    11595    -6763     6909    10289    37265 
   76060    80445    56122    17234     -818    18925    17729   -21845 
  -42429   -37871   -45989   -34495    36825    99053    81940    24568 
    9666    60666    74453   -19314   -73808    13323   101451    77222 
   10038    18480   101857   121409    19769   -89464   -96372   -18658 
   43236    42458     1584   -39262   -17386    51189    66887    23215 
    4290    43262    87619    85583    50283    10193   -27584   -45898 
  -25213     6296     5953    -1431    19477    47555    73800    90394 
   54679    -6415   -12657    23789    40647    20115   -28501   -54213 
  -21258    14098     7512   -18898   -17903    35731    82622    70262 
   30991     4507    20297    62765    59131    19893    22387    57071 
   72084    53285     3145   -20737    20783    22639   -45855   -45975 
   12675     2660   -28101     6482    44321    35368     7925   -12015 
   15611    59745    14229   -60070   -11943    99708   123799    64697 
    4900   -19044    -9796     5940     8897     7094    19903    54283 
   62561    -2656   -84029  -105533   -69045     4615    69963    79821 
   59833    15765   -48099   -40549    27399    25473   -22909     1443 
   78549   128926   129855    72076     5749     9971    32778    13788 
    2339     7780    17101    26110   -11821   -55429   -23010    27958 
   19896    -4625    16862    49636    40126    39005    80410    73711 
   -2866   -33713    20541    77695    81503    42919     8880    30516 
   74626    52965    -6720   -24278   -24243   -12841    26673    14759 
  -17242    45601    98701    27334   -53908   -28405    59463    99389 
   69526    46884    53017    36379    14943    31843    32013    -9691 
  -32553   -45979   -86211  -105490   -61314     9103    54677    83362 
  109355   100249    57341    28219    23841    24259    13824      449 
   13517    23207   -13309   -21249    42122    64401    13770    13805 
   89787   122940    55858   -31189   -41334     4124    22148    12055 
    4981    -6151    -4939    22756    56097    76482    61599    33801 
   52382    69766    -2122   -99669  -102396   -19816    52601    71888 
   71452    72497    58653    33269    23045    44825    55426     3804 
  -45508   -35649    -7789    32042    60667    31064     3663    12156 
    3910   -24552   -39711   -10096    42781    43750    21620    42643 
   54889    25381    -5701   -18712   -14199   -22369   -49597   -45619 
   -8033    19282    27406    36803    32217    -8166   -24690     5846 
   10752    -8073    -6394    -7906   -17734     1944    63633   117659 
   83014   -11167   -47602   -19473    12623    18374   -25103   -51019 
   -2655    19342   -12730     4179    69256    88503    33208    -9313 
   33581    80508    49769     8627    15716    14440   -17217   -13770 
   21559    38396    54949    55227      135   -29301    28401    87612 
   78750    19539   -41296   -25987    61709   102864    73118    44119 
   14222   -11376     7306     9005   -39476   -42849    11932    47214 
   55081    56802    61469    65418    28167   -30190   -18188    54926 
   85603    44556    -1617    -3148    25521    65931    91523    55526 
   -8067   -10083    44753    60292     1591   -34438    21390    94417 
  106343    72827    37320    36710    75606    93694    43931   -38665 
  -87912   -75826   -35903   -11993      661    19592    46677    80921 
   81406    12167   -68428   -95735   -72901   -26005     2515    -5431 
  -13898    10376    72319   114084    58422   -30019   -40196   -16713 
  -16614    -5649    -3987   -42138   -66696   -59440   -63221   -75898 
  -62083   -26304    -7888   -11701     8067    67950   121281   132648 
  126044   125724   117375    85437    24170   -44967   -69121   -28566 
   44392    88053    71890    52317    62199    55107    29049    28715 
   69034   132113   145192    51642   -45193       37   117872   132700 
   62626    22962     4980   -25913   -22157    54405   123882    74636 
  -38148   -58442    30960    95372    56532    -1424     9747    50005 
   45947    13977    11907    10713   -29377   -58094   -48784    -9963 
   68212   125286    93549    42268    60223    95319    34855   -91251 
 -126856   -58573   -17748   -26929   -22443    12772    44813    -2369 
 -102821  -107111   -37997   -49420  -101587   -76927   -15102    36279 
   85151    65929   -17516   -33416    42126   108584   102894    44446 
  -24825   -83620  -122185  -121647   -53431    26824    26748     -561 
   36981    93198    77881     -942   -73041  -102749   -92423   -56509 
   -2446    74898   157276   198509   169269    84616    -6546   -52208 
  -25282    48775    96111    91033    94967   123190   118138    89529 
   82929    62745    -6829   -82422  -101239   -25253   113948   196642 
  165329   126585   157238   170622   104919    26037    -6231    -8561 
  -36261   -87041   -80252   -20271    15718    22896     7553    -9101 
   40043   113161    90073    -5671   -39874    18823    77402    35455 
  -91762  -149744   -66949    49002    88105    18381   -92580  -123550 
  -89557   -97915  -131880  -121597   -84773   -56795   -50371   -60431 
  -54696   -33994   -16468    15284    59663    81037    54012   -10338 
  -40779    21097   103686   112834    93764   105300   117212   108681 
   63281   -13135   -43962   -27275   -35704   -60118   -61862   -40837 
    7898    75463   107993    86888    78737   108695   124507   115188 
   96827    70154    54006    63710    97318   137903   128653    51950 
    -128     9208    14975    37732    85656    44377   -84161  -150853 
  -86783    29153    74185    32780   -19111   -43996   -20394    56708 
  109842    93835    58563    27754     -881    -9605    -6972   -10716 
   -6610    32886    85617    67884   -23068   -69032   -13311    68104 
   91682    72015    73575    80042    36432    -6651    24237    84607 
  109921   113328   101777    46334   -67867  -221448  -329196  -311297 
 -210230  -109827   -21280    49457    59682    34805    53798   112252 
  143613   127399   100477    87660    64895    20785   -10902     4058 
   38753   -13917  -167089  -235041  -115890    44802   104703    68759 
   -8841   -78067  -108325   -93833   -46716   -15892   -32472   -41115 
   18871   104356   130539   113917   126268   125207    37366   -45789 
  -14241    48532    30306    -7959    18630    59760    63730    55428 
   50464    61959    86726    64461    -4259   -22233    35498    65572 
   -1028   -72337   -33556    59783    85344    47479    26343    43636 
   67578    88042   131448   180081   156205    59991   -25609   -59374 
  -33597    32140    83296    87893    40207   -23226   -47023   -43555 
  -34010    -4255    31928    64281    83928    52292    -8353   -46230 
  -71207   -84226   -69940   -51263   -45817   -27900    20968    49914 
   33589    27919    15881   -30948   -12316    84102   116438    63219 
   37334    67788    99360   105128    78256    16449   -28541    18972 
  135375   195551   126963    25959    38522   121088   127854    47043 
  -50720   -98253   -68917   -34393   -30758     3014    53886    50576 
    6146   -37536   -73651   -66718     1397    48532    22673   -21429 
  -44429   -50959   -44911   -29995     7117    89842   171132   160235 
  103323    97168    95197    71964    75109    61821   -20656  -114795 
 -121077   -49164   -28020   -94779  -146674  -131539   -82749   -30595 
   -6660   -15538     4332    96909   210177   236622   171815   135540 
  137633    89672    21567    -5094    -7649   -17529   -71049  -160768 
 -193932  -128642   -58032   -80327  -155997  -161169   -65769    41382 
  105694   144347   135564    46643   -41806   -14431    86842   110328 
   45115      330     2025    46426   119661   130104    62637    12793 
     622   -16112    -7568    47595    72160    45084    35014    23147 
  -25562   -33301    24027    44786   -28692  -116656  -100143     9298 
   90443    80069     -923   -89411   -97249   -25216    22503    19958 
   27999    61978    86111    71722    29619   -18576   -57474   -65214 
  -56273   -68046   -71309    -7376    97005   159237   141327    95185 
   91943    76854    -3449   -44305     3597    48370    17080   -62218 
  -86313   -39695   -12334   -20722    -7925    37654    61902    43814 
   33858    46263    72261   134296   180850   135103    60010    64663 
  134327   157335    70873   -63738  -141118  -124438   -61499   -20310 
  -26257   -35399     4676    53171    37423    -4583    19989   100927 
  151868   128833    57285    12580    45755   121784   177954   164925 
   51362   -86410  -106972   -29894    -9894   -81417  -127195   -72944 
   11291    22743   -14974     6974    86023   105896    18276   -85924 
  -68408    76430   198969   195081   110809    40383    13135     6787 
  -14647   -57740   -82740  -106278  -139950   -96595     4862    37137 
    6111   -11541    -4413     6837    -2609   -11680    19683    45196 
   -1451   -77846   -75898    -7430    14760       90    12012    31749 
   29961   -11898   -68721   -73012    -1053   108284   175703   154626 
   84847    49586    71296    90710    90771    92325    95409   111505 
  114048    70329    17242   -12987   -22187   -26160   -17381    28788 
   49414    -6158   -54155   -46900   -28314     3727    56439    87627 
   85540    68889    71848   122975   157809    98437     7268    -5578 
   40957    46699    -6450   -46224   -39735   -32755   -71554  -142846 
 -160859   -72543    37114    65643    26835    10260    55910    95770 
   83404    69196    77380    79921    72947    67270    70993    67764 
   28027   -23895   -51020   -45706   -30937   -36925   -19450    44230 
   79949    62622    50284    56656    26385   -33551   -60644   -59019 
  -59792   -62918   -59248   -42876    -8031    48817   103432   106663 
   46145   -27745   -56743   -38452   -23001   -36518   -60774   -72050 
  -39170    38302    98219    77846    -2826   -31718    25049    60843 
   51329    61820    74595    66414    70050    82409    76651    55055 
   31216     2219   -39557   -66950   -51187   -24376   -31932   -69464 
 -100695   -84534   -18396    27446     7870   -17672     4974    57098 
  100422    99463    84430   126790   168203   122872    66050    70004 
   83949    57846    11844     -271    36688    75138    67034    30541 
      -6   -31679   -39297    -1437    19791    -8104   -32456    -7815 
   35452    19589   -42622   -35048    56042   114650    99863    75447 
   64388    32039    -9705   -10122    16344    11921   -15196    -8051 
   40016    81378    84225    46930   -16197   -50674   -32042   -13320 
   -3311    12206    -8613   -50926   -34530    36968    76823    53296 
   21903    18072    19035    27295    58268    77199    68966    62449 
   56011    34163     8050    -3478     3149     9215    11321    11043 
  -22299   -79157   -96145   -61103   -28101   -17948    -1270    17275 
   13755    -3850   -19961   -28441   -23109      614     7323   -31818 
  -64220   -48745   -14420    22482    78360   117898    99566    75509 
   69016    61389    82837   105370    87758    76662    87921    84495 
   59852    30915     8502    -9271   -27033   -28640   -14565   -22982 
  -41447   -38001   -39159   -23701    52875   118161   107376    65757 
   21525   -18509   -15799    11421    13026     2612   -15925   -45540 
  -22788    61005   131259   147398   102799    39171    24636    44780 
   54992    53902    37150    14435     5363    -3738    -5586    -8086 
  -46386   -67717   -39015   -11165    21834    55908    42993    18756 
   22910    22221    15537    17917     3547   -12275     9049    31147 
    2787   -45657   -35784    43314   109082    96869    20429   -49422 
  -48242     8694    54182    33328   -22673   -19465    32282    52164 
