Origin Time       2021/02/13 23:08:00
Lat.              37.7
Long.             141.8
Depth. (km)       60
Mag.              7.1
Station Code      FKS007
Station Lat.      37.4061
Station Long.     140.9632
Station Height(m) 70
Record Time       2021/02/13 23:08:04
Sampling Freq(Hz) 100Hz
Duration Time(s)  195
Dir.              E-W
Scale Factor      3920(gal)/6182761
Max. Acc. (gal)   500.138
Last Correction   2021/02/13 23:08:05
Memo.             
[...]
   37635     3958    -3753    18496    -6818   -50074   -40616     2098 
   34612    25020   -18261   -19801     8800   -12462   -30036    11354 
   22435   -17000    -8672    30047     -221   -40998    17465    77482 
   13432   -54314     4689    65706     -834   -85048   -42061    53973 
   40088   -43188   -41471    19693    33734    19506     1996   -33901 
  -40502     9066    42551     6906   -30287    -5194    21136     6401 
    5191    12951   -25370   -28976    62073    77306   -28366   -49235 
   39069    76130    18344   -31875    -9647     2640   -13786     9226 
   24250   -16832   -46427   -18678    -4320   -19240    12602    40907 
    5829   -24559     9208    68384    51651   -18244   -27648    10876 
   19868     2577     9884    14278   -12129     5435    42883     -312 
  -49348    10152    90536    45332   -58420   -73849   -21469    30310 
   53258    22418   -38065   -48267    30174    74916     6570   -31679 
    4916    20391    31117    38258    -2189   -24671    14903    38618 
   13505      297     4647     9696    28573    14913   -46161   -77650 
  -37543    13128    14060      907   -13742    -9846    40246    20793 
  -62366   -39015    42276    33452   -16492    -6327    26696    13531 
   -4967    17668    16358   -34112   -43695    -6571    -2023    -2152 
   25844    -5620   -60583    13025    93515    -4408   -98143    -8757 
   82229     9573   -83378   -40662    44627    45706   -10134   -38227 
   -6925    17803   -15159   -25503    35862    50725   -39197   -48446 
   91681   106326   -74677  -113624    33658    33502   -63990     9557 
   89525    -4312   -57953    50828    93460   -49704  -115353    26067 
   75501   -50416   -44252    67677    16205   -60755    28217    93962 
  -10249  -102949   -12727    89348    25691   -24654    25761     3503 
  -62361   -23203    54039    39534   -32520   -30948    42260    37342 
  -29007     4967    74424    28777   -42978   -18111    12549   -36133 
  -34333    83553   127634    -4852  -111185    -6635   120934    24152 
  -98984   -29491    51936    33884     5734    19925    70776    47205 
  -73823  -101777     3526    56183    29038    13969   -33204   -61597 
   16604    32331   -43785     5586   110655    26948  -122325   -63470 
   89889    66368   -58654   -32004    72344     3712   -96388    21942 
  126063     3921   -76474     3116    22224   -44504   -47796    36588 
   78384   -13243   -76684   -15002    23018    17245    16522    -8591 
   -8098    31039    37759    18540    -5382   -31327   -15907    -9061 
  -63292   -42920    48127    22415   -49026   -19196    10984    -9589 
   31925   105591    55344   -84813  -108646     2986    46348      -61 
   25981    89364    43476   -79831   -80032    76434    85053   -90166 
 -109699      525    13524   -17972     3254    67214   101304    43131 
   -1950    34192     5259   -44803    40267    79663    -7346     -254 
   60010    11591   -31720     2141   -23615  -117601  -110168    11496 
   51578    -2089    60282   125658   -60400  -199917    -3869   158539 
   20623  -106953    -2932   100746    50312      414   -19828   -69926 
  -23262   108905    64940   -95692   -52636    82250    55639   -29752 
  -31497    42734    51691   -61347   -87888   -11448     9422    37634 
   70425     6482   -49326    -7218    33125     6229   -33904    -8228 
   60759    44411   -19456    11391    65838    64398    78013    56761 
  -69420  -102532    15539    -7349  -125110   -27273    92460   -35715 
 -135439   -28106    15003   -47209    16749   134955    78695   -88124 
 -112801    21280    91331    53662    -6074   -86035   -63867   105285 
  124417   -68125   -89627   108907   135239   -41290   -91795    -5854 
   -4364   -41587    26570    90968    17630   -86866   -80284   -27147 
  -25375   -30155   -15728     2138    35011    69449    45676   -45343 
  -55210    25805    42654    46934    57540     1211   -35930   -10980 
   32871    12076   -80542   -42162    95641    53851   -99172   -68860 
  100215    98054   -57501   -57808    54810    13856   -86929   -28706 
   62677    38840    29686    76699    88391    52234   -29081   -65934 
    -368    23909   -39121   -61011    -3751    22180   -27022   -36945 
   -4035       41    21031    66962    91499    14015  -130143   -88138 
   70161    50252   -24502    12675    32292   -12892   -30079     7740 
   29446    -5213    -9814    19542   -19074   -41750    32970    48672 
  -31434   -31703    43871    52265    -1664   -33788    -6899    21570 
   -3337   -31899   -53920   -46182    39502    46094   -54555   -14074 
   93269    14061  -130849   -74425   125219   107903  -101391   -40309 
  190425   118183   -95572   -91609    23805    38646   -20276     5489 
   82187    15690  -108481   -82913   -19921   -46120   -35644    48104 
   97778    47292   -55407   -47806    43584    33927   -35419   -63296 
  -49482    17484    33381   -28616    18959    89359   -18831  -133084 
  -50981   127566   143723   -43673  -120837    28675   113445   -17725 
 -118622     6518   134940    74585   -25725   -47488    -7970    40332 
   64605    70922   -17446  -124578   -44388    60907    16129    27172 
  117212    51749   -89956   -78291   -22477   -58101   -39737    47081 
   59261       72   -46893     7538    73919    -3388   -52422    12199 
  -14947   -38741    72020    81546    17002    87780    84365   -70118 
  -52923    98911    26902  -177347  -133240   108182   171363   -31169 
 -182135   -90316      680   -32257     3715    52587   -25420    -8820 
  153436   125494   -54133   -55427    51208    62176    -7230   -17449 
   62384    13628   -97639    -6653    74818    -9923   -59395   -58457 
  -61409   -15463    51796    52432     2861    59002   152717    18366 
 -170031   -65326   135965    70618  -113078   -25679   175653    33675 
 -189226   -34796   125181   -45162  -173467   -48689    94704   102959 
   24136   -64432   -72609    42333   104302   -22968  -111898    18439 
  109978   -21475   -99208    46844   135442   -22638  -116763    70888 
  148747   -64408  -108471   109342   164545    11437   -68543   -10534 
   23866   -37138   -34777    34128   -30607  -122681   -44223    59918 
   47342   -15949   -70028   -86583   -37824    51473    53608   -69630 
 -101588    25343    69806   -26754   -14234   133698   130858    -8654 
  -24076    54382    24036  -101797  -107448     -824    -7698   -79858 
  -28346    85431    65492   -69361   -66719    68447    84247     8021 
    4411    53147    80438    59450    21141    24323    15391   -37059 
  -21979     4245   -62517   -40542    89166    40472  -123234   -99879 
    6197   -36454  -113122   -67909    24984    61266    34840    -9153 
  -18001    16746    42442    29319    10623    16414    52055    50124 
  -31562   -48753    33473    74862    56907   -34036  -140248   -64783 
   89900    93904    48908    64304    62120    59915    60106   -22818 
 -109002   -85174    25511    78836   -71351  -214122   -73366   135883 
  124145    -5791   -61826   -32946     8286    24009    37596    19051 
  -37799   -25653    28391    17544   -43037   -58519     1092    25377 
    6847     8952   -19684   -25125    38428    53979     1967   -54351 
  -47958    43272    89666    52968    56017    49420   -28067    17116 
  127682    56952   -20138     5381   -46729   -91082   -25446    18085 
  -12629   -94680  -136377   -23585    82121    30658   -20613    10298 
   65198   118164   109932    85832   142808   139009    -2795   -23963 
  109625    70930   -87345   -52005    70768    81097    30163   -12429 
     282    27984   -30337   -99060  -105663  -109997  -106991  -119049 
 -145169   -66272    26443    -4607   -31973   -20711   -39222    13955 
  105466    51661   -75019   -74796    56393    93643   -57411   -75059 
  144893   224197    95410    53126   137524   109519  -115672  -239234 
  -93028    34707   -12546   -68600   -36030     5767   -54143  -125253 
  -23636   110573    35073   -95298   -56780    50760    68456   -22460 
  -67012    73538   175227    30788  -120173   -41866    97333    26419 
 -158637  -161477     4911    83963   -12989   -61915    62026   123047 
   10044  -136281  -180445   -18413   180985   146392    63727   147292 
  179983    63059     1930    97548   247474   275648   157867    91172 
  108645    16688  -146442  -175294  -100193   -36735    15511    13039 
  -21048    27054    39123   -99670  -201424  -118736    -3736   -60431 
 -195661  -175938   -34500    11251   -37982    39790   224241   222104 
    5957  -112005   -10624    62863    -4025    -2826   123368   202437 
  148690    25805   -41524   -53506  -121512  -224868  -238780  -126802 
  -26410   -44709   -53460   -21573   -87522  -157188  -120109  -102883 
 -103017     7530   146940   152373    53318    28521    94115    29546 
 -127587   -93531    40646    51798    84663   220750   220879    29023 
 -117880   -77121     3350   -88264  -182277   -38672    90415   -29705 
 -188014  -192476  -105489   -73782   -91971    55746   302131   271080 
   35681    -3054   172275   233158   -19226  -285533  -226022   -89054 
 -122724  -109519    84620   213086    75119  -139519  -163533   -38301 
  -36911  -183406   -98071   250501   384526   158237   -85655   -88891 
  -48344  -196996  -281507  -103451   111058   193391   125706   -17119 
  -35432    23690   -31904   -50371   147745   353220   334796   182055 
   81922    98166   189622   280095   314288   310438   360597   404304 
  238224   -29147   -61224    58479    -8186  -166272  -171860  -105990 
  -93226  -136257  -161567   -64117    66059    44079   -86389  -135352 
  -41159      860  -152032  -226881   -21742   162290    77473   -46196 
   25249    85080   -72062  -234690  -181335     9141   117748   -12284 
 -202105  -149809    -8538   -39907  -122298  -112082   -55223   -38488 
  -88611  -124392  -154998  -212039  -136465    -8375   -71689  -158721 
  -40604   144017   120575   -59892   -64950    11251  -139736  -266912 
  -50500   218942   177716     5647    -5815    45837   -13016  -104888 
  -79848    25892    33456   -58965   -50196    75545   120018    31144 
  -27945    48068   166653   205971   174193   202037   296827   215448 
  -97916  -320774  -217607    36367   138723   129779   170399   136399 
  -12379   -96270  -115656  -110359   -12177   123061   207017   199902 
   83712   -28561   -27221    59341   100279     3050   -83666   -17477 
   81973    71306   -14316     3963   185275   332893   293422   126705 
   44951   160929   218238    98410    61540   119326   124223   111258 
   82479     8811  -103277  -238120  -323463  -343850  -343655  -274757 
 -152605  -114720  -112728   -22416    67485    87397    69259    21572 
   41216   119824    72713   -68316  -155237  -167373  -110356   -22659 
   41299    57009     5443   -84923  -153040  -173801  -173800  -179206 
 -142823   -30320    59260    48603    14676    -1329   -50319   -69378 
   31070   174623   282645   354156   355930   284979   220373   193018 
  160405   169694   263232   320348   292971   255390   196452    93473 
   24109    61779   113243    48591   -17836    21220     9770   -68250 
  -36159    26113   -45171  -155849  -175381  -126072  -113419  -181921 
 -179944    12782   211904   212650    69768   -52603   -53610   -49492 
 -200095  -291283  -174372  -164659  -342496  -416345  -351303  -312864 
 -370214  -481056  -444716  -218346  -117129  -202702  -210336  -172907 
 -183560  -133571  -160215  -329798  -302252   -58260    58782    42412 
   89290   192751   189944    -5877  -159672   -52907    58977   -42657 
 -113798    49655   242917   182699   -27009   -45359   126343   225915 
  214303   202827   215941   181959    61099   -24676    24844   115559 
  142067   134338   169592   244085   284404   263225   169787   -29683 
 -238304  -279343  -106495   163434   263291    78784   -73596    27956 
  102169   -42222  -111174    45640   162139   124256     9407   -80644 
   -7014    64412   -23027   -40605    28092    29146    35153    31071 
  -43204   -97696   -72879    13131    20176  -112938  -175868  -120155 
 -128085  -204071  -177556    21686   233744   288768   179835    -3315 
  -52375   120326   256836   205908   156338   231592   314317   223370 
    3457   -69244    30819    74039    37054    15423    -8720   -58655 
 -130083  -194474  -180750  -121837   -95156   -75685   -89539  -185260 
 -277513  -243566   -75670    14506  -124900  -176989   121504   418717 
  394379   192311    49623    93857   186028    86626   -63250   -51850 
  -39377  -168821  -290969  -253784  -163417  -188626  -233450  -180224 
 -112115  -106554  -134223   -65441    99734   112787   -50061   -76988 
   99657   201412    60155  -164155  -167632    45027   142521    56649 
   14768    35283    -5367   -57208   -34206    18021    34356    53592 
  154332   262137   235056   146821   128024    81769  -131237  -324789 
 -179898   123253   186360    74826    45187   148549   223733    89229 
 -150296  -228042   -90474    45789     9195   -29848   134863   270747 
   90673  -149805   -76680   198820   373052   351069   222235   158823 
  164349    64549  -100441  -157449  -102592   -12712     6791   -67191 
  -33831   105672    70014   -84263  -116821   -59562   -17828   -48225 
 -118114  -133344  -154657  -196795  -123724    23817   103856   120016 
   70307   -74741  -201721  -233991  -206936  -128855   -88507  -174953 
 -284702  -285090  -183308   -71548   -38178   -68708   -61080   -26136 
  -28889   -56441   -77620    -4232   152130   221903   163930    82736 
  186744   550266   791431   626768   287651    19177  -109474   -48341 
  111572   156299    46878   -17946    38056     1966  -175705  -241355 
 -168618  -135847  -143886  -136003   -42420   134002   172474    84327 
  117074   187138   187432   295953   461501   442565   275601   127476 
   61297    24111  -112125  -299964  -399446  -478942  -514140  -303338 
   35104   150756    35135   -32034   -14366  -124047  -400100  -623317 
 -582456  -304680   -44652    40207   124408   308011   422609   427021 
  304899      -80  -299048  -406711  -374737  -317784  -258159  -153646 
   18564   230783   294547    37043  -335676  -462751  -301538   -67628 
   92321   181938   285445   350318   153686  -217386  -379990  -297516 
 -178634     4161   256280   419785   460113   329223    45674   -99985 
  -47313   -10495   -19715   -50738   -58215    90355   274444   294748 
  249601   207167    69588   -91449   -68638    64647     9043  -123301 
   20632   274067   233894   -49685  -157421    91834   286695    54333 
 -234927  -133259   112098    74974  -175107  -232826   -16148    81996 
 -116646  -317541  -290692  -130888   -87202  -246260  -300011   -61197 
  130139    60915   -85481   -97940    96020   250545   191677   230142 
  446954   447282   158155   -82016   -90054    53704   161182   112061 
   30074    51915    93287    83086    36888   -42884  -115467  -164624 
 -189803  -129542    21804   120713    51800     3256   152590   248720 
   80646  -128545  -116645    40643    41538  -171689  -205722   137896 
  370516   103214  -305435  -362127  -113727   -27602  -249941  -347503 
 -128922    61652    41349   -46741   -97322  -114859  -101136     3046 
  189397   295128   253054   189362   159363   110892     6349  -168116 
 -274385  -133780   107206   129995   -64009  -147500    -8940    40169 
 -171756  -384472  -354832  -123497    81422    63182   -19940   119089 
  342167   327487   114105   -68014  -152514  -151181   -97814   -75240 
  -13646   120092   104080   -11951    33148   142661   174369   169590 
  159566   167908   106135   -93910  -232162  -104702   160220   196335 
  -47027  -135856   100263   265380   111114   -59050    80598   338764 
  328338    52856  -143675   -63507    73562   -43030  -302646  -372658 
 -238424  -148966  -224241  -240357    37944   334540   287618    78805 
   44502   171261   176734   -51166  -209569  -121581    -6435     -240 
  -28685    21822    96773    47324   -24432   -33449   -97722  -240131 
 -355366  -327304  -206337  -158346  -109916    69155   198937   157943 
  108486    77915   -16836   -77046     1249   170283   292197   236572 
   37854  -120330  -100086    23291    15178  -112085  -107113     1659 
   55414   104603   134654    53275   -91220  -214518  -220720   -94708 
   -5632    -5512    33753   166129   289493   244553    90028    41570 
  104052   145842   151136   152870    99843   -11537   -56126     4475 
   61027    10774  -137931  -235678  -160533    -7752    65446    73853 
  118368   160040    59333  -126822  -184157  -116669   -86389   -74103 
   35843   160167   152024    78681    28960    -6872    28592   139059 
  203243   135182   -29695   -95534    13776    74264    13314   -12080 
    6470   -13806  -100178  -205241  -203639  -101288   -82512  -213662 
 -330081  -265817  -105865   -49298   -30445    88214   151822    35239 
  -93561   -76511    18404    53932    26254    34174    87102    82944 
   25075    45875   148335   176786    92034     9076    -9561     9578 
     912   -46647   -43165    21435    54268    17574   -46638   -52456 
  -15417   -74926  -172037  -102265    69396   149403   105368    -2623 
  -47301    24369    91063    93724    57433   -27115  -145842  -227421 
 -206193  -142193  -153337  -194529   -97237   130019   232056   128084 
   30311    35709    89922   119459    90004   121735   200015   134698 
   13350    36364   127447   112560   -20247  -126208   -85048    36341 
   74608     5252   -43796   -32539    -3258    83656   187864   173931 
   51262   -50620   -39865    18919     5015   -42849   -32729    17256 
   15844   -67531  -119248   -52683    31495    17436   -62273  -138940 
 -176228  -166125  -164395  -159549   -72450    12723   -19698   -63052 
  -18080    16774   -30864   -99061   -91236   -10679    24392     3527 
   35268    96418    66158   -35159   -94350   -74819    -5805    60283 
   73824    18873   -27351    19696    43111   -87099  -234599  -203081 
  -31079    72920    35639    -7218    23826    64596    50745    -8724 
  -13615    97993   194451   137349     9054   -21093    66034    95173 
  -58706  -222203  -181159    -2912   105233    29452   -99425   -43016 
  148077   239241   192203   119462   107947   167026   208784   140888 
    -491   -75259   -23724    51018    78533    99637   100877    40153 
  -44177   -84984   -38166    63792   100484    64892    73522    74311 
  -33195  -140341  -133816   -24958   117660   174205   143419   125415 
   67690   -17492     7499    31062   -67611  -141897  -105003   -34815 
  -20395   -65781   -47710    41779    30243   -42195     3993   113309 
  156408   101923   -30319  -140577  -174278  -184020  -163472   -80481 
   24778   112668   146798   104746     8992  -131622  -223486  -145715 
   16886   138784   163489    75505     5558    31490    65448    49103 
   -2335    -6739    87063   158960    96254   -16464   -66857   -70652 
 -110962  -186231  -164236   -62361   -20771     8879    63476    81245 
   82505    65077    20796   -19576   -65961   -71893     6973    88257 
  100046    23753  -107910  -136619   -28526   -10559  -128917  -156904 
  -42519    25205   -45241   -93485     6980   112497    97785    35142 
  -49187  -179800  -257345  -192641   -99083  -132325  -197420  -101600 
   79330   122355    14945   -53560    34914   155160   110154   -51408 
 -148442  -140340   -77577   -15689    18158    53617   123391   194561 
