Origin Time       2021/02/13 23:08:00
Lat.              37.7
Long.             141.8
Depth. (km)       60
Mag.              7.1
Station Code      FKS010
Station Lat.      37.2342
Station Long.     141.0016
Station Height(m) 50
Record Time       2021/02/13 23:08:05
Sampling Freq(Hz) 100Hz
Duration Time(s)  300
Dir.              N-S
Scale Factor      7845(gal)/8223790
Max. Acc. (gal)   487.378
Last Correction   2021/02/13 23:08:04
Memo.             
[...]
  -28115   -28904   -28840   -19268     5283    20821     6512    -9464 
   12685    48466    50534    27525    18639    33232    38082     8571 
  -24622   -22781    -6593   -17869   -31309    -6442    20583    11117 
  -14717   -31410   -32883   -21786      468    31457    56107    65688 
   57677    23847    -5706     4187    14665    -8748   -29204   -11982 
   22697    21500   -23683   -46271    -3595    57207    68412    31395 
   -4820   -18898   -15484    -1875     3862    -9375   -16144    10914 
   33208    10602    -9047     2041    -2232   -15454    17253    78521 
   90626    37220    -7523      743    14770    -3307   -19985   -16734 
  -22530   -31441   -15120     8626     2664   -27160   -31780    -5340 
   10050    17216    34052    45451    37295    16876    12384    23228 
   15761    -6592   -16584   -14038   -15446   -16789    -7516     1644 
   10110    15118     2660     -612    32061    65713    47571    -9154 
  -26210    16673    47414    21282   -26522   -41814   -21706    -7129 
   -5150     2049     5386     6021    13845    11384    -4374   -10879 
   -3600     5275     6511     1626     5082    19861    29910    25473 
   13454     5624      382    -8199   -10932     5691    23766     2926 
  -36413   -37076    -8753     6208      394    -4430     9385    35380 
   53951    45354    25370    25855    30423    15853   -11079   -30109 
  -20713     -278     1687   -12214   -29968   -30748    -1256    25949 
   21591     4653    -5579    -6832     7843    27361    28120    16025 
   15876    25682    22346    12480    10779    -4540   -42900   -67674 
  -54788   -20988    14307    35206    40756    55830    71216    51903 
   14732     4689    17714    14419    -6338   -21641   -37292   -53535 
  -49673   -31467   -13358    17807    57438    68616    40207      884 
  -19083   -19341   -15890    -5825    19114    41580    41250    30025 
   26717    28669    30275    25951     9373   -10497   -28063   -49765 
  -62622   -44707    -4179    25664    29263    23082    12726   -10508 
  -27379   -16166     5551    16069    19256    20775    18643    13614 
   16340    31341    41802    35642    12307   -13340    -8488    16688 
   15904   -13193   -44011   -69259   -82449   -61942    -9842    39366 
   67263    75039    68069    64525    72696    67748    25104   -27963 
  -41369   -28622   -44955   -79932   -75739   -35841    -6010     9173 
   32216    57942    61979    52061    47104    36414    20675    19788 
   24676     9860    -7943     8486    33385    13223   -29304   -34663 
  -11649    -8564   -28105   -31729    -2779    25791    30434    30021 
   26705     3130   -22721   -18373     6741    18759    14770    15880 
   21898    17082     9772    16927    33129    52408    65907    42889 
  -21633   -69651   -47688     4399     6836   -29722   -35041    -1576 
   26586    22881    -3591   -20667   -16677    -5702     2127     -900 
   -8619     -614    29193    59850    54514    12977   -14530    -8029 
   -2752    -7404     4745    17467    -5794   -39762   -40259   -21932 
  -12205    -2299    20758    45959    52537    44556    22908   -19057 
  -38303   -14523     7130     8961     3908      438     3801    14827 
   30288    30628    13547    -2282   -25870   -44998   -26515    -4828 
  -17602   -23668    10670    47491    48232    38076    50452    60021 
   36602     3003   -10519   -10311   -15067   -19585    -7560    12923 
   15039   -10746   -32451   -22145    -9358   -11506      577    17373 
    8591    -1358    17370    39036    31384    17354    31445    57546 
   61901    41079    22056    17645    -9607   -66056   -88412   -52544 
    1814    28579    13046   -10519   -13876    -8708    -3403    12104 
   32003    41008    44423    40356    26736    21243    11830   -23726 
  -54324   -39491    -5935   -10444   -36931   -30663      535    26689 
   40845    38475    30935    41953    74285    91824    61229    -3107 
  -64127   -84352   -63232   -36618    -7194    31606    64185    74178 
   42040    -3084    -3095    11978    -4876   -14432    -6991   -39190 
  -87536   -69564      317    45099    53337    61869    75780    81436 
   74321    35692   -33231   -88831  -108054   -87524   -25675    23433 
    3931   -28304    -2155    41860    52914    53148    53403    35413 
   19120    20054     7666   -20476   -34520   -27739    -7325    13271 
   18177    10944     7574    23294    61485    80900    35093   -32251 
  -44791   -14071     2404    -9433   -26504   -31866   -14216    30064 
   57412    39908    27433    38344    29812    -2860   -18960    -5393 
    -548   -11483    -5941     5935     3277   -14535   -38966   -38847 
  -10052     5034    -6762    -7095    17513    18094   -14386   -12467 
   26932    33091     6736     9285    39127    34203   -15718   -41212 
  -12733     9209     9074    26893    35534     7607   -12514     7753 
   35870    33961    35779    57025    35573   -28217   -52882   -25265 
  -19695   -47386   -26129    51888    86563    42732      224    -2818 
  -17189   -40481   -19094    15379    10490     8483    37948    36715 
  -11592   -21095    39453    73735    26022   -15495    11672    31306 
   -5100   -26226      947    18917    13381    18603    15203   -27206 
  -58274   -32884    -1475     -953     5486    34705    57771    43181 
     504   -22027   -21146   -26632   -25496      527    37183    62788 
   63437    39329     5023   -20792   -22338    -9088   -16382   -37817 
  -38047   -21851     2934    26094    14835   -24942   -56146   -56535 
  -21726    35016    87056    96422    57507    22898    13533    -7087 
  -35540   -34180   -12899     6891    38989    66121    36321   -22646 
  -21830    26650    37615    11800    -5186   -14490   -23901   -26616 
  -23668   -17201    -1516    20196    35091    40454    32934     7017 
  -13884    -3838     4822   -15372   -22351     -853    18986    30353 
   30450    23172    22698    33914    59043    77033    72045    54707 
   15435   -37755   -68924   -74945   -50434     7329    42516    15566 
  -25554   -18138    11207      943   -17660    -7769   -23082   -69053 
  -74123   -37656   -20347   -35116   -45674   -23992    17594    42329 
   34749    12151    -1124    15473    61677    92264    61456   -14512 
  -70668   -64563   -28998   -14531   -22026   -41643   -62468   -51560 
   -2081    46098    60762    54645    54268    55163    44543    47981 
   75149    71167    23444     4716    46534    85633    77244    63869 
   65989    50681    29073    30676    41011    33941    23900    43964 
   67016    39636   -16935   -38300   -20268   -15581   -37608   -52008 
  -45739    -9120    59517    93881    45268   -23325   -34924   -15904 
  -26040   -45038   -46068   -56425   -74752   -80790   -88762  -104296 
 -110690   -94833   -51368    -5757      202   -32283   -66811   -72513 
  -42284     3072    45589    86763   116514   112450    75223    25348 
  -16621   -37810   -45156   -48840   -33786    20353    98844   157816 
  161011   110347    59591    50026    57352    62411    67602    43510 
  -24071   -86913   -96458   -71537   -55923   -45246   -26343   -13621 
  -11619   -20096   -34119   -31965   -22203   -46639   -94181   -93492 
  -45979   -31342   -49036   -34528    11659    45486    66340   100546 
  118289    71200   -23525  -107353  -130592  -102147   -57952     7507 
   79203   102452    63244    -6570   -82467  -136458  -101750    36648 
  174854   235383   256270   268631   250087   198632   132687    66147 
    9609   -35922   -56127   -18671    48917    61138     3464   -77332 
 -170158  -257060  -287625  -254260  -189135  -103339     -936    99307 
  176071   218768   237165   235209   211221   181035   162369   151083 
  119550    80646    76378    69596     2312   -96627  -164000  -177427 
 -155883  -124973   -87855   -28179    52332   123476   158938   150012 
  104526    23881  -105845  -243504  -296762  -254955  -195478  -158241 
 -129255   -90423   -46014   -36606   -70055   -94390   -76177   -14060 
   51962    45863   -30064   -85791   -74468   -29450     9328    39544 
   73714   101979    94410    49140    11522    11672    29272    49233 
   72130    73233    24896   -47046   -73047   -44976   -33517   -62051 
  -79331   -47424    20208    89999   130990   136094   144084   169742 
  184069   189083   189761   163425    94497   -11607  -101541  -106220 
  -34847    48736   117571   155530   130337    57530   -27842  -111990 
 -155282  -124270   -36383    67574   138848   149338   125154   104727 
   80987    46826    33604    56166   115358   200929   257087   246534 
  176557    63020   -62417  -170896  -235724  -234976  -181916  -106517 
  -57407   -69422  -106717  -114805   -72296    -4045    35869    37594 
   28744     3122   -62590  -159003  -254024  -299374  -264552  -192524 
 -114654    -6893   104895   165481   172303   151274   112051    35638 
  -72767  -153250  -162850  -107550   -22586    41108    68655    80482 
   67116    13085   -48959   -80370   -92739  -118559  -146913  -132463 
  -54373    57983   138605   161430   178740   210895   216703   196053 
  164245    97259     3618   -53134   -42345   -18958   -58573  -155332 
 -198015   -66560   194597   370909   353299   265936   208414   129135 
   -5055  -166276  -280386  -245097   -84316    88524   206855   210509 
   92346   -43100  -116708  -164691  -219952  -213062   -91821    92934 
  258076   332293   306269   234596   131928    -1526   -92623  -102011 
 -111065  -174988  -230955  -232727  -220008  -235558  -284918  -324792 
 -297537  -198235   -66162    16665    -1692   -37728    -3375    60488 
   87473    69252    30245    16050    44329    75343    89000    94680 
   89876    97573   135198   159598   149029   118115    46440   -76237 
 -198856  -256162  -245803  -216352  -169438   -82925    -3065   -10203 
  -95596  -132819   -42788   114264   257798   348723   364371   313903 
  226260   112718   -13373  -111969  -146499  -128947  -107985  -105236 
  -88538    -7593   125481   213586   203538   171406   186888   174609 
   54392   -93285  -163606  -152340   -92065   -10080    83324   177248 
  236780   223474   107381   -79118  -217632  -236318  -190678  -142734 
  -75390    28142   136890   218670   261855   256351   197868   129328 
  124349   194571   271277   304678   307937   295427   260319   178106 
   21442  -174538  -331924  -409185  -410564  -353909  -253466  -155682 
 -130935  -198829  -305962  -356553  -309086  -228495  -163698   -75012 
   65700   192541   229748   206890   164883    82644     2200    10363 
  106612   227703   315457   353604   366967   323295   151158   -94594 
 -262932  -288472  -236790  -184978  -130134   -64762   -28210   -49048 
 -107596  -134909   -97173   -54098   -44143   -41966   -43825   -56388 
  -80593  -124777  -165233  -172692  -140676   -59124    55204   160124 
  232623   260208   235583   175131   114860    59200    -8333   -27654 
   57294   151568   136120    23143  -103702  -171128  -171127  -167838 
 -163066   -79405    78160   220440   285156   274433   236741   202752 
  175088   158950   122457    29914   -53840   -37562    59609   154057 
  197221   180246   110586    20201   -48143   -75375   -52247     -247 
   14588   -25064   -83184  -136557  -157442  -139148  -129532  -164658 
 -231580  -279510  -231645   -64195   121070   187274   125748    51401 
   30161    -4617   -92403  -130914   -59837    64756   189646   259208 
  253022   212657   162113   114365    48026   -82622  -224070  -273469 
 -236468  -209349  -238913  -282182  -308507  -321044  -297746  -237139 
 -155348   -47583    53473   116249   154321   161902   137088   108008 
   88403    91539   137282   203287   227014   186395   135398   115794 
  105835    88385    85016   125104   190200   196187   102120   -26249 
  -88990   -46457    18774    20737    10817    62711   178640   319536 
  402339   386451   322741   233825    91735   -79092  -180431  -177877 
 -173685  -206506  -174842   -50965    64639    93167    52500    11198 
    -961    -9536   -17720     4950    55939    84944    26717  -118686 
 -254862  -316908  -330902  -310346  -231579  -111867     1937   108351 
  209471   257585   239669   184204   114548    95585   139999   168161 
  174816   171941   119655    42078   -21452   -54361   -49474   -63628 
 -123051  -186721  -237292  -254091  -229578  -221738  -255658  -267317 
 -211873  -115514   -38450   -54954  -164357  -272411  -314064  -276667 
 -189715  -125398  -119885  -145335  -155144  -111019    -2794   119392 
  176013   157609   132104   132243   111149    39303   -40251   -82236 
  -80701   -45816    -9840   -22751   -88592  -156146  -187721  -165736 
  -82822    29562   155189   289597   370179   398004   445648   467183 
  381495   219078    68312    20061    71778   104970    53435   -50695 
 -147823  -150124   -40805    57275    65574    39795    56079   124896 
  193596   223020   195255    82479  -100260  -265075  -321922  -275381 
 -192462  -131629  -130094  -162642  -185803  -191425  -167004  -133209 
 -127919  -112984   -42730    59617   163154   249096   275113   229929 
  179362   175155   194832   181144    89726   -46292  -136047  -142908 
  -89436   -27533   -35199  -110533  -165009  -172566  -167953  -176921 
 -213487  -248972  -232240  -147075     3281   198786   358668   388578 
  297299   170067    49878   -72156  -177415  -213335  -198617  -184951 
 -138848   -54907   -14107   -41906   -90285  -108747   -86694   -56686 
   -4222   105780   216769   280431   330261   384239   434421   481947 
  516466   514885   464231   353408   158496   -88803  -258477  -281196 
 -267289  -318228  -373339  -372001  -343018  -262392   -94479    62055 
  101499    55140    35355   123352   260590   306215   222199    80109 
  -45378  -109290  -107415   -97357  -148346  -220340  -183516     8251 
  250510   374197   315828   176025    47463   -59483  -138256  -167070 
 -135423   -76563   -10234    94734   203548   220086   129246     2909 
  -98666  -167410  -200763  -180283  -115300   -39633    28981    78233 
   72401    -8743  -122299  -218425  -283574  -292362  -214057   -61372 
  126184   296936   390672   381854   274827    79660  -155819  -352174 
 -438813  -398150  -287809  -141130    70174   290031   383648   326720 
  197665    49873   -77126  -142221  -131490   -80325   -51147   -22897 
   45843   103761   115813    81247    17317    -3003    34013    68611 
   78035    70812    52826    22875   -16121   -32466    -3372    33604 
   34531    -1740   -65670  -122723  -120384   -75249   -46059   -30215 
   15097    98319   192478   258612   260408   197322   109702    51904 
   62267    97735    62553   -30044   -75389   -60673   -41304   -26696 
  -26014   -56330   -95809  -115368  -106151   -84068   -40024    60126 
  162594   182926   137420    85878    48138    -9648  -125512  -242009 
 -269036  -230742  -188181  -128201   -28927    87583   167265   171208 
  123452    57233   -13848   -61884   -55969    13230   101553   159277 
  196082   208234   176532   121401    52570   -16698   -41370   -35982 
  -58746   -93916   -97852   -74263   -37968    -9995   -10311   -34846 
  -77276  -107806   -85762   -33939     8052    48154    94490   125217 
  113386    46576   -55339  -120753   -88252     8872    94269   138823 
  159044   159282   121311    44797   -65589  -184449  -236362  -178335 
  -36166   133238   252593   254713   123184   -70271  -203590  -223615 
 -153420   -36278    77036   174244   261798   297866   265593   206433 
  137647    66517     7188   -51464  -117763  -171039  -169296  -104021 
  -29448     6272   -14029   -89000  -175656  -219299  -200200  -132471 
  -65880   -39272   -28993   -15935    -7267    -2344   -26040   -74137 
  -78970   -27513    39472   115638   197286   252364   248894   176057 
   66055   -28426   -84882   -86703   -12205   102342   184665   202301 
  156253    74587     4172   -40220   -58735   -44964   -18432    -4452 
  -18226   -65862  -116831  -128069   -92317   -46575   -31163   -41111 
  -45584   -20723    35522    84742    92055    74428    56992    35545 
   -6837   -70343  -122048  -133903  -106455   -46782    15668    30973 
  -13161   -75247  -113069  -132964  -151864  -151236  -118775   -65144 
    1216    61990    88398    74359    45634    27506    25108    28965 
   27380    33681    70876   130867   189758   219584   196867   134473 
   50152   -52026  -131507  -140298   -96912   -57994   -46602   -43911 
  -20453    30439    74700    71034    10270   -80747  -153605  -178761 
 -170529  -164335  -170729  -165831  -134847   -68295    42618   156135 
  209842   198428   163701   125409    63516   -19003   -76208   -86643 
  -65867   -18727    51498   120348   152535   118750    39278   -23718 
  -46866   -37561    15681   105416   175504   177132   125061    57715 
   -7704   -42566   -29403   -14227   -26828   -21519    20090    54735 
   63270    64859    75481    78354    54588    32578    39033    59813 
   71018    65691    59317    49573    12137   -39109   -58060   -28512 
   14586    28448    15610     3685    -9757   -42325   -80076   -98682 
  -95420   -72416   -36838    -3946    25254    53388    66264    52683 
   18675   -26458   -71497   -98532   -90688   -51811   -15562    -1966 
    4675    14739    21624    19365     3065   -27841   -59942   -69426 
  -45403   -14791   -14735   -41582   -67062   -76339   -64289   -24058 
   42291   107770   138322   123801    81571    43584    29536    27837 
   21895    22334    43661    61284    41084     -279   -20605    -9406 
   12609    31409    59057    97453   118253   109058    88427    59325 
    9516   -47183   -92317  -127284  -147604  -135814   -87637   -28517 
   14617    27540     2104   -27712   -12391    32877    56157    50461 
   55729    88076   113505   103396    74201    66710    92880   114002 
   88059    21872   -39125   -64794   -65234   -58410   -42649   -30672 
  -59283  -116822  -148528  -146024  -139098  -139544  -137867  -118008 
  -69377     9242    96978   141342   114085    58120    28714    28158 
   19550   -16526   -51834   -54643   -37434   -38319   -69836  -100965 
 -100828   -65803    -5024    57052    90879    95107    92232    87415 
   67576    40616    30913    40051    39425    11264   -25411   -44572 
  -41384   -23720     4239    34626    58280    76554    85980    81058 
   68458    60316    64825    78232    89077    90026    85455    83577 
   75663    50766    25007    17853    15172    -7354   -38576   -48698 
  -38869   -30735   -21108    -4490   -13134   -62062  -111910  -131062 
 -118037   -72424   -11242    18507    -3963   -35877   -27035    18195 
   55787    61447    53676    45488    21772   -13150   -37288   -42234 
  -19862    21748    49441    47590    26264     3728     -571    22161 
   63861   102456   111230    71469    -6731   -74205   -94783   -90914 
  -95476   -96020   -63486    -6054    40396    52485    26430   -27051 
  -78775   -89797   -44608    19047    41243    15005   -10042    -1225 
   28023    45191    29388    -2612   -16410   -10358   -10353   -23689 
  -30458   -15511    15188    44428    54781    37343    -1561   -39163 
  -45435   -15637    14620    23118    27113    33955    30607    11352 
  -15323   -32189   -29513    -7531    26130    48643    49559    44176 
   31595     1987   -24359   -19724    21489    71833    86548    67269 
   50711    35865     7605   -14840    -7720    21775    48176    57466 
