Origin Time       2021/02/13 23:08:00
Lat.              37.7
Long.             141.8
Depth. (km)       60
Mag.              7.1
Station Code      FKS008
Station Lat.      37.4363
Station Long.     140.5668
Station Height(m) 430
Record Time       2021/02/13 23:08:08
Sampling Freq(Hz) 100Hz
Duration Time(s)  300
Dir.              U-D
Scale Factor      7845(gal)/8223790
Max. Acc. (gal)   160.846
Last Correction   2021/02/13 23:08:08
Memo.             
[...]
   63973    -9718   -46279     5960    18207    -1695     6812    19498 
   23449    27823    44311    24084   -16290    19144    24005   -45512 
  -38827    -8942    -5351    44479    63410    34225    30558    16212 
  -20499   -29022     5289    52452    49663   -12935   -33411    26387 
   41881   -12210   -22025   -13232   -21772    19249    36495     6596 
   40828    62297    28399    21409    -7082   -35815   -14045   -14932 
   -8530    30218    38889    35722    35133    30542    -1894   -59584 
  -14193    90039    68577    -3318   -17682   -25195     1115    39307 
    -504   -14801    29882    25062    12279    -1297   -37640    15174 
   81009     6399   -59101   -32211   -13081    40608    75064     8293 
    9591    81048    54670   -14331   -24541    -5116    20005    35222 
    -824   -21546     7384    -5598      556    41200    20294    16471 
   20214    -9448    -3759     7896    31110    19788   -12870    54272 
   30767   -55942    48662    99588   -17119   -43993    -2246     3373 
   -1946    -6322    18027     3801   -54486    -8789    48944     7986 
   -1206    39181    41832    20569    17068      315   -20738     5680 
   23406    19224     5625   -31622     6540    69117    18582   -34047 
  -15140    30443    73377    -4050   -89152    37561   120105    15273 
  -18499     6940     3939    23515    28819    37187    22187   -35857 
    1387    39634   -32005   -22453    48959    14305   -26990     3847 
    9801     4290    54198    51356   -28389   -20942    43139    22589 
  -21316   -21621    -1194    56828    72441   -12081   -47547     3659 
   40450    36648    12795     6222     3009     6362    25289     2047 
   -9744     8984     4739    44856    73899    -2799   -56768     2766 
   58947     7271   -31995    28178    45134   -18582   -42142     1966 
   47884    41979   -18454   -52583     8514    66529    54130    23612 
  -25239   -29070    32788    31515   -16421   -32124    -8279    32524 
    9846   -18003    45139    86386    20590   -55341   -30774    38141 
    9084   -53707   -13271    29403    39945    77612    17158   -28044 
   50870    -3191   -70850    26879    29527   -31012    14206    34946 
   27951    54688    41389    19423    -3651   -64891   -38997    47428 
   35399    10523    39375    48579    55827    13055   -71996   -27866 
   33130    17396    62164    44882   -40861     1728    63674    42133 
    6099   -21556   -24606     7560    53469    43403   -20733   -18848 
   11515    27013    62510   -13586   -87250      729     8797   -12729 
   64023    52072    50306    71047   -29543   -15221    90401    23461 
  -52370   -19996    -8822     7682    41069    19542     -329      313 
    5479    53707    40517   -62981   -61279    31448    34657     2047 
   22191     4549   -39483      249    42697     3879   -15697     3341 
   10740    34798    57052    39621    -1534   -27093    -3612    40144 
   39428   -17189   -50573    -8079    57011    63444    -9240   -46754 
   -8430   -10359     3117    78491    46481   -42232     7384    87917 
   49272   -11037   -12572     8217    19931   -11410   -36587    17064 
   57418    22848    13351    48851    29984   -24163   -25789   -13115 
    5838    32745    -5537    -9768    37122    16707    69352   127623 
  -12039   -69093    38094    44139     6669   -32456   -93302   -12089 
   89247    31066     -776    34029     -476    -5313    52755    13014 
  -63099   -26218    31812    32269    15812     4189    25024    53603 
   59362    25134   -48348   -31382    50799    36445   -29019   -55409 
   -8017    65191    45265   -10044    -5746    22636    22401   -18211 
  -23588    10254     7722    -3384      511    20547    27413     1291 
   11310     4197   -14999    45511    51625    10377    33643    14851 
   11009    74515    21980   -53877    -5697     5121   -19912     7101 
   -7203    -4550    70190    62100   -24367   -31143    13018     3701 
    3445    32413    37597    37370     6998    13189    65194    -6571 
  -84946   -27611     9549   -23380   -37247      869    60744    88190 
   68700    36204    11610   -42824   -79529   -33118    -8760     5962 
   68143    63977    65349    79560   -41019   -68478    34433    -2394 
  -10413    60470     4058     -259    74587     2150   -49875    42061 
   38504   -23916    26682    17540   -61950    -7661    48097    -3456 
    7554    36012   -21338   -22643    35137    17826   -23490     9180 
   62239    53785    20857   -13035   -39330    19950    47399   -43318 
  -11568    94711    42495   -13136    17528     8228   -41183   -12189 
   84341    26589   -86062    -4087    79207    51001    16684   -34971 
  -26400    82645   115183    12550   -58662   -53877    -5498    78175 
    8884  -102559      892    64044    32498    58927    13563     -562 
   59796    11051   -47526   -61627   -66796    26345   110928    40188 
  -54496   -19715    61431    64918    33096   -16325   -59719    -1038 
   42167     5861     2018   -15017     9759    61338   -19353    11025 
  164286    91257   -32004   -16761   -33366   -25188    42272     4345 
  -25753    24402   -26546   -28771    88331    43335   -33597     6076 
   -5038    20236    67282   -18451   -50780     9300    14747    41623 
   28637   -47231    17670    44583   -40234    38869    54616   -85876 
  -14976    90917    20081      510     1163   -20513    44838    52897 
  -21764    -8503    62603    63994   -20263   -54931    -1807    14030 
   17336    53547    35795   -24582   -23440    13159    11446    29768 
   12004   -68376    14116    95422   -28767   -21066    99292    53019 
  -38881   -49971    12946    22540   -46462    12366    60970   -54414 
  -76885    29736    89303    83856    46488    17501     5274    -8483 
  -14505    -3620     4171   -20922   -13163    32945    38894    51972 
   23075   -41266      861    20946    10741    33052   -31639   -31773 
   20614    -7956    45902    64134   -22041   -11955    15464    -8024 
   10409    61663    26674   -38399    45127    48991   -65361    35618 
   86432   -35098    11313    32301   -26658    37868    14509   -33586 
   33750    -7628   -50080    45674    69610    42079    55344    -4356 
  -52004    40775    96516    -7353   -88731   -32509    28543    50707 
   29475   -59783   -33937    65016    50746    37467     4762   -75412 
  -43988    46322    79263    21340   -53366   -21736    35714    42264 
   33809    36381    35833   -31240   -74221     8623    90063    61538 
    2924     5800     7749     6743    19280   -36936   -37808    38010 
   22210     9277    22486   -43552   -60867    31564    71173    23957 
   16445    21644    -7426    47352    73458   -30816     4387    67335 
  -36491   -16835    17761   -53851    11974    45964     7966    39047 
   18029    18831    48963   -23325   -45382    64072    92076   -18447 
  -74394   -32169    28059    63219    33956   -23934   -30160    17005 
   13531   -17798    54000    86684   -16013   -52172     -981    45503 
   69890     3643   -51436     7601    34755     6708     7484     5431 
   -6856    -6571     8025    43125    58577    14812   -17037    19344 
   46134    16989   -23418   -48374   -38499    18589    72508    56200 
   -7215   -24335     -438    19030    43209     8797   -25720    33717 
   28098   -14623     9907    -3480    20933    54068   -27194   -24499 
   41874     5179    15045    65087    29166   -18771   -41484    -3088 
   57866    27712    -1078   -16767   -52358    13753    85557    52807 
   12672   -19219   -16008    34356    22037   -16441   -18316   -35966 
   23406   114590    21955   -48312    29382    -1116   -25744    33864 
  -40359   -62679    49351    29374    -4689    61800    10480   -68408 
   34947   106018    -2462   -50676    18733    34461    36344    36074 
  -29835     9857   115146    59233   -13266    11075    15287    -7596 
   -4914    20360   -22647   -86895   -17959    60184    52093    41355 
    8048   -17440     3672    25551    40941     9884   -28926    -3843 
    9151     5919     8401    -1850    41879    62295   -24715   -48105 
   47274    93441    12582   -59686     4468    60606     7597   -20987 
    6594    20378    -1371   -25791    -9189    18470    20904     1286 
   -8748    16827    40456    47407    26433   -33818   -26069    56135 
   66213    20860     3145    -2767     1933    15307    14608    19869 
   65300    60193   -37571   -13732    68667   -19631   -39634    68750 
   37524   -39901   -33748     3438    63074    62263   -23687   -51160 
    1031     4467   -22751    19333    22794   -45682    -4095    75983 
   27950    -1422    51682    26989    -4679    25188    -9414   -21898 
   20313    12094    29378    44761     6372     -340    -4070   -11422 
   16699    19114     3928     4769   -10185    14080    56254    -1161 
  -24139    47217    23722    -8534    34307    18994    24108    39102 
  -31229   -15932    54378     6280   -52272   -29748    18839    58387 
   63753    23244    -4629    13934     6509   -11098    28557    71351 
   54357   -18477   -19988    54531    41986    28231     -888  -102655 
  -14013    96391      -89    13354    46408   -98782   -82904    78695 
   77076     5620     -256    39702    74017    25335    -8397    42427 
   34176   -22183   -17490    54139   119353    47584   -39843    19386 
   46400    12954    31027    -9167   -42886      248   -67520   -95219 
   48941    37281   -77311   -10673    59404    15985    -1725     5971 
   18663    38857    14804    13189    63293    43179   -20362   -34102 
  -12469    68311   111742    22837     7074    31600   -68953   -64018 
   23453   -38519   -87111   -51125   -24057    37453    58726   -10967 
  -30015    18690    32879    10399    20059    39957   -11173   -55020 
  -17456    10206    10598    -5113   -45928   -34911     8135     2833 
  -36660   -63913   -17342    77476   110945    67852    12673    -7927 
   17120    73624    75745   -20325   -70775   -45416   -38011    18746 
   50886   -56552   -57167   101529   105213   -12704   -10282     6093 
  -36667    30005    75901   -60070   -89434    47034    77512    41767 
   14458     -994    72272    86131    26875    30473   -34815   -69823 
   52027    64245   -10397     5907    26283    57673    74559     1953 
  -12154    71793   111017    68362    17085    24063    22701   -11118 
   39613    94741    61560    54410    25662   -62301   -43011    52785 
   96346   117810    96970    28362    52340   117869    68967    13640 
  -22990  -109846   -82711   -18053   -97012  -117293   -60230   -48706 
   17185    46966    -9732    -5679   -25243   -72987   -18346    27642 
   41111    70017   -20525  -132741   -88595   -19768    32389    89263 
   31171   -41751    13728    73570    30735   -53846   -73539   -45711 
  -42438   -19920   -14578   -83967   -58681    68698    60281     8773 
   72122    50916   -46792   -26462      981   -25983    -4961     6204 
  -17482    26307    49751   -50670   -65988    55953    56340   -27945 
  -26164   -10053   -12968     3597    45237    87974    92654    86908 
   59103    35606    86751    97857    25033   -33523   -80912   -73473 
   24632    82239    59058    40787    60286    99517    75107     2975 
    7267    15242   -31282   -14974    37778    22302    13171    90147 
  113139    33582    24082    77094   106367   150385   137092    12594 
  -56258    -7219    21057    16680    26233    13815    -8592   -20682 
   -7261   -11159   -77789   -69421    -8307   -25312    -1883    34379 
  -18781   -54688   -66857   -34192    24078   -40991   -37962    96394 
   49549   -44879     1402   -11487   -35055     6737   -17845   -34398 
   -8783   -31692   -34291     1648    15966    -3261   -24254    75097 
  160725    24266   -26694   126446   144336    61300    34670     1429 
   20148   121747   164365    86894    20746    71544   147511   133752 
   73587    84219    92053   -20150   -83515   -21498    -4144    -3219 
   60718    52706   -66715  -126480   -62922   -18485   -36535   -33281 
  -47042   -84434   -63991   -62966  -124656  -122872   -68926   -44926 
  -31502   -41878   -55375   -35413   -19978    -3115    12642    39351 
   89677    78887    28823   -10721   -73458  -106979   -97360   -85426 
  -41774    16123    23005    -3503     6272    38200    46271    46711 
    6909   -86622  -103536   -10463    72684    97748    68785    38142 
   41793    -1910   -23592    58546    76852    14936      492     -656 
  -19072   -50500   -96223   -84133   -10693    22998    17513    47460 
   74903    63675    84539   141552   167553   133088    79554    84861 
   79961   -13709   -64912   -39132   -56101   -88742   -54695    24648 
   83731    59455   -13597     -959    79924    84696    29531   -16922 
  -21415    76581   125424    -3503   -50614    52560    54058     1514 
   25837    36157    12214   -18416   -51254   -21524    34287     9069 
  -43139   -38090    11527   105514   143172    36205   -39556    -3944 
   29675    33566     3958    -3257    42080    20174   -38974   -17691 
   30339    42311    19801   -33939   -85897   -78435    17092    85375 
   -8824  -115948   -43335    68737    50240    10270    46797    61647 
   28113    23217    26445     6259   -27157   -71643   -89270   -56632 
   19410    90859    82695    41031    25451    -4625   -12976    54724 
   81560     2870   -17961    44315    42132    32447    53928     9036 
   -5024    81357   110686    58513    30514   -39316  -149497  -107449 
   14651    39050    37538     7240   -46633     1872    43445    15915 
   42562    52276     7275     2428    39307    88746    15047  -157921 
 -118820    18334   -18576   -35014    -3640   -30553    61217   135930 
   34782    30562    85796    11254   -27804    29799    63747    39259 
    6373     3700    -4542    -4068     7751   -55935  -122353   -66775 
   21170    32829   -40410  -143839  -142803   -34947    20942    -6459 
  -23997     8248    43949    53566    75438    69857    14902    25339 
   75439    33443   -56444   -58923    16931    24487   -31542   -29265 
   13080    57635    84021    64856    80179   111262    52444     1471 
   25938    49455    53323    12649   -40670   -40065   -39436   -51327 
  -48510   -22612    55335   105838    57114     4787     8591    12546 
   21859    73661    67216   -57258  -102292    27307    90856     8016 
   -8199    62928    68898    35124    50874    49296    16349    58585 
  103466    66580    55453    56293     9081    16687    58320    30686 
    3377   -20270   -99720  -103307     2023    47576   -13170   -83319 
  -24302   105055    58881   -44925   -11434   -14666   -36915    41474 
   33264   -65404   -62066    -9937    19233    64008    53385   -36043 
  -74773    -9852    51821    -2112   -77737   -48315   -18883   -34030 
   -6081    20105    18742    29574    25138    18611    11317   -25374 
  -17388     6913   -58207   -85874    10708    93401    93748    27392 
  -34967    -2305    50121    37143     5120      -85    20592    19057 
  -17780   -33727   -14030    24313    43752    11554    18945   112145 
  135785    66494    40807     4774   -45234    23213    62193   -35390 
  -50086    27927    41370    51609    60480    -9405   -34739    34118 
   52843    30237    45793     2578   -69635    11384    71351   -73701 
 -135170   -34642      909    32512    87249    42489    -2151    18893 
     330   -38612    -3943    56563    19357   -68165   -31943    49736 
    4175   -36834    -2012   -14828     8109   102467    90215    16853 
   28243    45069    18686    31237    52131     1578   -61850   -58969 
  -16945    12529     7755   -13282    -3603     4205   -50287   -93224 
  -34430    58369    56274   -15094   -33137   -33002   -49819   -16839 
  -10559    -9057    87655    88323     8833    69438   101910    22653 
   11500    29976    29299    60980    42363   -26936   -28391   -13197 
  -22704     3858     5584   -19939     9946     9768   -30238    32436 
   92870    19039   -29879   -20717   -43776   -13825    39143    20821 
   37168    80948    36065     4149    65292    80580    14322     9772 
   68462    58490   -13077   -39260     1777    35218    16066   -24115 
  -57215   -34072    43187    49526     6574    35270    45766   -30939 
  -60146    -6575    12645   -34519   -66879   -27481    27675    16038 
  -15427    18944    70301    83447    89428    59728     9963    31414 
   25905   -49365   -13084    66116     9452   -41438    16016    47029 
    9450   -15645    14980    84584   126216    94297    37566    19990 
   -3717   -71928   -76285   -17772   -15423      650    56840    43993 
   11398    18169    19167   -14831   -52749   -16438    28048    13404 
   38065    55135     7449   -20459   -47429   -55314    12060    67956 
   36647   -30539   -22712    37917    34666    -2617    -3063    24120 
   44620    -5325   -76407   -37659    24204    19287    47721    31915 
  -95566   -71440   107233    94784   -36863     3404    73680    27236 
   18785    20655   -20343    33413    53248   -37832    -3546    36524 
  -65284   -37964    65196     8224   -11416    63004    10933   -69391 
  -26639    24975    25485    -2972   -39293    -4476    53817    32791 
   47061    94216     3067   -58383    33285    60926     7453   -37350 
  -47532    16920    30161   -24182    -3238    52151    84416    66876 
   -9958   -32998    -5028    -5482    -5582      950     2644     8390 
   15175    27635    55075    84078    54005   -11426     -414    47895 
   36131     6795     -811   -24295   -59643   -56049    -6407    44940 
   63969    35039   -12576   -18326     5444    35478    74128    66664 
   -3537   -37855    19263    60936    32186    18293    18501    19778 
   44254    31160    -2536     5090      403   -35390   -29380    16098 
   19066    -8982    -5292   -13617   -49870   -19990    44918    33142 
   17219    57929    46467     9711    30400    -5364   -52890    45430 
   96562   -13481   -55759     9589    50380    27899   -19391     9439 
   78532    64971    14474    -6555    -6930    12708    23113     1351 
  -11699    -6890   -28539   -38399    15612    36771   -19120   -15539 
   45760    34277    18711    42673     -796   -14623    62151    21497 
  -82286   -29362    52062    34528      627   -22118     3244    77557 
   88688    48978    32379     3372   -30839   -25820    -6745    14122 
   20603    -7676   -29228   -19515    -3130    -9387   -28925   -39361 
  -45778   -18569    29840    20783   -17734   -13926     5177    15962 
   28988     4872   -19944    25805    51648    21868     5039   -24401 
  -26615    45365    56617    -9432   -12695    11221   -15736   -27369 
   13830    54365    26110   -28297    -5539    44236    60208    59414 
   31293    12907    24102    43983    74679    49234   -26211   -21702 
   28048    11214    -4001    39880    45162     6235    14850    16322 
  -10809    20866     9525   -66946     1266   111700    56455     2412 
   33685    13636   -25859   -25778   -13140     8734     4128    -2602 
   18947     6737      406    27538    28009    36420    47655     7146 
  -37937   -64058   -73365   -14453    61337    53200    32786    51472 
   24320    -6465     8951   -12486   -29826     2670    -2604   -18705 
   11986    24229     2128     4298    31388    29997    -6538   -17162 
   31395    79319    57333    21961    38377    23811   -39515   -36255 
   18503    26736    14713    26002    21354    -5174   -10778    12415 
