Origin Time       2021/02/13 23:08:00
Lat.              37.7
Long.             141.8
Depth. (km)       60
Mag.              7.1
Station Code      FKS007
Station Lat.      37.4061
Station Long.     140.9632
Station Height(m) 70
Record Time       2021/02/13 23:08:04
Sampling Freq(Hz) 100Hz
Duration Time(s)  195
Dir.              U-D
Scale Factor      3920(gal)/6182761
Max. Acc. (gal)   226.899
Last Correction   2021/02/13 23:08:05
Memo.             
[...]
   12462    12464    12465    12461    12457    12459    12464    12465 
   12462    12459    12462    12465    12466    12465    12464    12463 
   12462    12462    12461    12461    12463    12464    12464    12465 
   12466    12466    12467    12465    12464    12465    12465    12464 
   12465    12463    12460    12462    12462    12460    12460    12462 
   12466    12467    12462    12459    12460    12464    12466    12460 
   12458    12462    12463    12463    12465    12465    12467    12469 
   12466    12462    12461    12462    12463    12462    12459    12460 
   12462    12463    12464    12463    12464    12465    12465    12465 
   12463    12462    12463    12463    12462    12462    12464    12465 
   12463    12464    12464    12462    12464    12464    12460    12458 
   12459    12462    12464    12464    12464    12466    12465    12462 
   12462    12461    12461    12463    12462    12464    12465    12460 
   12459    12464    12466    12467    12467    12461    12460    12464 
   12462    12462    12464    12463    12465    12468    12463    12458 
   12459    12462    12460    12460    12465    12464    12463    12468 
   12464    12458    12462    12465    12461    12464    12467    12464 
   12463    12465    12464    12464    12464    12463    12464    12466 
   12463    12460    12461    12462    12466    12469    12465    12464 
   12467    12465    12460    12462    12463    12461    12462    12462 
   12464    12467    12464    12461    12464    12466    12464    12462 
   12461    12462    12464    12465    12464    12462    12463    12464 
   12463    12463    12464    12464    12464    12461    12459    12459 
   12461    12465    12468    12465    12460    12462    12466    12466 
   12464    12461    12463    12468    12464    12461    12463    12460 
   12461    12469    12469    12462    12462    12465    12463    12463 
   12465    12465    12465    12464    12461    12464    12467    12466 
   12462    12463    12464    12466    12467    12466    12465    12463 
   12461    12462    12463    12463    12463    12464    12464    12463 
   12460    12460    12466    12468    12463    12462    12462    12459 
   12462    12465    12460    12460    12464    12463    12463    12465 
   12464    12462    12462    12463    12465    12465    12464    12463 
   12461    12462    12465    12465    12465    12466    12464    12461 
   12462    12465    12466    12464    12463    12463    12463    12464 
   12464    12463    12463    12462    12461    12467    12469    12461 
   12458    12463    12464    12464    12466    12463    12461    12464 
   12466    12464    12463    12461    12459    12460    12461    12461 
   12464    12467    12465    12463    12463    12461    12460    12464 
   12467    12465    12464    12463    12459    12461    12464    12463 
   12468    12470    12463    12460    12461    12464    12468    12467 
   12461    12461    12464    12464    12463    12463    12461    12463 
   12466    12462    12462    12465    12467    12465    12462    12461 
   12465    12466    12463    12462    12459    12459    12466    12466 
   12462    12463    12462    12460    12463    12463    12462    12462 
   12461    12461    12465    12466    12464    12464    12464    12463 
   12462    12463    12467    12468    12464    12460    12460    12460 
   12461    12464    12462    12461    12464    12461    12460    12465 
   12464    12460    12462    12465    12467    12467    12464    12462 
   12464    12465    12467    12467    12465    12463    12462    12466 
   12468    12465    12466    12466    12465    12467    12464    12459 
   12461    12464    12464    12467    12464    12461    12463    12465 
   12463    12461    12463    12467    12466    12465    12466    12464 
   12460    12461    12461    12462    12463    12463    12462    12464 
   12463    12459    12460    12461    12457    12458    12466    12464 
   12459    12462    12462    12461    12467    12467    12464    12465 
   12463    12459    12461    12463    12461    12465    12469    12468 
   12464    12462    12461    12459    12458    12463    12467    12466 
   12466    12465    12463    12466    12463    12458    12461    12466 
   12464    12464    12466    12462    12458    12464    12469    12465 
   12463    12464    12463    12463    12465    12464    12465    12467 
   12462    12460    12462    12459    12458    12462    12465    12467 
   12468    12467    12465    12463    12462    12460    12459    12458 
   12457    12460    12465    12468    12468    12465    12461    12460 
   12461    12460    12460    12460    12461    12465    12467    12463 
   12463    12468    12467    12463    12461    12460    12460    12461 
   12460    12461    12467    12467    12464    12462    12460    12460 
   12465    12464    12462    12465    12464    12461    12463    12462 
   12457    12461    12466    12463    12464    12468    12465    12462 
   12465    12460    12456    12463    12465    12463    12466    12467 
   12464    12465    12466    12463    12462    12463    12462    12462 
   12463    12464    12468    12469    12462    12461    12464    12462 
   12461    12462    12462    12467    12470    12465    12461    12460 
   12459    12459    12464    12469    12469    12466    12460    12457 
   12462    12467    12466    12467    12468    12465    12460    12458 
   12460    12460    12462    12468    12466    12459    12464    12468 
   12464    12462    12461    12457    12459    12462    12461    12463 
   12468    12465    12465    12470    12465    12460    12462    12462 
   12461    12460    12461    12465    12465    12462    12465    12467 
   12463    12463    12462    12459    12461    12463    12461    12460 
   12463    12468    12469    12466    12463    12460    12459    12460 
   12459    12452    12442    12434    12446    12465    12444    12387 
   12402    12519    12539    12300    12052    12171    12496    12517 
   12220    12063    12301    12756    12875    12376    11895    11966 
   12269    12496    12574    12546    12714    12664    11889    11671 
   12780    13557    12851    11174    10238    11485    12990    12995 
   12331    10912    10523    12801    13854    12527    11397    10273 
   11118    15447    17726    14571    10507    10186    13553    17188 
   17550    14280     9222     6765    11564    18225    17672    11643 
    5809     4648    10541    15796    14354    11428     9366     7335 
    8889    12694    13067    11821    10082     4049      901     8868 
   15965     9745      813     4087    13339    14007     8938     8109 
   11127    15907    18428    10749      778     4354    15920    23945 
   29567    26291    12885    11815    22897    21300    11918    11594 
   15771    20650    24990    20534    12035    14267    26458    27443 
   10266     4542    18194    18647     7373    14056    31066    34483 
   22750     6103    -4488     -644    17562    33868    22571   -12085 
  -26388     1687    35018    31125     5411    -1035    12495    20341 
   14486     7832     9482    11307     3366   -10922    -7840    20334 
   32478    14200     2537     4757     7480    10231     9056     9486 
   14673    14244    12641    17121    19117    11238     4902     8857 
   -3510   -28700   -10089    29448    18572    -7280    10093    30476 
   11684    -2075    22312    34758    16011    10398    13584     -405 
  -13645   -18884   -17438    12174    50155    38436   -10512   -20213 
   32357    77134    41340   -22531   -22623     -544      927    16269 
   16382   -13371    -7169    34493    38772     -345   -11810    17414 
   31600    24077    18704    14992     9376     9109    30317    44106 
   32617    41126    36937      738     6905    39573    53585    44304 
   14806    16798    29902      835    -5652    38942    58360     9210 
  -66260   -77767     4719    81256    48920   -29585   -30160    24854 
   62834    67754    39282    30748    35740    -3660   -11668    40148 
   70012    49386   -16247   -43229    18695    41858   -14147   -37272 
    5303    45276    12242   -37439     2430    55060    15197   -41432 
  -25941    11024    15694    23311    10167   -31065    -6298    34450 
   12268      874     5161     3835    26941    30193    -1668   -11676 
   28589    74515    22193   -86310   -75389    25869    54770     6352 
  -39071   -46241   -20731     4080    14948    18218     6249     9360 
   54314    57061   -15511   -24569    49443    60953    17742     9785 
   32808    31774    -7150    13666    51810    -1129     3207    54076 
  -17518   -45780    78836   138310    30634   -72837   -32851    39532 
   41535    25763    -4683   -31772     4963    48886     4950   -72277 
  -22272   103501   103488     6501   -56144   -51953    28657   103581 
   38587   -90709   -69895    66319    95159    23787   -22580   -17773 
   53030    78809    -8354   -29068    24453    14774    15033    39964 
  -12106   -34144    56078    73928   -37126   -69934    20511    68739 
   59744    57882     7234   -52615    -7750    44560      453   -23474 
   24478    51758    42674     3775   -53996   -44468    25721    58591 
   22990   -26996     2225    49448    27160    50537    52349   -64034 
  -27356   135611    66294   -90761   -18376   118766    84541     4981 
   19561   -15640  -101010   -26486    48033   -58400   -73403    79825 
  105894   -24561   -41705    57849    31249   -58463   -12940    65230 
   39329   -39014   -73738     8228   137654   103693   -78228  -115391 
   29655    93359    45545     2342   -19946    15763    52930    37672 
     489   -61929   -18564    82175    30760    25797    85084   -63511 
 -146401    44643   152818    46734   -86713  -109779    -3739    89408 
   65630    27260    60235    35993   -71213   -73486    23659    84812 
   73600    16148    -7953     6188     3326   -13486    -9590    57477 
   88725   -15392   -67502     -863    23381    75000   148592    31679 
 -106276   -23765    67390    19699     -129    28100     4403     3928 
   31189   -12894   -27636    14848    18221    61230    94539    14776 
  -21297    -4130   -27996    10089    68911    -7685   -87756    -5422 
   69187     7445   -31799    45096   130276    62859   -80946   -53569 
   52189    47063    45351    47715   -45589   -49215    83650    74429 
  -58338   -51840    47260    58316     6832     6684    41538    10691 
    2499    81857    11572  -124474     6010   122219   -36297  -116627 
    -774    61058    17911   -40664   -64028   -23280    63575   112767 
   49238   -37736     3222    82084    29059   -53279   -24509    36701 
   61092    23732   -43790    20782   124947    22890  -132741   -66501 
  116679   105667   -89905  -159054   -70986   -22864   -44561   -76663 
  -19823   111389    75034   -57816    -7159    42684    -3082    52782 
   14091  -105529    55909   246628   158858     9810   -61139       13 
  133518    39188  -121563    -3482    94571   -23674   -62910    15353 
   46665    49139    50589    -4393   -57170    11095    90788    11845 
  -57458    61476   111595    -5511   -21979    -8751   -25611   125624 
  192537    20282   -36234    28051    27626    11956    -1900    24987 
   58210    -4611   -21287    39738     -604   -37776    20358    13600 
    9162    69546    14604   -57608    14985    44492   -28858   -15905 
   59940    50767    -6928   -62665   -94737    39083   214050    65653 
 -180583   -75417   101311    44992    -6584   -19182  -112570  -109038 
   63012   119089   -67575  -147794    12432   102705    96154    82554 
  -64133  -203067   -54313   225240   230412   -24276  -101121    53452 
   66983   -35443   -19268   -41801  -132912   -22755   140367    52878 
  -63676    62164   186271    36139  -110943    11615    73046   -57509 
  -39229    34829   -67193  -100096    35257   125629    68565   -80726 
  -90822    80770    74959  -104297   -19943   223177   164727   -33814 
  -35002    -9470   -48338    18892   143780   136587    -5109   -67305 
   18652    73991    32806   -53482   -93552   -16425    26939    -1772 
   52892    88587    22258    22742    86527    73893    16644    19859 
   37331     5825    60690   178563    94443  -127493  -172216     2444 
  170473    95856  -114767   -91856    48866    11269    -5711    28143 
  -29405    11331   124526   110643     3905   -89415   -34913    78379 
    9753   -96685   -22152    73791    15247   -88007  -114682   -67027 
  104511   229401   -19622  -284759   -57365   194646    24351  -139968 
  -49286    49043    33606   -64752   -96860    48275   102209   -31137 
  -40656    30075    54888   114664    37968   -63956    77640   135555 
   17878    20455    34610   -18385   -42453   -30977    65864    72087 
  -69060   -52899    23528     -110    92021   197009    95342   -57543 
 -131252   -96516    44358   110927    24136   -27376    27148    11406 
  -88523   -78212    63991   177064   103216  -133085  -240533   -78782 
  121401   159268    89781    82737   113981    47535    -2894   -11884 
  -28456   127935   227738   -28598  -166343    28339    83565    18832 
   76779    71908    39858    34334  -104472  -115600    72605    59298 
  -89432  -103632   -51557    21740    52342   -65577  -132688   -29883 
   19273    28123   149687   131027   -87082   -50034   172946   146386 
   58508    51386   -77764  -128527    15377    38408   -90001  -142836 
  -45239    93026    66034   -57752   -51186    -7870    -7438    68608 
  120229     1140  -106557   -55498   -18263   -27376    33829    24340 
 -111057  -133108    56357   207198    34746  -186874    52316   370336 
  147440  -121469     9005    83096    38524    76333     6413   -95537 
  -64140    -3580    57084    91441    76843    54672    16624    22464 
   71676    46301   -57972  -125133    -1651   163695    62240  -102577 
  -71903       91    28164    45300    21965   -65523  -136752   -62225 
   51324    54902    21129   -22355   -50355     6348    85482   116749 
    2842  -137269    51593   239144   -16050  -139023   124213   140425 
  -53688    16829   141745    54219   -66390   -48768    77884    93468 
  -68526  -123487   -23810    51307    82017    12130   -79918   -45064 
  -33776   -43069    30501    36407    13294    34340    -2744    23344 
  126307    75540   -12304    71921    93730   -53580    -8365   164230 
   50514   -85074    23677     9631  -115995   -35120    84594    68539 
   20535   -46562   -67223    72410   192108   161289    75087   -49115 
  -97539   -22647    -6214   -28403   -37722   -59233   -14214    33449 
   22130     3857    -8915    37897    40999   -50630     4675    99634 
  -22282  -138985   -60699    77633   109766   -10338  -100899   -68012 
  -34468    75288   213733    77738   -87885    60924   179729   131561 
  109892   -27964  -101275    88175    78528   -61951    48167    67798 
  -29047    55535    50371  -106503  -113250    -4619    36226   -65460 
 -161655   -31979   118394    26966   -91297   -40151    38401    23576 
  -65948  -118230   -37674    31981     1528    35531    90047    25287 
   43971   187701   121918   -28789    82399   145842   -22861   -72631 
  -32198   -46227    13413    40894    20735    93366    91681    58365 
   80679   -72462  -180184   -19889    57841    -8079   -21773   -17766 
  -24834   -38187   -38713    20549    47561     2108    65746   165255 
   48722   -24841    88683    44158   -11387    89469    20044   -24553 
  129307    57086   -26031   154597    52366  -239822  -142489    71130 
   50103   -49817   -59278    90314   163923   -48647  -138395    28019 
   -1203  -108261   -41290   -97845  -132161   187500   369009    54529 
 -237774  -132429    58251     8447  -110573   -12375   150089    85676 
  -85586  -105901    29532   169963   144504   -16588   -87040   -16521 
   82561    93082    10669    -3687    34047    49299    84892   -13896 
 -143072    43301   246600   146684    18205    -7203    -9970   -11682 
  -12173    89917   192311    83050   -48582   -56077   -65829      672 
  125929    89252    -3837   -65015  -180483  -151520    37510    68042 
   13267    69491    96786    49907    26825    -5180   -30411    49317 
  131115    49069   -57221   -12166    62126    69052   109587   134030 
  -15756  -119086    28616    84354   -41167   -21108    -5768  -154529 
  -93591   108986   -43638  -299493  -161312    42436   -38746   -92041 
   -8295    -7553   -17985    32979    59466    89361   100085    57841 
   59480    89570    86687    63993    -9861   -40942    44768    68800 
   23191    42153    40655    -3651     1546   -44283  -180500  -209471 
  -68118    85240    66014  -104609  -139642    39666   170696   100708 
  -67517  -151247  -106277   -38305    38112   189447   287596   140354 
  -56579   -44331   -26895  -103638   -27740   130620   104182   -33051 
  -23126   102051    58020   -78939   -22212    81068    36323    11360 
   56203    -6331   -57647    80510   143818    22008   -11661    59792 
   79462    50248    67106   137737    83254   -37022     8723    56751 
    5469   -21357   -72240   -41017    81683   -17845  -164606   -25908 
  128919    87239    -7491   -52146    12108    93581    78406    71532 
   53741   -54609   -92309    -6389    29314     8263    54034   128134 
  181575   180594    65463   -45648   -77076    -4321   151408    90317 
  -99393  -110212  -126359   -79393   116658    22461  -229413  -150876 
   22992    12678    27899   107204    87561    49436    52135   -16930 
  -65186    -3405   -12072   -73915   -19066    43287    20748    10348 
  -15745  -119854  -158316   -13365   146536    81648   -69329     1318 
   95982   -45569  -155780  -140922  -173549  -114653    35762    14281 
  -53450    25626    36249   -26510    57591    82571   -20570    48837 
  169320   150150   127861   113193    68699    26511    25549    96254 
  111696    30515     6735    38640    67518   100197    79538   121974 
  245639    77844  -249060  -197273    15918   -33628  -131822   -78487 
    9838   109818   178392    61721   -79376    34356   127213   -43992 
 -100681    47352   103326   120535   170824   143656    75070     3800 
  -55639    35244   197717   134802   -55873   -75128    -8827    17377 
   32125   -86305  -224500   -54655   147524    17295  -118690   -56008 
   -1066    24579    -8454  -110898   -83699   -27172   -79904     5102 
  178702   129078   -13743    -4054    57995    24591    -9007    64698 
  109469    12701  -108804  -157609  -112570    -7623    -8647   -65486 
   34158   113645    19018    -4569    41899   -78697  -186102   -56761 
   36757   -44454   -51475    34932   124852   190268    71137   -70005 
   48521   157391    64023   -19047   -20227     9910     8982   -39988 
  -10414    77689   100617    67090   -14990   -21714   151213   212318 
   97915   121972   137358     5627    40593   123219      115   -25495 
  128651   125298   -46906  -148331  -168456  -156424   -16515   123774 
   34005   -86466    -9434    94033    72674     7890     -369    16312 
  -10467     9949    76172   -12032  -125641    12295   173605    91546 
  -23531    -2737    69416   144632   149977    41415   -34931   -25551 
  -60140  -104961   -19985    84816    57739    23597    35440  -103988 
 -328300  -305066  -117365  -127276  -260732  -208567   -42237   -34218 
 -127077   -96420   -24968   -60612   -79875   -19398    31016    50374 
  -15870  -119168   -15434   209497   211864    51500   -15946    48726 
