Origin Time       2021/02/13 23:08:00
Lat.              37.7
Long.             141.8
Depth. (km)       60
Mag.              7.1
Station Code      FKS031
Station Lat.      37.3364
Station Long.     140.8132
Station Height(m) 399
Record Time       2021/02/13 23:08:06
Sampling Freq(Hz) 100Hz
Duration Time(s)  176
Dir.              U-D
Scale Factor      7845(gal)/8223790
Max. Acc. (gal)   148.218
Last Correction   2021/02/13 23:08:06
Memo.             
[...]
   10034    19753    15569    24938    41632    33143     9838    -3823 
   -6812     -334     5803    10116    15407    -3418   -29373   -22373 
   -7908     -441     5454     -214     5019     3150   -26979   -28761 
   -7900     6835    27687    17108     2180    30368    22389   -15564 
   -5443    -9979   -35355    12363    50953    -2442   -11499    36244 
    4283   -32370     7028     8966   -27430    11680    57924    -3110 
  -40495    24842    22376   -25591    14274    18546   -41509   -27210 
   -1567   -23230    -5124    11252   -14555    -2505    17635     4465 
    5317     2903     2644    23866    16484    16141    40224    22114 
     -25    -4768   -17450    -7970   -22173   -41771    23715    51989 
   -2027     2555    11508   -27838   -17285     8718    -1314     2767 
   17802    14272     5088    19126    32636     2466   -16291     1470 
   -4136   -20331   -17307    14168    45790   -11246   -50688    40487 
   57487   -28216    -8896    30356   -18077   -17223    39622    19579 
  -47054   -39518     6369   -14261   -49497   -42920   -43821   -24613 
   21559    23053    19222    28634     3005     2731    24968     1768 
   14409    58035    34292    27899    44005   -20970   -41373    30172 
   16096   -33016     1502    15277   -11778    -4051    22141    27153 
    4590     1641     4440   -44205   -48209    22130    22293    -8961 
   30955    37917   -10540   -15560    14311    27202    -8105   -36165 
   11776    40533    21088    23521   -11601   -52007    -3628    28189 
    -656    -9391      348     7157     8861    30990    58772    13724 
  -24853     7141   -16673   -62833   -27769    -2211     2624    41771 
   32599    -9502     -830    -1324    -3689    25189    -7800   -54113 
  -14484     9404   -13448    18399    57321    28121     6438    19049 
   13390    -5617   -26384   -30867     -159    26566    19356    -2812 
   -4163    -2926   -24640   -12414    12332    -9467   -19986     3319 
   30901    37349    11809     1501    -5842   -32147   -20279    11919 
   14926    -6743   -29826    -3581    20781   -11333     3727    40393 
   23974    24302     2965   -39328      530    32273     2122    19688 
   45397   -11248   -52205   -12266     9882   -14369   -15460    20233 
   31950    -9390    -9259    50282    44776   -10596   -32815   -28073 
    -733    23148    18368    12367    16584      722   -15855    27661 
   39399   -28247   -21690    10351   -28644    -7435    36391     -330 
  -18002     8023     4941   -24787   -32017   -18567   -14598    12910 
   57192    38819   -24722   -20680    28313    10651     4500    48627 
   18881   -17092    24194    49138    20376   -46515   -59699    21467 
   31425   -18935    -5294    -5680   -19920     6238     7423     4666 
   18108     -866   -33457   -51132    -9838    43534     1603   -21147 
   44274    59066     6362   -42207   -65051   -54332   -25674    15465 
   74499   103971    44163   -38475   -56478   -61325   -53769    -6629 
   14634    45881    85032    18646   -36030    25132    25033   -44177 
  -21303    16583   -18127   -12833    39100    35449     5146    20888 
   44678    -8166   -47676    18909    24212   -38200   -11288    19557 
    9313    13186    -3172      511    31120     1525   -20903    17244 
   -5255   -34740    47530    74706    -6883   -26634   -10943   -49636 
  -65002     -120    48807    20274    10559    51987    43231   -17354 
  -35668   -18369     2041    18111    -7955   -10617    35660     5343 
  -45246    15180    50633   -44790   -70164    38330    55112   -13186 
  -29608   -27777     1525    26946     8251    10297   -19002   -62918 
  -22950     -261    -7992    60820    86829     8595     9139    77186 
   37828   -39073    -7516    20888   -58191   -73989    25741    40670 
   -9320    38901    68424    -6789   -30844   -14609   -24478     4793 
    1472   -47980   -13352    24205   -14836    -6396    46214    34117 
   -7531   -12339    -9733   -26708   -25602    12287    37902    13783 
  -19732   -16468     3946    18401    16573     3528    32543    47223 
  -50295   -82946    50963    79902   -21328    -2565    22981   -77738 
  -69398    50635    38607   -37125   -22211    27793    25454     9240 
   34300    20279   -33293    -7375    44510    14342   -13763    20394 
    5829   -29813    48921   108279    16216   -22361    51486    12078 
  -65006     9904    61731   -10592   -41547     1757    17184   -22947 
  -33779     5900   -15900   -68685   -27461    31831    17963     2639 
     853   -18767    -9769    23116    41770    31652    -7346    10463 
   57985    13128   -13274    27476    -1617   -31542    -5733   -14168 
   -9660    15635   -21235   -61997   -10793    83798    50664   -89019 
  -79601    26693    -3578   -35372    28776    -4881   -72887    21385 
  115026    37854   -44149   -20790    13232    30451    41852    22134 
  -14951   -29292    -4905    30813    42256    26239    20763    22192 
    -749     2893    19136   -21726   -50369   -13644    14353    -5239 
  -32406   -45906   -48394   -19084    25604    25185   -11577    -1919 
   62442    58409   -11780    20498    74783     1428   -20916    45513 
    9983   -51212    -1671    53271    -2304   -36362    43514    33451 
  -42597    17288    70548    14546   -27086   -35156   -34682   -32589 
  -48984   -47399    -6921    12507   -19747   -26580     8091    -1833 
   -1807    47459    26519   -11083    32578    49793    23391    24374 
   35646    42881     3241   -48361   -22381   -33536   -83141    19961 
  131643    32094   -60093    15326    33953   -39927   -26110    -6990 
  -74490   -89471   -45655   -25601    27685    60411     3962     3149 
   53411    20518     3132    46813    18918   -10554    40784    37176 
  -13733     1485    37466    35584    -5177   -43208   -25728   -16120 
  -47493   -31542    22945    28344    12960    18648   -11596   -33717 
  -27623   -74775   -11835   139087    60898   -44070    58680    64913 
  -37525    19147   109043    53596   -35884   -41536   -15417   -42442 
  -62432    -1595    33131    -3503   -10675   -32661   -70989   -26667 
  -14162   -32886    20599     9003   -23710    43224    40062   -31257 
    4284    54199    -9391   -50631    28634    63420     3180    14588 
   27383   -52315   -28324    59818    53528    46287      199   -77962 
  -20147    54481    20227   -15934    -8040    21699    23376     1819 
   29303     8784   -66039   -27681    30790   -12640   -57738   -33944 
   33964    38901   -30041    -6448    53156     7484    24058   100044 
   12460   -75809    17390    86996    39825     4117   -11496   -33783 
   -9051     9985   -40782   -45937     2803   -37035   -80106     4931 
   58383   -17120   -33340    51858    43748   -18956    26030    32020 
  -44606     6199    78582    37582    23769     1237   -50795     1471 
   31626   -21510    -9988    -4773   -34479    -5404    22594    14350 
  -37692   -61153    54515   115379    18497   -21749    32587    20100 
  -67552   -43706    55852    -9413   -96138    -6300    31082   -27133 
   20879    49006   -21367   -27842     3400    21300    52720    24645 
  -47444   -32082    26329   -15412   -62675    19907    90694    23639 
  -42202     3759    39567     8243    32084    65838     5544   -48918 
  -60697   -31144    27261   -35608  -103187    17533    89996     6720 
   13059    58966    -6048   -27716    19986    34272    20160   -15017 
   -4957    36319    27796     5464   -43152   -62708    33828    61708 
  -16632     5474     8696   -98793   -59987    65813    32868   -56593 
  -43833    47291    45231   -47795   -11485    29160   -38483     9620 
   79797     3341   -43058     6426    33573   -17401   -47459    36232 
   63359     5730    43580    49380   -38248   -41368    -9506    -2781 
    4877   -23880   -19654     5844   -23257    -9123    37038    31887 
   10359   -20204   -11616    33463    -7184   -55961     -330    46739 
   34017    30272    36895     4078   -64219   -52236    45299    51007 
  -13073    -7449    10905    10501    13842   -18505   -30343    21442 
   63428    49970   -15495   -62777   -28250    13603    31189    48116 
   16673   -12442   -16849   -42468    -8295    17709   -32584    10189 
   58986   -19894   -21303    63049    45740   -42503   -86206   -36852 
   15560     4533    37216    72636    18199   -14859     3003     3634 
  -14497   -26485     4903    29002    -5713   -17653     7446    20856 
   12954    -7857    31908    72909    -8777   -87124   -33675    61965 
   57138   -16394    -6755    37432     3227   -12599    45864    38959 
  -46298   -51170    19776    49642    40039    21744   -14627   -26835 
  -10998   -25995   -23753    15711    13543   -15518   -25272   -31914 
  -34862     7385    57900    23001   -38377   -21667    11881    -7114 
    9575    75130    38815   -46005   -20950    12110      298    29212 
   -6002   -72959    22797    81866   -54920   -90012    54576    89136 
  -19279   -43526    24237    11983   -48355    -3811    64239    20784 
  -45245   -35843    17093    46084    30905     1590   -23101   -15557 
   31561    56948    41886    26908     4835   -10886    18042    21956 
  -19973   -10924    38650    34260    -4141    20181    18698   -77838 
  -55487    58689    19958   -56533     3894    53746   -32829   -78860 
   -9983   -10147   -17215    54758    21284   -37207    18100    23036 
  -13768     5665     4650    -7076   -16966   -57165    -5467    91291 
   19322   -53356    50151    90961    -7973   -35482    16119    -2187 
  -40049    24159    78845    15743   -28239     4926      827   -12174 
   10069   -12850   -19647    32490    15468   -20556    24506    17784 
  -44957    -2400    31121   -48497   -42205    29986    -7821   -44855 
   -8473    30585    45049   -14384   -53842    18767    45269     7049 
   25016    22693   -52031   -73153    -5570    34889    34774    61558 
   57650     4016    12100    51449    36504    40593    70017    50525 
    1520   -27976   -11774   -13238   -53411   -17497    30483   -16214 
  -41756   -16542     1397    -5254   -59328   -28795    79736    45813 
  -36431   -26732   -36201   -70185   -33339    42080    44473       -4 
   11514    19161   -34485   -47351    10555    26473    -9243     7036 
   67468    44965   -49671   -25551    53323     7190   -18366    11186 
  -27153   -32709     8600     1877    -8529   -10881     -210    48633 
   37951   -16024    -1146    27978    42568    39650   -23022   -47372 
   -1690   -10436   -62379   -46695     9321     -168   -54267   -51174 
   20800    66252    32370    -3645    -6993    -5594    18495    16046 
  -29867      217    63726    21568   -16762    24819    -1850   -78825 
  -87891   -47397    30406    71131    -3389   -65761   -29153    26246 
   40915    14802    -1140    15707   -10584   -49608    -6763    15164 
  -29928    -2717    72787    60188    -7219   -18760     9359     6893 
      99     9956      751    -4633    -8888   -39478    -9440    55323 
   31131    19990    52201    25367    64341   145037    88599    41135 
   66692    42028    39424    66060    40428    10270   -22873   -55210 
  -19741    23025    27490    67683    99611    38546   -43819   -55791 
  -10898    11526    -8374   -19869   -28061   -33909   -14759    -4252 
   -9335   -11527   -10540    -4174    -8775   -25575   -27078      795 
   15823    -3001      850   -10118   -74768  -109252  -100656   -65560 
  -24663   -42047   -55520   -10628    -2997   -27661     4278    34445 
   21215    36340    48363      768   -45091   -55312   -36096    34335 
   91856    33605   -49675    -9872    40409   -12499    -6131    50188 
  -37339  -117876   -29081    42843     8750   -14882     6276    37874 
   62032    62939    69052    79038    10380   -73722   -47993     8653 
   19858    16883   -18474   -59065   -18218    33374     9660    12449 
   47668    55934   108292   125554    56060    70170   117281    60211 
   16016    20560   -20503   -34622    10692    16722    16229    22708 
  -20532   -23589    44419    59429    20453    36246    69699    17409 
  -42376   -43926   -62715   -64625   -22018    -8185    -9278   -30348 
  -70167   -41902     8340     4243    15142    38622   -10362   -63597 
  -33475   -18620   -76804  -109297   -90946   -82776   -86053   -58187 
   -4153    16074   -11411   -16106    36337    73055    61199    30947 
  -38279   -90151   -39596     1047   -48633   -59385    11234    40275 
   -2563   -26077    -4827    15765    15191    -6486   -11784    35883 
   81502    82985   104511   141840    95426    22179    51070   107806 
   68717    13127    57798   102571    36671   -20983     7785    31642 
   39938    58332    37030     6045    15201     5996   -21377    -3117 
    8901   -38705   -60660   -16843    -6508   -34323   -15890     7890 
   22551    57376    31480   -38384   -65607   -70568   -47181   -15210 
  -46079   -70366   -29855   -24837   -51489    -9968    21428   -26365 
  -45897   -30445   -54888   -69005   -53935   -88099  -140332   -79147 
   55159    80397    28412    43650    65778    39174    24829     3042 
  -13728    16534    18334     2961    24321     2316   -58988   -66336 
  -25612     8656    10724    -4166    -6793     7863    19986    21892 
   47960    77680    51124    33112    59714    38874   -20035   -58275 
  -69040   -33500   -10080   -48956   -78911   -59325   -15664    16524 
   22802    24723    30604    40228    43561    30519    27599    27249 
  -11794   -44439    -4221    14323   -61848   -65774    60488   101860 
   25087    49099   157929   128387    12355    17095    93545    73260 
     479    10461    27706   -28598   -42921    -3249    15350    45621 
   73460    56137    18179   -16191   -41266   -64544   -51865      997 
    -368   -57223   -64211     1842    39147     3581    10505    60651 
   32675   -29276   -36138   -16178   -37797   -88087   -60299    15678 
   19315    -7636   -19063   -46772   -46907    -9865    -2328     1998 
   45076    63630    31282    25104    48990    22507    -5952    24052 
   20644   -20995   -41102   -75820   -88392   -51146   -38896   -22717 
   38335    69026    46553    36157    57017    63782    33018    -3519 
   -8935    -4877   -15593   -11426    -2560   -20530   -41211   -43699 
  -30943   -11738    -6466   -19448   -14062    11695   -18250   -90144 
  -77722     6629    45746    53330    48312   -12449   -30855    45283 
   73838    38682    38662    49619    36544    31155    25791     8546 
    7601      245   -17676    23935    76208    50988    13200    13128 
   28501    54024    57458    20088   -13813    -9919    -5710   -38101 
  -50812   -37704   -52857   -18883    73850    60883   -24690     7994 
   74368   -11979   -94282    -4170    49640   -41748   -82919   -49524 
  -48236   -19084    43414    22357   -35561   -14715    32526    26948 
   -8291   -25695   -21733   -24848   -20235    12594    23712   -19624 
  -72067   -69622     1389    55229    22407     -868    38516    19689 
  -55879   -58241   -16042     2710    26952    13775   -32729   -15520 
   -1795   -22206    10075    36248    23134    31077    51605    56381 
   24528   -11600     -708     7526   -32474   -66233   -24266    49869 
   38994   -32314   -28015    60516    96947    59741    85105   121819 
   45995   -12667     7086   -18342   -57065   -17159    16758   -21768 
  -36261     4036    24001     5915   -34955   -37720    29143    51370 
    9423   -10632   -41046   -53370    17605    57956    30291    29424 
   45851    30245   -24406   -73406   -67352   -66170  -109260  -115901 
  -72085   -39611   -12090      976   -19426    14828   108544    97960 
  -12024   -23998    18110   -36263   -58078    14121    32800      301 
  -13393   -15884   -23465   -58317   -69192     3030    75732    62378 
    4428    10120    84426    81402    -8179   -10530    57249    28790 
  -31839     1382    36440    24491    30412    35434    13937    -6739 
    5509    38531    38043    20121    24417    -1431   -62610   -72053 
  -67305   -87060   -35633    23562   -27858   -76801   -41181   -26501 
  -44628     2960    67032    78021    87494    73141    14821     7331 
   34488     1517   -53260   -57524   -18501    19525    34611    48130 
   44454     -267   -25402    -8317    11430    41694    49523    -7133 
  -36649    12677    56980    58858    31355   -22377   -55682   -38940 
  -19978   -35024   -48176   -19514     9491   -20645   -50579     9899 
   80420    56937    24644    38718    18594   -22797   -34431   -45914 
  -43614   -11882     3046    -7730   -21694   -36961   -55237   -41079 
   23792    50962     7870     2459    30569    -2824   -33075    19624 
   66101    47958    31086    31050    21794    29068    70619    83658 
   -1621   -57504    14022    18527   -52131   -10716    48897    26045 
   -8155   -17010     2085    -3167   -28463     6440    48139    42361 
   36362    12938   -36443   -21863    44680    48685     1665   -25498 
  -31068   -30904   -27367   -18794   -17234   -12629    13298    33183 
   26586     3940     -615    28104    35226     8973    17081    46514 
   13112   -55420   -59634   -18095    -3500     1664     6366    -6589 
   17798    52477    21348     9325    38807    25292    11596    12090 
  -23989   -39717   -14210   -12048   -10747    12752     5570   -20858 
  -29250   -30676   -31569   -18997    18458    19049   -49000   -64797 
  -21286   -31017   -24443    28894    15325    -8837    23922    32740 
   22991    36416     7840   -58973   -31287    40490     4311   -10133 
   65835    45823   -16272    39773    98412    70266    24764   -16281 
  -35316    -9709    24177    31716     1852   -32620   -34226   -37430 
  -20810    42514    38094   -13232     8226    16405   -22327   -11195 
    8676   -15175   -24405     -550    30535    40498    -5915   -50649 
  -40369   -34003   -25397     5602     5287    -9491    -4288     7015 
   18989    14608    -1740     2189    -5263   -43175   -50859   -36451 
  -37154   -13954    23679    41593    57856    50850     5516   -19472 
  -10493   -13533   -14445    10170    15898    -3091    -6482      221 
   -3952    -1852    35270    77137    69973    23689     2787    32444 
   29596   -25280   -36472   -17463   -17437   -10110   -12548   -13944 
   39484    86017    70444    59030    60670    35407    16150    10581 
    7730    13159    -5563    -6381    32908     1393   -73874   -69855 
   -9286    33677    29789    10631    19251    11635   -18486    11133 
   48235     3361   -33758   -16298    -6700     -684    -4791   -42311 
  -52546   -14409      695   -14011    -7126    14924     6640   -21402 
    3593    33076   -18607   -43241     8224    34345    20424      531 
    5082    22650   -13001   -37935    27027    54270   -22053   -45181 
   15893     2921   -49735    -5115    27716   -13632     2481    24028 
  -27189   -28389    15620    -7003   -44594   -39206   -16426    12582 
   14335     4202    31599    31841    -1784     7742    12094   -10486 
   -8394     9175    40170    52462    21748     5331    -1756   -25444 
  -26343   -15553   -26110    -7809    33566    29945    26601    34560 
   15580    37770    68526    21145   -20533   -10821    -9401    -8278 
   11322    18114    18673    26962     1313   -40252   -33407      900 
   37246    43263   -10451   -24445    11003    -2509   -19710   -11894 
  -16627   -15554   -19525   -35819   -37253   -11190    32445    32737 
