Origin Time       2021/02/13 23:08:00
Lat.              37.7
Long.             141.8
Depth. (km)       60
Mag.              7.1
Station Code      FKS003
Station Lat.      37.7613
Station Long.     140.4799
Station Height(m) 64
Record Time       2021/02/13 23:08:09
Sampling Freq(Hz) 100Hz
Duration Time(s)  195
Dir.              U-D
Scale Factor      7845(gal)/8223790
Max. Acc. (gal)   200.324
Last Correction   2021/02/13 23:08:09
Memo.             
[...]
   34317    34335    34325    34290    34265    34267    34283    34314 
   34337    34323    34295    34271    34258    34271    34310    34342 
   34329    34281    34252    34260    34288    34325    34352    34346 
   34318    34279    34245    34245    34285    34339    34368    34353 
   34307    34260    34248    34275    34314    34342    34353    34334 
   34285    34258    34268    34283    34290    34302    34329    34346 
   34317    34269    34256    34267    34276    34295    34331    34348 
   34314    34277    34272    34280    34290    34308    34327    34325 
   34310    34308    34298    34264    34250    34287    34353    34372 
   34322    34287    34291    34271    34241    34277    34349    34362 
   34326    34295    34275    34261    34275    34303    34319    34323 
   34325    34311    34275    34263    34295    34308    34287    34291 
   34325    34341    34310    34260    34250    34291    34317    34308 
   34321    34345    34318    34261    34252    34290    34315    34315 
   34317    34329    34327    34294    34252    34246    34288    34329 
   34344    34344    34319    34276    34248    34254    34284    34329 
   34358    34335    34291    34279    34273    34257    34273    34329 
   34364    34338    34283    34261    34267    34273    34303    34339 
   34333    34302    34283    34271    34277    34303    34321    34314 
   34303    34295    34281    34284    34311    34319    34302    34296 
   34306    34304    34295    34292    34295    34294    34296    34303 
   34314    34315    34299    34284    34283    34285    34296    34319 
   34330    34312    34292    34279    34263    34269    34306    34337 
   34345    34322    34280    34261    34269    34291    34311    34322 
   34319    34303    34290    34302    34306    34288    34287    34304 
   34312    34310    34310    34306    34291    34277    34277    34296 
   34327    34339    34315    34272    34256    34283    34315    34322 
   34312    34292    34280    34292    34308    34304    34288    34294 
   34317    34310    34287    34283    34292    34300    34314    34319 
   34294    34267    34284    34323    34330    34314    34291    34279 
   34291    34302    34303    34304    34308    34310    34306    34292 
   34279    34277    34283    34294    34315    34326    34311    34287 
   34275    34279    34296    34319    34327    34314    34284    34280 
   34308    34318    34304    34298    34304    34311    34295    34283 
   34292    34292    34296    34315    34325    34306    34276    34283 
   34311    34314    34303    34292    34287    34292    34299    34308 
   34303    34288    34296    34319    34314    34279    34268    34294 
   34314    34311    34307    34308    34311    34299    34287    34295 
   34302    34300    34306    34314    34315    34294    34273    34291 
   34304    34298    34307    34318    34307    34294    34280    34283 
   34299    34296    34292    34307    34311    34304    34302    34302 
   34302    34295    34291    34303    34307    34296    34299    34296 
   34302    34322    34308    34288    34296    34292    34296    34310 
   34296    34295    34304    34292    34300    34303    34291    34315 
   34325    34291    34280    34283    34283    34317    34338    34306 
   34271    34269    34299    34337    34326    34275    34260    34296 
   34333    34333    34298    34273    34280    34299    34315    34314 
   34308    34295    34275    34302    34334    34292    34268    34296 
   34298    34308    34326    34283    34271    34318    34311    34281 
   34303    34311    34295    34311    34314    34271    34265    34302 
   34298    34299    34344    34338    34276    34273    34307    34304 
   34314    34329    34294    34273    34299    34304    34295    34302 
   34303    34294    34300    34317    34306    34283    34287    34304 
   34306    34302    34296    34285    34280    34285    34300    34312 
   34317    34314    34295    34273    34265    34276    34304    34335 
   34352    34337    34295    34271    34276    34283    34292    34319 
   34329    34304    34294    34302    34288    34276    34296    34310 
   34307    34312    34306    34290    34292    34304    34295    34283 
   34298    34310    34307    34311    34298    34265    34272    34310 
   34319    34303    34291    34292    34303    34322    34318    34284 
   34264    34277    34306    34333    34338    34307    34273    34277 
   34306    34306    34291    34298    34308    34311    34322    34318 
   34290    34268    34271    34295    34322    34322    34298    34284 
   34294    34299    34304    34307    34295    34285    34290    34304 
   34321    34311    34285    34281    34299    34318    34311    34290 
   34283    34285    34299    34322    34318    34290    34290    34310 
   34314    34307    34296    34283    34292    34318    34315    34294 
   34287    34291    34298    34308    34312    34296    34276    34287 
   34304    34303    34300    34302    34298    34295    34292    34295 
   34302    34294    34287    34300    34322    34321    34299    34292 
   34296    34291    34299    34314    34311    34304    34307    34307 
   34298    34292    34290    34292    34312    34327    34304    34271 
   34267    34291    34306    34299    34291    34284    34287    34315 
   34323    34288    34249    34234    34248    34275    34285    34269 
   34249    34238    34236    34248    34248    34194    34130    34145 
   34195    34184    34134    34096    34078    34123    34222    34248 
   34176    34121    34133    34152    34038    33762    33691    34142 
   34738    34939    34855    34906    35124    35094    34419    33457 
   33112    33421    33458    32949    32749    33482    34364    34346 
   34079    34647    35267    34767    33764    33405    33909    35164 
   36185    35399    34287    35722    37471    35365    31811    31891 
   34002    33444    31128    31170    33949    36035    35197    33282 
   32431    31626    29825    28090    27453    27432    27699    29106 
   30165    29894    32826    38195    38392    36439    40232    44366 
   41208    36193    35451    33427    27037    25068    29010    27916 
   22891    28213    42649    47061    38055    37339    50854    54594 
   42304    37481    46186    50954    44965    35563    33135    41501 
   45659    33536    21280    26462    39951    41308    29046    23727 
   35217    46084    39518    28718    35780    46338    37345    26943 
   32061    36459    30964    22449    19024    25112    32485    36132 
   39530    34709    21909    18227    23583    28244    32464    32493 
   31441    42628    51003    34622    24894    53356    72341    40806 
   15145    40401    65259    45584    11639     7438    32020    42460 
   20925     6874    22947    33905    15323     3396    29880    54267 
   32819     1296    14134    51239    53056    25821    27241    58222 
   65734    36540    17581    38800    58540    35090     4318    14422 
   40942    37912    18314    13751    20726    32346    42568    33978 
   21671    40524    68381    54818    20590    20528    44112    52911 
   38840    12564     7109    37636    58322    40859    23607    36312 
   55842    54117    34862    16825    18551    34924    31113    12965 
   20818    33937    18025     9352    33658    47390    28150    18636 
   40657    54139    37409    30958    57700    75080    57164    40899 
   47587    51784    50178    56050    42163     8262    17120    60527 
   55857    12721    10602    41758    41485    23620    38886    52967 
   25235    14612    53113    68168    36516    28657    57555    65427 
   42948    23483    26512    48087    50124    21695    16703    46315 
   58563    43447    37955    58602    75486    54581    23989    29524 
   41894    12768   -19052     2477    30048     2953   -29978   -12420 
   25847    47711    45438    21790    19157    67508    97212    50271 
    4675    30211    58240    23978   -20359   -15450    13743    25579 
   24926    28363    43947    75861    94782    69233    38858    57503 
   83149    39374   -35918   -43217    11781    45705    20412   -19668 
   11614    95656   103181    32030     8880    51229    61230     1737 
  -36184    17772    61585     5007   -43853     3474    56047    39996 
   16067    40352    66228    44084    21520    47009    66548    34041 
    9855    36435    50630    16776     1173    41516    77746    61326 
   26080    15874    38589    83467    85634     3886   -44116    21450 
   68904    22308    -5279    28680    36417    14918    27345    42032 
   29280    52200   110220   110170    45373    12972    49295    85141 
   61157    -6188   -50318   -13664    65142    75043    10210   -10443 
   47588    93303    76707    33497    15273    43093    81901    77109 
   34985     9201    20366    52405    73921    50612    13208    35324 
   88138    68980    -4411   -21891    19268    43445    39086    23805 
   11105    42088    90502    58946    -3411    43205   117953    50919 
  -62912   -34009    64862    41679   -60582   -50770    64477   112391 
   50237     8451    77507   158055   109132    -5502   -27814    30543 
   59788    36256      171   -15269    -7094     2758     8685    15732 
   12749     6350    30794    77949    83855    42858    21257    26487 
   21863    16274    18817    14921    15678    32117    40622    41482 
   61539    78163    56902    22809    22044    51804    46969    -9753 
  -27346    23487    45364    10705     4576    36796    30879     4596 
   45508   113572    90355     6559    -9204    39997    62727    46314 
   14708   -12811    11250    66204    63979    23895    33539    71751 
   71625    53947    36301    -6737    -9309    65611    78214      310 
    3618    84299    68863   -19326   -27211    21294    27263    30832 
   49701    11425   -15977    51668    83959    16363   -15853    12644 
   21003    27519    35395    -5035   -20352    58806    95812    18343 
    4622   103669   118517    15159   -29411    49509   139040   109960 
  -12969   -47086    73322   159802    67979   -57429   -13867   122238 
  114372   -29189   -65653    58822   138106    74919    -6261   -14553 
   10373    30964    32351    -5239   -24919    41000   112113    85275 
   16772     9147    48416    51362    -7967   -63101   -22403    89618 
  123228    58321    41974   104008   150211   136017    77109    38835 
   51721    53393    25446    13722    30727    46044     4549   -66896 
  -44784    53369    67285   -12699   -43339    11161    54724    49570 
   38480    36756    41177    44370    33781    48367    83884    43771 
  -23842    32046   122902    67536   -46071   -41814    41654    64134 
   -6880   -74918   -37459    67576   110970    55998   -15541   -24075 
   24494    59202    32715   -18594   -21000    34209    67192    28243 
    5694    78455   132216    58471   -25099    -8792    15125   -13652 
   -4985    53075    56538    17032    25509    53990    55371    51376 
   29857    -2740     2957    27124    37874    35364     5468    -3168 
   63217   108712    50166   -10606    16904    52053    29131    14179 
   33667    48721    66847    68122    33212    42167    96017    98209 
   82012   108540   103387    31992    -9684    15801     8316   -71497 
 -101412   -16556    59201    12619   -71301   -33940    97297   155167 
  107292    59849    75964   122324   116175    48848    12294    32628 
   36043    -3620   -26231    -5545     1210   -14828     5485    38832 
   25328     2681    18177    36378    37616    72689   126085    92766 
    1699     3090    78939    73754   -16977   -48122    13655    57412 
   56756    59672    36586    -8488     1408    52097    62563    19635 
   -6006    40768    83045    39187     9809    77422   122974    68250 
   11453    25925    69863    94225    96300    78386    44165    29967 
   40795    18257   -28865   -18187    30912    15026   -49099   -26686 
   79014    94628    13911    17080    79681    33127   -52161   -13000 
   58789     5324   -69406   -13297    65159    37265     4698    61335 
   95987     2158   -72036    55591   192955    70791  -104857   -17131 
  165596   122056   -56755   -77510    59817   140954    93760     2866 
  -21980    80738   189596   104696   -58793     9664   212587   163717 
  -82024  -114012    77271   132567    -1395   -77984   -34395    40578 
  107773    86732   -36209   -75432    26391    76936    16185   -23018 
   -5022    29740    76677    75964     4615    -3566    77553    86715 
   23157    33339    94906   102058    85326   106581   118478    71888 
   20665    26113    57649    41926   -16129   -25582    29646    41256 
  -25689   -54720    -3886    17869    -9431     7329    54679    52531 
   20005    24657    71811   104504    70671    -4334   -26982    31440 
   74305    33556   -27257   -29687     9213    23699    -1620   -25847 
  -23310     6764    73151   149084   154094    76272    30940    82817 
  124368    68423   -12528   -37008       20    64948    78709    11411 
  -32854    26403   108110    76806   -48097   -66931    82653   160400 
   27545   -90661   -11277   102779    89401    58228    97591   104538 
   51925    45739    79840    42726   -60075   -88492    14717    95914 
   11854  -116361   -89634    49878   109026    40220   -35860   -15006 
  102024   196906   122746   -32629    -5682   161130   148321   -44020 
  -88796    54977    94825   -30901   -79641    35533   128341    51177 
  -68449    -2728   163497   122747   -91164  -125734    67682   152806 
  -18530  -175698   -74776   124073   143919    20556   -25417    52070 
  107222    67610    41239    64855    37616    19425   107744   136536 
   18189   -29851    74139   123508    28869   -45034    -4939    35973 
   15782    10164    37254    37640     9718    13468    48595    29695 
  -32128   -13377    61204    59977    22428    49535    82166    53083 
   29940    52732    64755    60976    66094    38191    11140    79386 
  135095    40914   -46521    17679    82235    41785    14423    48409 
   51742    15708    15511    53584    79563    61263    -1155   -34709 
   20954    67707     -715   -94258   -83759     4706    64597    38268 
  -17572    12495   107600   112413    12158   -30013    37600    90590 
   50129   -34878   -67973    -5991    71007    75679    38572    13578 
   19421    60663    95031    81754    49029    42380    66712    88456 
   73429    47221    63895    92909    64195     7441     6401    60912 
   81598    24262   -18165    25532    51287   -20561   -88661   -58619 
   31085    83116    38580   -31710      565   114466   165645   106381 
   24448     2809    49222    98883    56663   -42741   -37080    55404 
   43070   -52841   -42909    59147    90790    32117     -480    35712 
   58291    40474    36570    18852   -10224    41643    96341    27795 
  -28657    53885   123619    55260   -26933     8417    93144    98585 
   23843   -35715   -21481    29154    55285    62733    76357    76273 
   42934    14814    50832   117355    97360   -18277   -66189    33705 
  101640     5562   -82232   -31901    15708    -1147    17258    39488 
    6372    27972   139445   173272    73963    11985    63397    96888 
   56894    31272    13521   -52205   -66731    35344    96619    18638 
  -50990     2766    81255    85421    54328    28525    23404    83162 
  141524    70380   -35823     1552   109266   106108   -14818  -123974 
 -109300    16947   112765    68991   -41709   -42955    91953   162117 
   56083   -36621    34245   111284    54595   -13884    12865    46766 
   21884     3458    12496     8614    39417   116625    97027   -38502 
  -86728    31159   130840    57993   -61577   -22721   102702   107121 
   14473   -20980    19965    58144    46109    18304    23971    26084 
    5732    31141    75558    46669     3802    35584    77585    61354 
   44294    75463    86219    29209   -10800    20313    37219   -14057 
  -52388   -17220    33779    55868    66541    39131   -21182    -3399 
   91056   106162    19915   -17702    36771    71632    54378    66569 
  110513   105196    66218    84388   103709     2670   -94474   -17247 
   79459    18665   -61075   -22827    45466    67111    48100   -13937 
  -47110    30279   110251    56440   -35692   -10843    76454    96141 
   59684    27967     5798    -1576    19148    49686    48184    12606 
    6909    55491    93690    75949    36919    25832    42454    67514 
   92233    73715    -5022   -28336    70525   131117    31379   -89244 
  -68728    45817   104431    55852   -14053   -19179    32266    95817 
  125178    83945    25120    25234    46076    46465    51889    38496 
   19294    57006    71736    10019    -2778    46647    41816    -1852 
   -7803    22783    45181    20223   -12231    25799    97009    95516 
   20911   -23359    16444    70379    47198   -23604   -29592    30705 
   46519    16110    30944    61094    33035    -1759     5607    21871 
   50386    83795    38718   -45821      -70   137871   149723    43182 
    7778    57150    73913    35446    -1925   -12912   -25857   -37192 
    1725    51540    23112   -48759   -48856    53014   144937   109710 
   20459    24314   103441   142888    84975   -15265   -28394    47216 
   72489    23488   -10207    -5783    14315    31099    16155    -5934 
   25084    72369    62918    38801    56039    68291    27449   -29836 
  -29805    25937    46002    12062    11720    51672    58329    47634 
   74688   103013    75451    20399    -2605     5026    23526    50741 
   46272     1036     -903    50336    46325   -14218     3411   105190 
  136178    67927    37343    89673   122777    67578    -4723      853 
   55798    79415    42012   -31791   -53167    29477   104588    59196 
  -11576    23789    82125    31818   -47561   -20100    48757    29417 
  -22997     7877    73226    63256     2274   -15195    22288    65006 
   73741    27394    -1632    82389   159237    82035    -8132    33485 
   95879    75342    25199     8766    22905    39267    45790    46317 
   53572    72099    67929    15214   -40957   -33947    42055   109282 
   64847   -62565   -89440    36972   115063    36455   -29424    30751 
   92360    57658   -13375   -43052     3298    85784    82337   -24147 
  -66195    44691   159148   130249    20218   -34753    -2797    58056 
   85680    62955    23892    16776    46186    55204    25145    30650 
   65577    17007   -68035   -37512    52100    51201    -5001    -9678 
   25393    39486    28350    27726    52743    64254    28138    -6376 
   20731    67909    55944    -2609   -12479    68735   128048    45543 
  -56200    14621   152830   133612    21564    33446   129185   109607 
    4129   -25479     4072    -1813   -22808    -6160    25411    43235 
   78240   110988    60448   -14098    17410    83604    58301     9522 
   10598    13500    23067    71652    91706    39268    -9995    -5922 
   18920    59724    94423    38638   -53171    -4388   135155   137327 
   26905    15920    80268    69367    37674    61697    51840     6778 
   49743   126180    90119     8337     3775    21601     6782    16325 
   46310    21906   -29563     1463    89629    69484   -52758   -68214 
   55023   123472    57138   -11448    45458   158008   165442    74974 
    3736   -30303   -28715    34244    61452   -32977  -102465   -11979 
   91042    33995   -73457   -50517    40644    53104    16394    12345 
