Origin Time       2021/02/13 23:08:00
Lat.              37.7
Long.             141.8
Depth. (km)       60
Mag.              7.1
Station Code      FKS016
Station Lat.      37.1228
Station Long.     140.1914
Station Height(m) 375
Record Time       2021/02/13 23:08:15
Sampling Freq(Hz) 100Hz
Duration Time(s)  197
Dir.              U-D
Scale Factor      7845(gal)/8223790
Max. Acc. (gal)   167.596
Last Correction   2021/02/13 23:08:15
Memo.             
[...]
   13726    22704     -168   -26136   -22230    11051    44047    56767 
   45098     9333   -35764   -63782   -57053   -18198    25540    41141 
   21705   -13274   -35814   -27692     -918    15201     9283    -8251 
  -24590   -35723   -34122      623    66999   118065   105852    35317 
  -38767   -62683   -27324    32390    73703    73773    31792   -25020 
  -51908   -29903    15110    40560    29812     1385   -26979   -53693 
  -63711   -34204    18431    48590    30889   -22559   -62608   -38857 
   35583    88119    70953    14889   -19107   -16081    -2948      623 
   -7716   -22179   -27373   -13980     3811     6139   -11456   -35263 
  -40170   -22204    -9783   -14851   -15873      484    26329    48292 
   48366    18166   -20104   -38210   -30825    -4714    27209    42128 
   26759    -1406    -9572    12031    42145    57213    51503    31149 
    3442   -17956   -13000    13078    21532    -8163   -46785   -54672 
  -30956    -4031    13775    27796    29008     3304   -33442   -41890 
   -9971    22769    18207    -4823    -4575    21647    43673    44651 
   35208    27664    18122     1509   -13481   -14683    -7453   -10466 
  -22945   -26036   -18392   -15805   -21995   -17305    14524    51075 
   52995    18117   -13537    -9192    18986    37122    30200     6475 
  -18797   -37214   -46747   -43872   -25031     7414    36722    38799 
   11686   -22253   -44099   -43270   -14854    21535    30580     7581 
  -13846    -8530    10578    16245      201   -23259   -34997   -30304 
  -16794      387    18528    31013    28227     8738   -11377   -13394 
    2822    21269    27445    19481     8159     4307     4252     1248 
    1395     8472    10932     -729   -16389   -17998    -7965    -6871 
  -12815     -664    24165    25551     -584   -14142     8151    34611 
   26221    -2840   -10066    11992    31711    18445   -22974   -48975 
  -30866     3861    17972    11580    -1296   -14181   -17226    -5930 
    7734    18233    31252    37990    28696    18874    19865    16816 
    3555    -3181     3798    10809     5309    -5046     -105    18230 
   22674     1476   -26701   -33446   -10768    12054     6211   -14087 
  -18408    -2596    14586    17037     7284      388     5219    16827 
   22118    12367    -5694   -13907    -1630    16866    14561   -13987 
  -43924   -47912   -25042      827     6868    -5347   -12509    -3164 
    6574     2875    -4680    -2047     7576     8067    -8977   -27654 
  -18998    19708    49975    34666   -17078   -58387   -45766    18407 
   78304    81294    28183   -40882   -77789   -56663     2127    54783 
   71101    44435    -3537   -37624   -40155   -17412    11657    31160 
   35694    23838    -1401   -25567   -28695    -8081    14836    20445 
   10604     1626     3086     4152    -4580    -8568     4976    22538 
   21536    -1763   -20262    -7962    18573    27807    18571     7438 
    -236   -12407   -26765   -19927     9859    21590    -3834   -23683 
     666    41207    48594    23337     -365    -8816   -13068   -19812 
  -21217   -12845    -3518      715     4949    12499    17591    13219 
    2995      579     8870    13598     5790    -9583   -22794   -24844 
  -14031     2424    14713    16815     9163    -6177   -24669   -31375 
  -15354     8301    16308     7773    -5740   -21918   -37420   -36823 
  -12557    22114    44587    38138    11564    -3901     5024    17243 
   10598   -10520   -27718   -33282   -33166   -27988    -9957    13342 
   21396    12725     7616    15472    23615    27702    36778    41940 
   27614     6139     3065    23523    45000    34898   -10696   -51190 
  -46691    -2774    40518    47472    17591   -16264   -25533   -13209 
     715     7231    10984    13117     6809    -9304   -21544   -10642 
   24367    53227    40362    -9795   -52601   -55557   -29713    -5854 
     -13    -7037   -14870   -15731    -6103    13039    32614    40945 
   30789     2462   -26620   -31378    -7415    27094    46314    30176 
  -10164   -32479   -14762    16650    28610    19710     1628   -18219 
  -23041    -1557    24077    22273    -8978   -39094   -35293    -1464 
   26156    22661    -1761   -17057    -9895     5212    14839    17004 
    7966    -9084   -20366   -22199   -20671   -16282    -9169    -5040 
   -5231    -2209    10316    27283    35522    31625    25072    14717 
   -1795    -2830    21077    43945    44560    24964      896   -11191 
  -15672   -24669   -27425   -11398     6513     5810    -7422   -17604 
  -19098   -12515     1347    20721    35934    34611    21249    12413 
    9251     1208    -6266    -1178     7793     6590      670      534 
    2759     -144    -7026   -11924   -14473   -29006   -62837   -77900 
  -33346    38778    72094    52959    19425      912    -9084   -20216 
  -13841    22731    52546    31471   -21982   -46431   -12580    46863 
   75671    52748     3600   -40004   -65411   -64704   -33200     6153 
   12247   -22854   -55443   -39259    17455    59960    51524     7080 
  -37539   -58881   -51691   -22909    16789    47808    42776     5665 
  -17556    -3713    19394    29860    37363    46503    40590     9063 
  -27876   -34453    -2847    32231    37670    21681    11361    13824 
   15051     4121    -7152     2093    25033    31172     6444   -36022 
  -68906   -64081   -18322    37189    64712    46545     -939   -29810 
   -8491    36478    55815    35873     1482   -21925   -32211   -36616 
  -32606   -15653     9626    31193    34549    15290    -9684   -16891 
   -5209     1323   -15866   -42286   -44791   -16322    11053     7078 
  -14366    -9528    33971    71448    55047    -5167   -50836   -41409 
     437    21960     5286   -18457   -16590    -1560    -4050   -21038 
  -26296   -10370     3481    -6845   -16532     5491    33608    27093 
   -3553   -17648     -710    26134    38979    36540    31584    30655 
   28680    20179    12993    14982    15484     7977     2767       64 
   -6843   -11011    -8195    -6053    -3699     8665    22559    13894 
  -11709   -15330    13572    34172    14642   -21728   -38232   -33689 
  -23047    -8171    14536    36451    41590    30874    21501    20873 
   17092    -4039   -30774   -32188    -4394    23468    25743     -795 
  -34807   -45393   -21244    17760    38145    24619    -7365   -25907 
  -12506    11345     9861   -13112   -21861    -3063    19916    20136 
   -2566   -24699   -28237   -13651    10652    30753    30234     5525 
  -29066   -53644   -56316   -36018    -1281    30338    41443    27094 
    -259   -18528   -17528    -7939    -1601     2434     3117   -10328 
  -32852   -34636    -4617    27517    33774    18978     8181    17976 
   30897    19966    -2870    -5670    12391    26222    23124    13265 
   11315    14531     6898   -11121   -20744   -12252     6520    22296 
   30477    31348    19288      560    -5486     -471      179    -2438 
   -1661    -1575    -5566    -6346     1522    10014     9197    -2120 
  -17853   -23814    -9043    15618    28324    19647    -5022   -25917 
  -18611    12156    30908    16294   -10527   -10523    17334    30535 
    6619   -24252   -19294    20054    45311    25852   -14509   -35487 
  -24154    -2535     1979   -12361   -26296   -19750     5017    21563 
   15437    -4833   -26916   -32541    -6085    36992    58012    34693 
  -12896   -39799   -30117   -11103    -2639     7381    30145    47952 
   29702   -22202   -55528   -32409    13190    27629     5734   -19425 
   -8278    47930    98173    84704    21274   -29160   -32493     -387 
   36401    46298    17280   -26858   -45382   -25752     3578    10451 
   -5155   -14820      -22    19935    16583    -3199   -12079    -6650 
   -8910   -29759   -45794   -26040    21762    52656    34614   -18073 
  -61561   -59323   -11099    46024    72851    59088    23550    -3029 
   -6178     1215     5717     6756     1624   -11881   -26451   -31484 
  -22380    -5684     6826     6513    -4268    -8938       47     8073 
    6598     2500    -1655    -5556    -6281    -5462    -5474    -2614 
    7476    13809    -3013   -38435   -60381   -43760       -2    37477 
   46044    25390     1409      -99     7981     1159   -11626    -3055 
   34307    74205    74942    26187   -28453   -38457    -4221    24865 
    9933   -26287   -30750     4301    29722     9742   -27434   -33246 
   -1333    33957    38175    12051   -11306    -9798     6990    26134 
   39607    28710    -9101   -36165   -17612    27658    50151    35799 
   10893    -2721     -670     8742    10324     3028     1722    16181 
   38948    44069    13533   -28757   -44481   -33303   -22257   -25257 
  -35622   -38060   -25789   -10428    -3681     1054    13979    27896 
   29436    20911    14909    16054    14904     2994    -8309    -3103 
   11747    16395     3758   -18635   -36259   -35158   -16721     7246 
   28455    35719    21305     -641    -9898    -5714     3520    11314 
   10401     7146    13506    17277      915   -20243   -16645     5123 
   10750    -6488   -20321   -13540     3129     5813   -13510   -26064 
   -3267    35689    55873    40880    -4922   -43104   -44829   -33261 
  -26064    -2751    41308    65816    40514    -5742   -34915   -44581 
  -37080   -15257     1817     2050    -1977     7069    22738    24919 
   10226   -13439   -38083   -44929   -21271    11615    22759     9602 
   -6763   -11846    -9873    -5354     4426    21250    42048    49913 
   30395    -1745   -16715    -4764     3234   -23325   -56224   -50067 
  -10727    26735    43710    37797    11767   -19872   -32788   -14200 
   24586    59599    73834    60362    23498   -13851   -31066   -30360 
  -22986   -16434    -9771     3302    16499    16380     9540    13629 
   27553    34030    20987    -2258    -6790    24560    67651    70637 
    8527   -79199  -119570   -75450    14490    70642    61153    27112 
    6944    -5867   -25342   -41181   -29425    10370    46164    50394 
   23020   -17463   -48941   -62245   -65545   -60011   -36455    -6238 
    7753     3385    -5317    -7441    -2027    12344    35028    39992 
    3747   -51028   -85729   -82405   -40574    22262    77441   103630 
   90520    39981   -20879   -47530   -23483    20653    46836    47250 
   36367    17788   -14508   -49605   -65919   -47696    -5058    26083 
   31500    23800    17351    25088    36745    27480     1008   -18007 
  -13012    18428    55240    59505    20256   -27683   -41038   -15515 
   12387    18967    18725    24904    29295    23834    13791    11168 
   18125    20335     6170   -18304   -34992   -27831    -6399     4468 
    2775    -8140   -37550   -74930   -92688   -78683   -42313     -306 
   38454    66965    71922    46892     5382   -23171   -21213    -3172 
   12368    22750    16254   -18543   -56454   -60172   -19143    41276 
   66387    31681   -17204   -25085     9994    46523    41962   -14700 
  -79122   -85707   -37241    16097    53909    56824    15138   -24483 
  -30950   -24387   -13659     3612    18987    29266    32706    31779 
   40095    56128    65556    60458    32414    -3018    -4714    27801 
   58526    68087    46734    -1269   -49597   -87635  -112384  -101406 
  -49524    22401    85430   100857    70814    31282   -13381   -40960 
  -10656    50364    84831    76617    44653    16850     8062     9389 
   -9279   -59239  -103191  -106753   -68785      174    58060    52150 
   -4158   -59440   -87520   -81295   -46240     3461    46475    58098 
   32389    -9344   -26593     1416    39830    40684     9917   -15685 
  -36012   -63385   -72022   -45952   -18925   -15789   -23669   -27680 
   -8579    40082    75235    71604    59073    54206    54788    60509 
   52639    17442   -33183   -80982  -102012   -80875   -32607    14266 
   35718    30171    19982     9977       99    11060    32738    44942 
   62487    79879    73215    38693   -11867   -55524   -76873   -63286 
  -15352    32262    44483     9999   -35968   -39016   -15992    -9498 
    7427    57507    92295    72181    11877   -48388   -59088   -11863 
   32050    23641   -18189   -55545   -75350   -74035   -46677    -3859 
   34797    53921    44566    21431     9805    10492    11078     4041 
  -13656   -33486   -43571   -41237   -25493    -1119    11411    -1264 
  -23955   -30397    -8172    27819    42506    18854   -23704   -51686 
  -38826     8656    49964    61777    52677    31579    12275     6999 
   12733    35617    61169    47771     3805   -29859   -34473   -11944 
   14721    26034    18087   -10092   -43509   -53372   -29797     5576 
   26971    25282     2143   -24999   -29420    -8009    21321    40630 
   36229    12573   -10385   -18665   -10789     1649     5876     4843 
    9140    16981    14503    -3998   -24314   -27591   -20272   -29878 
  -58390   -70667   -47321   -17907   -12166   -18442   -26455   -39240 
  -33349     -116    25544    34453    36942    24868     4675   -19768 
  -34924     -442    61254    86088    58274    -2370   -65056  -103218 
 -103847   -64975    -4837    44817    60426    37183   -10781   -54657 
  -70104   -56975   -25510    12204    37856    50809    60729    59652 
   39583     5745   -22254   -25415   -11962    14072    63007   109385 
  110578    65668     8613   -27155   -23187    15847    59833    74304 
   51479    22115    26545    65875   101695   100305    60540    11203 
  -22237   -42905   -57323   -56137   -29876    15716    53079    55142 
   28185    -2701   -20807   -20335   -11635    -7360     2120    19079 
    8245   -57828  -140998  -173735  -148622  -100541   -43285     6096 
   32760    49798    51807    22675   -12326   -18015    -8361   -19182 
  -35390   -21745     4305    18621    29764    24902     -553   -10797 
   -9863   -17128   -10245    21350    61654    82358    62937    24098 
    4284    18644    50206    72470    66339    36022    10624    -6771 
  -21594   -26755   -39503   -51044   -35325    -4847    20548     9151 
  -38334   -59327   -45921   -42715   -40508   -14480    15122    32120 
   45156    49095    35988    23193    33069    54488    48104    11754 
  -11060    -6008     1865    -5364   -22886   -24601     9529    59651 
   86414    65352     2218   -56717   -68177   -40922      846    47374 
   78622    68991    12145   -67063  -110852   -78198    -2948    50197 
   59293    27527   -32749   -78628   -74043   -27243    28958    60459 
   43447   -18866   -90094  -133500  -128656   -64454    30797    92591 
   76770     5265   -35519   -11871     7280    -6642   -18234   -19350 
   -5204    29245    46055    23287    10492    27276    14960   -30044 
  -56380   -56710   -29501    12453    23333     1285   -25598   -34337 
    2162    61982    80940    52880    23845    19437    49451    94765 
  111541   103650    83870    40984    -3488   -28547   -28196     5872 
   40008    39577    21892     8370     2471     2868     6802    13787 
   20555    20525     8380    -9926   -15724    -5015     9234    18931 
   21941    20556    20615    30631    46508    37546   -15407   -89344 
 -144348  -149401   -94711   -16158    23549     8032   -29621   -60207 
  -69074   -49423    -1595    50688    64706    31086   -22585   -70384 
  -87177   -52247     1417    14709    -3175   -14297   -14096    -8757 
  -11643   -21277   -26199   -23915    -3172    29743    66109   104264 
   96673    26160   -33242   -42441   -21612    22588    59355    59165 
   39033    15569     1674      654     -413    -2790     2385    19550 
   37482    40714    24186    -3341   -18079   -11996     1462    20467 
   45268    53690    19338   -47366   -95289   -93333   -60669   -25662 
   -3416     7024    20698    43005    60029    52859    28460    13707 
    7582    -6886   -24981   -32073   -27097   -20521   -15518   -14185 
  -24287   -31985   -16549     6822    15549    14145     8733      564 
   -1123     3881     4280     2170     9775    24247    33212    32391 
   26318    23723    27005    30503    27382    14804      923    -2798 
    6430    18393    22175    25207    29281    18288    -5490   -25165 
  -39946   -54579   -59096   -39002     2440    40379    45739    12363 
  -31411   -47838   -27352     5437    25629    26892    11402    -6440 
  -15367   -25953   -35645   -23619     6316    27409    24528     9807 
    8397    28247    49701    49898    31313     9648   -14589   -39727 
  -44809   -22249     4611    12623     3348    -6424    -7739     -144 
   19676    41652    42507    19102   -11358   -25247    -4779    33932 
   54865    39440    -9888   -65902   -86915   -64212   -26069     4878 
   16270     1483   -27811   -50672   -48895   -21748     7508    20598 
   12110   -16156   -38890   -37165   -30831   -26599    -6679    13269 
    8410    -7915   -14455    -9417      341    13112    27870    33199 
   20542     -629   -12181    -5219    12487    23728    17865     5626 
    7712    23167    29392    16502     1885     6214    28900    52305 
   59435    48382    32736    23418    20480    19503    14242     3299 
   -8100   -16745   -20358   -13296     6350    30369    43252    34285 
   12823    -6211   -25239   -40857   -35387   -10026    18555    38065 
   41719    32570    15596   -10396   -39521   -55395   -51074   -38797 
  -30642   -21886    -7545      981     -969    -1599    -1009    -6886 
   -7149    13933    38790    35896     9624   -14827   -25477   -16730 
    7384    29447    35965    25019     6241    -4614     2323    17197 
   15977      807    -4194    -2278    -7884   -14959   -16964   -11269 
    1818     9580     4499   -14864   -41308   -40431      249    40510 
   50885    34793    -2172   -44539   -66927   -58757   -24872    15354 
   33871    24576     5732    -8694   -17012   -16465     4105    41453 
   70376    80611    67757    21613   -24823   -25797     7354    36618 
   39125    12762   -21082   -38992   -35712   -20795   -10660   -11823 
  -17362   -22835   -20937    -4614    14571    23068    20672     9468 
   -9987   -31152   -37377   -17332    16973    40919    41411    23134 
   -1610   -20517   -25058   -13890     3465    13324    15439    13988 
    4780   -10872   -25070   -26635    -9684    10871    22782    31419 
   40497    44163    30565    -1371   -32948   -44757   -34357   -12834 
    8370    19318    17487    11970     1884   -18234   -31888   -23013 
   -1642    14590    18775    13644     9649    18002    30204    26666 
   13463     8398     7420     1377    -6039    -5964     5039    18904 
   26198    23751    14219    10390    19816    28952    25594    17856 
   14679    10628     2381     -820     4591     7388     1458    -5425 
   -7673    -6671    -2359     5867    13716    10721   -10339   -36868 
  -43254   -21420     7511    15901     -907   -21270   -22288    -4120 
   11045     5988   -12351   -27072   -31495   -29975   -26586   -20763 
  -12328    -1236    10049    12139      278   -15552   -21749   -12661 
    8214    31112    47476    47348    23404   -11276   -35267   -37690 
  -19526     2111     7157    -5487   -20537   -22570    -9961     5312 
   14562    19589    19850     9734   -10856   -29228   -24032     6535 
   35463    36965     9329   -20579   -23242     1078    31266    43337 
   25246    -7146   -25748   -14785    22437    58295    62063    36290 
    4760   -17161   -22909   -10944    12961    37130    47051    31059 
   -2485   -23683   -17410     4021    24829    32306    21096     3937 
