Origin Time       2021/02/13 23:08:00
Lat.              37.7
Long.             141.8
Depth. (km)       60
Mag.              7.1
Station Code      FKS006
Station Lat.      37.5031
Station Long.     140.7588
Station Height(m) 472
Record Time       2021/02/13 23:08:06
Sampling Freq(Hz) 100Hz
Duration Time(s)  193
Dir.              U-D
Scale Factor      7845(gal)/8223790
Max. Acc. (gal)   233.156
Last Correction   2021/02/13 23:08:06
Memo.             
[...]
   15448    15985    16236    17239    18210    18796    18495    16384 
   14480    14372    15542    18094    19611    17243    13620    12442 
   14297    17505    18500    15651    11619    10253    13370    17814 
   18522    15691    12906    12371    14458    16942    17518    17107 
   16341    14177    11851    10905    10573    11878    16475    20907 
   19881    14254     9960    10845    16758    24313    27031    21405 
   12631     7632     8455    14546    20341    19731    18138    23365 
   31294    33093    26370    15585     7572     6003     9026    13489 
   17973    20618    19608    16322    13242    10816    10723    15014 
   21663    28038    31394    28266    20039    11098     4962     3816 
    4207     2211     3578    13063    20900    18779    16162    20279 
   20368    10968     5390    11576    21177    29650    39121    44319 
   37354    19751     4213      819     2184    -2262    -9159    -9810 
     275    16364    26997    29856    32412    37403    38159    28537 
   13340     1588    -2643     -668     3784     9713    14176    12752 
   11184    15429    20892    22464    18353    15244    20961    25855 
   24070    24023    24922    22368    16036     5625    -5402   -14797 
  -15352     2944    27923    38842    35262    26293    15785     4877 
   -1780     5490    21033    26643    25031    22050    11510     2751 
    8317    17898    14705     6184    12390    25915    30346    37265 
   52645    52132    29872     9036    -2959    -7026    -1414     4051 
    4837      961    -4730     6076    31621    43058    36004    27522 
   14087    -8457   -13090     9864    27480    23908    16251    21890 
   40242    50483    39584    18604     2758    -4415    -1710    15276 
   32823    32995    30769    40467    40956    17559   -13300   -27195 
  -11597    15849    25411    19134    14206    17620    31828    33529 
    5171   -13431     -936    11508    19190    32541    34809    13892 
   -9606    -5788    19025    45507    69568    69518    31114   -12044 
  -22006    -8032     8781    34543    49528    23691   -20506   -55293 
  -69695   -45054    14045    66036    83097    78969    68342    47317 
   18846    -1715    -3337     4734     7603     6782    -6200   -34800 
  -30628    23487    56335    30381      151    11557    38681    43999 
   42612    47336    31055     -406   -12541    -3107    10048    12154 
    3657    -2624     1476    16066    30260    36000    36590    31067 
   16861     1971     5957    26680    26854     1544   -15245   -12899 
    -897     7400     7296    14341    33903    55232    65680    51347 
   11304   -33527   -57296   -49601   -11707    42425    85513    95588 
   63409     8341   -27129   -23741     1189    22821    35714    42398 
   30636    -7595   -44367   -34528    12456    38221    41392    61790 
   82480    63348     8575   -39924   -45609   -17606    12540    33029 
   35918    15364    -3670     4093    30771    54891    57072    37926 
   13794    -5842    -2465    25805    35881    12279   -14243   -32356 
  -34801     6964    85044   138542   115265    20360   -75325   -90126 
  -23946    48450    76441    68350    39837    -4286   -36197   -32668 
  -14755     2193    33951    77296    93839    58113    -7393   -54113 
  -55815   -26550    16873    67158    96912    68454   -16870   -96345 
 -105904   -43880    49810   121813   127475    84578    38664   -11354 
  -58615   -62900   -26747     8044    29929    62598    93820    73091 
   11253   -36664   -62375   -58530     1300    79774   103162    63609 
   13583   -22538   -48952   -43106    -6475    21006    39140    58812 
   55568    25361    -3619    -6872    16625    28602    24822    50076 
   70139    28480   -26785   -31437     1162    21844    28624    43201 
   43124    18084    -6150   -18111   -21663   -23433   -16845     9107 
   43341    75805   100299    85274    16764   -58365   -96815   -94471 
  -40232    53932   118435   106157    41860   -19110   -30586    13722 
   59610    51146     8892    -7319    11450    26293    21112    10974 
    5120    11161    38060    74817    87882    46048   -34051   -89048 
  -83762   -34766    43818   119726   114573    31939   -27955   -38395 
  -26912     5260    31934    30488    14449    -3532   -13428   -15265 
    3118    51335    69677    31342     6500    17701    31139    31236 
    8846    -5287     7596    16861    34079    59404    44539    -8820 
  -34848     7303    63343    85846    91956    71317    20210   -37801 
  -92610  -104411   -53427    12505    61353    78478    44724   -17913 
  -60108   -62449   -34155    40113   140123   171343   107046     3704 
  -81526  -103565   -65934    -2959    51792    62633    53731    56284 
   28391    -6986      988    -2056   -25855   -16576    34040    95659 
  101996    43430   -10687   -31884   -28005    -3518    28034    38866 
     712   -48201   -33420    30267    79060    86994    45725   -11044 
  -23569     -345    21883    46643    64949    39619   -17176   -51576 
  -44354     -619    57153    88179    77113    32701   -23446   -57353 
  -42871     8182    50849    60767    42888     9424   -15526   -12366 
   -1343      367    24237    74148    93460    46500   -25178   -54249 
  -31893    19182    68721    69052    34203     7345   -29771   -64395 
  -43386    17950    67603    97278   123375   100723     3577   -72906 
  -86536   -80308   -54202      720    61276    63040     5265    -5908 
   47358    78479    50095    12888     1453   -18424   -23853    28247 
   73903    53836      297   -47119   -64033   -15743    77808   123755 
   70484   -13126   -37832   -25794   -21041    10087    58618    47977 
     128     8124    60131    80812    50190   -16842   -93769  -126669 
  -74097    44814   149667   160240    88879   -11237  -101563   -99449 
   18601   128526   130302    63657    -3856   -51618   -54955    -5011 
   56459    68512     7353   -53036   -21413    75710   124060    85564 
   51410    45979    -1416   -54685   -43627   -18314   -28227   -29366 
   -2817    12172    17491    36861    55308    64311    72338    60401 
   29326    -3908   -52312   -67092    -6566    44604    39864    25860 
   26179    25351     4158    -7352     4973   -10766   -35294   -16117 
   31842    92713   125898    81665     5401   -35586   -44797   -34993 
    2893    38647    32780    20097    31037    19489    -8360    13359 
   46944    22543   -22086   -38955   -34479    -1867    59202    96259 
   69253     6540   -30531   -22314     6670    51445    90980    71421 
   -2027   -63329   -66977   -17658    49526    90292    72343     5189 
  -52149   -38182    34511    77888    48759     -279   -38527   -66341 
  -37768    65132   163652   154334    52786   -33597   -80593   -94095 
  -43767    30419    73927    97846   100001    67929    20029   -24375 
  -52000   -51448    -3055    86844   137177    99040    14952   -72257 
 -122713  -100084   -16139    81774   121151    63911   -30418   -73604 
  -36734    54757   141397   142190    41266   -73993  -119244   -84127 
  -14342    48226   100125   109514    46184   -25346   -46500   -37656 
  -11176    45458   102535   107908    57964   -21829   -80535   -70735 
  -25334    22842    67378    78511    68640    63747    38862   -28869 
 -103889  -105934   -28200    46357    79415    78286    50302    14296 
  -15055   -25957   -12837    19737    70154   115865   111164    44824 
  -37980   -65385   -19527    29876    46009    37966     6656    -6586 
    8550    -1418   -33605   -35421       12    27002    27461    29332 
   31837    22434     8966   -19727   -34607     2216    27360    22950 
   36050    51711    68748    66900    17602   -32067   -76454   -99526 
  -33018    81970   152685   144690    66725   -27403   -78813   -61414 
   11415    90937   122458    63868   -50247  -109514   -63015    43696 
  114218    73340   -24624   -76195   -56234    20883    96734   104454 
   65391    12314   -35738   -30535    19461    62166    66891    17154 
  -49408   -78412   -53941    23441    99682   102015    41748   -12941 
  -29974   -16987    22897    55798    52502    45904    37085     1776 
  -24389     2342    49007    45790     7722   -11111   -18023    -7890 
   23311    27696    11126     4260     8842    40328    67602    50133 
    8569   -27295   -27174    12973    42743    37341    28723     3892 
  -56582   -65522    22775   121053   129872    35787   -53719   -62530 
  -30042    38190   121207   113818    20421   -55486   -85448   -64574 
   16213    97868   107649    47332   -39245  -104059   -71670    52913 
  129308    87444    -3179   -63495   -48861    18863    69138    87185 
   84250    55634    16676   -17748   -21411     7240    10847    -8584 
  -19438   -28428   -10966    34932    72596    76138    24818   -23834 
   -7422    24771    30389    26921    21733    -4368   -35522    -7533 
   45974    35723    11815    21965     7017   -29376   -39204     8661 
  100377   131070    63340   -28470   -71532   -32346    37432    57191 
   30507    23130    55899    56336   -20372   -86034   -58808    31187 
  101711    81187    11531   -14384   -17871   -29833    -3229    51844 
   56002    -3037   -47079   -15337    33448    25552    -4595   -24553 
  -19371    22135    64893    90883    71965     2031   -54945   -63595 
  -31087    17917    67852   120397   144698    92014   -15672   -79359 
  -62274   -27627   -25677   -40625   -35147     3769    75444   131990 
  105109    23319   -39552   -42589     4482    42982    62451    70648 
   37350   -17601   -56299   -75531   -47676    29104    87342    93320 
   62448    19133     1117    15882    46180    65691    34438   -28590 
  -61092   -39017    13954    55269    58915    13590   -38649   -15974 
   70630   130677   104045    19336   -38549   -58754   -62540   -20552 
   44270    70368    52307    18995   -10200   -26622    -7342    47294 
   85510    76148    38010   -14451   -50604   -14461    50646    38682 
  -44906   -90224   -32475    63744   105098    72989    10871   -30954 
  -52034   -46985    18326   112865   154062    91674   -31083  -109981 
 -102501   -31869    54822   108449   113857    77847    25853   -23569 
  -55539   -27816    28948    36131    29342    64762    83234    37876 
   -6176     5135    22250     5196     9297    52708    70214    39739 
   -8186   -32915   -17151    18747    50186    44513    27141    40009 
   24390   -32544   -61862   -49545    -9236    28881    34985    35245 
   22383   -25787   -55813   -36085    10129    41292    33183    24355 
   24530    12456     6335     5428     4017    17734    36447    51919 
   74210    94135   101837    88572    33806   -38510   -76554   -49437 
   28102    74178    53725    -1077   -63242   -92165   -96620   -90047 
  -15957    98220   144645   101197    27309   -22449   -38885   -32097 
    9536    69699    87617    64459    33185   -20139   -49735    -9772 
   31641    55142    77261    44629   -20796   -59922   -73445   -27499 
   46870    65529    71809    79343    31633   -21791   -18728    37004 
  106131   114783    68303    39841    24914     2290     -556    13119 
    9655   -20255   -48793   -34892     8429    46217    77484    70667 
   17231   -18848   -21362    -8055    29146    77508   110555    99432 
   44691     6373   -14489   -53131   -68485   -49701   -12056    33335 
   33423    22000    43218    44562    23388    -9166   -51309   -51806 
  -13015    21401    38781    22200   -16066   -32798   -35891   -32454 
    -639    43654    80809    92329    62748    31041    24425    17186 
    5584     8770    18476    33787    53747    40273    -6315   -47422 
  -72497   -74656   -53253    -8417    65908   131492   142020    80605 
  -28709   -91932   -54400    12403    24293    -9371   -36948   -40485 
  -25201    -5001    24065    82983   129365   111817    58903    14962 
    4980    29139    57370    60966    28618   -24086   -62756   -47677 
   20501    69055    44622   -14550   -52535   -54696   -17123    29862 
   56889    83824    78267    17598   -29103   -33820   -14229    14319 
   27417    39968    53003    25812   -12405   -15815     -216    32649 
   71394    68407    17400   -37538   -55687   -40146   -28115   -38550 
  -45469   -19561    38676   106679   152581   155561   114864    58264 
    8644   -32435   -35560    17713    86308   119020    94737    47580 
   35738    54040    62162    37400   -24903   -74421   -69487   -47532 
  -31351   -23545   -47555   -62033   -26941     4676    15454    36177 
   63979    90983    95389    63779    25022   -13250   -43829   -40699 
  -15573    11044    33070    39765    24039     7318    24599    53766 
   49557    14539   -20522    -6631    52517    71026    29192   -14285 
  -34474   -29787   -16013   -24302   -41470   -37947   -29902   -27662 
   -1455    44118    71648    79774    80184    59231     7655   -54216 
  -82831   -37411    49913    95222    79126    33666    -8264   -29147 
  -44149   -48637   -54711   -96032  -104815   -17429   101468   162896 
  133134    70363    67235    89048    52840      251   -29855   -50067 
  -27569    11106    27654    51637    48803     5440    -7823    25186 
   66043    72509    41990    12299   -22403   -37114    24710    91833 
   98748    74588     6600   -85584  -131373  -131467  -102975   -29242 
   70416   139037   161177   151586   113412    68740    41918    38292 
   57046    80526    88356    67861    20326   -22667   -28135     5395 
   48073    70896    80389    84204    56639    10393    14246    47695 
   20559   -46741  -110332  -189803  -228407  -169418   -89021   -46766 
    1325    72721   102932    74746    50153    45752    55980    89784 
  101127    61615    19080    12656    40394    69915    74051    59695 
   24344   -29727   -73523   -89789   -53254    47461   155506   207285 
  174312    60305   -56621   -85095   -44205     1231    38808    54942 
   38547    24783    26844    18836     -834   -18034   -20501     5082 
   30750    19188   -10088   -34739   -61360   -87964  -109364  -128333 
 -145828  -142753   -88402      153    66827    95180   118991   160276 
  177735   148925   134696   136247    96958    40729    -3264   -38989 
  -47040   -33632   -31981   -53433   -78043   -77167   -56970   -25853 
   13995    33400    34817    34506    18966    20663    66193    94338 
   65870    -9440  -114785  -189020  -198807  -156799   -42718   102330 
  178282   188009   191371   177723   101830      538   -48433   -61982 
  -65835   -36076    -5910     7927    43706    70467    46557    -4476 
  -42002   -23018    39704    79978    71474    30195    -4961    -4986 
   22804    62941    81406    55459    20521    -1958   -20853   -16560 
   10971    29906    35240    35167    39278    56025    77997    85498 
   59520    13224   -23724   -43557   -32179    19214    57817    58467 
   60099    44739     1661   -27828   -39862   -28343    11615    56160 
   71469    37660    10091    25034    19076   -23579   -35592   -14369 
    4521    40230    70409    37273   -30294   -60567   -42527   -24034 
  -14478    12116    17433   -12015    -3250    29693    12474    -8779 
   11219    22910    50155   121771   146321   107438    63024     8102 
  -34431   -29436    21199    95038   117381    62336     -819   -31499 
  -43737   -47904   -36494    -5246    22029    19016    12850    26393 
   26890    14781    11326    -4928   -32933   -53023   -68932   -64446 
  -31234     6566    29606    20898     7101    31266    58672    62499 
   73542    74845    50616    46570    42404     1412   -12336    20883 
   40400    32913    19923     3122   -18364   -12460    34641    60783 
   30392     4112    11032    -4432   -46692   -72987   -86356   -72825 
   -4024    87146   142287   146865   126586    74563    -6072   -37142 
   -3161    10257   -26626   -60496   -61547   -45369    -1567    67097 
  105386   116351   123742    85450    11840   -29307   -39911   -49655 
  -46944   -31499   -19758    -8425    -2907   -11399   -14490     2326 
   29779    51142    55271    37308     -278   -29228   -32432   -32398 
  -27344     -409    21945    17733     9435     9880     8170    24683 
   75601   111985   102340    72129    14949   -75270  -125038   -90073 
  -31785    13258    60169    77643    63454    69063    80519    69260 
   54206    53819    69471    61935     8014   -38061   -58877   -78633 
  -58237      565    29120    30449    27361    -1902   -46770   -43536 
   28339   102901   149388   178461   156078    63707   -54608  -134995 
 -154534  -112876   -16548    68484    88211    61560    21157    -5860 
    3595    35179    55020    60328    36485   -11673   -20229   -10210 
  -33138   -33937    -1078     7542    12924    45675    62733    46287 
   34558    44335    60644    78347    91247    74039    28776   -14978 
  -50118   -69826   -54079       83    57460    68661    50373    36089 
   10623   -10597   -14674   -32470   -61522   -69939   -38908     7994 
   27330    36821    53580    23716   -46523   -77355   -62816   -34256 
    2605    16929     7277    34551    99855   134265   122674   102455 
   80755    48589    20085     9224    10706    10114     5760     8966 
   14135    16641    20004     2403   -26890    -6895    61889   119776 
  147386   136007    74040    13757     7677     8561   -44527  -107446 
 -107033   -50120    10856    49032    59694    33812     5725    16873 
   19233   -12916   -15425    19411    25593    -1898   -17520   -30133 
  -48601   -37373   -13144   -18924   -41944   -49221   -38573   -32422 
  -17088    43700   131905   195168   202290   154106    61492   -54712 
 -143706  -162958  -104244     5958   101781   129948    87588    21504 
   -9761   -15279   -24975   -19442     -386     2741   -12336   -31954 
  -42952   -53364   -72979   -65664     3007    92650   137523   132008 
   93903    33652   -11221   -18720   -11661     -249    33149    85321 
  130837   161253   154111    74694   -29837   -80149   -95293  -105842 
  -72300   -18886   -27290   -73543   -71910   -21120    24790    59937 
   89997    83860    59355    51517    31522    14330    36790    65294 
   86725    88974    30788   -40467   -59489   -53145   -28732    28239 
   73776    82505    58680     9347   -26739   -26746      324    36869 
   51908    43182    30537     -249   -39239   -38404   -18547   -15048 
   -2547    10936     5103    -5634   -25974   -40401   -25455     6497 
   48099    66367    44392    33933    27035    -2354     1657    30809 
   34653    50824    91180    97096    64651    38682     7138   -37440 
  -34595    20210    80900   119561   104483    67088    58467    57694 
   45588    19646    -8646   -13873   -21193   -54058   -73754   -59791 
  -33154    11772    43355    -4058   -49354     2007    78676   120752 
  123250    81284    42066    35679    35320    12266   -40590   -85012 
  -90844   -78328   -46827    16011    76873   100477    87507    56725 
   25583     -800   -14431   -12920   -10932    -5370    -2990   -29346 
  -54758   -25373    50922   119009   147714   145832   109903    46936 
   -1377   -43440   -85722   -64407     1071    20335     1518   -21189 
  -53327   -44089    36400    91296    69464    42913    26312   -19553 
  -55933   -45671   -19603    17204    61265    56145     4639   -30163 
  -33806   -18261     7963    41015    70453    61711    26376    13374 
   28605    52176    48386     6525   -28061   -38740   -28359     1984 
