Origin Time       2021/02/13 23:08:00
Lat.              37.7
Long.             141.8
Depth. (km)       60
Mag.              7.1
Station Code      FKSH11
Station Lat.      37.2006
Station Long.     140.3386
Station Height(m) 285.7
Record Time       2021/02/13 23:08:12
Sampling Freq(Hz) 100Hz
Duration Time(s)  300
Dir.              5
Scale Factor      7845(gal)/8223790
Max. Acc. (gal)   459.523
Last Correction   2021/02/13 23:08:12
Memo.             
[...]
   -5494     8024    13639    12314    15452    19818     9390   -15241 
  -37079   -44668   -34808   -15553    -7474   -15978   -21566   -15040 
   -7422    -5493    -9009   -14941   -16764   -16298   -22924   -34518 
  -36695   -24528    -7813     5034    10339     5383    -9950   -28615 
  -33897   -19332     2674    19970    24152    14300     1150    -4959 
   -1003     4093     5000    11977    22118    19955     6879    -5170 
  -10000    -6826     2474     9759     6431      288     4116    13545 
   19531    19608    12278     3361      653    -1599   -13221   -30250 
  -33515   -12658    14318    23734     9882   -16067   -33324   -31596 
  -21903   -18152   -20437   -17656    -3721     6903    -5776   -30613 
  -36143   -20196    -5659    -5181   -17563   -29592   -24443    -3014 
   13270     8866      999     9474    19207    13972     2100    -3092 
    5219    22921    42232    55536    48393    24236     7357     4877 
   10848    18964    18816    13443    10503     5532     -949    -4745 
   -5659     -500    12085    27793    36652    27912     5749   -14442 
  -24625   -28048   -33038   -41119   -44273   -38618   -27368   -15909 
  -11252   -15483   -24521   -36570   -48069   -48439   -34913   -17766 
   -5008     3924    10870    12613     7731     -876   -14508   -28745 
  -30670   -19390    -5809     1958     1385    -3442    -2605     6004 
   11900    13701    20243    26106    20742     7245    -7384   -15503 
   -8770     4440     6910     3678     9423    16325    10111    -4124 
  -15533   -23229   -27822   -28038   -29428   -33762   -28935   -14901 
   -9315   -16892   -26419   -27562   -21784   -14963      182    22470 
   32629    24567     5838   -10319   -12788   -11232   -12631    -9117 
    -437    13315    26565    19504    -8421   -34931   -41110   -21521 
    3030     5644    -3508      363    14532    24310    23739    13281 
    -314    -8364    -7029    -2693    -5948   -12410   -11191    -6831 
  -10513   -19134   -19819   -17795   -25267   -30310   -22210    -7997 
    6417    15025    16838    15819     8499    -3844   -14804   -23132 
  -24486   -14408     3450    20675    27824    21667     8808    -1263 
   -3881     -692     1432    -3715    -5409    12559    38349    46963 
   31695     3719   -12441    -4170     6559    -1277   -20794   -34088 
  -27673    -8314     2288     1383     4066    14080    19757     8621 
  -15511   -30940   -31068   -31839   -33870   -28090   -18330    -4387 
   10719    11847    -2290   -19799   -29955   -26038   -12171     3747 
   17408    23411    22986    25616    29351    23062     8749    -3948 
   -8706    -6188    -9000   -16092   -10127     4834    13213    10650 
   -2149   -14847   -12023     7749    28165    31418    22297    20541 
   25461    20463     7501    -4425   -20313   -34109   -29322   -14824 
  -13375   -25108   -33951   -35878   -35359   -27542   -12282    -4486 
   -6016     -473    16303    30721    29204    10116   -18827   -45632 
  -54664   -46927   -39934   -32887   -15259     7446    19791     7445 
  -23576   -47065   -48463   -33056   -11813     9367    29085    41512 
   44308    45214    45091    35985    21991    14706     7959   -10845 
  -30784   -32975   -18246     2673    20005    26836    24628    15061 
   -1058   -14403   -17521   -13066    -2774    12314    20460    10108 
  -13562   -34515   -37571   -21574     -426    16433    28136    34587 
   33141    19876     1861    -9616   -19192   -34686   -47520   -49129 
  -47398   -45523   -36154   -22805   -11862    -2754     3809     6134 
     754    -7962    -5826     4047     8139    11281    19421    22619 
   16320     8517     5711     7954     7024    -4625   -18284   -21675 
  -16869   -11574    -8881    -7762    -5059     -372      506    -5306 
   -9180    -2697    11311    22069    18609     3956    -7642   -11570 
  -13014   -16078   -17676    -8110     8222    11538     -838   -17280 
  -32359   -34307   -15799     4197     8152     1833     -846     3821 
    6008      946    -1840     5796    17255    18135     4506   -18927 
  -43069   -48618   -32915   -20445   -17190    -4450    15407    18638 
    1721   -14581   -18320   -14666    -6412     3720     2038   -13084 
  -21555   -16229   -12675   -16956   -15684    -5888    -1086    -1799 
    -662     3187    14885    32186    44004    45981    36331    21975 
    9848    -3526   -10358    -4958     1247     5143     8056     1246 
  -17051   -33943   -36155   -21104     1021    18312    28721    29303 
   18447     6700    -3928   -15481   -19723   -20389   -21363   -17531 
  -16611   -16112    -7137    -2258    -2467    -4006   -19807   -38422 
  -36953   -17477     6712    19477    17119    12471     9332     -241 
  -21028   -44736   -55445   -44053   -17594     3246     8104     4583 
    6070    18407    25207    18027    15997    25533    35395    37655 
   30180    21455    16391     5715   -16897   -41470   -47976   -31914 
   -9776     1709    -3622   -15093   -18540   -14887    -5902     8749 
   19234    16362     4105    -6226   -12833   -21163   -25317   -21675 
  -17563   -13162   -12718   -22323   -29849   -29582   -26997   -17856 
   -5570    -2268    -4182    -1260     3586     -218   -16193   -28902 
  -18087     8730    29659    39494    40446    35877    28993    16815 
     695   -14169   -20842   -11944     7348    30505    51418    50534 
   26343     5998    -1726    -6345    -2816    12232    27945    33999 
   25023     7632    -8961   -26734   -41071   -46753   -50814   -51570 
  -42658   -28042   -15665   -13107   -16609   -14828    -8175    -2953 
   -4594   -14663   -20367    -9720     5289     3296   -14783   -29612 
  -31314   -26393   -25926   -28048   -19039     -504    15198    25346 
   21721    -1034   -21271   -20721    -7863     5695    17905    32485 
   52767    68975    65896    42207     7165   -21185   -22424    -4275 
    8465    15468    24642    25546    12139    -7182   -26775   -41778 
  -43981   -33879   -20254    -8692        0     3781    -4945   -20845 
  -20453    -6631    -2524    -5763   -10372   -21300   -36298   -49800 
  -54195   -45871   -26956    -4592     3343    -4341    -8330    -2728 
    6249    11308     8962     6237    10396    21755    31592    26809 
   10381       39     6874    22962    29030    23010    19915    22094 
   19161     6983    -7925   -18025   -19766   -11740    -1723     -754 
   -6949   -14451   -24316   -36688   -45007   -42732   -34094   -24405 
   -4996    23568    35041    16659   -11755   -36258   -56706   -57531 
  -32066   -10889   -11515   -12048     1143    12618     7364    -7434 
  -17739   -17269     -954    20957    25027    15951    14929    18252 
   14590     5806    -2798    -6381    -3511     4167    10696    10152 
   13308    28112    36605    22399    -3757   -19974   -23755   -25235 
  -20221    -4919     9961    19190    24922    21749     2640   -21028 
  -28961   -21107    -6188    13308    26254    22392     9283    -1846 
   -9586   -14247   -11855    -3673     1219    -2386   -10158   -15438 
  -14835    -9321    -5586    -8171   -12054   -10215    -8398   -19269 
  -32640   -21784    13707    39310    30141     4820   -14758   -29033 
  -30399   -21676   -21525   -20110    -2820    17230    20555     -788 
  -27017   -30835   -19113   -10282    -8510   -15191   -24451   -24605 
  -11395     8631    18447    13513     8370     4669    -5293   -17659 
  -20490    -5089    15672    26466    34034    37704    26612     5514 
  -11445   -18646   -23556   -25751   -13748     6798    23359    40231 
   54604    47763    25691    16102    21686    23751    13417    -1598 
   -8166    -6949   -12542   -31903   -54068   -61962   -49516   -25401 
   -8707   -13031   -23533   -15422     5503    14071     5590    -3836 
   -4538    -1779    -4982   -14951   -24737   -29281   -24849   -17015 
  -20646   -35702   -47991   -45831   -31341   -19276    -9767     3353 
   12636    21924    33080    30727    21703    20004    15719     6539 
    2205     1487       -8    -3504   -10227   -17874   -22226   -19785 
   -5189    17639    29930    27206    25400    29308    30038    21100 
    5730    -3258     -526     5999     6748    -4461   -22037   -30283 
  -24752   -15169   -10350   -11169   -10675    -7230   -11200   -21793 
  -22632    -7847    11951    17297    -2489   -27360   -33905   -27360 
  -22330   -24426   -23615    -6490    10219     4475   -13423   -27556 
  -30080   -19098    -7141    -1618     -619     -550     9337    24140 
   28044    26496    26458    22283     9953   -12051   -34879   -44822 
  -40709   -24471    -2590     9424    11815    18280    27460    29026 
   24799    22458    22707    23984    24212    17629      232   -21986 
  -32879   -28174   -21311   -15439    -7515    -2195     1795     6654 
    8260     1911   -11322   -15727    -3160     9335     7604     -712 
   -2601    -3014   -10384   -18816   -30206   -42985   -40786   -28773 
  -18468    -1798    18260    25002    14512      -68    -7356   -13435 
  -20614   -24632   -30188   -29648   -17374    -7493       90     8563 
   11426    13456    11418    -4005   -24997   -39653   -35376   -12151 
    5533     6910     3067    -1289    -6114    -9267    -9533   -10072 
  -10605      658    18303    18512     6802     6623    17523    29261 
   37095    35897    30196    27986    22786    11410     2413    -2398 
   -2604     2782     3692    -5161   -12758    -8865     5121    19781 
   25307    21181     9543   -10057   -26677   -32275   -31907   -21644 
   -1918    14218    24413    29469    24271     8253   -10805   -21163 
  -23851   -31938   -43073   -42148   -30379   -20895   -16046   -15263 
  -21487   -26763   -22964   -14058    -6667    -8914   -15183    -8595 
    -664   -12271   -37324   -61851   -73078   -64767   -46330   -24317 
   -2255    12383    18427    14750      541   -11539    -6170    12999 
   25612    21282     9749      380    -7678   -16112   -25942   -35415 
  -34395   -19462    -4540    -1196    -3451     2398    17942    28329 
   25182    19298    20706    27419    34859    41004    47235    53233 
   55520    52558    40537    23758    22092    41116    62158    69018 
   59725    39545    17336     4903     6512    14318    22994    32580 
   37627    30267    11338    -8128   -18696   -19178    -9321     4594 
    7345    -3114   -18661   -39339   -61095   -73580   -75714   -67900 
  -48651   -28013   -17402   -16950   -27093   -48230   -69115   -78997 
  -82479   -84962   -81777   -74529   -70903   -68000   -64072   -63992 
  -54835   -21951    18291    45751    58598    61449    63305    65669 
   59836    41214    14646      162     9499    24691    28938    23311 
   18092    23311    30942    27886    19550    21514    43852    70622 
   68824    39434    10917   -10721   -34292   -57499   -72476   -77778 
  -76755   -66657   -54943   -61927   -77359   -74117   -56280   -44204 
  -44523   -46346   -37814   -17761    10100    33462    43765    49083 
   52732    48851    37203    25527    17859     8509     1968     8942 
   22079    28447    24487    14206     2901    -6625    -6440      452 
   -3099   -13652   -19863   -23398   -20375   -12244    -7585     2185 
   23352    42184    45430    31610    11859     4812    11038    10543 
   -1193   -12417   -19097   -15592     2308    25065    45400    57592 
   57715    56585    55156    38935    13455      199     3773    12723 
   24089    37993    40986    27247     6855   -15508   -40674   -64616 
  -75114   -66216   -50815   -37165   -25531   -24254   -33538   -45380 
  -59745   -74514   -82312   -82042   -79154   -78614   -79095   -76882 
  -74784   -75627   -72773   -59397   -39908   -23130   -11862    -4556 
     345     -568   -13587   -34685   -52319   -59441   -55830   -48595 
  -42234   -31712   -17572    -8378    -5863    -7080    -9097    -5323 
    6498    20275    30348    35907    41770    50868    58344    61813 
   62587    60251    56565    53221    51966    55398    60057    63366 
   67996    75197    84186    88539    85756    84792    86215    84798 
   80950    70949    56300    47510    47652    52608    53904    48236 
   46749    53657    63440    79544    99418   106562    96584    78923 
   50971     6561   -39683   -74189   -99798  -113953  -113297  -100172 
  -77446   -63423   -70908   -83135   -88231   -86278   -70359   -40223 
   -6380    15321     8796   -26055   -79389  -141278  -192593  -219342 
 -227034  -219771  -198792  -176301  -162789  -161055  -167350  -172532 
 -175647  -176447  -170020  -161832  -152555  -131348  -105780   -94308 
  -93394   -89031   -79423   -65767   -46363   -23961    -2023    21587 
   49584    76543    95914   111331   126461   139995   155625   177319 
  203158   230836   258091   280214   293441   296912   289723   274716 
  261662   257983   263378   269839   265212   248579   231310   217958 
  205794   196754   192689   188581   178060   160679   140664   120748 
  102973    91031    83863    73577    59360    52076    53723    51302 
   38111    17851   -10027   -47988   -96034  -154435  -214570  -266125 
 -311376  -347927  -364143  -359473  -346698  -337851  -330885  -319701 
 -313687  -322038  -337279  -345902  -337922  -318034  -300631  -288299 
 -279398  -277481  -282260  -293294  -308485  -318880  -319250  -306969 
 -279926  -245097  -209946  -174769  -138784  -102670   -69361   -40467 
  -11755    21929    57595    87401   113076   140859   171211   206848 
  249852   294129   331032   357324   382631   414792   444295   464259 
  476678   478354   467642   446359   413791   374639   336528   301417 
  270727   244514   220409   201297   188850   180547   181008   193276 
  205580   198177   162075   112876    67667    26449    -8648   -36151 
  -62154   -81930   -83249   -67336   -51907   -48690   -53169   -68214 
  -98713  -132422  -164281  -199751  -234295  -261589  -275231  -269010 
 -249943  -233200  -230662  -243873  -265149  -290314  -315877  -332623 
 -339588  -345724  -352270  -350411  -333130  -301881  -262674  -221115 
 -186476  -167391  -163606  -173897  -194200  -208878  -206828  -193962 
 -177604  -152244  -110212   -57127    -1761    54442   106114   146824 
  180706   214947   254047   296063   329198   349960   367374   381370 
  384955   374691   345728   299467   249926   208966   179028   160239 
  152544   153362   158215   162405   158881   140490   110192    77463 
   48859    32317    30960    33960    30163    20401     9447    -7854 
  -37530   -71887  -104656  -134206  -147336  -129695   -85361   -42307 
  -31260   -49523   -76113  -107541  -141501  -163166  -162448  -139217 
 -106004   -84163   -81387   -94522  -126943  -171462  -204423  -215156 
 -204903  -167314  -106942   -50758   -16129      398      561   -17416 
  -46384   -70082   -77305   -68058   -40344     -519    29307    46954 
   68870    95040   117751   132687   132849   118797   101636    94447 
  105592   129766   152917   169307   185545   207118   223473   219285 
  196489   161705   111638    50855    -4499   -45540   -72350   -83207 
  -73427   -41569     3489    45261    73830    84376    71524    42201 
    8806   -27535   -66808  -100020  -116355  -119757  -121606  -118494 
 -110658  -109424  -111551  -107812  -100866   -98691  -104240  -111384 
 -112742  -104669   -89195   -75217   -62290   -43378   -23344    -6342 
    5061    -1332   -25902   -55722   -86070  -114644  -138014  -155830 
 -162442  -149654  -119124   -81565   -44675    -8935    24366    53333 
   76972    86764    72770    39303     6111    -5605     6848    30392 
   56695    83131   107222   124432   125599   110141    87569    64717 
   53512    65844    94177   118666   125442   121036   121147   121162 
  113104   111323   125089   141669   149716   145881   123908    83246 
   38682     8745     1684    13144    35827    64565    85895    85122 
   66388    37451    -3501   -44552   -66645   -71018   -68397   -64991 
  -58785   -45796   -40981   -52798   -59894   -56901   -62888   -83886 
 -114562  -146904  -172917  -194130  -213178  -226370  -230970  -230970 
 -232465  -229197  -212391  -191425  -177003  -167344  -160234  -155906 
 -156595  -162530  -165755  -158735  -135153   -89731   -33388    15095 
   49252    68048    69499    57114    40591    33617    43614    62785 
   81083    96705   110606   121890   127444   128069   131615   144508 
  169422   205100   239423   259437   265211   262998   256995   244005 
  220372   195269   175976   162966   163719   177317   188597   189656 
  179352   156412   125591    94393    65997    41081    23553    16908 
   16006    14260    10019     3732    -2008    -6821   -16600   -37922 
  -66997   -91881  -111765  -136148  -169123  -209583  -251730  -286029 
 -304859  -302101  -280697  -251521  -214417  -165603  -118705   -99187 
 -119472  -162908  -205243  -238959  -259914  -258056  -231871  -192657 
 -149238  -103453   -65022   -48987   -58047   -80997  -103037  -113383 
 -106327   -81810   -45748    -6165    29166    53669    66374    72095 
   70668    54063    23927     -495    -3908    12366    41095    71548 
   97517   125475   153962   172543   181620   185724   187710   190738 
  193041   193218   193882   196699   204013   212085   202887   169962 
  134870   111624    93792    83712    89959   106988   122781   131472 
  134481   134276   124822   100836    71026    45291    22655      469 
  -17327   -28942   -40309   -56817   -79685  -104529  -125760  -147660 
 -175176  -201565  -218295  -222702  -213058  -188411  -154240  -122621 
 -101709   -87227   -75523   -74960   -86738   -97067  -102276  -110718 
 -121558  -128734  -132679  -137381  -142537  -140097  -125325  -100970 
  -68038   -34055   -15286   -14133   -18396   -21323   -23404   -24818 
  -21871   -10748     4141    16561    25678    31016    33034    36953 
   50245    70548    86844   100140   115372   126350   125980   107536 
   70738    30443     4386     6219    36432    75887   108884   136768 
  163505   183332   187277   178833   163428   135911   106189    96880 
  104118   106438    94498    73368    55717    39231    10810   -16767 
  -29431   -37627   -38834   -24487    -7547     1698     -951   -20169 
  -47213   -74251   -98370  -111024  -112549  -107086   -93229   -76113 
  -63271   -58376   -63590   -75865   -85800   -85018   -78177   -74854 
  -72836   -70970   -73735   -80148   -92503  -108507  -112067   -97227 
  -67242   -26148     7110    19126    15257      919   -13921   -27207 
  -52996   -84126   -96199   -83729   -59397   -35884   -16524    -1482 
    9354    20517    32926    39195    33909    25517    27452    38335 
   47775    51976    54484    60940    72485    84445    90728    87153 
   75614    60319    41782    23179     8468    -3241    -9084    -8220 
   -8248    -7025     2767    16834    33336    50137    51220    34782 
   19232     6840   -11445   -31581   -45422   -50993   -50553   -43681 
  -28813   -17477   -18620   -20989   -20092   -25724   -38450   -49007 
  -48694   -37706   -26288   -18157    -9821    -5931    -7465    -1972 
   14868    34442    52278    72550    96286   111955   110026    93305 
   68820    43935    21035     1374   -11468   -21371   -30504   -33670 
  -30603   -21830    -7334     5668    13674    22281    30778    30843 
   19935      373   -24646   -45214   -50890   -40493   -17948     2505 
     243   -25699   -61133   -95678  -123264  -143594  -150638  -132652 
