Origin Time       2021/02/13 23:08:00
Lat.              37.7
Long.             141.8
Depth. (km)       60
Mag.              7.1
Station Code      FKSH09
Station Lat.      37.3530
Station Long.     140.4264
Station Height(m) 60
Record Time       2021/02/13 23:08:10
Sampling Freq(Hz) 100Hz
Duration Time(s)  219
Dir.              1
Scale Factor      2942(gal)/8224139
Max. Acc. (gal)   64.096
Last Correction   2021/02/13 23:08:10
Memo.             
[...]
  136530   150045   134073   113653   116359   133604   147155   141480 
  127805   132424   138244   130080   132497   138585   129340   128804 
  142844   147600   142843   136406   129074   128052   136637   139591 
  130269   130925   141247   139028   137211   150407   155050   139471 
  131820   139785   138584   135186   146433   152178   140779   129741 
  132271   144155   145723   134819   133286   139766   136869   124565 
  123228   133181   128592   127392   143444   145848   138859   138815 
  137366   131022   127703   135892   139483   131268   134898   140023 
  127407   123329   138073   152375   158215   145370   123048   125024 
  145457   154136   151329   145492   136937   139708   155197   153704 
  136316   131322   129312   128286   143534   146136   133042   142115 
  153932   145297   143911   152485   153443   147523   130615   115487 
  126311   141949   138115   136416   148714   156663   161376   167760 
  149022   117852   127095   141932   117865   111812   135085   143351 
  145422   147540   146781   148718   138246   124240   128933   131862 
  127012   142820   164049   163420   157037   145596   120711   110397 
  124610   140853   150473   144543   127294   139070   172235   170407 
  142724   136648   147915   150217   139777   131846   138038   139853 
  122512   107225   116452   146038   161966   146749   141898   156304 
  142558   119134   122735   126569   123340   126613   131828   144520 
  161956   164050   152921   154190   164010   147391   118949   123024 
  146799   159021   153829   139187   131985   129585   132039   150869 
  158109   145524   151424   160124   144093   140466   151698   144061 
  141349   150647   141566   137173   153358   155102   144814   149231 
  146843   122161   118444   144882   151083   128841   114647   128155 
  144443   131519   120194   136162   143626   136159   136055   136902 
  139072   144301   138252   131792   140737   151518   142846   120349 
  121066   137813   131893   133849   159864   162770   143317   130161 
  128349   130447   123236   124198   141161   145671   145812   154591 
  149698   139468   140641   138003   138713   146128   133384   119692 
  129944   128247   111700   120204   146250   163529   157291   136962 
  144328   159996   144381   132768   134887   126100   119462   129007 
  147407   150782   136868   130536   131122   138335   156108   159462 
  144882   146907   158157   138608   113796   114365   116880   125359 
  141380   145524   148641   150352   143695   135079   133582   144637 
  145065   139390   148093   147121   135486   131287   129992   129840 
  135846   143677   133297   125589   151204   159541   128410   115512 
  129797   133668   127101   127971   122609   113589   128675   145694 
  150989   153966   140832   144046   166556   155343   143044   151744 
  135996   119580   134516   148436   147545   143498   145975   154666 
  147534   131666   134815   137452   127086   123678   121189   124744 
  149519   163070   148255   139482   148171   151401   145751   139429 
  138188   149570   150662   137737   147850   155999   131094   126589 
  157881   165117   143646   125639   111522   119307   143661   145064 
  135901   132754   138770   152235   130812    89052   102277   150838 
  158458   140036   143571   156577   154197   132348   117872   129412 
  130977   119044   122476   130388   139311   143806   132732   135022 
  144614   136283   136657   148679   152929   150811   146036   146070 
  135999   111989   114837   143139   152672   142055   139808   143247 
  138677   137155   138757   136383   138642   144580   145643   144956 
  147642   143737   141737   154842   149214   128673   135182   146578 
  146068   150404   144224   125676   122401   140863   160293   150403 
  117378   110415   138654   158305   155326   155503   161433   151993 
  130477   118585   124946   128364   113617   121832   158110   165427 
  148786   137887   136136   145752   140830   130179   144344   150009 
  141249   139949   130061   121848   123043   127403   156276   174090 
  149578   141158   144668   120970   111449   118804   118921   130532 
  133038   121128   135382   157391   156007   150014   145168   127924 
  117050   135857   162510   159112   129157   123147   151860   159530 
  140270   138869   153206   152884   138898   140890   149160   135895 
  137122   155106   139170   120249   136813   154508   155294   141851 
  125142   136497   147428   125548   118085   134045   152339   168902 
  153624   125578   127309   139509   140258   132354   126642   129622 
  139301   155862   153677   127314   118416   118069   116731   136011 
  139453   124498   135670   150626   150855   149840   136686   124213 
  134642   138511   120086   114648   132877   148166   145088   140092 
  146859   143954   137211   142951   141833   142777   149744   140868 
  133490   141146   150336   156663   151150   134858   126227   127589 
  137706   148590   140780   121757   114053   124020   133262   127822 
  124497   126762   133416   150176   149143   129934   136178   155277 
  148358   140566   150840   137290   112251   130615   157870   155036 
  153018   154434   137332   118929   121953   129919   128125   130318 
  134150   133708   137458   144344   157138   168501   160903   141181 
  120641   114160   128474   135646   128569   135711   155915   158483 
  145910   141488   140313   140337   152007   165550   167926   160425 
  149616   136996   124249   119007   117331   121624   140994   142678 
  120696   131662   159079   150007   137550   137188   129084   149567 
  188636   177408   136397   126160   140424   147279   137235   128790 
  133951   140552   157680   170334   139707   117799   138426   148747 
  152772   155503   134696   129366   152527   170758   160627   120758 
  107330   129855   122975   103626   112357   119871   121482   142732 
  168110   165026   140142   124895   130122   137589   133515   139633 
  154731   140792   123064   134697   138272   123647   115183   121213 
  140320   148122   138705   134836   137716   141674   141593   134775 
  131369   128528   126048   139375   156135   151060   139698   145122 
  149656   140647   138453   141011   132143   128746   137879   137369 
  116306    99638   119496   147804   144247   126500   131730   161350 
  162916   131373   133023   156280   145652   122847   123534   131699 
  130018   131996   138215   143752   157562   156608   137019   140302 
  150306   130242   114025   126833   127440   113009   131730   154677 
  145453   145870   147251   132564   144012   155173   142379   147918 
  151949   132433   121159   122195   128750   141701   154557   156381 
  139131   126895   140089   147772   130607   119889   130873   136683 
  127130   132875   165612   185213   168563   146097   142047   142870 
  134966   129255   128088   123241   130762   146634   144736   147309 
  163530   151933   116607   106585   131269   144988   127566   121104 
  142685   164955   167053   151368   141743   142754   137947   132403 
  138366   145959   144514   137176   128479   133713   147649   137737 
  122596   130149   131863   126048   138060   150719   150531   154156 
  164203   163632   153347   147999   139471   124641   115840   115763 
  127286   139556   135672   125470   121743   125311   138253   146828 
  135395   128883   135193   127057   125493   141489   139968   134346 
  147942   162984   162804   149515   136518   123091   118149   132972 
  138888   135579   144343   149990   147576   142842   137160   133030 
  131928   148517   163032   147205   133011   136217   148043   167733 
  162085   132956   129158   142364   148863   158824   156500   134280 
  126041   136282   147048   141767   117035   121383   150333   140740 
  125409   142966   150631   140271   126225   107937   116365   151432 
  163039   143947   132166   141994   145052   137695   141878   141748 
  133902   131593   129119   136792   142611   124843   117701   142642 
  159495   140240   127197   143156   141019   128864   136341   134553 
  135160   147496   144211   146005   149993   143032   147380   146618 
  143969   149860   137411   123290   126727   135464   129952   112266 
  128025   155800   146452   141461   157032   153921   138555   143595 
  159416   147183   121859   118928   117976   124033   163156   183531 
  154862   133411   138913   148124   149793   135661   135360   156756 
  152720   145758   163603   160726   143775   145925   140756   119920 
  118239   136078   139549   127539   124746   140144   157090   140325 
  112116   133114   154156   122467   117447   150377   133659    94865 
  108148   144848   158391   155736   145774   128499   125277   137813 
  142098   145885   150360   143104   137801   132412   132962   151876 
  146303   113537   110103   117463   105786   111319   121817   117040 
  131129   151721   153631   138231   122825   141000   151997   127141 
  129460   150955   137470   117337   128123   150126   161523   167611 
  169231   161268   151514   150871   146352   122277   111073   133745 
  150608   147637   144459   141918   142562   135959   117656   125566 
  156189   161658   138966   121575   129185   147159   156523   161342 
  162571   158500   154138   149068   149690   151696   137502   126007 
  135122   142209   135430   127377   132061   147039   156085   157782 
  159084   159278   151384   131746   120900   135803   145604   125894 
  106266    90852    64656    71849   117913   142196   142442   142308 
  133894   123419   120249   123978   137141   140968   131292   135835 
  144158   145285   159888   176056   182086   176083   146377   127229 
  146610   169680   160211   128433   125649   140872   108544    76306 
  103129   123376   113130   113829   114855   106678   115111   132336 
  114644    79550    86576   107840   100705    92449    85545    73921 
   80527    98934   118924   139914   147351   150183   162727   165915 
  156859   152570   148749   140478   134362   146300   177402   186981 
  166484   158946   175140   192593   187281   161104   155204   171792 
  173263   169546   180701   184553   168497   155637   168945   200497 
  213555   181059   134079   133201   170811   185804   169429   150877 
  131400   121246   147144   170858   145139   120028   132699   140744 
  137146   149235   172450   194886   198776   169946   141662   136300 
  130000   128661   140228   132889   119400   124501   125571   138762 
  163775   132543    76113    85955   116079    86649    51263    53677 
   46514    48027    86351   113081   119144   115674   107632   124293 
  152940   152977   115261    72424    59919    56428    50881    74093 
  100826    93785    91525   126673   163748   159796   135901   144838 
  173476   181093   175273   158642   131978   134245   159749   162272 
  165986   196565   209016   194868   178522   175709   200051   200418 
  171749   186749   212831   197629   175516   174691   184318   177865 
  163925   167694   183411   199200   194475   184816   206865   214624 
  185460   171948   168858   163767   165858   149814   142823   163092 
  164347   171497   204061   206254   166985   120136    95251    86834 
   57192    23535    30262    55462    76150   107825   125690   112791 
  108141   107838    86177    71188    79529    86799    82174    85914 
  101376    99391    88990    86506    63868    47838    85884   131976 
  138534   132646   143608   155572   155517   164986   188423   202667 
  187628   149551   129986   138298   145003   145470   150310   174618 
  202004   188038   160073   157824   163112   172666   176557   160544 
  155723   164959   150907   121174   114088   123277   123511   121031 
  115229   113273   147131   196541   225590   231282   198590   154604 
  151131   170710   181392   173111   149810   138173   138666   138859 
  157326   179817   166970   145476   152428   164500   157678   148312 
  156163   166280   167960   163630   125080    72077    57786    47642 
   22658    29835    68939   119691   170411   175008   112753    52812 
   55308    89818   112341   102585    79327    92805   111491    86213 
   78741   131859   192396   222551   229200   216209   170185   104414 
   79157   109019   136142   132835   131197   158329   190803   188433 
  166372   165744   182110   189135   172990   141999   109914    63208 
   16181    15789    48011    76520    98976   103030    99877   123533 
  150437   149169   134549   122145   125910   152028   169715   169128 
  181291   203084   209758   207832   204087   193151   192715   207168 
  203532   201090   236142   251595   208950   162795   144289   127399 
   94509    79247   112117   161944   193494   191443   157284   136482 
  161482   194875   181989   125024    75663    69327    97146   121878 
  119785   115769   135083   161395   174819   168407   141902   119446 
  129811   146836   139372   129145   111474    86837    90107   101611 
  109949   121967   113779   101038   102913   104460   102978    95902 
   77625    58062    62355   106967   170185   201823   174467   125131 
  113417   149740   195534   213667   197213   157727   105129    68598 
   88096   126871   132070   136070   143360   123346   123996   171607 
  194305   167460   145886   138456   137798   161022   170171   146556 
  143413   154741   156745   180636   193537   158781   152828   187250 
  178964   163003   195156   210562   196446   195901   171134   113005 
   82765    92890   134140   190213   205476   189541   191400   188032 
  161681   123483    79385    53049    37544     4017   -34642   -40201 
    7789    73784   113478   136521   158683   175892   168218   126524 
  112036   140699   123213    62218    35576    49281    94903   144265 
  150897   151956   181502   188222   163468   150209   136471   121188 
  138836   162475   163054   177835   223869   262778   269852   265038 
  256493   212669   144848   103462    81152    74260   105048   126678 
  119005   135631   151213   128131   138321   190618   194344   161307 
  153088   157978   166148   164920   142218   144757   177178   177718 
  139410   105424    89444    97213   136552   163961   155756   151297 
  147749   127557   115350   105502    99458   146394   222474   238531 
  194256   151209   124100   126360   164002   182995   163566   154654 
  173230   164057   105367    70951    95473   122994   112862    82537 
   79834   116280   153333   170263   181105   202818   214793   191170 
  160469   115785    30071   -17940    18315    66156    83281    80229 
   78679   101875   137297   168011   190193   188180   162441   144849 
  154533   151722   108823    80238    94880   114133   118176   113256 
  113154   124220   115774    93401   124345   183292   183031   155379 
  160625   169126   161993   163838   169426   152625   123499   115916 
  124447   114457    76423    29951    11916    46202   100099   109965 
   66420    33301    54839   103396   155956   207998   209478   157304 
  138018   159420   165175   166267   164373   132482   110824   145023 
  204280   233872   223361   208538   210030   222831   243066   236340 
  198607   196213   222259   203404   154639   131041   115708    94884 
  118008   182979   213367   185955   147865   135653   145679   159903 
  158481   127191    84782    52718    40992    60426    80748    81724 
   93372   115977   135496   148609   133524   111273   123803   131550 
  102848    88966   102523   116245   139332   154867   149779   159344 
  163119   132229   110870   114763   125302   138689   130692   101868 
   98107   116083   114427   110215   123946   110805    77259    82007 
   96124    86580   106716   152620   146269   112853   143361   206327 
  208656   167788   155927   163663   149459   123093   111195   132132 
  178448   210293   214261   214180   222566   224885   213140   199918 
  189260   195214   233780   264898   240417   183905   164236   180874 
  165969   142565   166540   184812   165145   154191   148277   123396 
  108976   101063    67467    43989    48636    42885    40490    65873 
   84289    72685    68266   105756   152316   164110   153501   151173 
  156929   159529   161308   140575    82790    45994    70664   125217 
  167082   174428   177957   193530   185712   191984   235184   227857 
  183504   190821   188981   122952    70833    57214    61276    99013 
  147307   165033   145843   121271   117364   103438    73793    65800 
   85126   119607   139544   110762    61985    36601    38144    78750 
  141108   165855   144563   115110   107793   122415   145690   174009 
  194161   205308   214446   193904   130927    84796   112456   160905 
  157882   132232   136888   174942   192801   151339   111705   125274 
  155047   165704   153516   132428   136636   157512   147928   128348 
  124883   114925   121617   140428   116775    93595   123142   154242 
  159946   157542   144030   150985   181518   173286   156582   176875 
  163351   127248   161098   205197   174141   123449   100480   100471 
  146917   212940   216475   177093   175452   184287   156691   149296 
  174762   158341   106936    83770    92415   119543   157465   177477 
  171441   165983   156166   110107    61808    77911   137197   157646 
  118552    84916    96688   101634    72011    55003    71973   121051 
  170025   156348   115338   116959   144906   159784   148602   143681 
  163513   159713   119200    92388   113557   147456   150214   153102 
  154197   113694    85735   120804   172077   186536   167601   154753 
  161531   155335   139854   156076   176543   156369   111954    72679 
   83744   155074   193068   155252   119871   126330   146912   168010 
  176785   164116   157461   170208   182699   181037   147785    99817 
   92645   122604   155883   169800   136194   104826   127230   145141 
  150059   176627   172315   124100    91848    92044   110493   120249 
  103613   105044   145841   171208   162784   153021   147920   137354 
  127656   139148   161886   145979   105313   112927   149415   151262 
  135649   125147   119072   118083   104527   100460   111839    85931 
   62583   106058   162341   169641   135992   113067   127545   135541 
  134325   167800   194422   167621   138326   139646   148867   163975 
  169603   144651   130916   145210   144884   134113   133857   133960 
  144429   165870   169623   156219   144261   128968    99979    80129 
   94181   118083   141235   168272   162220   135419   129543   120668 
  111574   126631   142063   138692   118624   112476   143480   179290 
  182626   146495   116594   135256   166530   181325   179297   148973 
  125859   146948   166099   156297   159840   167769   149172   150161 
  179772   182731   176947   189854   178204   138623   128275   157314 
  166275   135268   124528   150692   166715   161497   144792   120388 
  115380   133212   133558   114519   100132    85445    83412   110766 
  145007   164690   160728   140586   139897   157877   149122   127040 
  135546   154543   157422   138991    99378    75743    83916   100639 
  129166   156658   144150   114151   107289   103396   109412   154746 
  184330   161187   133471   129444   138746   143885   131750   109194 
  104274   128954   144401   132575   130550   145245   149539   138196 
  122334   111238   107887   123213   166249   196817   176783   140170 
  126640   127044   119392   103229   105772   139218   157821   137816 
