Origin Time       2021/02/13 23:08:00
Lat.              37.7
Long.             141.8
Depth. (km)       60
Mag.              7.1
Station Code      FKSH17
Station Lat.      37.6636
Station Long.     140.5974
Station Height(m) 105
Record Time       2021/02/13 23:08:07
Sampling Freq(Hz) 100Hz
Duration Time(s)  258
Dir.              3
Scale Factor      2940(gal)/6170270
Max. Acc. (gal)   47.714
Last Correction   2021/02/13 23:07:52
Memo.             
[...]
  181683   181456   182262   183461   181500   180369   184831   188801 
  188351   184166   174998   169811   173478   171110   162432   163352 
  168840   168688   170492   176899   178482   175462   176361   180028 
  179724   175489   172652   175176   180051   180437   177774   179710 
  186640   192036   190642   183667   180236   185018   187698   182105 
  177905   179383   183073   186855   185095   180208   181554   184810 
  180717   171532   167730   174868   183175   181812   179419   186203 
  190652   185912   186799   196799   202074   196036   186590   187168 
  191479   182106   170133   172437   177172   174840   174035   176843 
  179208   183204   190872   195055   190538   185482   184101   186019 
  193870   199602   199137   199029   196412   192503   195954   198077 
  188034   179147   180639   177274   165898   162913   170999   176030 
  171319   172364   186132   189047   177596   176216   183715   185663 
  183566   180696   180260   182972   183215   183614   184971   183124 
  184486   187379   184942   182536   180262   177550   175683   168334 
  164194   174600   185317   188147   190979   190716   187565   189246 
  188693   178489   165262   160809   171614   185787   181698   163530 
  160256   172390   177605   176415   170071   157023   157155   176506 
  190619   185542   171633   160084   160273   173911   182229   178635 
  178367   183518   187722   191278   189988   180934   173549   174648 
  175028   165273   158218   167680   180041   183035   184379   187166 
  187579   187426   184978   178162   177962   182042   173452   162721 
  166060   172410   177149   183001   175950   162142   168023   187474 
  189989   168313   157721   183442   207588   192562   166613   172150 
  195868   198901   187273   186549   194198   202698   207100   199022 
  185858   183276   189349   188978   177356   165643   164241   170896 
  183241   196169   192385   179996   184535   192683   186314   181061 
  184775   187098   180460   170038   180773   209797   210889   188184 
  193818   215474   207773   185931   181081   185898   183683   175930 
  172318   170057   167520   170350   169972   167353   177740   186651 
  177526   171392   185035   201439   198515   188237   192333   193716 
  183503   182904   188395   187034   181332   173528   170913   177592 
  179341   166140   154448   159514   168783   172605   171910   164455 
  169340   193464   202273   189536   180678   184873   198505   205259 
  199173   195792   194606   188495   186156   187807   179575   162533 
  155471   165712   177865   171541   155444   159615   173352   167623 
  160414   170731   178501   174752   176202   187676   196952   199235 
  198443   192388   188574   197792   195472   168004   151461   160260 
  168518   163602   158725   166478   178106   188284   196663   189058 
  176056   178248   180258   166734   153648   161823   174371   167895 
  169580   189549   188368   168660   166646   173172   162667   152854 
  169475   184021   168357   165908   196646   203900   174148   159239 
  177825   190400   171383   159500   181020   203528   209155   212682 
  221436   222028   204125   191737   199038   194298   166800   154330 
  174724   199167   202348   187706   174643   180189   186995   172552 
  156968   155649   158201   160218   161540   174513   202254   210580 
  192431   183617   182425   165437   151845   161866   180174   190536 
  199991   215823   226301   235938   250739   248216   221091   180847 
  151021   159842   183606   178986   159600   163957   193822   212639 
  196525   173959   171936   168665   151199   145564   162943   175177 
  164325   158414   178103   191060   177132   172806   188014   185494 
  171779   173967   180093   186612   192821   179445   161352   167362 
  187188   188102   166666   166566   190987   182791   151517   160591 
  192649   189119   162788   158998   175698   181727   177409   179262 
  177585   170334   175903   196927   213883   209241   192773   178514 
  168564   175736   188055   172888   157890   179772   207360   209326 
  195471   188415   196252   196477   172416   139268   133284   161817 
  171863   155694   158424   172191   185053   203790   202437   179929 
  170877   167136   159037   167248   171825   166833   185288   202462 
  189069   176867   187937   199020   192018   181026   168220   158479 
  173862   189524   180081   169061   167060   171938   173558   160133 
  162251   179978   171335   154493   156468   162423   167370   173131 
  184449   200886   197157   175160   174801   193505   186630   159379 
  155937   174608   181574   169200   165924   181568   186039   189759 
  204377   191658   181759   214680   228461   195730   169553   180554 
  204509   188305   149734   158555   181745   169572   160241   165879 
  172135   185549   201055   219514   230259   212993   197425   207067 
  210215   194768   184289   181982   175760   171466   183605   198473 
  189052   173502   177419   189743   204039   202682   174115   164240 
  185640   192385   178218   161655   151007   161166   180141   179811 
  168647   166804   171475   175510   178790   170541   151459   155690 
  182660   184205   163877   169834   202967   225658   221785   215220 
  215742   198233   187873   215068   223325   193555   187418   202144 
  193366   183775   192747   186763   158680   140094   150728   166632 
  154540   143120   164717   184526   171755   147409   145767   166351 
  177419   173960   178389   184635   174516   172366   192642   198448 
  185662   187653   199386   194769   177770   179761   210178   225181 
  201286   186131   201223   217421   222148   204869   175921   179809 
  208278   208352   182446   169093   167224   166196   169244   166133 
  160046   166511   178262   176440   159203   158205   187231   206645 
  185911   147766   144314   172077   168464   145708   161584   181375 
  166043   168160   207792   228058   214072   207924   214820   209705 
  204168   204047   184392   154342   143042   146040   149960   158954 
  167677   169297   178107   195702   208146   210197   199330   176453 
  153356   147190   162724   181641   179767   164159   161218   171017 
  186500   198395   182733   156379   167486   207736   220641   197785 
  180821   179288   180429   185152   188731   185987   176556   162065 
  162665   182561   182040   151841   139363   159271   173212   167020 
  165470   180243   195885   197581   194496   198847   200078   194112 
  189756   188112   189168   188544   186279   184964   179815   179781 
  181353   169967   162869   170630   181756   183438   162023   145710 
  170164   196699   194180   191765   195878   197421   195762   179284 
  163934   171474   171881   143302   124321   143654   174993   190033 
  188799   185102   194583   208413   207428   201202   190562   169910 
  164306   177221   181460   170822   169358   188655   203719   202775 
  192321   180194   184885   192654   176795   162788   172012   175381 
  170456   182356   188859   183714   197176   193926   159316   166245 
  204646   202994   181116   178943   191909   206006   206406   193933 
  180971   176869   183301   182379   172671   177354   177864   158805 
  169611   199916   179083   145697   154960   154256   138352   155108 
  173512   177430   193835   197596   182622   183825   193389   199707 
  212280   217859   204228   189503   197868   222673   228484   195004 
  149938   147172   177486   175804   151692   153634   165856   172000 
  179136   183156   189656   189679   178757   191202   208090   187684 
  167372   162868   145693   136631   149047   157799   164311   188156 
  204852   184333   172555   192768   198389   188890   174180   162620 
  195579   226118   198700   176278   183805   184382   181860   178338 
  175586   196553   217083   199564   173959   176335   183455   164675 
  148368   160396   163400   158360   179242   197731   195113   187425 
  177129   172756   174212   174919   183270   191792   188054   180155 
  174930   176792   192264   206812   198356   178537   179326   200202 
  208512   196607   186525   172807   145914   144380   173840   173649 
  140806   139158   172007   184621   174638   186899   208577   192386 
  173296   188843   182941   158033   176773   197625   172612   139414 
  132520   153668   175529   182077   185405   181113   184705   213422 
  230736   223701   223629   223292   189267   151641   166979   194377 
  171503   141587   149060   166126   178564   187616   175518   160474 
  183712   217351   202161   164979   168459   191468   189242   169780 
  150591   149263   172298   187092   178750   172089   181066   195978 
  202581   200386   192002   180873   183090   188835   178478   178312 
  195559   194041   178576   167320   163283   185154   201316   167404 
  135760   163048   203765   186820   136856   138481   189438   208469 
  179372   162899   182342   194941   178593   164524   168414   175954 
  179695   180204   186276   201346   210428   201685   184350   180974 
  194518   202333   194032   178669   175958   195822   203042   180424 
  165345   168488   177408   173996   142591   134374   165883   165880 
  141070   146493   164661   172316   178104   189774   200637   192463 
  168815   152735   162012   189576   193560   163634   148436   177671 
  213047   199098   166257   183989   215477   202325   183460   183758 
  187385   207909   221807   194079   170610   183557   201118   205674 
  198168   189694   197320   212905   218850   209887   197255   183090 
  161818   159266   164431   146512   145947   166920   162863   151165 
  159933   175163   180217   177515   181525   180421   169376   185364 
  210471   205642   204826   217921   214149   195338   180743   183849 
  190854   189207   191774   188458   177243   187730   207376   204951 
  188918   171786   162268   168861   177265   172562   164573   172364 
  197030   215626   200174   168423   171780   185899   163906   148643 
  161814   164187   159107   159086   160278   179690   195761   178412 
  170764   189646   192014   183607   199659   214543   198248   197500 
  228307   229439   200053   193773   213716   223369   203820   183427 
  185951   186677   176130   174583   180476   173125   153348   146980 
  161247   183175   187815   165340   171385   213569   202225   143974 
  139799   171112   155737   128553   133907   135753   132099   146083 
  164204   167387   158861   161804   174332   171553   167862   184375 
  200345   195865   177081   167721   183857   201500   193660   179900 
  181530   176134   174748   208143   222247   188205   166982   179626 
  186481   171857   169031   174987   162794   165958   188514   186566 
  177125   197182   206965   174535   157849   172620   174375   172339 
  184502   192730   186167   182633   195998   204772   198639   193240 
  189465   192937   212432   224483   217339   207248   199355   198208 
  199151   196024   201982   200610   187364   200286   219510   213172 
  206507   205408   209160   220114   216392   205778   203512   204204 
  207526   206936   202442   201139   207841   222348   226430   214596 
  197505   190637   201950   202133   184014   169435   159211   169682 
  190872   179211   167371   187347   186732   159223   153535   165542 
  169558   164268   155676   153884   163810   168251   157571   155918 
  173278   181471   165176   147222   147909   152460   147331   146548 
  145828   127650   113961   124318   140179   140782   124905   115994 
  129078   149174   161117   162211   158821   162460   172750   177119 
  177271   176946   167192   155401   154220   155007   152556   156667 
  167627   178991   179485   154686   133260   152556   171641   149814 
  135807   155923   165946   161287   173132   195089   205073   200766 
  195114   200650   209206   207457   200253   186573   177689   198103 
  215444   198834   183730   188091   194620   196268   192017   181014 
  168078   167712   185339   200043   193099   180812   188505   199795 
  192145   190592   205734   207942   201341   209720   223268   218183 
  197486   196430   211835   203222   181512   173128   177473   195198 
  201529   175064   161612   188450   199536   169113   148192   162847 
  188955   209361   219984   216221   207258   210966   227970   242574 
  236928   218650   222312   245671   254671   244443   238492   252355 
  253435   215971   189385   201094   204267   185716   178846   170952 
  150722   155098   166248   153482   142378   125066   108482   128891 
  147608   138179   129680   129821   141553   160619   167421   166370 
  165413   155590   149373   154492   145992   134812   141343   140032 
  128736   124410   119820   115302   115386   116839   117839   117941 
  115174   111773   129144   164936   177448   166436   170445   186578 
  180482   169451   192199   206938   186865   179276   181827   180604 
  192385   194691   180925   176572   179496   182517   179894   167200 
  161345   165303   159683   145007   142178   156063   162693   152262 
  156386   183520   192878   178430   170609   169203   168005   172879 
  177095   171541   165142   179289   206612   208480   188332   195401 
  223286   222004   206865   211224   220374   227958   234006   229469 
  225437   225954   217515   208291   217424   229843   219278   209343 
  225930   240294   237156   227502   215255   214572   217197   199504 
  181803   190973   208683   209354   206410   218460   229896   232661 
  245468   264685   269068   260723   255676   264509   276929   271145 
  262388   265560   256829   250021   268625   280915   273243   262867 
  252091   244920   246519   240021   210729   183489   182217   182294 
  163825   151214   158065   166120   163165   154163   153566   164862 
  173897   172643   167756   167922   170123   172375   177637   175952 
  159329   138353   132336   137912   130775   120063   121303   118588 
  119717   139145   149003   134361   121652   125568   135674   143601 
  142944   138775   147282   157934   158156   158395   149214   130586 
  137774   158676   149222   130505   144989   172277   165620   138516 
  135020   142920   140331   139417   142665   137067   125232   129189 
  141540   137131   126544   122335   121028   127442   139490   147234 
  150395   150247   156884   172229   165472   144087   149343   161855 
  154324   144253   139297   139019   148054   156917   160084   163762 
  161480   152340   149515   146170   146544   165941   170295   143817 
  137041   169523   204159   205634   183978   190698   225875   240695 
  236496   223857   205738   211189   225643   220066   211564   202537 
  186224   177948   178286   183560   198925   211600   216369   230272 
  245303   238529   229376   234069   219028   194107   208876   232006 
  214732   193901   200195   199622   182505   179813   196436   209628 
  205765   197141   198365   201892   204386   206655   204801   210774 
  220854   214731   214060   245236   275655   268842   242781   229685 
  234170   240964   235885   223904   219978   222710   219657   210256 
  202971   197452   192476   191488   188310   182361   181843   187343 
  191929   182806   167370   166878   175025   171462   160717   163849 
  166154   148891   139565   144224   147029   154300   157035   148312 
  146304   156114   159816   147687   144111   159146   163564   156599 
  161893   174500   179239   171032   155083   149764   157609   160007 
  149651   138998   152218   180525   184277   171823   177033   191408 
  187081   166428   155834   156717   153001   146104   145986   158457 
  172187   171112   171315   188485   192579   165659   142862   146945 
  158459   159993   153549   140908   132162   146067   162133   149559 
  133880   138969   138337   128787   135471   144913   146812   157458 
  164372   151685   138912   151928   175661   163766   135546   149971 
  175485   165453   153056   157921   168948   185494   190308   180343 
  182762   199763   208151   198745   185494   189152   206122   209617 
  205209   211836   212921   211967   226704   238563   241256   242976 
  235044   222544   215728   213118   217400   209616   175851   161144 
  184533   196901   180687   161967   151345   157726   187225   208405 
  195567   171096   169685   199496   223985   207582   182139   186072 
  193636   180266   168808   170202   163094   150534   154564   158501 
  144315   137038   145124   149344   144926   130783   115201   109742 
  104027   104425   126192   138835   126426   130463   157854   175460 
  178504   179216   195588   215776   205155   193814   215433   234710 
  226002   206567   200698   205937   201868   199225   209144   210108 
  197073   187360   194041   214494   229736   233981   227675   208002 
  193420   196325   204298   211419   220138   218294   196141   183050 
  203361   222974   216596   207135   203536   199635   201197   206859 
  205222   194592   190020   187233   170925   164303   176721   181249 
  180312   185604   187006   184988   186918   188650   186311   182894 
  179222   175536   180560   190950   185759   171473   172597   184065 
  192676   197370   198345   198863   199448   207571   229440   234830 
  213937   211337   229497   232501   229741   235467   233525   220511 
  210896   208413   199743   191272   207855   222600   200184   173297 
  165252   164113   169368   170173   158680   144976   141361   154543 
  157481   143614   155082   178562   172798   157932   154593   152381 
  145982   136313   126274   117183   114246   121349   127241   128792 
  134815   142227   145371   148237   155578   165733   169103   160466 
  154290   163765   177915   190478   200725   195181   190101   204055 
  211009   202490   192224   182263   173007   157296   145151   149055 
  142999   126569   130758   145818   151709   150051   143994   144773 
  152886   151386   144857   145826   143871   138119   147302   157794 
  148246   146586   169273   184619   184459   189673   198198   203266 
  206472   212555   231041   239807   230313   239820   255625   245870 
  232107   231825   240661   236107   204854   189623   201875   198926 
  187038   189415   191433   186975   182464   182121   191373   195730 
  181733   166407   164375   170054   169935   155335   142155   150052 
  158079   139357   116473   117334   132509   144049   141412   126383 
  115923   121063   131408   132898   131514   137534   149915   165307 
  171002   162297   165671   189268   205221   203892   201109   201029 
  190933   178582   182225   191792   195734   189310   178829   184467 
  191515   189872   192756   186240   183648   202193   205548   195047 
  202341   215223   214908   206596   202647   199464   188735   176297 
  161477   149576   157199   168979   160616   153098   174848   200653 
  195820   183073   191725   205053   209614   213063   213340   213066 
  221407   226358   220609   218444   216161   207468   204117   202013 
  196896   191321   181180   177424   173301   157130   165266   191279 
  183641   167286   176338   191103   204081   204386   186667   182716 
  193657   190400   176453   173335   182078   186695   189161   202934 
  216793   214473   203317   203314   219578   230923   224904   217841 
  219202   219317   214856   214627   220360   217580   206631   209352 
  216755   205207   192266   197323   207536   207026   191355   172635 
  163558   159439   154951   144921   131011   128228   133135   129143 
