Origin Time       2021/02/13 23:08:00
Lat.              37.7
Long.             141.8
Depth. (km)       60
Mag.              7.1
Station Code      FKSH11
Station Lat.      37.2006
Station Long.     140.3386
Station Height(m) 285.7
Record Time       2021/02/13 23:08:12
Sampling Freq(Hz) 100Hz
Duration Time(s)  300
Dir.              6
Scale Factor      7845(gal)/8223790
Max. Acc. (gal)   153.663
Last Correction   2021/02/13 23:08:12
Memo.             
[...]
  -69364   -36972      843    -4441   -42736   -66233   -53167   -17922 
    8449     4874   -19503   -39980   -38230   -16708     1015    -1795 
  -18690   -28209   -14634     6064     4047   -18797   -32641   -21963 
   -2311     4596    -6940   -33704   -64061   -73900   -47804    -1236 
   26546    10546   -29636   -47889   -22346    15356    16125   -25517 
  -66418   -70895   -46931   -16942    10199    30017    31679     5412 
  -35660   -61938   -64265   -52929   -30705    -9256   -18195   -44142 
  -28116    27588    51545    22956   -11321   -27521   -33887   -20471 
   15689    36672    15326   -28086   -62573   -71778   -53616   -24575 
  -10023   -24123   -52909   -61600   -40903   -21922   -22578   -19017 
    1756     8649   -16140   -38831   -28429    -5184    -1375   -11722 
  -20336   -26399   -22050    -4126     4075   -18299   -55017   -60538 
  -26400   -11905   -47017   -76809   -55961    -6735    33335    44436 
   16718   -34838   -67365   -57507   -27599    -6474     2887      148 
  -26485   -58105   -42742    20800    60042    27116   -36335   -63505 
  -43767   -11754     8978    21697    20267    -9891   -46781   -58314 
  -51109   -45985   -47960   -47721   -32436    -7933      332   -17174 
  -32324   -15973     5387   -18391   -68073   -70522   -11541    37937 
   16776   -52134   -94961   -72115   -12457    30265    26562   -14408 
  -49705   -43409   -13621    -2056   -10809   -12766    -1958     -436 
  -16555   -25050   -17494   -16798   -20205   -10373    -3167   -17030 
  -38605   -47838   -39402   -20746    -9571   -12359   -11493     3492 
   16297     2401   -35769   -59881   -51058   -35673   -30451   -17212 
   14283    31171     -356   -49407   -61442   -42084   -24613    -5599 
    9653   -15773   -64615   -67398   -15383    25812    19908     1123 
   -7450   -24763   -40698   -29295   -15121   -23990   -26377    -1723 
   19399    16869     -459   -32008   -65827   -61068    -6497    42611 
   36174     1737   -10704    -9038   -18906   -25475   -23048   -44030 
  -83074   -79609   -22678    13284    -9606   -26341    12345    44159 
   -1345   -74853   -87288   -48919   -23060   -18846    -9514    -4132 
  -29785   -57858   -46793   -29263   -41489   -45490   -11429    21239 
   10025   -31631   -56215   -38998    -1939    28899    52361    48051 
  -14936   -93978  -109107   -64694   -26022   -12600    -1198    10987 
    3646   -20468   -26242    -4603        9   -36599   -60556   -23305 
   26203    20013   -19653   -31847   -18967   -19037   -24915   -18295 
  -21103   -45584   -60119   -37129    -1179     8064      -18    -3456 
  -21243   -60704   -72858   -32039    10432    17980    13578     7011 
  -18580   -56286   -65423   -23508    20502     1717   -58907   -84319 
  -51916    -6093    14110     9634     1092    -3906   -16313   -33743 
  -38186   -27209    -7353    18098    33224    17878   -19260   -45783 
  -51592   -56214   -62851   -49721   -19109    -4303   -15504   -33658 
  -48537   -54087   -36968    -2756    17005     7499    -7757    -4912 
    8486     8918    -9337   -29558   -32594    -7033    27356    20179 
  -31677   -56654   -23272    -4666   -41536   -56573    -7566    26175 
  -11113   -63768   -64006   -22135    13331    22893     9462   -24294 
  -63209   -81108   -69770   -39294     1819    37712    46720    30011 
    7002   -16348   -47155   -74424   -73330   -46357   -19175     -918 
   12502     8403   -28115   -77692  -102783   -80931   -23002    20140 
   15349   -10825   -24170   -20826    -9644     5845    17965     9702 
  -12991   -21984   -18395   -28561   -47997   -44234   -13726     3933 
  -17327   -42503   -34126   -21074   -26245   -15530     4310   -22068 
  -74906   -72686    -3851    47578    15024   -48726   -56181   -25497 
  -20281   -37552   -36487    -9001    15310    16418     -594   -22482 
  -34001   -31202   -20244    -4884     9806    14925     3535   -20521 
  -50990   -73917   -58054    -9242    16036   -12712   -62726   -75564 
  -39603    -5113    -5158   -18018   -18813   -18389   -27183   -19495 
   13207    30369     6879   -30565   -38469    -7580    18292     2997 
  -19800   -11044    -7420   -41840   -57451   -12467    27473     4932 
  -35604   -39163   -22044   -26771   -40556   -14314    28262    14245 
  -43711   -67077   -44281   -37019   -65410   -75357   -31328    22461 
   24213   -13235   -36463   -47938   -74567   -80123   -20630    44389 
   32470   -21753   -43101   -30711   -16764   -10280    -5094     -265 
     147       82     1831    -3574   -14149   -18096   -23668   -37963 
  -36694    -8671    13448     -797   -40032   -61252   -40360    -1933 
   19800     8291   -28810   -50789   -34869   -11129   -11003   -24032 
  -19028     4541    15904     4603   -18345   -51364   -79974   -68744 
  -22827     6180    -1054   -18652   -28803   -35626   -53719   -79419 
  -70065   -10104    40159    21303   -45712   -83724   -53725    -2459 
   16116    15476    17856     2795   -25605   -22790     5312     4488 
  -32563   -61696   -60057   -40549    -7858    29056    24385   -36067 
  -90533   -86817   -39463    12897    43071    30987   -16641   -58626 
  -64357   -30487    19765    42458    22264   -15884   -44082   -50400 
  -31838     6363    24938   -13258   -72925   -87457   -41046    17462 
   26056   -13779   -44448   -37257   -12642     6751    11564    -5325 
  -31874   -34659   -12232    -1088    -8222   -12498   -21267   -47200 
  -58769   -30038    -2462   -13965   -25691    -2378    10767   -26420 
  -58623   -28489    13797     7349   -14061   -16800   -31752   -53364 
  -28807    22334    18870   -47553   -94288   -65807    -4738     9536 
  -33947   -68054   -45679    -1125    11545    -5864   -22916   -32362 
  -35658   -25941   -10011   -10123   -24676   -24340    -6150    -2300 
  -15757   -11919      546   -21211   -52254   -38298    -7187   -18902 
  -57013   -60126   -24559     3248    10984    16630    19214     6486 
  -23311   -52281   -53223   -25693      587     9013    10717     4318 
  -24509   -55487   -56770   -34904   -14364    -7993   -19276   -38537 
  -37615    -4303    18585   -18195   -77525   -69151      195    17042 
  -54733  -106882   -64262     3215    22462    20883    22133     -654 
  -37608   -36825     1502    20205     5994     2052    15739     1642 
  -46669   -68188   -42665   -21185   -17876    -5539     1482   -22480 
  -45729   -26650     2369   -10959   -32980    -5572    34518    20401 
  -19114   -21469    -8496   -28923   -55243   -40342   -14531   -25497 
  -51860   -58105   -53082   -53183   -52510   -51155   -53985   -31266 
   25327    49123     3503   -51061   -53354   -22138   -10227   -24522 
  -27754    -5837    10318     6451     3492    -1923   -20479   -17533 
   21902    37886    -4916   -42674   -21925     7744   -14077   -61917 
  -78147   -60065   -40863   -28524   -19541   -22621   -31334   -25506 
   -7052      442    -7790    -9370     3368    14968    13204    -6709 
  -36525   -51591   -46214   -41139   -33497    -9699     1638   -22855 
  -54103   -60106   -36682    -1655    17367    12761   -12484   -54359 
  -76798   -48714    -8252    -8209   -30300   -23885     5815    12561 
  -15013   -41193   -33681    -1803    20603    12471   -20013   -50080 
  -55865   -37822   -16175   -12464   -17432    -6801     8800     -286 
  -28945   -37806    -7946    19834    -8843   -73981   -92149   -32942 
   28800    14523   -44454   -56963   -14415    11388     -761   -10862 
   -7765    -6492      359    21460    30406    -1914   -55123   -84338 
  -82485   -70264   -52818   -28734    -9396   -12798   -43532   -69233 
  -47023    15967    63397    51513      708   -32661   -34276   -22774 
     232    24443    20205   -12202   -33543   -24243   -15940   -33264 
  -50137   -38997   -10609    11599    15176    -2493   -30304   -42642 
  -31773   -26335   -42472   -49549   -22374     1188   -24536   -63096 
  -57122   -24225    -4761    -1652    -6843   -17334   -28182   -38673 
  -45912   -32162     2380    21100     7223   -18617   -41759   -50568 
  -35837   -19469   -22839   -29698   -17366     5042     9900    -9185 
  -33070   -35552   -12696    -3704   -29619   -53892   -42545     1232 
   42138    38547   -10081   -66791   -87338   -46265    23485    51725 
   16510   -34754   -58386   -64816   -72549   -61555   -12874    44829 
   56079     7657   -41991   -46091   -31233   -28935   -33698   -41523 
  -47582   -33945    -7522     3839    -2293   -16148   -33249   -37369 
  -20920    -3461    -3187   -11510   -12611   -13493   -19033    -8438 
   18238    19464   -13012   -30149   -17880   -17933   -40327   -39650 
    2031    27793    -3454   -44940   -49167   -38821   -41389   -42601 
  -32907   -28395   -28772   -13082     5367   -17764   -73749   -94462 
  -54820    -5733     5448   -12663   -25930   -19942    -9127    -8502 
   -8112     5239    25316    33575     8658   -39580   -59668   -26110 
   21330    30342    -1081   -32863   -37372   -19623    -5756   -19278 
  -44151   -41791   -16758   -13925   -41224   -50808   -19188     6045 
  -18990   -58522   -56708   -23689     1305    11778    11907     2641 
    4252    21408    16482   -28780   -74329   -75751   -39410     1420 
   22482     7713   -34962   -68443   -64659   -32890    -5447      843 
   -7306   -21108   -35775   -49550   -63104   -68592   -51275   -19006 
   -3358   -12721   -23039   -20964   -16569   -22631   -40431   -50233 
  -33361    -7911    -3249   -16648   -34506   -59645   -83373   -83629 
  -59405   -22538     6991      800   -25915   -21766     5807     2563 
  -21064    -8025    40775    76241    70632    33280    -1155    -2609 
   14057    10871   -20837   -60756   -74403   -38476    16375    30392 
   -5609   -30882    -5536    13301   -33654   -91303   -76090   -17228 
   -9113   -57850   -84165   -68130   -53291   -37071    -3499    11650 
   -1393     4669    34015    31332   -11600   -27087    18867    73859 
   79458    31747   -19533   -28819   -21142   -33628   -46890   -33844 
  -13682   -25056   -54484   -53572   -28015   -23834   -52419   -77778 
  -65815   -27340     7318    18010    -2895   -36678   -56803   -55476 
  -33860    -2317    14446     -390   -26793   -34420   -36398   -51254 
  -50681   -13351    26581    13425   -51668   -83203   -29717    45215 
   67645    39518     -195   -29409   -44057   -33077     3262    25708 
    2813   -35100   -38511   -14890    -2531    -5798   -17917   -38236 
  -54032   -57711   -48118   -21794    11051    22303    -5032   -42245 
  -48752   -29592   -16470   -21882   -32023   -29141   -12580     -392 
  -12289   -36034   -33462     -587    25173    19249    -6154   -24610 
  -31040   -39343   -43274   -19656    21232    27426   -25776   -83145 
  -75388   -19915     7399   -17172   -43475   -31384    -7990   -19356 
  -61695   -93583   -92857   -73226   -56874   -53485   -55705   -44177 
  -16144     2593    -2494   -13929   -15851   -15546   -24463   -38124 
  -43984   -44552   -59620   -92963  -111932   -85959   -35903   -14157 
  -31687   -49389   -47343   -38900   -28898   -11234    14158    37999 
   47189    35433     9328    -6758     9379    42768    58401    42105 
    5625   -26130   -30123    -2775    26064    24545    15583    26937 
   25533    -1098    -2214    37628    63844    37176    -5699   -10594 
    8293     9274     3208    14769    18411   -18966   -66598   -68339 
  -28966        4    -7302   -32100   -51628   -61842   -48600    -4095 
   32968    30427     7858   -15796   -46642   -73726   -73865   -52177 
  -27864    -9063    -4739   -24277   -55884   -77464   -88311   -97445 
 -101885  -102292  -100444   -79878   -35977    -5271   -16746   -45883 
  -58818   -58855   -58637   -41908     9478    56000    36882   -32189 
  -80520   -81454   -71066   -73936   -54639     6710    50255    18978 
  -49647   -68566   -20594    24001    13969   -25805   -45495   -32416 
  -12785    -4206     5814    25266    36165    18820   -22113   -55395 
  -48057    -4652    32139    38469    34562    30738     7372   -24065 
  -14472    40236    75381    46309     1366     5363    20922   -26230 
 -104988  -112398   -30504    35014    14203   -23932    -7890    22161 
   10582   -25670   -45704   -42809   -34902   -26504   -17031   -26865 
  -61360   -86938   -72215   -29079   -10858   -48204   -99019  -108337 
  -78135   -43217   -24495   -20632   -27557   -46348   -59193   -40243 
    1601    31611    34921    28316    18574   -19183   -87947  -130256 
  -96830   -24814    19764    27299    18279     6787     2574    12426 
   44207    80006    76117    30354   -11541   -15230     8899    11843 
  -22627   -38155   -14081   -20722   -96704  -172787  -154554   -47945 
   39006    49114    39839    57686    61582    15552   -25274      525 
   53256    56540     7072   -29018    -4140    38487    21022   -45068 
  -71687   -27268    20143     3561   -56786  -100649  -111308  -104290 
  -77049   -17965    48940    66182    13887   -53442   -75409   -51853 
  -26719   -32011   -49547   -50830   -45048   -39410   -21190     5034 
   25636    32495    18820    -5984   -25878   -35869   -34198   -20309 
    6376    31774    28633     7136    -1850    -2099   -10596   -32927 
  -56874   -59063   -49396   -52209   -58758   -60359   -67590   -79893 
  -81426   -66629   -60419   -75612   -72057   -32718    -4546   -15025 
  -42456   -57150   -50707   -47420   -61199   -64272   -43181   -28066 
  -37405   -40655    -1861    56177    72018    23260   -43607   -43970 
   50789   141266   108233   -22187  -109102   -82692    -8866    39950 
   55625    44174    10683   -28236   -45387   -31542   -16468   -13180 
    1443    20888     2371   -54068   -82008   -48064    -7774   -11681 
  -26140     1042    40119    25023   -27071   -38875     3937    32503 
    4450   -40572   -54641   -38219   -17659    -4031     1078   -26138 
  -90865  -139531  -111755   -10913    77453    74248     5566   -47999 
  -46106   -10169    13062    17944    29623    36988    18081    -7422 
  -21632   -50421  -100264  -111855   -47896    27130    29770   -26643 
  -68166   -64365   -37994   -16737   -12316   -23085   -40397   -51277 
  -51163   -51629   -51023   -37604   -28684   -32397   -18003    15322 
   28069    12541     1800     9676    15919    14203     8733   -10380 
  -37102   -56633   -70200   -79386   -88676   -97397   -81403   -29101 
   24349    28950   -16708   -58193   -62187   -51503   -45206   -43205 
  -58510   -92404  -114215   -96904   -58027   -51918   -90221  -109953 
  -66900    -4301     4063   -47808   -91490   -85984   -56759   -31889 
  -23715   -40701   -68658   -67926   -12550    59086    75373    32462 
    9132    54884   104226    81680    37210    42758    65534    57225 
   39463    48173    67208    64355    57847    71703    73128    23170 
  -47522   -66179   -20447    27868    31946     3562   -14588     -792 
   11113   -19364   -58758   -33200    46415    80657    37382    -3172 
   -2405   -24995   -98070  -141602   -96300   -19503     6841   -13455 
  -36273   -61042  -102062  -129872   -98158   -18846    32717    17717 
  -18430   -37993   -54878   -67875   -51883   -16626    -9001   -40836 
  -61308   -45729   -43814   -84817  -112176   -71540    -5961    11934 
   -8726   -19515   -21205   -37881   -56596   -43459      166    36300 
   34765    -5555   -62959  -106890  -111996   -80069   -50317   -50542 
  -49276    -6529    47417    45127   -10930   -47792   -28239    22111 
   63570    68904    41662     2840   -29317   -29601    10242    58708 
   70544    28544   -25662   -38789   -23282   -23460   -41682   -44899 
  -18272     1769   -25934   -78258   -98294   -70776   -27876    -4147 
   -6813   -10628    14817    54881    58718     5827   -57578   -65196 
  -26593    -9894   -28819   -37885    -3900    46003    47753     9551 
   -4217    -1263   -22029   -44645   -24661    25169    31978   -17674 
  -39550    -7510    11176   -16380   -51406   -47432   -18663   -17091 
  -49142   -77792   -70561   -27768     5751    -8498   -53589   -87674 
  -84812   -50180   -23299   -38468   -74194   -83799   -64809   -51601 
  -56347   -54837   -31334    -5976    -3682   -22565   -37092   -30049 
  -25276   -51865   -78900   -56250      606    39079    43713    35742 
   23795    -7325   -47771   -53265   -12974    25377    30739    33408 
   55408    64540    35750    -2506   -12528    -4129    -9707   -22825 
  -17825    -1578     1858    -6277    -6030    -4622   -17624   -19812 
   11117    45493    40095      554   -20540    -1537    18569    10584 
   -2824     -765    -9418   -49713   -87732   -87945   -67779   -59981 
  -60184   -47000   -29033   -33586   -65963  -106145  -125284  -104207 
  -58236   -31369   -48130   -80357   -84770   -66343   -59385   -63641 
  -55826   -37075   -27153   -28811   -28560   -30493   -42111   -40166 
   -8649    25447    24752   -13015   -43407   -27017    20972    54837 
   37060   -25995   -74530   -62996   -11119    30901    39742    28846 
   10831    -3280    14712    62376    83813    45590    -6926    -7750 
   32486    47530    24910     3092   -11469   -27060   -23089     3173 
   12586   -15180   -47441   -47842   -26045    -3518    25544    56575 
   57746    23302    -3839     5814    14484   -16210   -47248   -33851 
   -5062    -8187   -39046   -50548   -20877     3277   -24568   -78015 
  -95490   -55356    -3159     5940   -21217   -48309   -66484   -80134 
  -84875   -69286   -39756   -37825   -78541  -107329   -79330   -27900 
   -9271   -18365   -18339   -14624   -22077   -25112   -20038   -24953 
  -37301   -28854      465     5074   -25282   -35156    -1192    23701 
    -990   -37179   -31477      342     8854    -7551   -14469    -6976 
  -16789   -53534   -80836   -75343   -57478   -45864   -37779   -30161 
  -29438   -47401   -80738   -98155   -69684   -12394    20530     9143 
  -16183   -25451   -10914    17267    25447    -6520   -34580   -12139 
   22168     9220   -25782   -18393    21988    30613     2332   -13201 
   -9227   -13460   -16989     8885    46128    43985     2141   -26767 
  -24806   -24953   -37485   -34281    -6667    13081    -6127   -43831 
  -56470   -44830   -32641   -25729   -24337   -32401   -57109   -92250 
 -106550   -80442   -40811   -29836   -48219   -67286   -74985   -62919 
  -15727    48990    83274    62753     5394   -46265   -54986   -24098 
    5771     9985     8440    18733    22555     3032   -29188   -44712 
  -21832    16083    23188    -6106   -33481   -28186    -2882    17948 
   32154    31741     8251   -13706   -11566     3280     8661    -4004 
  -22627   -29571   -21749   -14334   -31665   -71307   -90968   -64466 
  -19986    -7326   -40857   -83060   -87324   -41031    19141    33378 
   -2118   -20110     8429    19961   -33566   -99573  -103671   -49960 
    -507    10251     1464    -8549   -31837   -68102   -76464   -34786 
    7237    -1593   -35229   -39258   -18046   -18484   -44590   -54585 
  -31359     1401    20398    27249    26334     5155   -36493   -72472 
  -79073   -51412    -8865    11219    -6220   -29567   -29643   -22418 
  -22762   -18387    -7647      892     7997    13603    12253     -784 
  -22262   -39417   -41274   -21940    11199    26700     5884   -26532 
  -46153   -59138   -65881   -49527   -14176     9070     4993   -10493 
  -25466   -39893   -41256   -18793     5979     1625   -21556   -27376 
