Origin Time       2021/02/13 23:08:00
Lat.              37.7
Long.             141.8
Depth. (km)       60
Mag.              7.1
Station Code      FKSH18
Station Lat.      37.4894
Station Long.     140.5380
Station Height(m) 310
Record Time       2021/02/13 23:08:08
Sampling Freq(Hz) 100Hz
Duration Time(s)  227
Dir.              3
Scale Factor      3923(gal)/8224838
Max. Acc. (gal)   119.739
Last Correction   2021/02/13 23:08:08
Memo.             
[...]
    3265     4288      444    -2918     -189     3762     7312     9467 
    9032    12091    15056    11246     6863      425    -7977    -8352 
   -9936   -20692   -27450   -21906   -13072   -13294   -14299    -6824 
    1698     5325    -2562   -13193    -6006    10357    15612     8866 
    3277    11211    23789    22631    11554     4201     5765    13671 
   12923     3280     2668     2605    -6619   -13397   -21714   -32178 
  -31618   -23519   -13451    -6199    -9418   -12607    -5428     5904 
    9339     1973     3013    12383     7121    -2484    -2994    -1852 
    -249    -5178   -14370   -10039     1310     4978     5178     5725 
    4013     1935     3002      303   -11483   -21566   -28437   -32903 
  -25232   -16725   -17162   -20232   -23639   -14770      325      673 
   -1725      126     2513    14793    25732    20077     8348     6515 
   13112     9270     -930     2457     9632     9968     8748     3595 
     718     4602    -1188    -7663     4976    16183    11395     3410 
   -1183    -2116    -1202     -949    -3790    -8233    -9583    -9768 
   -5706     1764    -1917    -7942     2371    14180    12584     7646 
    5602     7688    16714    19978     7380    -2265     -981    -4356 
   -5466     3834     8321     6045     2091    -2832      379    11889 
   19543    16154     8216     3173    -6698   -21662   -26180   -14535 
    1494     3067   -10045   -14423    -4992     1718    -1412   -12806 
  -16565    -1908     9493     6978     4005     5535    14202    22825 
    9877   -15453   -19985    -4712      832   -10411   -13967     2253 
   18096    14310       27    -2131     4205    -2898   -24849   -37585 
  -23799    -9504   -16317   -18740    -3939     9818    13601    12811 
   10305     7925    11793    14226     4565    -2335     4868    11581 
    3059   -15365   -18152    -6150    -5806     -999    10872      361 
   -8638    -2864    -5190    -5240    -4248   -13759   -15136   -10925 
  -17181   -21155   -14102   -10332   -17336   -16761    -2928     3036 
    7496    16703    12846    14098    29331    29504    20623    16179 
     830   -21020   -24587    -8033     7805     9767     -741    -5832 
    4391     6200      765     4167    -1198   -11788   -19465   -30454 
  -21595     6160    14029    -1370   -11024    -7924    -5626    -5346 
   -8711   -20559   -19916     5167    25816    28132    23265     9086 
   -5417    -2790     9100    19149    16752    -1167    -3230    12923 
   13855    13171    22800    23017    20271    14019    -1845    -6253 
    -839    -2604    -1275     1632   -18530   -42514   -36613   -25348 
  -27198   -27691   -28250   -25668   -12846    -4784    -5313     8467 
   26122    10905   -11346      -52    18781    15246    -1611    -9404 
    5787    19878     4565   -16713   -15846     2602    18679    13155 
    4691    17248    32765    29647     7603   -12322   -15211   -12872 
  -10474   -11453   -19834   -16329     1517     9999     5859     1984 
    6427    12528    10110     5514    -4862   -25261   -22261     9508 
   14998   -11533   -20324    -7871      805       25    -8958   -16521 
   -9652     4029     8236     8455    11408     9736     7673     3835 
   -2307     4333     4548   -16644   -31980   -33309   -21081     2231 
    9918     2467    -1962     -770     9751     7965   -10940    -8141 
    4819     1556    -4958   -10053    -6662     -795    -3859    -2585 
   -9310   -24148   -25141   -17625     1163    13455     3973     4016 
    8363     8537    10555    -6122   -14164    -4546   -21034   -28556 
   -1965     3277    -9421    -4233      679    -3551    -9749   -18293 
  -11971     3217     4160    -2131    -7875      -90    22033    26887 
   13030    -5491   -13720     3707     8131   -11470    -9467     6201 
   13012    17861    15048     7377     5630    -1952   -14615    -7342 
    3512   -12556   -26572   -12051    15049    37509    35753     6862 
   -4313    19244    28329    14694     9961     5266      556    12414 
   17285    -3862   -23473   -23818   -18131   -10783    -8210   -10669 
   -1116     5529     4710    17886    25212    15340      121   -12490 
   -2377     2019   -23803   -36553   -34379   -28051     -545    17216 
   11026     9926    10658     9169    12700    10405     9032    12603 
     810    -7975     5668    16718    16298     3915    -9084      479 
    5799    -8600   -22111   -23886     1058    13531   -25670   -46421 
  -13649    14762    10328   -15371   -28721   -11781     -769    -3524 
   -1208   -11539   -22243    -2702    23935    29427    15288     -762 
   -1337     3164     4811    17539    17784    -7009   -14347    -6686 
    7327    28561    20021     9073    14382      939    -2741     2844 
  -10686   -14701    -9815    -5506      738   -11283   -19912    -7630 
    1215     6087     6731     7061    12424     5930     1297    10129 
   15920    20783    22990    10573   -13275   -24503   -15422   -16283 
  -16858     4731    16411     7088      661    12711    23635     7040 
  -10930   -12991   -12910   -14967   -24050   -19068     2479    -9139 
  -26199    10804    35359    -1594   -31750   -25023    -4124    13729 
   14686     6558    -4014    -9698    -2523     7843    11630    -5094 
  -23039    -9234     5753     1756     2998     1768   -10806   -11138 
    2011     7060      757    -4079     3902    14308     5755    -6916 
     781     9625     1499    -2149     5467     2991    -4737    -2176 
     522     -612     1848       29    -3353     6385    11475     3813 
     922    -2481     1714    12599     -496   -26704   -39587   -23301 
   12073    20667     2717   -14071   -17014     3510    18700     4623 
  -16637   -25581   -23565   -20374   -15816    -7735    -7797   -16530 
  -21786   -14224     5628     9995    -7322   -12595    -6432     6640 
   33852    34840     3696    -9647    -2952    11385    29282    19737 
   -6640   -10559      245    15653    28466    18239     5472     8973 
    8032     5274     2416   -11200   -18029   -16170   -16433   -13358 
  -12922   -22731   -28740   -14796     3665    12063    14999    -2754 
  -23527    -6872    23152    34206    20073   -12156   -19163     6007 
   15971    10087     8997     3534     -764     -394    -1358     3840 
    9477     9782     5319    -3079    -1799     2045   -10509   -22721 
  -10763     7361    -1414   -26906   -33195   -12707    13559    21548 
   15101    15631    17073    10083    -5235   -17375      -76    18031 
    6158   -13834   -30916   -19572     9398     -592   -24995   -26156 
  -12347     7688     6822   -10554    -4999     5158    -5919    -9525 
   -4259    -6050    10295    33019    27660    17451    17917    10168 
   -1695    -3499     -793    -1487    -5651    -8916    -3237     6997 
    5769    -9427   -22927   -24406   -19021    -8757    -1512    -8656 
  -14095    -9350   -11784   -17045    -4522    18928    19831    -4147 
   -8986    11032    27364    39839    34890    16123    19040    18852 
     -68    -6070    -7533    -4831     6228    -6448   -20352    -7619 
    2166     7882     9738     -612    -4841     -198    10327    11083 
   -9848   -31105   -43981   -36856   -13146   -12877   -28927   -25326 
  -13225    -5792    12541    30009    23980     5026   -13867   -22979 
  -11028    10837    10976   -18578   -31058    -1418    24996    16792 
   -7415   -11408    15566    36011    30526     9639   -17293   -22342 
   -9910    -8046   -11610   -22007   -27986   -22161   -22135    -3504 
   18180     8095    11585    11889   -15075    -9468     1317   -13072 
   -1588    21019    20029     2932   -15958    -9155    15137    15210 
   -4452   -17005   -17618    -8282     -784     1971    13473    19591 
    9705     7267     7892   -12912   -35484   -33856   -19673     3009 
   22862     9124   -10341     -144    16127    33550    49013    29263 
    5638    18045    21114    10168    19531    14273    -7438   -11198 
  -25222   -47590   -37833   -18129   -22681   -37481   -30316    -7094 
   -4315   -17979   -25608   -13063    15188     7136   -20830     3084 
   39992    38655    24050    13284    10970    10561    -2007   -15292 
   -7404     9328      626   -13936    -6508    -3693    -9298    -7982 
   -4230     6597     2533   -26910   -18289    24518    21778    -9545 
  -17884    -2820    22751    16663   -18763   -20883    11022    36184 
   30584     2605    -8625     1880    13437    19600    10727    -1995 
    6434    12320    -1186       27     2299   -25213   -39451   -24398 
  -18357   -14581    -5988   -13275   -13748    11223    31229    18223 
  -17240   -31766   -21267   -10115    -5941   -23288   -30491    -5833 
    8360    16456    21600     4486    -2980     6600    13335    15649 
    1266   -10816     7164    20332     7063    -6315   -10639    -4522 
    7088    -2706   -11083     5312    -8163   -33502    -8179    15832 
    7526    -2466   -17432   -18342     3252     8664    -1270    -3474 
   -1833     -855    11792    36223    35923    11200     3720    -3310 
  -11473     6770     8255    -8311    -2506     1381    -8572   -18351 
   -8471    18678    13319   -11434    -9752     1719     6755     5975 
    1421     2328    10693    16884     1898   -16193   -15205   -17348 
   -8897     6012   -16710   -32340    -4749    11689     3091     -741 
   -9626   -24123   -12652     2203   -12301   -21089   -11553    -9408 
   -3489     6205     3700     4630     5115     1209     5922     8950 
   13791    18598    14085    12452     3948   -14716   -22310   -15925 
   -9660   -11229   -17982   -22948    -4033    25637    26308    17184 
    7998     -483    21852    33002     4830   -12021   -12830    -8475 
    7210    11094      -87    -3862     3037    15669    18042     1428 
  -12779   -16488   -10945    -4665   -21860   -38588   -18025     9054 
    9329     8012    16902    16688    19943    27275    19487     9656 
   10615    19908    21335     6173   -13012   -26395   -13740     7366 
   -4781   -18430    -7836     1440     4680     2381    -1182     9140 
   17259     6517     1173     5273     2178     9888    18060     7014 
    5231    10971    12127    22998    32663    22588     1391    -4804 
    3613      391    -8928    -9562   -16834   -31171   -35361   -36848 
  -31882   -14301   -21424   -45052   -33782    -9964    -2988    -2639 
   -8225     5859    29151    12239    -6555     4243    17459    32566 
   29261     7677     1958    -5147    -8452     6799    11812    11361 
    8364   -13460   -29076   -27140   -26754   -21636    -8128    -4024 
  -10022   -13300   -13651   -14650   -13544    -4919    16904    30154 
   17901    12106    22281    32529    38410    31017    17300     5968 
    5080    13506     4716    -7573    -2529     8347    26349    32022 
   18114    18103    26185    24147    14177     -785    -4141    -1988 
  -11915   -13844    -6354    -7597    -6551    -2189     1854    12444 
   12511     3654     9710    11041     2840    11203    14257     1659 
    -349     7207    16931    26199    30091    29895    26739    30042 
   48374    59391    38986     8073    -6956   -10211    -7483   -10831 
  -34811   -51625   -43931   -45601   -53293   -49369   -53705   -55475 
  -41701   -40271   -55166   -56475   -40393   -31183   -35506   -44174 
  -42419   -22492   -14831   -34678   -33895     -399     7484   -17791 
  -32919   -28302    -3226    33072    36618     4257   -17200   -14301 
   -5817    -9224   -26242   -43104   -52951   -51212   -41636   -33485 
  -25155   -23865   -28810   -16965     6408     4699   -12498    -2709 
   14875    13649    12402    10122    10797    25812    30265    22393 
   25019    35581    51413    68534    65978    43310    22291     3379 
  -19392   -22179    -4635    -5861   -17941   -14083   -11626    -8737 
    3179     1166    -9501   -15507   -15573    -2771     3041     3451 
   19371    23097    12988    19896    25375    11452     1975    10733 
   21909    29253    35565    36185    47079    68413    73610    68987 
   67019    66005    55887    26724    14540    37174    54016    58282 
   69053    84910    99515   103647    86377    47876    20221    21278 
   18365     -573   -22219   -44977   -58324   -51119   -42508   -60540 
  -83027   -76063   -60018   -58152   -78189  -105973  -106764  -107238 
 -134202  -150299  -137127  -113846  -107442  -108326   -87852   -67755 
  -71605   -78058   -66105   -46537   -34587   -42406   -69919   -70359 
  -38480   -12297    20852    30280    -6791   -15468     5798    14413 
   18925    11936     9134    24302    37153    57186    71282    55661 
   42225    46765    52506    55270    43615    30589    52012    72829 
   58560    48487    46732    32470    22083    18557    16239    16546 
    6991   -16259   -40211   -47893   -35621   -22952   -21351   -30403 
  -34264   -10087    12185     3249    -3616    10353    26287    32634 
   27170    12425     9451    34480    61149    58135    36695    44714 
   82682    86125    68562    86248   121460   143414   138221   110506 
   88712    82462    77870    64017    44181    31695    29605    31136 
   41663    47154    35839    34651    32305    20066    29060    35610 
   15230    -9308   -31239   -50353   -63404   -68192   -59886   -54469 
  -56961   -56988   -70924   -90298   -92295   -93627  -103542  -127516 
 -152080  -136073  -105538  -107077  -125382  -145004  -164947  -161493 
 -129429  -107451  -103017   -90215   -77475   -58384    -9427    31382 
   34759    39618    68571   107262   147359   173948   183660   206635 
  239795   250225   243463   233302   214513   197920   194701   182478 
  155129   141268   137782   126756   110447    82961    57196    55186 
   51097    15134   -42399   -91565  -118089  -139969  -167998  -190613 
 -206176  -225278  -238941  -230114  -213281  -207320  -211223  -211054 
 -187998  -154815  -135569  -133096  -150844  -164492  -146955  -125158 
 -118937  -122999  -120058   -84780   -37980   -10304     8495    29736 
   45994    49673    37330    14250    13451    36965    44532    44072 
   52712    58847    58202    49793    51968    65646    59782    46440 
   47976    49878    50422    50947    41143    29760    16405     6600 
   29539    65827    78622    76825    68354    55714    47733    34138 
   13325    -4224   -12884        8    14916    11704    22200    37995 
   30194    26600    23751    -2110   -15022     3761    20514    26037 
   27355    19116    19398    36495    46238    45291    44066    31568 
    3709   -16164   -32007   -52191   -43902   -18878   -15934   -21868 
  -20382   -25130   -45632   -56586   -46892   -50062   -65124   -63720 
  -51385   -44690   -45810   -34576    -2570    18835    23800    36729 
   52068    45578    15641     3041    26747    47422    52847    60554 
   73901    88395    85646    59765    33536    27974    42654    57703 
   53141    34226    25419    26742    16745    -1615    -3966    16526 
   31380     4749   -44736   -56475   -29682    -1140    25655    22523 
  -19741   -35776   -22804   -31598   -40489   -28705   -25582   -34684 
  -47040   -61412   -69171   -75667   -68125   -39978   -32929   -45746 
  -50492   -45346   -26069   -14489   -29359   -47887   -39820    -8513 
    6201    -4189   -15660    -9154    15672    25610    16563    22110 
   40059    45558    43283    49832    57680    68353    75718    55776 
   46485    69017    78285    68955    42203     -584   -15180    -8532 
  -31685   -66567   -57607   -18971    -4980   -13965   -19310   -16526 
   -7048    -7766   -20081   -20449   -26322   -52563   -61574   -50838 
  -62193   -82012   -73500   -69840   -84387   -72862   -55304   -61792 
  -66062   -64863   -65554   -62004   -59313   -60675   -59239   -50153 
  -35348   -15175     1557     5910     5760     4712    16305    44118 
   51526    45025    58225    65211    49766    37010    37368    47923 
   47314    24009    19611    47243    63553    62914    58657    35019 
   15885    33145    41183    19777    13956    28564    33269    21798 
   15796    23949    38618    48143    32817    16819    21072    15171 
    3551    -4521   -19488   -17763    -8819   -19344   -24192   -17575 
   -6660    11103    17774    19651    23874    15545     3852     1143 
    3127     8621    17130     8877   -16995   -29196   -27994   -22388 
  -13139    -9517    -3461     2828     3643     3330    -1736      697 
    -179   -20278   -21660    -5225   -14782   -34468   -31240   -13944 
    3052     8445    -8552   -31904   -34488   -15930    -2398    -4334 
  -11469   -23322   -33224   -31419   -20440    -9423   -12459   -20229 
  -16490    -5859     9841    17979    15198    25286    41061    49967 
   54573    40965    25424    29601    26531     7037    -5934    -2077 
   17250    37135    35864     7024   -21023   -10717    10786     3032 
   -9875    -9633    -2824     -859   -19260   -26767   -10929   -13626 
  -20856    -4673    10258    14914    19973    23360    20007    15851 
   23076    31282    17446   -23764   -61522   -54409   -33061   -44317 
  -58182   -57531   -58758   -51300   -47379   -63182   -73398   -73087 
  -72501   -63180   -44312   -31644   -33480   -26200    -3856     7516 
   12654    18157    14100    24810    58777    59266    28838    27287 
   16093   -19830   -11155    19653    35977    50310    35588     8388 
   11349    17884    19446    29203    23796     2489   -11651   -15574 
   -7701    -1848   -25940   -52286   -45904   -36598   -42793   -54182 
  -54140   -25967    -3248    -8406   -11153      854    11792     5232 
   -7997    -7119      463     -367   -15828   -34005   -32563    -9742 
    9994     4309     -660    16633    29322    28132    11674    -4112 
   11422    27646    23090    19554    14119     -464   -15134   -21612 
  -15477    -1853    -1290     1644    37228    65820    67223    57586 
   30141    18015    18187    -5501   -13608    -4820    -5543     9370 
   19203     9373    25343    50004    37366    12133     3406     5175 
    8847     1615    -9286     -163    12205     4367    -4580    -4413 
  -16008   -33014   -24678    -7003   -14512   -29983   -29073   -14017 
    7568    10338   -14944   -30397   -16865     6625    21020    15361 
    7574     9043    -3488   -14968    -5741     2197    10430    21562 
   17120     9016    17714    31671    29868    18829    17055    12725 
   -9957   -29196   -17128     9852    19437    14689     1769    -9180 
     322     4527    -6889   -16194   -35307   -42788   -20331    -8649 
  -11877    -6845    -9288   -20201    -8687     6045    -2767     3061 
   16885     8109    16463    22542   -20368   -50548   -47445   -48710 
  -32621   -19610   -32044   -30893   -24182   -10504    16382    17142 
    2839    -7569   -24617   -29520   -14296    -2124     1629     7231 
    9050    -1243   -12760    -8621    -3380   -17466   -25947   -14050 
     781     8901     5884    -1738     1306    20956    34788    28163 
   29305    39671    37045    26400    22387    30181    31191    22782 
   25281    28119    21635    21459    25145    29431    45355    44878 
   19978    11322     4984    -4676     4974       41   -19182   -17988 
  -10332    -3048    10535    13867     5486     -598    -8887   -14446 
  -10273   -18509   -33642   -24692   -10274   -16881   -24327   -20181 
  -22284   -27533   -18474   -10716   -20237   -33978   -39047   -30002 
  -15593   -10458    -6685     4897    13711     7479    -4770    -1983 
