Origin Time       2021/02/13 23:08:00
Lat.              37.7
Long.             141.8
Depth. (km)       60
Mag.              7.1
Station Code      FKSH17
Station Lat.      37.6636
Station Long.     140.5974
Station Height(m) 105
Record Time       2021/02/13 23:08:07
Sampling Freq(Hz) 100Hz
Duration Time(s)  258
Dir.              2
Scale Factor      2940(gal)/6170270
Max. Acc. (gal)   66.815
Last Correction   2021/02/13 23:07:52
Memo.             
[...]
  -57878   -58105   -58757   -59204   -59095   -58786   -58654   -58848 
  -59080   -59028   -59045   -59167   -59095   -59309   -60133   -60938 
  -60985   -60402   -60137   -60649   -61324   -61451   -61186   -61272 
  -61768   -61879   -61449   -61191   -61133   -61010   -61022   -60764 
  -60222   -60514   -61472   -61740   -61059   -59942   -58786   -57840 
  -57201   -57209   -57825   -58259   -58216   -57810   -56839   -55038 
  -52988   -52338   -53541   -54720   -54612   -54413   -54711   -54260 
  -53525   -53310   -52586   -52422   -54600   -57924   -59952   -58814 
  -55418   -52761   -52673   -54913   -57238   -58771   -60566   -61539 
  -59656   -55831   -54796   -58541   -61995   -62156   -61176   -60836 
  -61780   -62210   -59848   -56939   -56737   -57897   -57931   -57193 
  -55591   -53187   -52092   -51770   -51605   -54439   -59018   -61273 
  -61800   -61431   -59689   -58026   -57047   -56739   -58038   -61304 
  -65036   -65027   -60256   -56655   -58643   -63908   -66965   -65437 
  -63147   -63031   -62519   -61172   -61793   -62887   -62439   -61636 
  -60029   -59409   -63310   -66737   -64787   -63353   -64507   -63486 
  -62875   -64058   -62024   -59253   -60681   -63693   -64374   -61790 
  -58688   -59542   -63125   -63326   -59490   -58047   -61114   -62458 
  -58692   -54864   -55468   -58194   -59461   -58434   -56623   -55920 
  -55959   -57577   -59174   -57108   -56578   -59517   -60370   -61014 
  -63185   -64521   -64644   -62270   -59476   -60220   -62060   -61834 
  -61034   -60757   -58775   -54130   -50732   -53440   -59944   -62064 
  -60292   -61181   -61709   -57644   -52792   -50025   -49275   -51802 
  -56724   -57146   -50719   -46211   -45923   -45416   -48682   -52901 
  -49779   -45829   -45162   -45133   -49384   -53659   -51800   -51735 
  -56742   -58543   -56803   -58309   -61514   -61523   -57986   -53418 
  -53542   -56553   -53823   -50894   -56672   -62116   -58533   -54864 
  -58495   -61582   -58832   -56334   -56672   -55465   -53763   -55435 
  -56365   -55236   -56147   -56673   -56808   -58210   -56815   -55055 
  -55026   -52578   -49119   -45571   -44969   -53743   -63936   -66265 
  -64319   -61345   -60195   -61720   -58975   -53065   -56400   -69886 
  -79539   -78151   -68652   -56473   -53783   -63748   -71556   -70934 
  -67398   -63973   -65763   -74758   -77484   -68117   -63569   -66786 
  -64762   -61800   -63235   -62593   -61686   -63760   -63479   -59331 
  -57648   -63426   -68418   -64561   -61130   -60924   -57337   -57448 
  -62868   -61950   -57752   -57774   -57756   -60074   -66320   -67274 
  -66693   -71195   -68776   -59902   -60850   -67091   -68649   -65169 
  -57591   -57139   -63831   -63739   -60855   -60592   -59841   -59266 
  -56580   -53541   -53194   -52721   -53668   -53192   -49085   -50777 
  -58991   -63751   -59652   -49753   -45432   -53060   -63670   -65359 
  -55617   -42699   -40687   -51570   -60859   -63384   -63236   -56755 
  -47029   -44774   -52661   -62161   -55354   -36190   -33051   -44106 
  -47692   -45406   -43909   -45926   -53056   -54769   -50243   -53300 
  -63406   -68117   -61326   -51475   -53160   -63762   -66670   -57952 
  -50313   -52765   -57410   -55909   -55402   -56008   -51406   -51054 
  -56621   -59199   -59769   -56247   -50418   -54380   -62297   -62388 
  -63224   -67140   -64015   -57706   -55208   -51864   -48509   -54330 
  -62257   -59735   -55307   -55575   -53798   -49447   -48524   -54965 
  -61405   -59685   -57269   -60107   -61246   -57358   -58370   -68099 
  -73117   -66540   -58551   -60857   -69677   -71495   -66677   -63802 
  -64910   -68336   -70829   -70716   -67518   -61049   -56995   -58059 
  -57860   -58983   -62803   -57986   -52670   -60422   -69025   -70235 
  -68077   -63237   -60454   -62640   -63439   -55755   -45068   -48808 
  -66844   -78871   -75282   -62425   -53083   -54760   -59637   -61245 
  -60572   -57378   -60886   -73449   -77359   -72127   -70721   -66762 
  -56144   -50566   -55774   -67029   -72766   -65492   -57762   -61134 
  -62618   -57460   -61825   -69548   -63025   -50494   -45295   -46326 
  -48206   -50514   -54491   -57625   -57022   -56684   -62479   -63887 
  -52868   -42766   -42484   -53146   -67349   -69859   -65405   -62310 
  -57657   -55541   -53526   -48522   -54498   -66727   -59524   -40032 
  -34711   -43483   -61249   -81978   -82547   -61196   -41904   -33090 
  -31585   -38831   -45016   -39570   -35092   -37815   -43196   -58206 
  -72412   -64842   -44858   -38885   -51954   -58962   -50410   -46199 
  -47843   -48070   -54738   -67306   -78955   -82950   -72860   -59258 
  -55608   -58986   -61849   -64929   -65681   -53843   -43193   -53578 
  -68840   -72459   -70787   -66087   -58715   -56651   -59529   -58279 
  -53343   -52270   -52737   -51195   -57651   -73711   -83055   -76660 
  -63200   -56235   -58779   -64913   -69124   -66558   -59635   -61867 
  -72684   -73309   -61239   -49453   -47716   -57241   -64805   -63926 
  -64136   -63607   -57279   -56521   -63395   -65664   -60453   -52467 
  -50228   -58364   -66631   -64309   -59559   -67268   -74405   -67362 
  -62615   -57820   -51822   -64139   -69743   -53315   -51730   -62006 
  -58115   -57031   -64456   -61586   -58712   -59298   -49512   -48872 
  -63901   -68382   -61236   -55213   -51060   -51029   -57562   -63192 
  -65174   -70223   -70922   -61239   -53136   -50156   -54415   -66702 
  -68955   -63097   -66273   -69250   -69073   -74711   -75410   -65822 
  -56753   -53031   -57145   -68346   -73868   -68123   -61306   -58650 
  -63620   -76242   -79477   -71534   -65922   -61753   -59263   -52351 
  -38411   -41514   -55949   -55968   -54738   -60688   -63875   -64746 
  -59431   -55640   -61475   -60596   -63100   -77223   -73995   -59725 
  -52349   -44718   -44467   -45642   -34139   -32947   -51676   -62167 
  -56045   -47140   -41834   -44725   -51855   -58107   -66518   -63906 
  -46981   -39983   -47375   -54224   -52378   -47033   -51789   -61440 
  -66372   -66700   -55354   -43866   -48832   -58581   -66710   -69768 
  -61996   -57551   -58846   -56284   -53840   -54300   -59633   -66081 
  -63122   -57409   -60279   -64520   -55918   -39313   -33806   -39619 
  -53240   -72359   -67064   -39355   -33240   -44892   -48257   -48879 
  -53133   -61368   -73334   -75152   -61012   -50274   -54321   -66234 
  -78208   -79864   -67807   -52187   -46779   -61552   -82702   -80433 
  -58094   -46820   -51080   -57287   -63288   -62796   -56347   -56028 
  -56198   -51368   -47851   -48330   -57325   -63442   -49668   -34295 
  -33251   -37156   -45228   -50431   -40298   -32705   -44645   -53812 
  -46519   -48228   -61326   -60857   -55530   -58439   -60162   -62287 
  -62161   -52194   -47463   -58296   -68107   -63679   -58238   -57046 
  -53283   -63185   -82687   -83398   -76395   -75295   -67972   -63019 
  -67133   -61537   -47530   -44602   -52664   -60928   -64871   -57470 
  -39494   -33736   -49061   -68818   -82224   -84303   -72129   -52288 
  -41806   -47078   -54227   -60759   -65877   -62231   -59897   -61929 
  -61086   -63117   -65049   -59812   -58718   -62108   -62507   -67386 
  -67114   -54562   -53851   -65020   -64714   -55489   -50315   -53750 
  -64413   -66297   -55253   -55850   -66848   -63114   -53482   -57681 
  -67906   -71878   -76033   -84925   -79150   -52770   -36010   -39182 
  -44512   -48325   -49513   -45148   -41102   -43041   -53863   -62860 
  -58416   -51588   -58160   -74072   -75073   -61246   -57551   -55251 
  -48781   -60006   -76888   -74803   -60565   -52147   -62021   -80125 
  -81914   -65927   -44289   -33138   -48306   -67067   -64653   -62471 
  -69858   -68257   -61853   -64006   -70611   -71922   -57983   -34294 
  -30024   -53615   -71948   -63654   -44216   -35772   -51579   -73141 
  -73323   -65348   -58436   -49194   -45794   -44800   -49849   -62392 
  -64312   -58486   -57316   -57933   -60514   -61465   -52187   -47023 
  -56826   -63933   -63597   -57150   -41264   -43885   -71110   -77285 
  -57468   -49068   -53696   -55937   -57808   -57539   -54874   -61199 
  -69277   -62071   -52302   -55824   -61773   -60811   -60667   -64629 
  -60992   -53758   -55984   -58176   -65629   -86569   -89613   -68335 
  -56209   -56028   -59402   -71539   -76390   -66674   -58801   -50173 
  -38250   -39211   -52600   -58840   -54627   -51748   -54075   -64851 
  -77573   -71710   -56639   -55038   -57008   -58689   -69616   -72930 
  -62096   -52237   -39776   -34636   -51481   -59908   -50747   -52245 
  -59264   -65611   -78272   -80987   -73346   -67460   -57181   -50065 
  -58228   -69321   -66991   -53679   -44506   -46626   -56262   -62288 
  -56281   -51723   -58997   -66390   -67635   -63137   -54828   -53733 
  -54309   -38291   -26825   -48019   -72905   -70605   -58906   -52890 
  -43661   -39170   -50121   -51020   -37419   -43518   -59093   -53800 
  -41208   -42745   -56528   -67230   -62985   -47621   -38446   -47220 
  -61642   -64187   -54965   -44758   -42851   -49732   -63378   -78100 
  -75262   -54507   -45502   -62732   -91085  -100424   -72606   -43945 
  -55034   -75953   -69465   -51061   -46455   -54528   -59195   -57836 
  -50421   -42143   -55458   -75126   -70684   -56765   -47723   -53364 
  -79807   -91219   -68598   -42118   -35905   -44255   -48405   -47047 
  -51447   -57470   -55943   -52999   -62115   -73804   -68072   -63173 
  -72809   -70133   -61120   -66375   -65791   -60005   -64266   -63480 
  -57222   -58356   -65478   -72440   -67134   -53769   -51501   -62868 
  -80075   -82355   -60748   -49179   -59553   -63997   -59297   -56844 
  -53710   -52024   -62717   -75740   -65119   -44902   -43262   -49393 
  -58886   -71375   -64521   -51512   -56317   -55988   -48959   -63629 
  -80390   -74226   -64293   -63104   -67952   -71716   -63649   -58261 
  -65000   -66852   -63768   -65735   -71376   -76497   -75582   -67916 
  -61931   -61382   -58835   -51437   -45407   -48734   -60809   -62387 
  -50389   -44105   -42789   -50972   -68665   -64603   -49885   -51078 
  -53185   -53002   -49803   -46857   -60460   -69817   -64880   -59501 
  -48829   -46551   -58779   -64370   -62867   -58407   -51345   -47523 
  -49651   -65073   -81137   -72530   -53524   -43039   -40676   -55049 
  -73422   -74704   -67199   -56392   -50422   -58449   -61583   -55637 
  -53201   -47650   -43727   -53993   -63940   -60198   -53446   -52354 
  -55854   -59099   -55541   -47895   -45318   -53275   -59304   -56840 
  -60765   -64854   -70843   -81374   -68468   -55593   -67820   -72352 
  -70287   -72166   -63948   -53407   -49592   -53880   -63411   -59398 
  -47365   -44702   -43694   -48599   -58352   -59024   -60033   -61367 
  -57826   -56156   -55916   -60635   -64150   -55102   -46652   -47299 
  -54009   -62400   -60304   -58749   -65802   -60049   -49298   -51430 
  -55382   -52306   -46612   -49027   -55871   -57755   -64724   -72302 
  -65853   -57684   -61078   -74785   -88675   -83240   -67995   -67509 
  -66469   -55997   -59673   -75172   -82047   -83441   -82271   -72627 
  -66288   -68349   -70799   -76403   -75817   -62787   -62405   -78002 
  -84172   -82865   -83591   -76376   -60756   -49735   -50789   -57350 
  -54859   -36272   -21780   -33698   -40367   -21543   -20951   -42536 
  -42895   -25986   -17169   -12050   -14381   -31707   -41394   -35219 
  -29798   -29573   -37656   -53029   -58494   -53363   -53859   -60109 
  -64657   -69705   -76958   -78906   -75214   -73378   -75179   -81162 
  -85694   -87736   -85664   -70705   -61792   -71228   -79918   -81159 
  -82642   -87430   -85946   -75683   -66142   -57763   -52213   -53176 
  -57687   -56169   -51183   -56766   -60087   -49014   -36644   -28339 
  -24696   -32537   -48269   -55769   -53953   -51295   -46614   -51564 
  -66606   -65627   -53066   -48462   -48919   -53699   -60306   -59874 
  -50946   -38463   -35296   -44928   -53190   -51831   -46713   -44422 
  -45854   -50778   -59360   -70152   -73546   -66150   -62810   -66074 
  -67112   -66544   -63929   -63751   -65873   -58310   -53309   -67836 
  -87855   -91764   -79808   -72794   -74893   -77919   -84125   -82472 
  -71185   -70051   -69743   -60533   -62179   -65657   -54312   -43742 
  -36799   -28475   -27074   -31778   -29946   -20149   -22019   -32166 
  -19376     4769     3659   -11543   -18314   -24881   -30507   -28840 
  -32835   -43950   -46494   -43631   -46552   -50400   -54038   -58740 
  -61393   -65237   -69144   -72408   -78674   -76370   -66052   -71078 
  -83517   -86435   -86244   -80196   -76423   -84613   -87649   -86266 
  -85999   -72926   -58907   -64441   -70500   -57434   -43329   -42048 
  -42744   -46570   -61527   -71894   -66665   -65622   -78445   -85567 
  -81635   -85557   -97443   -95166   -75982   -62595   -66643   -70975 
  -67282   -72838   -84384   -87901   -89482   -81901   -60649   -48435 
  -45942   -40130   -39096   -38362   -27385   -17664   -16491   -24415 
  -35521   -30275   -16253   -18797   -33624   -46764   -48694   -40080 
  -47091   -65488   -56887   -34029   -28440   -31160   -34643   -37944 
  -40714   -53545   -62335   -53667   -52114   -59514   -53811   -50231 
  -63771   -70801   -64918   -72272   -95331  -111595  -114453  -107216 
 -102169  -121741  -149924  -152604  -143132  -149090  -166992  -180463 
 -185124  -181830  -165153  -144511  -132179  -115009   -92098   -83152 
  -76952   -50451   -18208     2309    11100     5550     6930    38485 
   73582    81622    67695    44852    24836    22733    34401    33695 
   18426    10387     8437    -1741   -18618   -31628   -38048   -42032 
  -41434   -40013   -47561   -58095   -63337   -60403   -48255   -44285 
  -61183   -81651   -89769   -85759   -78170   -75862   -72820   -67943 
  -74258   -81901   -78605   -82818   -92287   -93545  -103929  -114845 
 -110711  -113136  -119213  -116819  -117303  -115984  -109759  -108396 
 -105284   -91076   -79240   -88573  -102834   -93331   -67669   -48388 
  -46638   -62350   -78838   -79994   -69416   -57559   -48863   -43387 
  -40378   -44031   -53087   -54741   -54263   -57821   -42587   -11275 
    4333      830   -11644   -29933   -39092   -26422   -10971    -9179 
   -7992    -9683   -27143   -41889   -33025   -16288   -18050   -34373 
  -48992   -58329   -60018   -61982   -69766   -64510   -49541   -51845 
  -65591   -67529   -59077   -57234   -69225   -87225   -99780  -103654 
  -96992   -81693   -76385   -89775  -111796  -134549  -147936  -155999 
 -169068  -170710  -156970  -148244  -146558  -142985  -139885  -140699 
 -132659  -102066   -59213   -25477   -13304   -15625   -11116     4619 
   21713    39460    50989    44426    27115    16220    15650    13356 
    2152   -12348   -27762   -43374   -51335   -48002   -45022   -53639 
  -64805   -63086   -51955   -48281   -53021   -58071   -69404   -85399 
  -96983  -105983  -107624   -95801   -74753   -46161   -14987     9322 
   22533    18857     2473   -12260   -23311   -25592   -17067   -10605 
    -577    12763     6987   -10004   -16132   -18376   -32672   -53445 
  -64705   -68216   -65253   -55612   -60399   -80235   -88691   -84553 
  -83465   -85027   -80412   -71821   -69722   -77328   -88398   -94794 
  -97566  -100392   -97598   -94072   -97663   -97604   -97809  -110936 
 -117759  -107253   -96651   -85969   -75111   -73593   -64015   -38750 
  -17529    -6399    -4901     -467    31124    69023    74498    62979 
   59059    52875    47413    48332    34868    11624     7810    19025 
   18417    -4730   -40513   -72835   -94129  -102868  -103539  -109458 
 -121217  -122842  -115811  -117249  -122479  -125569  -139054  -150515 
 -144637  -143605  -153795  -158493  -159794  -153803  -132775  -117047 
 -114498  -107244   -94555   -80282   -59477   -41786   -38328   -43440 
  -47333   -49788   -57860   -61923   -46843   -27743   -13216     2158 
   -5955   -39688   -65383   -78825   -78371   -55283   -37495   -44589 
  -58572   -66177   -60989   -48226   -56902   -93547  -127315  -137703 
 -130614  -108889   -65451   -22854   -22469   -52302   -70406   -78427 
  -93358  -108235  -105720   -79917   -59547   -68085   -79277   -74730 
  -72303   -77985   -83565   -86795   -81626   -70539   -71675   -80973 
  -77827   -61457   -45531   -42097   -39267   -23014   -13900   -19265 
  -23989   -27694   -24257    -8481     3820     2789    -5090    -8019 
   -1117     6513     3604    -9013   -17717   -18323   -23173   -35617 
  -49158   -53771   -36854   -16851   -23208   -38744   -47701   -68329 
  -93965  -103514   -99508   -89034   -76377   -63183   -42626   -14101 
    3745      -81   -10525   -23750   -34280   -19627      -32       55 
   -2166    -8409   -18811   -12774    -7103   -21911   -41052   -58220 
  -79496  -105478  -133707  -141229  -122928  -114534  -120608  -119538 
 -110632   -99590  -108789  -144286  -157593  -134570  -112104   -95520 
  -77247   -66907   -65317   -66864   -71645   -73280   -61539   -53787 
  -64166   -69224   -65559   -64314   -54696   -44015   -51081   -73295 
  -91940   -92792   -85898   -76873   -53470   -28123   -26795   -37831 
  -40349   -45064   -52158   -45754   -37298   -38825   -40612   -38106 
  -28800   -11490     1419     3593    -3377   -19109   -29707   -30730 
  -41662   -59247   -63755   -65947   -73677   -62052   -37935   -46829 
  -82615   -99667   -94104   -79991   -60530   -51259   -50418   -40341 
  -32625   -35039   -39260   -51834   -68013   -70396   -63675   -61983 
  -65890   -71857   -83409  -104629  -128184  -130850  -113169  -109363 
 -113525   -99251   -91203  -107932  -125685  -133880  -137497  -134972 
 -133127  -141510  -151677  -150423  -138118  -118581   -97511   -85803 
  -81959   -77615   -69479   -55529   -44725   -48178   -59570   -62717 
  -51158   -37797   -34495   -38334   -44811   -51032   -62508   -83318 
  -96287   -93563   -86740   -80701   -78282   -75213   -62374   -49105 
  -38335   -22059   -15356   -25121   -25126    -5878     6099    -1321 
   -4696     4303     3727    -7432    -8558    -4866   -16099   -34125 
  -40416   -38172   -36471   -43229   -63403   -78442   -78758   -78561 
  -72924   -63482   -70851   -81340   -75325   -73166   -82171   -73569 
  -46899   -31045   -29874   -32270   -37354   -42327   -37046   -25178 
  -25952   -36717   -38030   -29338   -11788    12801    27430    28516 
   23657    18671    19762    16481     4932    -2202   -14702   -39574 
  -58382   -67308   -71092   -63292   -49109   -42867   -48293   -64836 
  -89273  -106580  -106066  -105471  -123387  -143506  -153582  -166442 
 -165044  -127675   -94373   -96428  -110727  -126234  -144255  -158052 
 -165920  -166220  -164052  -155570  -130178  -103020   -80935   -62434 
  -56171   -42278   -16671    -7805    -5462     2463     3325     7168 
   23543    39062    39169    27911    27136    40299    51084    53127 
   49963    43180    25486    -1396   -25695   -55405   -93767  -122571 
 -137040  -142470  -143093  -143184  -137055  -125102  -120825  -129179 
 -139917  -140820  -128001  -101475   -74724   -65453   -63856   -58884 
  -54525   -45594   -32781   -26557   -22752   -12141     2482    13476 
   14480     2437   -13053   -15048    -5752    -8662   -29748   -45120 
  -40213   -24011   -12302   -24552   -63665  -103143  -122256  -118587 
  -93541   -63093   -49752   -52627   -58033   -62700   -61312   -50187 
