Origin Time       2021/02/13 23:08:00
Lat.              37.7
Long.             141.8
Depth. (km)       60
Mag.              7.1
Station Code      FKSH12
Station Lat.      37.2169
Station Long.     140.5703
Station Height(m) 365
Record Time       2021/02/13 23:08:09
Sampling Freq(Hz) 100Hz
Duration Time(s)  227
Dir.              2
Scale Factor      3923(gal)/8224838
Max. Acc. (gal)   66.940
Last Correction   2021/02/13 23:08:09
Memo.             
[...]
  -35131   -19782   -16548   -30053   -34005   -30882   -32080   -25903 
  -18643   -26300   -34287   -31286   -30631   -31552   -23059   -16659 
  -22538   -28956   -31615   -34658   -30970   -22239   -22330   -29289 
  -33513   -33382   -26048   -17505   -22254   -31245   -31247   -34942 
  -40562   -30989   -20653   -24696   -29806   -31968   -35623   -33332 
  -25334   -21352   -24101   -31045   -35592   -32093   -27768   -31807 
  -38973   -37959   -27434   -19422   -22740   -31072   -38327   -43360 
  -40155   -28741   -23215   -30580   -38782   -40284   -38441   -30111 
  -22727   -32483   -43266   -37393   -32209   -28848   -16228   -17069 
  -36605   -43035   -33512   -26377   -22578   -25207   -35287   -35915 
  -25455   -25921   -36347   -32956   -23144   -30022   -39656   -35586 
  -34400   -36909   -27423   -24718   -38838   -37284   -19747   -22131 
  -39320   -41736   -32560   -29651   -32402   -31912   -28383   -25537 
  -21536   -20055   -26943   -30910   -26397   -29332   -38389   -34045 
  -22349   -21891   -27760   -31800   -36212   -33489   -23545   -24607 
  -35197   -37775   -32216   -24927   -20283   -23970   -30285   -32711 
  -36016   -34570   -20777   -12537   -21239   -30165   -32526   -33758 
  -30751   -26069   -24102   -21566   -23141   -29601   -32215   -36498 
  -40486   -28583   -18539   -30148   -38614   -32931   -32633   -32427 
  -25506   -30500   -40197   -32641   -25915   -33593   -32521   -22523 
  -24413   -32119   -35064   -35523   -30254   -22620   -22959   -27596 
  -32433   -34438   -26867   -24256   -34148   -31621   -19480   -25713 
  -36810   -33459   -34639   -38350   -22646   -14374   -36562   -50761 
  -38485   -30362   -33262   -30549   -28711   -35498   -36316   -31264 
  -35062   -36555   -26473   -23897   -31484   -33235   -33822   -35097 
  -22765   -14704   -29640   -34406   -23807   -32132   -39650   -24835 
  -19877   -28934   -28159   -26570   -32667   -32312   -26496   -26840 
  -30964   -30771   -23488   -19712   -26561   -26948   -22775   -35775 
  -44500   -29231   -20019   -23402   -19974   -25249   -44134   -41075 
  -19611   -21304   -34816   -31788   -29158   -29135   -21600   -29690 
  -43159   -25577   -11259   -33647   -42190   -20582   -22684   -43479 
  -40323   -34101   -40401   -26914    -8772   -23217   -38091   -28719 
  -31035   -40906   -26360   -20015   -38867   -36232   -21004   -33176 
  -37531   -17670   -20989   -37686   -30866   -29230   -41894   -29616 
  -14319   -32734   -38349   -15908   -24070   -45774   -30516   -19064 
  -33404   -28934   -19391   -38865   -44767   -16596   -11176   -36001 
  -38971   -27745   -33772   -35748   -24862   -24733   -30712   -28252 
  -28865   -36715   -36995   -30711   -24975   -17485   -20407   -35514 
  -34283   -19450   -22608   -31936   -24952   -24416   -38157   -35151 
  -21199   -28422   -40143   -29092   -19341   -28483   -28132   -18215 
  -31372   -48196   -36578   -23950   -29608   -31267   -27126   -28471 
  -26607   -24586   -37428   -48670   -36162   -19699   -22484   -29917 
  -27328   -26983   -33447   -30596   -19853   -21779   -34450   -39710 
  -36001   -29274   -20595   -17959   -28867   -40828   -38060   -26045 
  -18893   -24066   -36890   -38539   -26009   -21944   -29153   -29042 
  -27491   -33976   -31793   -26171   -38519   -45659   -30213   -25303 
  -33716   -27880   -29926   -49306   -39129   -14674   -31895   -52959 
  -36671   -30990   -44419   -33810   -22626   -36196   -35968   -22513 
  -29890   -36193   -26464   -29322   -37381   -31206   -32433   -40855 
  -29560   -13936   -18177   -30030   -37789   -38118   -28034   -22154 
  -27873   -31795   -36745   -45976   -38344   -21826   -27938   -36266 
  -22203   -19809   -36869   -36552   -27437   -31291   -27783   -15083 
  -17628   -27151   -24333   -20922   -30215   -35883   -23134   -12240 
  -23202   -36305   -33567   -31860   -35247   -26879   -17273   -24827 
  -37127   -40444   -42699   -43826   -31625   -17946   -22877   -36374 
  -42039   -36799   -21706   -13848   -28861   -41588   -31113   -27789 
  -39471   -29717   -13531   -29180   -43602   -29795   -29046   -42769 
  -31441   -22233   -39357   -41129   -30423   -40865   -43413   -24356 
  -22069   -34176   -35100   -37633   -41463   -24894   -13230   -31048 
  -40726   -28996   -28644   -30773   -16826   -13423   -27768   -32965 
  -29440   -28138   -20626   -17659   -32054   -38130   -28602   -27160 
  -27472   -23668   -34616   -43534   -25424   -11379   -25011   -37327 
  -38716   -45617   -42670   -22783   -18733   -33505   -37214   -31143 
  -28435   -22052   -17012   -27114   -36602   -29104   -24707   -32613 
  -29544   -18794   -22137   -25768   -18461   -20787   -32445   -32836 
  -27040   -28588   -32070   -29425   -24101   -25223   -35121   -41484 
  -34497   -29868   -37303   -33184   -18944   -27978   -45527   -37021 
  -25065   -33654   -38434   -29416   -25034   -26870   -31529   -39510 
  -35087   -15707   -10189   -28175   -46554   -52093   -44390   -25559 
  -14935   -25621   -36863   -37135   -40919   -37912   -18351   -18193 
  -41607   -40725   -20772   -22900   -32787   -29497   -29146   -28605 
  -19858   -24698   -40401   -36814   -21336   -20066   -24163   -20834 
  -23062   -30613   -28267   -24911   -30663   -30873   -23421   -24108 
  -28404   -23598   -24283   -43945   -55250   -37457   -20339   -25266 
  -30848   -29413   -38569   -47511   -31266   -13424   -24840   -34067 
  -22117   -29018   -49243   -40063   -25424   -31627   -24601    -6328 
  -18716   -41686   -37806   -34713   -47244   -35479    -8607   -17702 
  -43587   -42719   -31275   -27619   -21296   -20102   -30762   -29735 
  -19897   -30755   -43822   -34931   -30881   -36243   -27230   -18547 
  -20391   -13570   -13117   -33185   -38190   -27575   -37467   -46091 
  -25560   -11967   -27718   -38250   -28657   -26723   -33280   -29517 
  -32216   -45239   -37619   -19616   -24556   -36088   -29836   -22611 
  -28509   -30785   -21398   -20618   -34172   -37852   -27703   -25236 
  -28842   -23971   -20726   -28664   -35424   -37895   -42433   -41806 
  -31212   -22677   -25060   -32016   -41867   -52132   -43275   -23105 
  -23746   -30870   -24480   -32000   -49867   -41137   -23924   -25276 
  -19934    -8866   -29353   -53412   -39021   -28717   -39307   -23699 
   -8367   -31881   -39225   -16268   -20907   -40833   -35316   -31401 
  -39110   -27032   -13783   -27947   -39749   -31841   -31081   -39865 
  -34303   -19237   -20039   -34892   -40208   -33971   -28780   -23836 
  -22048   -35307   -49746   -40504   -23024   -20517   -18577   -11581 
  -22523   -49338   -57662   -35603   -12727   -12133   -21682   -29022 
  -36768   -36860   -22111   -13348   -25362   -37743   -36390   -30242 
  -25083   -23481   -25282   -25482   -23615   -18674   -14407   -24503 
  -40375   -36860   -24629   -27722   -31438   -25176   -31287   -39827 
  -22049    -9370   -32620   -49997   -32644   -17086   -27785   -36818 
  -26740   -27310   -45659   -44541   -26881   -23580   -23199   -20721 
  -35652   -47495   -33880   -18918   -21168   -29670   -29536   -23244 
  -24193   -28255   -26006   -25095   -27564   -29158   -38222   -45651 
  -30010   -14790   -28566   -42388   -36202   -35104   -41513   -36441 
  -25118   -20595   -23600   -31791   -41439   -44363   -39984   -35856 
  -31330   -26350   -29814   -39037   -41404   -37611   -32487   -19668 
   -4909   -11719   -37384   -48473   -35957   -25617   -29693   -32098 
  -25816   -27969   -40150   -38468   -25905   -26820   -30156   -20507 
  -21713   -38256   -37489   -26338   -33158   -34479   -14349   -12390 
  -37035   -43849   -22434   -10584   -24286   -37889   -38784   -40502 
  -37152   -20518    -9229    -8075   -11836   -29604   -47771   -43272 
  -27662   -18142   -18742   -32657   -43551   -33650   -23510   -29620 
  -32948   -28868   -32969   -36409   -26223   -20746   -28934   -33463 
  -36586   -43837   -38128   -23615   -21278   -27472   -33011   -36234 
  -30072   -22810   -30790   -36555   -27106   -24885   -24709   -13058 
  -21880   -47969   -42651   -21412   -29227   -44302   -36100   -32328 
  -49495   -47437   -17578    -9803   -25238   -23523   -20964   -39044 
  -43843   -21253    -9298   -27114   -41612   -32416   -24464   -22480 
  -14781   -20895   -35695   -28773   -19117   -28831   -37025   -39391 
  -44636   -36942   -18515   -17369   -32686   -38635   -28599   -21193 
  -32989   -49793   -45152   -30589   -29590   -27153   -16920   -22248 
  -33327   -28386   -26438   -38018   -42006   -34921   -25408   -17734 
  -31006   -49474   -29581   -12546   -41310   -49894   -21527   -22639 
  -36466   -26724   -33323   -45153   -12591    11861   -24061   -55035 
  -35032   -11458   -12239   -18952   -27884   -37860   -34479   -28320 
  -38376   -46399   -37346   -30214   -32422   -34873   -37289   -35182 
  -28023   -29744   -34630   -31221   -30647   -29895   -25238   -33261 
  -38292   -21589   -16305   -34831   -34948   -10530    -5988   -25995 
  -34746   -33050   -41550   -42417   -22327   -15345   -33527   -38566 
  -24599   -21892   -23739   -19326   -28614   -40833   -34263   -30601 
  -37134   -29594   -12282    -8695   -17375   -26420   -39359   -46739 
  -30438   -13267   -20591   -33546   -36355   -38333   -38583   -30203 
  -27816   -39915   -41268   -27368   -34173   -55227   -46919   -21527 
  -21406   -40609   -46380   -38327   -34749   -30238   -20353   -23419 
  -37114   -36498   -27345   -30923   -35877   -31353   -32664   -34377 
  -21724   -18370   -34885   -38379   -27990   -30526   -33555   -26588 
  -24655   -18350   -10161   -28642   -50271   -40483   -26800   -23642 
   -9810    -7061   -35699   -51267   -38005   -34863   -32745   -14123 
  -17980   -41199   -42280   -37555   -39904   -24354    -9370   -25573 
  -45185   -42742   -32983   -20923   -10166   -22161   -48226   -48257 
  -20707    -8109   -20426   -27997   -24900   -23001   -21244   -21432 
  -25276   -18823    -2937    -5179   -20407   -15684   -10709   -31712 
  -37860   -17929   -22229   -35735   -15654   -10516   -45588   -47364 
  -11712   -16100   -45855   -41165   -28880   -39197   -44123   -47842 
  -67787   -65662   -33716   -26735   -48863   -55247   -48979   -52551 
  -52625   -43221   -36792   -32371   -26767   -24657   -30554   -41739 
  -42786   -28350   -17910   -16849   -10813   -12553   -35263   -42005 
  -13926     -226   -20177   -27271   -15282   -25110   -42228   -25571 
   -7789   -29928   -49600   -35544   -31028   -49419   -49840   -31621 
  -32008   -44763   -37237   -27648   -41447   -41823   -19816   -24358 
  -33895    -4730     7204   -30110   -52867   -43443   -41648   -37174 
   -7715     9159   -11881   -26252    -8780     6018     6218     9788 
    7709   -13416   -29176   -19268    -8183    -8149    -1109    -2516 
  -24729   -29467   -18539   -31480   -43803   -33763   -37899   -51883 
  -42030   -30500   -44277   -56759   -49027   -43276   -42275   -33940 
  -35355   -48551   -47223   -30861   -18072   -17798   -28216   -34901 
  -33914   -35297   -35946   -36227   -38612   -30353   -20783   -28921 
  -36136   -28107   -26298   -34402   -32973   -36316   -61531   -71649 
  -48165   -37443   -56539   -66588   -55372   -48343   -49503   -38456 
  -23068   -26968   -36221   -35316   -34477   -35586   -45273   -62993 
  -60563   -38472   -21988   -13312   -12410   -25311   -36193   -30389 
  -31195   -44807   -36994   -19890   -27405   -36470   -29362   -25938 
  -33787   -45544   -47524   -32668   -17591   -10193    -3780   -14713 
  -46696   -54880   -23984      317     1471     5595    10143     1428 
    1112    19457    28830    22491    18662    15372     9478    10188 
   11641     8891    12448    20124    16920     3589    -1251     6579 
   10822     8577     5452    -3137    -9471    -3854    -3383   -12931 
  -12128    -6070   -14848   -31018   -33030   -17406    -2957    -3045 
  -13977   -32787   -53724   -65650   -72638   -87968  -103636  -100813 
  -92878  -106531  -127290  -125351  -110988  -113309  -128324  -131699 
 -127728  -132112  -136493  -137508  -144130  -141052  -109332   -74571 
  -69662   -75286   -66347   -58272   -54699   -39106   -24730   -22739 
   -5005    35249    55741    39700    29408    53252    79772    76974 
   61315    55786    49207    26399     3834     4722    17269    12217 
   -8908   -16622    -4469      -40   -13613   -24138   -19080   -11776 
  -22882   -42346   -37465   -18220   -15820   -11919     8749    14121 
     807    -2008     1926      157      450     4153     4630     3522 
    9579    20931    24295    20876    13261    -9186   -38111   -53754 
  -54145   -48458   -54796   -80211   -98941   -91824   -76310   -74725 
  -84094   -94703  -110853  -123219  -110172   -89186   -97324  -123912 
 -127319  -104592   -90220   -91331   -84210   -71408   -70162   -70131 
  -68060   -79018   -83197   -57719   -34249   -33345   -25659    -5875 
    1291    -4279   -14839   -28552   -29695   -17483   -16677   -26329 
  -18347     4895    12750     4418     1414     1773       47    11716 
   36050    41762    18913     1468    14615    38026    50496    64255 
   80524    85220    87307    86059    60461    23668    12332    26948 
   37353    36486    40308    42036    24892     1418   -13682   -24547 
  -28294   -30618   -46614   -53681   -33475   -20790   -36216   -55282 
  -63948   -70027   -69206   -57219   -52840   -64254   -75585   -84244 
 -103455  -127222  -132717  -125011  -134832  -158707  -164976  -160855 
 -170199  -167221  -128943  -101147  -117698  -138357  -133034  -124055 
 -121120  -110967  -101208  -100372   -87704   -57373   -35955   -27109 
  -10269    16460    43205    59944    63590    70407    78370    63653 
   40441    37358    45099    46292    45916    58838    80758    86458 
   70529    48030    22522    -4514   -20754   -19029    -5925     6729 
    5653   -17386   -48918   -61932   -51416   -42461   -46511   -40513 
  -20984   -14126   -14141    -7083   -15218   -37964   -41659   -29523 
  -36256   -64777   -83666   -83875   -81708   -78713   -70892   -64282 
  -69128   -85565   -92757   -83998   -77426   -72740   -54110   -24970 
     298    23707    47212    52710    38600    28487    23973    12116 
    3314     3375     -957    -5185     -577    -3380   -22837   -36505 
  -29768   -22551   -33220   -55104   -72122   -80985   -91370   -92893 
  -70004   -49050   -58770   -79431   -82574   -70270   -61695   -72030 
  -91822   -93892   -71633   -52154   -60480   -74011   -55815   -23233 
  -14046   -18229    -6841     8437     3215    -6543     1927    15587 
   13814    -3620   -19745   -13825     9957    17938    -6735   -42935 
  -65288   -64477   -46030   -25278   -17437   -29155   -42120   -32975 
  -12229     2015     9018     6937    -3056    -6712     4687    17325 
   12630    -1717    -2889     8845    12613     5967     4482     1152 
  -14678   -20335    -9853   -11897   -24379   -20501    -8247   -11890 
  -23907   -32773   -54388   -83403   -84585   -63086   -60906   -78409 
  -75882   -56184   -64481  -101109  -123543  -122212  -114110   -93498 
  -58482   -40969   -52589   -61376   -48743   -33559   -36568   -46560 
  -41751   -29116   -20121    -5857     8005     -761   -19531   -14303 
    5460     5053   -14651   -30011   -37257   -41470   -34290   -17598 
  -10470   -17182   -24575   -23234   -17737   -19021   -24239   -24484 
  -30042   -46591   -45330   -16451      274    -4402     1659     9154 
   -6034   -20321   -14970    -8190    -5499     5321    20447    24003 
   11094    -9394   -28548   -43995   -50720   -42257   -34013   -45447 
  -56964   -49736   -47946   -60943   -61167   -49003   -52810   -66260 
  -61184   -39393   -24521   -27376   -38322   -47532   -54028   -50395 
  -34462   -26785   -34917   -33677   -12545     2674    -6061   -24008 
  -37592   -53964   -67994   -59366   -34285   -13933     6798    25609 
    4541   -52007   -79097   -68976   -77107   -88898   -51660   -10025 
  -15070   -13423    22156    43222    40082    31529    14139    -8247 
  -28039   -41330   -37069   -20212   -12849   -26079   -49368   -63271 
  -64863   -66031   -67730   -58256   -38677   -30352   -37179   -38389 
  -39564   -55015   -59400   -39344   -23480   -22249   -19726   -20464 
  -32319   -33817   -24494   -37893   -66471   -72409   -57241   -42831 
  -34693   -35131   -48142   -64898   -70695   -66434   -56852   -39286 
  -20595    -7986    -4801   -21752   -48139   -51177   -33929   -29930 
  -34925   -25199   -18108   -24065   -13695     6790     4693    -6546 
   -2717     4108    -7870   -30148   -32467   -20051   -22563   -37957 
  -48421   -42709   -21644   -10177   -20684   -25909   -12829   -16399 
  -46472   -54387   -41754   -61376   -75703   -31453    -8326   -60920 
  -94401   -57469   -18901    -9601    -1653      459   -11388   -13888 
  -13080   -32401   -45241   -27614    -5898     8591    26395    28587 
    3127   -15067     -521    25474    38450    34249    16217    -3450 
  -11898   -16511   -34562   -54756   -51867   -45609   -58865   -55613 
  -21273    -5107   -23415   -36566   -36656   -56072   -87312   -94540 
  -87787   -85306   -68330   -47511   -52583   -55150   -37230   -34996 
  -43552   -31415   -20070   -29284   -26724     4064    32134    44617 
   57866    59221    24954   -16960   -22955    -7223    -9433   -25303 
  -30713   -38388   -56809   -50403   -27271   -40670   -63917   -50946 
  -48116   -75709   -70985   -33731   -32274   -64608   -73012   -56295 
  -50809   -50703   -42754   -50557   -68362   -54216   -18736    -4255 
   -3990     4726     7246   -13647   -42279   -58315   -62815   -56733 
  -36023   -13464    -3451    -4683   -11033   -15338   -21550   -41030 
  -51174   -29062   -20607   -54207   -65483   -31939   -20532   -42813 
  -50758   -45478   -44381   -34192   -28917   -52126   -70672   -61159 
  -59333   -70168   -49424    -3705    10339    -5159     1055    27001 
   36691    22130    -6724   -29470   -33018   -29806   -29747   -24680 
   -9725    -5953   -23404   -21959     2182    -9896   -48706   -49221 
  -21957   -15753   -23755   -23445   -31777   -56133   -59601   -32449 
  -17208   -24036   -24237   -21520   -30676   -39144   -41494   -43075 
  -37206   -25614   -19919   -14601    -6781   -14476   -36904   -47623 
  -40603   -32404   -33750   -51564   -85563  -106532   -83446   -35590 
   -4931     3261     6732     7963    -5011   -35453   -65084   -75786 
  -72219   -65304   -55301   -41577   -28503   -17298   -10899   -19383 
  -35812   -40498   -36579   -31939   -19931    -5422    -2546   -12795 
  -26127   -30619   -20808    -5629     -121    -3825   -14623   -38483 
  -51209   -21911    14874     8473   -17875   -25990   -29601   -37737 
  -31449    -9018     6959     2238   -15280   -32368   -36818   -23695 
   -6502      565    -7986   -31823   -50507   -39143   -10466    -5319 
  -26176   -34546   -33920   -53635   -67948   -46593   -19830   -19789 
  -31927   -33799   -24934   -13664    -9701   -20402   -41064   -58271 
  -61441   -50230   -39062   -38448   -32521   -16259   -12033   -13109 
   -1864    -2095   -23934   -42495   -57844   -76404   -78078   -60010 
  -42295   -31722   -30229   -41702   -49709   -39537   -33824   -49917 
  -62680   -55483   -45027   -35970   -25050   -30211   -43920   -33469 
  -16852   -29944   -52583   -53291   -46884   -55051   -62244   -49239 
