Origin Time       2021/02/13 23:08:00
Lat.              37.7
Long.             141.8
Depth. (km)       60
Mag.              7.1
Station Code      FKSH17
Station Lat.      37.6636
Station Long.     140.5974
Station Height(m) 205
Record Time       2021/02/13 23:08:07
Sampling Freq(Hz) 100Hz
Duration Time(s)  258
Dir.              5
Scale Factor      3920(gal)/6170801
Max. Acc. (gal)   329.146
Last Correction   2021/02/13 23:07:52
Memo.             
[...]
  -14081    -3414     1890    -3411   -10843   -20371   -30849   -30746 
  -23212   -20409   -22212   -29520   -37330   -34100   -29679   -30486 
  -23298    -9361     3266    12960    11152    -1857   -13392   -20112 
  -23008   -18753    -8845    -5354   -15347   -27422   -34967   -41444 
  -41561   -38808   -43876   -49105   -48174   -46326   -36817   -12624 
    8649    11717    11012    18508    25477    28948    35139    40671 
   31390     4632   -22455   -37470   -42165   -39962   -32666   -26083 
  -30376   -45882   -58193   -60494   -60752   -56567   -40488   -22900 
  -12455    -6418     -311    10526    17787    19092    29951    41099 
   34395    20693     3393   -23460   -44836   -51477   -48344   -37345 
  -26273   -17598    -3845      613   -21712   -46757   -48485   -35769 
   -9179    28830    47494    44447    41343    32154    12173    -2452 
   -8634   -13657   -10412     -341    -2489   -13386   -14934   -14133 
  -22797   -35326   -52061   -68415   -60053   -27349    -1985     2330 
   -4245   -11293    -9253     2025     9852    13893    19330    15301 
   -1483   -11394    -6704    -5045   -10732   -13004   -14501   -11056 
    5441     7801   -16576   -27386   -12219    -1485   -10173   -31627 
  -42009   -28170   -12053   -13298   -23163   -23698   -15684   -11413 
  -13407   -24795   -37275   -31432   -22711   -31139   -37722   -26861 
   -6151    13034    19401     6532   -17000   -28949   -18147      130 
    8746     8045     1537   -12728   -29784   -39751   -36756   -17311 
     291    -8964   -26748   -33837   -43624   -47488   -40765   -51947 
  -69410   -61665   -45491   -33040   -11417     6172     3744     2621 
   17909    27151    27926    39822    43554    19950    -4697    -4199 
   12379    13247   -14171   -47569   -70527   -78633   -69780   -63295 
  -68312   -66486   -54330   -38030   -16025     2799     6947     4670 
   12917    34918    61512    78003    66825    32130     5215    -1588 
   -5937   -20721   -41533   -53244   -57147   -68838   -80360   -86409 
  -94971   -87107   -54806   -28047   -15895    -1632    16620    37660 
   61114    68931    61620    63128    59400    36145    29585    40900 
   28682     5341    -5384   -22712   -41814   -46198   -58091   -82539 
  -92357   -92497  -102902  -102724   -80186   -58159   -30004    12187 
   42051    58328    77647    90181    75866    39488    14871    11137 
    7217     7247    22325    34526    20908   -14584   -52036   -85150 
 -107579  -107482   -93283   -79492   -60548   -23292    22500    44189 
   36730    30490    23911    -2741   -25313   -16830    14912    43763 
   46703    33358    19199    -1425   -23966   -35892   -43043   -60485 
  -82489   -87439   -77207   -69778   -62446   -42896   -17980     1655 
   20306    31201    19233    -2769   -14889   -14256     3877    35897 
   60919    66881    51283    21589    -3820   -27203   -53235   -67989 
  -80921  -101897  -106031   -81884   -44007    -6691    15864     5328 
  -37775   -72830   -75996   -68088   -56970   -42284   -30837    -8561 
   28320    55203    67708    77073    74944    49138     2428   -44334 
  -66643   -63145   -41109    -1772    35210    45566    36901    26135 
    4897   -39472   -78616   -76529   -57714   -47284   -30519   -26021 
  -44762   -38469    -3982    11215    15643    27572    17599   -12621 
  -25503   -18773   -15366   -20530   -23057   -11965    13558    39877 
   53107    48841    24471   -15220   -47267   -54721   -44931   -27690 
   -9381     4893    12351     6286   -15135   -45761   -66085   -55621 
  -32319   -24588   -26249   -19415    -2975     4019    -6374    -7030 
   14310    27354     8952   -18312   -10956    24835    42977    35883 
   12666   -18909   -26843   -14322   -20214   -42044   -55390   -55119 
  -45645   -38279   -36223   -27605   -18291   -22384   -33356   -40448 
  -36973   -20723     1144    17939    23585    27984    37398    40926 
   36453    24874     8548      181    -5923   -15198   -17212   -23834 
  -39570   -48496   -49469   -39809   -27914   -24418    -6731    16255 
    6502   -20733   -35520   -38602   -33984   -22006     2270    38434 
   61451    56323    37406    10391    -6534     5443    -8552   -61228 
  -71570   -49037   -53162   -65317   -70078   -64459   -40249   -23633 
  -13444     5667    11700    13910    21579    11982     7670    29730 
   55090    68424    51437      504   -46553   -76366  -103004  -113500 
 -100260   -84018   -66531   -34106    -2859     -638   -25123   -49735 
  -48096   -16707    15513    26001    27524    32955    37203    38541 
   31726     6335   -11807    14173    48917    34531   -15060   -58413 
  -75025   -55056   -26531   -38347   -69001   -61795   -37648   -37185 
  -41650   -35238   -24421    -7817     8245    11023    -8141   -34305 
  -33870   -21275   -22130    -5947    24455    18714    -2526    -1070 
  -15073   -50815   -56703   -28998     8998    39922    45649    36267 
   31742    31425    17962    -8444   -16202    -6103    -6741   -13772 
  -17074   -25336   -39139   -54517   -75623   -89196   -78097   -57295 
  -43210   -39737   -50066   -52617   -28937    -6242     4939    22516 
   30673    30059    33358     2414   -46234   -47858   -38689   -50966 
  -30916    -3651   -18792   -17138    11082     6263    -5498     9802 
   20404     9390   -10480   -18108    -3251    13633    11080    -7878 
  -28491   -44013   -45547   -14679    29789    42840    33815    27653 
   -2349   -56424   -80450   -67248   -59717   -56313   -32756   -16824 
  -27179   -34425   -36409   -41849   -26333    10703    44318    71432 
   82826    58966    15483   -16016   -31236   -39213   -33902    -8958 
   17975    22154     1002   -27141   -50831   -63964   -54138   -40155 
  -50269   -57725   -27414    20477    39936    17598   -22102   -54267 
  -63097   -42136    -2027    32483    41023    35896    36130    24123 
  -12249   -35844   -20050    14333    49943    68289    37391   -30421 
  -90212  -123657  -129409  -109371   -83295   -68485   -57590   -46041 
  -38574   -18434    23742    50098    44185    44020    54752    53929 
   48640    43943    38866    33960    20496     6294     1909    -6493 
  -26174   -45048   -53534   -53795   -64548   -93926  -107477   -82794 
  -47910   -22618     -355    17971    28322    26652     3132   -28048 
  -36134   -30699   -27630    -4632    31009    45863    44875    38632 
   19822    -1191    -3569    -6037   -34577   -70389   -99648  -111363 
  -78194   -25618      101     7380     1981   -24751   -29450     2461 
   11671     2522     3924   -21380   -40885     5407    51423    45075 
   27694     8458   -19896   -29237   -23590   -37043   -62568   -67563 
  -48095   -24004    -4783     4816    -9516   -31958   -24579    -2327 
    5709    16270    16026   -19816   -32214     4654    26229    36590 
   67710    65260    10786   -36833   -49075   -32268    -2901      751 
  -41208   -88120   -94434   -71498   -51141   -50931   -66004   -59120 
  -19672    13137    26128    31937    21122    -2787    -5281    21663 
   41747    38453    37798    39591    21145     -725   -18339   -47465 
  -68048   -68411   -59166   -36586   -11729     8724    20528      705 
  -34097   -53427   -50311   -26393   -13508    -9946    16985    26079 
   -2959   -21732   -36040   -48997   -19390    19637    21610    17999 
   13908   -21931   -68152   -85127   -73299   -48624   -10422    27188 
   37042    24138    -7567   -56366   -82347   -67219   -47596   -43658 
  -29784     8185    41387    44071    20696   -16418   -49144   -59334 
  -48377   -25447    -3787     2957    -1144   -11740   -19127    -2760 
   15840     3881    -9709     4224    21866    28837    40573    57849 
   56672    20868   -26938   -52144   -60143   -67574   -68470   -77490 
  -98928   -86911   -41774   -12991    -8055   -19476   -35493   -20649 
   28066    73178    81056    51257    14410   -17829   -46613   -49198 
  -27730   -24593   -40197   -30691    -3295     3542     4948    12227 
   -4064   -20587     -328     7577   -22087   -25892     8451    24711 
   10829   -10568   -31335   -36073   -22170   -25003   -41585   -25630 
   13829    34418    28875     6172   -19577   -37690   -44247   -28766 
  -18054   -37853   -46178   -33130   -26673    -8403    13582     6264 
  -11498   -24756   -25419     3588    25282     9418    -9950    -9052 
    3858    16819    25144    31030    29393    11312   -19234   -41740 
  -43623   -34341   -17873    -3948   -14061   -28422   -22304   -12192 
   -6555    -6024   -14700   -27445   -45033   -56711   -45394   -27722 
  -23890   -23546   -17014   -16049   -29963   -43443   -36854    -9833 
   24939    39683    24357    15530    20087     8445     2532    26303 
   37822    14662    -9237   -27970   -55390   -64141   -51479   -55360 
  -57475   -36639   -32614   -38114   -12429    15429     4968   -31982 
  -64318   -72690   -46223    15889    66481    49375     5495     2543 
    8588   -10887   -19167   -10840    -9573   -12357   -24698   -39754 
  -32706   -16621   -16676   -31153   -44054   -55205   -60267   -31407 
    5925    12961    20805    36219    32255    30160    40050    29600 
   10701    22002    37402    15662   -14435   -24653   -47560   -83157 
  -92205   -86022   -89641   -92671   -87555   -84275   -69897   -26775 
    7528     7272     7094    18561    28592    43780    56570    54357 
   47234    35464    19077    12161    14790    21684    27133    16529 
  -18971   -62159   -85511   -97583  -109135   -98233   -67990   -43009 
  -24563   -10898      975    13735    10115    10588    48576    73991 
   54317    40812    40711    13946   -12894     9382    43247    40916 
   23203      511   -29803   -48371   -59049   -70968   -76999   -73553 
  -47740   -10678     8362    26802    53205    54808    35089    12056 
  -32160   -73571   -58711   -32005   -56159   -86317   -80214   -69165 
  -61387   -43457   -48573   -87064  -112619  -109821   -90747   -55183 
  -15628     7772    17925    25156    28625    41347    73845    95449 
   77927    45341    35625    47004    54020    51202    40794    11581 
  -13203   -10768   -25047   -56691   -54365   -41134   -50180   -52188 
  -46047   -57828   -50839    -6874    19353    22200    27963    12561 
  -33712   -65988   -63262   -53407   -33172     6268    26678     7137 
  -36201   -76219   -92286   -83352   -55167   -35064   -43008   -34525 
    6689    25397    21994    32874    33865     8362    -7590     6132 
   24347    27331    28737    22022   -18819   -64321   -80996   -92173 
  -98259   -85732   -71499   -58814   -46962   -22577    29226    61020 
   41845    14924    10519    20531    38696    55510    49790    26532 
   10401     2463     9300    36588    55478    53673    32681    -7251 
  -25756   -15330   -26986   -49706   -50718   -55984   -68960   -70683 
  -74023   -84833   -93656  -103513  -115478  -111720   -82398   -47114 
  -24371   -12843    -9157   -12208   -18464   -23742   -26100   -20687 
    2638    37835    64668    68154    43112    10431     1047    16115 
   36034    43285    24467   -10690   -32732   -35343   -24892    -7963 
   -5171   -16768   -26954   -41766   -50736   -22103    22608    37954 
   29255    10760    -6441    -2275    -1676   -21813   -31445   -43246 
  -74769   -87570   -78813   -74885   -63240   -39674   -16348    15356 
   49422    71285    86089    85117    75821    85383    87191    56074 
   15181   -24439   -48765   -36979   -12771    -8309   -13221    -6761 
    -815   -23977   -77649  -132754  -168300  -179050  -160278  -129215 
 -116555  -121965  -121322   -96806   -57679   -30338    -8348    29117 
   62151    76964    93700   108994   118550   143641   156947   109026 
   35368    -8546   -41397   -74811   -80382   -65693   -50886   -33673 
  -36460   -83082  -135586  -142473  -108451   -62872   -18759    20197 
   62639   115152   154012   157226   150504   170369   195034   191924 
  185611   189331   187431   196985   217790   208760   167179   112111 
   31724   -67446  -165369  -268745  -345233  -352730  -333945  -331235 
 -329629  -327980  -332779  -336705  -345656  -356936  -346751  -303370 
 -221939  -111663   -18933    43610   114605   183832   221858   248772 
  272761   288672   309550   326884   328591   322951   290979   207753 
  109069    32622   -38094  -103003  -140499  -161593  -179384  -187804 
 -192297  -212707  -246988  -267600  -263702  -227573  -146708   -55894 
    4636    49987    98730   143760   178489   204224   229124   253125 
  257972   232504   193437   164201   135956    85427    27896    -5179 
  -19715   -42176   -83482  -139857  -194103  -221652  -221221  -212316 
 -198128  -170513  -141861  -131042  -129118  -113501   -78281   -33806 
    6857    36817    48477    34261     7822    -5633      332    20929 
   46081    52348    33732    -2762   -55571   -88796   -82297   -79598 
  -96054  -105035   -91798   -51953     -706    40020    72104    97383 
   96390    67229    38489    21085     7831      843     3216    18306 
   44770    63195    61204    49399    23497   -22579   -52709   -49066 
  -28395    26163   110506   171620   201827   216108   197290   158289 
  135618   114063    71690    39386    28009    -8753   -88819  -179063 
 -256296  -312693  -341628  -355848  -369332  -373274  -364493  -345055 
 -297733  -221533  -146194   -81073   -14599    44967    87083   127915 
  186685   254486   307697   345317   371800   363133   316444   266886 
  215888   146394    76691    23146   -11858   -26649   -41241   -72251 
 -121110  -196680  -293199  -392556  -480624  -531475  -529266  -483296 
 -391853  -259671  -136007   -55498    -4068    22767    21117    15398 
   38691   105266   199818   292673   363867   401782   405322   381533 
  326687   241268   151213    80857    32838     2009   -21979   -49419 
  -73344   -88086  -105245  -126577  -145604  -162512  -174293  -183629 
 -189342  -170745  -124282   -68449   -12762    29518    43946    37560 
   19112    -6714   -22698   -23946   -36807   -70468   -91256   -88388 
 -100120  -148400  -212055  -261385  -289598  -305466  -304730  -282812 
 -240195  -165528   -74251    -7627    35425    78823   119302   159142 
  218198   295635   372060   431170   464782   469750   428795   334107 
  233395   161119    95716    59855    80679    90952    53959     9353 
  -45052  -124288  -198169  -249638  -288516  -313332  -322473  -328103 
 -332776  -328190  -312482  -278200  -210201  -113842   -20359    40882 
   74546   102646   113215    90214    63047    63372    95582   159073 
  239425   296928   301175   256689   183989   105384    36451   -19370 
  -50957   -46607   -11165    42139    77572    58457   -13893  -129327 
 -255152  -335092  -360135  -331132  -236399  -113234   -13121    37332 
   37458    11604   -11941     1048    49735    97001   144054   195027 
  218085   201809   170992   144961   117293    73860     6443   -73381 
 -136328  -180247  -221251  -244072  -232259  -205473  -186268  -178281 
 -173878  -163600  -145552  -120872   -94854   -70856   -44072   -18256 
    4733    27462    42748    55299    79334   113232   137727   135761 
  124669   123237   105685    68635    56592    72257    82884    83550 
   64763     5262   -75126  -140208  -192305  -238205  -262406  -268700 
 -270784  -264567  -254993  -252423  -240317  -192948  -120762   -60787 
  -21601    24062    86340   136080   168077   217738   284606   342506 
  385926   400223   378545   346510   307504   240584   156459    87761 
   45059     7161   -41482   -84613  -126000  -189681  -258323  -310430 
 -355370  -387225  -383422  -348983  -307737  -256155  -175923   -78400 
    2452    52280    93838   139480   174449   211146   264398   309622 
  324439   285976   166977    11214   -96755  -146480  -160529  -138385 
 -106109   -77072   -42490   -44235   -99760  -162413  -216493  -262554 
 -278587  -253962  -187549   -97452   -19663    46304   110473   147576 
  145986   128171   113669   108048   115699   134864   150335   162447 
  172208   137926    43990   -51714  -110360  -146258  -162619  -148606 
 -112276   -75201   -58421   -62669   -67529   -68359   -70481   -52766 
    1787    66972   114935   152054   178963   176099   147713   121157 
  112284   122186   140734   154459   159661   153731   133488   103219 
   63234    16268   -26219   -73543  -138485  -197725  -229734  -247299 
 -261865  -261746  -237646  -200527  -164185  -136259  -124532  -119496 
  -92391   -42286     4748    57310   134711   207918   251873   275645 
  265905   213516   154789   110974    69501    21336   -31941   -73478 
  -92358  -113160  -160387  -220613  -267173  -292083  -302252  -305374 
 -305317  -298169  -266935  -194628   -98908   -25385    13168    42346 
   77255   122817   186208   259356   321224   355145   359179   341171 
  301739   246255   194236   144902    76310   -16879  -121303  -211145 
 -259909  -271775  -275096  -288514  -307859  -320370  -322714  -315231 
 -301499  -299267  -314602  -319543  -289949  -226800  -136319   -37732 
   47071   129243   219091   293947   341252   370858   384791   370487 
  318414   241494   166977   121068   110050   116037   120874   102112 
   61766    42593    43549    31119    10543   -20378   -75712  -140303 
 -200409  -237587  -216054  -133718   -24660    81158   166134   208136 
  175279    74537   -36708  -124841  -190559  -224736  -222267  -195915 
 -161579  -138024  -139792  -170866  -224992  -271147  -275981  -240578 
 -185056  -131374   -95398   -75716   -68958   -70573   -56386      -10 
   92393   182384   260878   355387   444602   488180   499188   493082 
  460336   389253   283959   174886    71064   -38946  -125632  -163515 
 -183727  -213690  -252323  -306815  -373485  -423361  -442461  -435166 
 -405684  -371368  -352658  -340773  -311410  -254023  -175527   -99387 
  -37653    25377    93371   160136   233671   303286   342531   353666 
  360357   378220   402177   414565   411228   384829   305504   176164 
   39166   -84641  -184607  -244522  -269251  -280107  -289541  -279304 
 -236378  -187527  -151696  -135992  -154356  -185350  -179703  -124388 
  -55595   -10337    14244    40273    61282    53444    22540   -12243 
  -41043   -45082   -20015    11990    42105    75138   106962   127077 
  129478   112673    66546    -7312   -71076   -98151   -95237   -63920 
  -18167     9798    15525     7105   -12000   -19429    -1390    21662 
   31679    29292    24931    36692    58161    60269    39341     8887 
  -14984   -15620    -5168     7027    27853    16684   -56765  -142528 
 -204320  -249682  -267326  -253988  -234930  -208921  -160889  -107095 
  -53972    10874    71553   107980   126945   130817   113445    92864 
   92539   111303   146418   197731   242957   255273   231128   181774 
  121377    59685    -8144   -85345  -151412  -182341  -171839  -125693 
  -72403   -51747   -66895   -93161  -114920  -115709   -86576   -48206 
  -21732   -13600   -23957   -39742   -45019   -31852    -3997    22826 
   38132    40398    33294    20939    -1892   -29965   -43232   -46307 
  -62916   -95424  -128899  -147160  -141060  -123551  -114301  -113004 
 -102822   -68256   -13051    50969   116325   157574   153593   115398 
   54444   -16201   -69938   -75786   -14095    72073   115691   117967 
   96453    33741   -56178  -120855  -139244  -127633  -102069   -69008 
  -30266     4205    18899    18787    17428     7848   -16491   -42242 
