Origin Time       2021/02/13 23:08:00
Lat.              37.7
Long.             141.8
Depth. (km)       60
Mag.              7.1
Station Code      FKSH12
Station Lat.      37.2169
Station Long.     140.5703
Station Height(m) 470
Record Time       2021/02/13 23:08:09
Sampling Freq(Hz) 100Hz
Duration Time(s)  227
Dir.              6
Scale Factor      7845(gal)/8223790
Max. Acc. (gal)   159.503
Last Correction   2021/02/13 23:08:09
Memo.             
[...]
  -16700   -37713   -85189   -73070   -36078   -36444   -40042   -16217 
  -22574   -66293   -46533     2343   -29941   -74484   -61017   -39086 
  -41951   -56471   -51349   -37351   -36234   -20491   -14897   -52586 
  -68188   -38217   -34242   -72673   -87050   -55980   -39070   -49253 
  -34204    -8866   -19957   -29046   -10886   -24289   -62622   -60771 
  -51399   -79417   -89270   -46963   -17105   -36246   -50593   -34518 
  -16127   -20834   -57005   -72362   -35637   -13859   -36323   -50716 
  -39457   -41048   -58627   -56448   -42502   -43213   -49624   -48667 
  -40135   -21805   -10034   -37110   -74268   -60223   -24746   -29578 
  -56840   -56851   -27812   -34441   -82459   -61659    14431    -8640 
 -102006   -86269     8822    10404   -60237   -90035   -66980    -9987 
   16753   -42735   -91509   -34506    25089   -17591   -60573   -40456 
  -57346   -86778   -44613   -26190   -78231   -86844   -25677    10012 
  -25178   -71914   -64531   -28803   -35266   -80056   -83425   -28810 
   -7855   -44122   -38672     3364   -22941   -81445   -73892   -28367 
  -19182   -55667   -82485   -38052    26751     1385   -69267   -70773 
  -38512   -43325   -55385   -60293   -70664   -46584   -12617   -37577 
  -65437   -35726   -11022   -48568   -90300   -55155     1819   -28737 
  -95172   -65763     1518   -22782   -59965   -33736   -30796   -50237 
  -29833   -22771   -58534   -69219   -40833   -25623   -34770   -52556 
  -58488   -37895   -31391   -49601   -48378   -40429   -56158   -67494 
  -32436     1374   -37127   -66996   -23820    -5846   -48219   -79023 
  -64308   -26790   -25132   -63285   -65763   -36306   -33122   -20313 
    4780   -33767   -77319   -49053   -37582   -74702   -75740   -37586 
  -37737   -81357   -73584    -8839     5509   -45108   -76789   -38210 
    4256   -41300   -97768   -58830    -2570   -31396   -77791   -49831 
  -25051   -60354   -57559   -23723   -55880   -81310   -16582    17848 
  -57704   -90460    -5760    32189   -37193   -85267   -66546   -34960 
  -23107   -35415   -51472   -50261   -31361   -13705   -26310   -59977 
  -73120   -59591   -55254   -74912   -82568   -62221   -54271   -54216 
  -20166     4390   -18534   -39911   -32151    -5713    -3920   -61407 
 -101989   -65668   -24489   -49855   -94300   -62884     2284   -14373 
  -58568   -17254    28942   -28524   -81567   -38092   -18550   -88344 
 -132661   -77957   -11769   -31935   -82502   -53711    25986    40190 
   -7406   -20090   -16993   -63088   -85966   -36811   -33673  -100970 
  -96909   -24321    -6852   -38614   -64372   -69259   -28038     -808 
  -64828  -115067   -67911   -18403   -30573   -64368   -51781     2606 
   -4785   -66216   -57553    -7646   -38209  -102863   -72631     5111 
   -1687   -49489   -44101   -31515   -46118   -58252   -64243   -45585 
  -18125   -45405   -83794   -37485    34196     1652   -65612   -32015 
    9949   -46685  -107015   -99762   -72698   -41002    -5780   -19457 
  -47097    -3235    13705   -75539  -101017   -23098   -28094   -96749 
  -82210   -30311   -31645   -50394   -32370   -13544   -33840   -47571 
  -52992   -86564   -82956   -21928     2775   -42697   -89950   -53160 
   13541   -33646  -118948   -67890    17953   -26246   -95800   -70058 
   -9998    13644   -13165   -44710   -29585    -7982   -22158   -63963 
 -100503   -87732   -65341   -75172   -55271   -13581   -26734   -54770 
  -25146    16224    -3272   -53793   -78386   -72588   -45218   -35785 
  -61277   -46784    -6559   -38703   -79764   -46585   -26960   -62406 
  -55134     6008     6952   -54284   -63332   -25994   -36975   -87041 
  -69584     4387   -20198   -90282   -42136     3005   -55224   -80369 
  -43696   -30685   -42886   -47888   -40690   -28254   -23151   -34762 
  -40254   -26318   -31506   -53129   -58006   -73248   -97476   -80365 
  -44678   -36389   -30457   -19294   -31131   -30994      904   -12424 
  -77133   -81916   -29806   -33763   -75849   -65545   -17323     8266 
   -4869   -32779   -53727   -73413   -85429   -68270   -46126   -54978 
  -65016   -43519   -24466   -39340   -41577    11800    28941   -56022 
 -108166   -39163    15735   -49337  -105317   -46043    -3073   -46518 
  -65745   -29826   -31698   -95871   -92695     6403    14274   -88797 
  -97213    -9015    -2829   -61125   -65254   -39891   -25745   -15512 
  -33949   -59378   -39506   -17710   -45165   -78584   -66542   -22736 
  -11907   -52312   -63462   -34173   -45045   -65090   -29597    -7393 
  -66640  -115326   -39216    46458   -26576  -126831   -69049    18042 
  -31021  -110728   -82208    -7473    -7570   -58517   -66271   -43609 
  -19776    10995    -6706   -60187   -50917   -13583   -44929   -95586 
  -75469   -38283   -41061   -29419   -21037   -46488   -31261     5697 
   -6577   -33095   -42685   -48776   -63177   -87759   -88776   -53640 
  -37174   -60178   -78337   -67273   -30539     4926    -6245   -42579 
  -40043   -26138   -47085   -52975   -34134   -35888   -43276   -54847 
  -62604   -26617   -15600   -86576  -106604    -9416    27411   -65554 
 -106652   -39352   -12787   -55574   -56786   -24439   -31297   -43845 
  -38693   -44248   -40606   -24879   -31329   -60015   -98516   -99914 
  -37172    -7291   -44786   -50630   -21240   -23148   -19156    15352 
  -13140   -91358   -73595     2772   -31915  -130779   -97437    16856 
   -3447   -92276   -68057     1476    -5935   -66403   -80782   -16167 
   26975    -5502   -43534   -57426   -67832   -61543   -48400   -55611 
  -48870   -30716   -47143   -52779   -19237   -13976   -54143   -70629 
  -21914     8883   -58577   -95666    -6160    20903   -99706  -142707 
  -38827    -1398   -84879  -104576   -17463    11921   -43987   -61847 
  -44848   -51534   -59039   -58924   -56926   -31047    -7867   -28765 
  -54891   -41037    -7736    -2177   -29155   -45744   -55860   -64976 
  -40663   -31460   -74557  -104431   -69265     7966    26779   -44443 
  -77527   -21847     1398   -55219   -86038   -64945   -53295   -34650 
  -26582   -46926   -28705   -13975   -39706   -31887   -13950   -41478 
  -81931   -77900   -41052   -54569   -88666   -60293   -26287   -38997 
  -56255   -40848    -2623    -4941   -67126   -95318   -35371    16483 
  -24466   -72036   -31712    13987   -19233   -63004   -67915   -62482 
  -62526   -78086   -73993   -31704   -16320   -30723   -40578   -55783 
  -55474   -28285   -19319   -52732   -76025   -44564   -22638   -47424 
  -67316   -76898   -57608     6473    17566   -35241   -41908   -14602 
  -22786   -41170   -50068   -77607  -101773   -85953   -59431   -56454 
  -65944   -51383   -15732   -11919   -13898     7418   -28248   -88217 
  -62401   -10872   -13359   -49727   -83663   -61740     5314     7738 
  -70453   -85577     2317    18659   -86999  -134981   -55435    16336 
  -19935   -83766   -67246   -24090   -27577   -37080   -32930   -35793 
  -34812   -22227   -15924   -41683   -68778   -51563   -40463   -51949 
  -29845   -19174   -64729   -82582   -37199   -16328   -62707  -101283 
  -62808     7863     8168   -54105   -61915   -13128    -9294   -47393 
  -62272   -54584   -64196   -84709   -73639   -40288   -23577   -31627 
  -29886    -2775   -12286   -53283   -50561   -27234   -25698   -40714 
  -73753   -98641   -70636   -16054   -14193   -58372   -67938   -33910 
  -12766   -26697   -42827   -38929   -29756   -37048   -65929   -68358 
  -39087   -59958   -97910   -49519    16772   -13961   -66847   -25061 
   26692   -35303  -101268   -38209    13065   -61627  -100917   -46604 
  -34735   -62587   -57192   -33733    -7057     8029   -13807   -62490 
 -102373   -83901    -9053    19214   -53924  -112772   -48388    34651 
  -10609   -95295   -73562   -21421   -45713   -92468   -79722    -9517 
   11685   -64824   -81136     5078     3176   -81190   -85652   -56801 
  -62980   -20822    39931     1985   -54483   -16707     7338   -70779 
 -131739   -84742   -22574   -50275   -88537   -24834    24912   -51364 
  -88832    17636    65469   -62255  -148909   -57831    18562   -47208 
 -108149   -47734    42406    22977   -83740  -110768   -23876    12245 
  -58241  -105470   -67798   -29874   -46039   -53082   -17131    12244 
  -11456   -83196  -103874   -46359   -47229  -103145   -68787     7114 
  -12600   -62754   -32555    15488   -18659  -103455  -102633   -12978 
  -15268   -83666   -33045    55517    23355   -56991   -48471     8201 
  -35090  -143344  -157724   -83737   -32077   -47835   -66617   -10500 
   34663   -24474   -78252   -39133     1823   -42022  -119967  -116341 
  -36259   -13941   -57157   -40014    21478    26466    -5707   -33951 
  -46094   -31646   -50901  -105015   -97031   -54730   -56027   -60752 
  -46872   -39121   -17406    -5589   -35137   -61861   -67637   -56889 
  -60466   -94837   -66684     5668     7082   -23453   -40721   -45631 
  -25184   -50247  -123880  -125896   -53504   -11770   -19480   -21514 
  -25656   -43357   -51528   -76983   -87247   -50610   -47322   -68034 
  -50463   -13668      768   -38203   -64260   -18589    -9813   -69643 
  -81963   -55320   -63876   -68145   -49196   -59830   -72542   -23310 
   39757    29496   -12923     1237    11275   -46722   -88493   -86490 
  -83107   -67872   -49628   -30578    -9174   -15512    -2633    45873 
   23392   -66175   -86722   -28190   -13027   -68058   -78950    -3315 
   28177   -26582   -32131     9283     5910    -6824   -28436   -62239 
  -44599   -25897   -49022   -41270    -5301    -6272   -37806   -62766 
  -68299   -54043   -55522   -95832  -109337   -66657   -39237   -43641 
  -31635   -34936   -97852  -116282   -33813   -23467  -134052  -154626 
  -43341     8083   -52142   -83089   -25955     6043   -59787  -127990 
 -102154   -43854   -58479  -110124   -94270   -17672    25280    -9694 
  -43060     2727    40875     9054    -8139   -18904   -70069   -77018 
  -40799   -56555   -85831   -66931   -35171   -21814   -24482   -35530 
  -57262   -88393   -88873   -56617   -55998   -72891   -49306   -28610 
  -35095   -10395    20993   -18640   -74929   -34523    37895    11772 
  -34861     7638    54014    17005   -29743    -3681    27900    -8020 
  -46793   -50340   -73722  -113698  -107183   -55397   -29689   -62715 
  -90999   -48790     7898   -18918   -88943  -102285   -73657   -66472 
  -99863  -121356   -58536     5069   -34010   -83721   -71504   -44238 
  -29354   -42776   -63560   -34776     3411   -12800   -32771   -20540 
  -32809   -77349   -87772   -58931   -65072   -99507   -58353    24977 
    6339   -75924   -81090   -28236   -17285   -54631   -75293   -56853 
  -42299   -57090   -85232   -86247   -34662    -6678   -43702   -23568 
   64407    77002    31772    19020    15682     1379   -27718   -71471 
  -85982   -75236   -65101   -29305     8186     3067    -1240    12553 
     668   -21170   -28885   -41912   -52123   -59424   -89614  -112843 
 -101488   -85087   -52868    -4843    -8278   -43006   -38634   -27742 
  -45933   -47740   -29338   -47129   -75783   -71174   -83465  -111792 
  -96592   -82732  -134763  -193432  -165265   -80742   -43090   -49839 
  -27571    22967    37397    -7986   -42034   -26021   -33647   -75780 
  -83253   -69535   -78938   -82134   -37434    19923    19269   -15916 
   -9923     2436   -46039   -92911   -66348   -27484   -43568   -67439 
  -34481    24113    27272   -25760   -46880   -17932   -10574   -40764 
  -81654   -98157   -49831   -14990   -69822   -90304   -19377   -14715 
 -111033  -148035   -87918   -57248   -80455   -64665   -11551    11956 
   14551    39757    71737    53152    -2916   -32398   -40135   -52659 
  -77183  -118670  -121435   -60133   -11271   -12162   -33625   -46554 
  -51169   -73610   -95350   -80616   -52286   -40903   -34366    -8787 
   26869    38997    24283     3169   -27785   -73615   -91910   -46044 
   -2812   -27444   -44185     3299    26181   -34600   -93779   -78243 
  -69839  -135444  -172999  -119315   -56867   -34392   -30618   -17697 
   14335     1098   -86922  -143424  -106249   -42489   -37000   -90864 
  -90096    23467   117625    71182   -30453   -52677   -26038   -44367 
  -96685  -131882  -136776  -102396   -42121   -14177   -34997   -42719 
    5177    58519    21226   -94975  -140983   -62357     2209   -60129 
 -153594  -117493    -9244    -5170   -66623   -39140    33686    20102 
  -40489   -46769   -21705   -21473   -34441   -41789   -44435   -39386 
  -28609   -16773   -16028   -37307   -50623   -27912     3109     7689 
  -11569   -21050    21600    87420    60420   -49678   -71331    -6798 
  -27384  -119595  -146240  -102321   -66912   -77182  -101622   -81054 
  -23178      573   -27288   -69353  -111789  -124254   -72970   -22199 
  -44698   -94694  -107161   -86798   -50430   -19269    -8401    12772 
   35120     8878   -30222   -25766   -23237   -70575  -100557   -54670 
   -4720   -14442   -37235   -34720   -41982   -72207   -79933   -58294 
  -56583   -85201   -95438   -68546   -50437   -47335   -29282   -26707 
  -39106    -9432    23206    -8209   -37170    -5941    13058    -5969 
    5648    38064    13630   -40535   -50758   -60840  -105117  -122061 
 -111242  -107600   -78683   -21190    -1161   -33443   -52493   -26573 
  -10644   -52575  -105165  -102782   -68427   -56643   -58766   -40875 
  -17201   -16100   -20480    -7240      561   -17122   -30867   -29667 
  -38788   -46159   -45671   -68937   -87627   -52795   -12683   -40077 
  -97433   -81746    -1121    10014   -92819  -165991  -112976   -59751 
 -102413  -108957     2234    69797    21481    36915   124310    70340 
  -77295   -96417   -27892   -42460  -127068  -166565  -112495   -10562 
   44536    25045    -8583   -16645   -26457   -62953  -101887  -146491 
 -187361  -131198   -13041     1772   -61231   -61288   -24599   -30519 
  -38681   -15458   -13478   -44631   -63984   -64519   -64758   -69692 
  -61547   -21432     9153   -20434   -68019   -70156   -49590   -52239 
  -76835  -115315  -140038   -97205   -30744   -49650  -113725   -89631 
    9420    63309    42013    -2542   -36694   -41947   -38676   -62891 
  -71217   -31749     5485    17668    37868    68728    56430      -71 
  -36926   -64066  -122088  -159601  -135822  -114979  -123068   -94431 
  -28170     9818     7732    -5697   -25393   -56253   -72839   -58761 
  -42055   -40328   -38777   -21127     2029     -430   -16897   -12879 
   -9452   -25068   -37484   -55471   -84138   -89464   -67182   -47015 
  -49208   -49894   -19261     5491   -15341   -63073   -84678   -57801 
  -55476  -105086  -108151   -43318     7400    13678    -1277    -6084 
   14382    26765   -19615   -95963  -102902   -59543   -74514  -102396 
  -58611   -15769   -32923   -49647   -33068   -47737  -123635  -167093 
 -119272   -55741   -45527   -54768   -16947    54058    88233    68747 
   27812     8391    18289     2562   -53739   -96967   -96215   -82487 
 -100808  -105219   -38781    15064   -17682   -65200   -54789   -35252 
  -65848   -77168   -22522   -15025   -96232  -132329   -84568   -69372 
 -102822   -98136   -55850   -20632    10704    38331    37018    14324 
   15333    31479     5012   -47841   -55302   -22702   -18999   -52509 
  -68605   -56066   -42643   -16519    14337   -16433   -87123   -87879 
  -24906   -20811   -96384  -127670   -71751   -23033   -33791   -87843 
 -123655   -87168   -42676   -40420   -35838   -19018    -4758     5053 
   -5456   -43478   -77376   -73615   -64149   -69202   -52914   -33837 
  -15870    45738    72650   -20981  -115489   -87745   -41940  -107365 
 -181188  -106085    29732    44024   -26033   -44487   -10440    -1767 
  -51478   -98046   -74135   -26342   -26905   -62422   -80520   -72031 
  -68080   -70434   -64551   -62240   -47457     1926    39630    22621 
  -10386      534    11205   -62802  -130570   -76134   -10883   -33220 
  -49950   -23031   -26919   -53734   -39282    -8355   -25085   -67016 
  -65693   -28240   -15176   -38007   -49692   -22816      105   -29246 
  -78445   -77391   -40304   -50986  -116041  -138591   -65329    11700 
   -4553   -54953   -50826   -15172    -8745   -41812   -71891   -69685 
  -58730   -67792   -86366   -68773   -11661    13277   -13432   -24563 
   -1125    15911     1779   -49118   -95536   -84790   -59891   -74929 
  -74074   -10972    34391    -2216   -46970   -36039   -18801   -44065 
  -90614  -117539  -110752   -77031   -37161   -15245      -33    16622 
    8372    -9603   -10651   -32076   -82674  -116490  -121243  -100823 
  -73768   -62100   -20853    48255    43254   -34609   -69099   -40358 
  -37166   -83458  -104696   -68697   -21419     2671    -6258   -39236 
  -47480   -18636   -19481   -57192   -59574   -29566   -16070   -20066 
  -37547   -64652   -72968   -53577   -42685   -64824   -84470   -63198 
  -15687    16632    -2366   -56571   -77923   -52758   -35842   -59701 
  -92338   -67076    -3927     3052   -32136   -37050   -20803   -13680 
  -25644   -61950   -81286   -44558    -6686   -19240   -48824   -55922 
  -25475    11340   -17710   -86328   -90852   -49100   -48150   -75415 
  -77155   -53484   -34807   -35463   -48072   -69425   -83631   -61125 
  -38946   -77916  -118951   -79840   -21859   -15087    -5609    27631 
    9998   -48690   -66652   -60883   -80009   -96880   -74601   -21308 
   10627   -16498   -48612   -23020    13851      711   -30370   -38306 
  -40690   -69665  -107468   -96024   -60729   -71451   -89980   -64515 
  -29434   -19985   -27679   -25976   -11225   -12906   -30817   -31622 
  -23141   -28047   -36753   -32906    -8869     2361   -26341   -42658 
  -14825     1121   -37210   -86535   -84434   -38630   -19480   -72207 
 -123606   -80877   -19454   -48151   -98076   -70156    -7885     7404 
  -29482   -66158   -48620    -1883   -11557   -66399   -68223   -15958 
    2593   -28005   -48008   -32528    -9597   -18517   -68729  -100603 
  -73622   -55495   -76140   -78811   -76071   -95204   -80708   -36926 
  -49989   -93588   -69515   -12285    -5443   -37233   -70114   -81691 
  -65688   -48594   -48988   -62715   -55125     2450    44763    18670 
   -2563    16754     4905   -43432   -66976   -65207   -58028   -49952 
  -60523   -77286   -61014   -25787   -11492   -15155   -24868   -43222 
  -52581   -54090   -80152  -109543   -98595   -68110   -43826   -20646 
  -15481   -24193     1404    43193    21493   -48060   -71165   -46519 
  -48184   -77137   -74733   -46461   -43035   -44527   -11566     9023 
  -26771   -58838   -27247     4106   -49013  -131876  -126175   -42291 
  -14138   -71518   -85795   -18620    20066   -11884   -45320   -43785 
  -39746   -48834   -54465   -49223   -37100   -31375   -29176   -15273 
   -9321   -31511   -57986   -63513   -59887   -58692   -57921   -67284 
  -69714   -41987   -15850   -15472   -34819   -64944   -62399   -19827 
  -10235   -47017   -70208   -67475   -56826   -42338   -40190   -65132 
  -90578   -67305   -13201    -7377   -48898   -69715   -66097   -71514 
  -83843   -83539   -56879   -18442    -7277   -15099   -10377   -19688 
  -53735   -63504   -39714   -29700   -46055   -39741     2732    20151 
  -12542   -44919   -42060   -35098   -62945   -94381   -72139   -15815 
   -8364   -57798   -61560   -21011   -52586  -107808   -80496   -40722 
  -44833   -47308   -39472   -21250     8973    20116    16719     6793 
  -36522   -83687   -86475   -62271   -39874   -46861   -76169   -57281 
