Origin Time       2021/02/13 23:08:00
Lat.              37.7
Long.             141.8
Depth. (km)       60
Mag.              7.1
Station Code      FKSH11
Station Lat.      37.2006
Station Long.     140.3386
Station Height(m) 170.5
Record Time       2021/02/13 23:08:12
Sampling Freq(Hz) 100Hz
Duration Time(s)  300
Dir.              3
Scale Factor      2942(gal)/8224139
Max. Acc. (gal)   63.660
Last Correction   2021/02/13 23:08:12
Memo.             
[...]
   -8283     5467    -5206   -28456   -31077     -198    19596     3561 
  -22954   -50429   -79218   -86994   -63173   -20754    24310    41083 
   17593   -10347   -26061   -42700   -55891   -55152   -58920   -77900 
  -58479    12349    54751    52336    50024    38599     2010   -35055 
  -46450   -36408   -23344   -14688   -22813   -39376   -32551   -17587 
  -14261   -13161   -28655   -40909   -19827    -9398   -17967   -14717 
  -16229   -26477   -43433   -65406   -55660   -25114   -19002   -29172 
  -42079   -52315   -44446   -35569   -33255   -24131   -30473   -44215 
  -28152   -15778   -39388   -58773   -51015   -36821   -21035     5624 
   30416    26651    -2624   -29149   -48682   -66906   -67101   -49181 
  -51624   -82579   -76064    -1694    65002    62351    10041   -34001 
  -38865   -41454   -50962   -23199    19257    23205    -2249   -30312 
  -38780   -20525   -20965   -57357   -70942   -38939    -9182    -8803 
  -17255    -6143    22906    15508   -44948   -83801   -70525   -43509 
  -27005   -35627   -49365   -40747   -35874   -36833   -21392   -15940 
  -32329   -44336   -45850   -40788   -31923   -28969   -24977   -20656 
  -38603   -42730    -1683    14902    -5697   -11206   -22353   -38462 
  -40860   -58143   -67707   -48853   -35095   -18439     6303    10914 
   11469    17046      542   -17670   -21964   -42757   -65456   -61392 
  -32051    11146    20582    -2948      672     5076   -19427   -22161 
   -9045   -27730   -63336   -75458   -45442     -342    10602     4037 
    7445   -12194   -36178   -20964    -7958   -20621   -30842   -34639 
  -30669   -12868     7928     6534   -23872   -42780   -23082     4503 
    4834    -8926    -5208     1007   -10670    -7044    17194     3626 
  -58117  -102922   -87129   -42051   -24391   -20092    21446    65990 
   47636   -11480   -44523   -47791   -66645   -96863   -89796   -51125 
  -39862   -47690   -19070     9998    -4777   -24582   -31739   -38967 
  -51236   -69687   -69045   -42977   -24005   -13158     5597    10157 
  -13024   -40601   -54896   -53616   -51499   -59067   -57190   -42773 
  -36339   -32049    -2165    41642    45045    -1827   -50305   -63562 
  -53214   -51556   -49049   -22991     2559     1848    -6158     2910 
    6427   -19076   -47160   -47376   -25975   -21915   -34738   -16344 
    5949   -17718   -38786   -24547   -22289   -39614   -35031    -3011 
   21366     4465   -30754   -24003     3838   -19588   -72006   -87544 
  -70052   -41775   -10436     6689    12132    14635     1698   -24125 
  -44788   -54535   -48546   -27233   -12430   -11642    -9580    -6844 
   -8054   -19907   -52231   -73623   -61106   -46053   -36054   -21325 
  -15068    -9177     1237    -1946   -16270   -31521   -40034   -33824 
  -17744     2454    16637     3430   -35253   -53295   -22027     3581 
  -26276   -47418    -3046    31274    -2286   -32185    -7816    15585 
   -6399   -41152   -45357   -21253     3383    15068     9475   -15221 
  -40702   -54943   -70862   -82309   -59032   -15014     1448    -7209 
   -8460     8517    17122   -21766   -66511   -71865   -83558   -93424 
  -60359   -23278     5185    23799    -1796   -31801   -28929   -35476 
  -52230   -56216   -57192   -35399    -6509    -7149    10889    28958 
  -13409   -45162   -37134   -38928   -40629   -39637   -27388     4275 
   -6161   -39274   -28368   -29042   -52587   -31708      324   -10592 
  -51501   -70166   -21460    27805     -714   -45864   -44865   -35873 
  -44811   -49245   -45520   -29428    -8733   -16779   -31696   -37253 
  -44447   -30669   -22729   -34133   -17501     2506    -4342   -12399 
  -23718   -36583   -25721    -1131    10431    -1638   -43922   -85737 
  -69448   -13126    11676    -5449   -24208   -30060   -35603   -35406 
  -15503     6817     3009   -21978   -38512   -34191   -20556   -17101 
  -23685    -9670     5819   -21540   -39429   -10625     9903    10427 
    7561    -5078    -7322    -9699   -41045   -43702     1632    17802 
   -3395   -23816   -29658   -21510   -42635   -84009   -78220   -43050 
  -26071   -19206    -5929      642   -29482   -69290   -60239   -33562 
  -43244   -65074   -74216   -65225   -31860    -5196     8438    15481 
  -16035   -41189   -17321   -10006   -12663    14262    14719   -22050 
  -44771   -35507   -14677   -20119   -38950   -28664    -2174     5562 
    2458    15267    16915   -17099   -40760   -36346   -32537   -40343 
  -47316   -33262   -21273   -24696    -5606     4961   -38901   -75887 
  -62893   -36984   -19791   -14598   -17593   -14092   -22654   -51946 
  -58762   -44658   -47750   -57134   -73116   -83747   -38867    11151 
    6489     2246    10785    -7857   -30813   -23603     1347     5479 
  -20200   -45376   -63266   -86094   -88824   -46236    -2286    -1815 
  -14787   -20105   -25987   -18897    -6856    -6531   -17496   -39598 
  -45725   -24822    -1328    16374    18607     -776   -31090   -59622 
  -52461     2457    41355    16644   -36587   -75479   -76419   -38345 
   -6660    -6376   -13824   -14474   -12186    -4766    12046    19735 
   -2740   -33682   -37735   -27368   -22964    -3657    11935   -20704 
  -54753   -36162   -12291   -25914   -45412   -38118   -11830    -7284 
  -27859   -20717    -9980   -35986   -34719    -6111   -24393   -56668 
  -39367     1556     9979   -25683   -61136   -59363   -44857   -49179 
  -61323   -59730   -42876   -24271   -13861    -3127    12942     9782 
  -19766   -45310   -48288   -34045   -23460   -19684   -13786   -24432 
  -35476   -13734     6619   -11439   -47530   -57694   -34898   -25659 
  -50079   -64605   -42018   -14512    -3433     6975    13014    11372 
    7581   -22991   -69098   -87664   -83301   -63990   -34983   -16389 
   -1846    10686     7784    -3689   -12309   -16802   -27171   -55169 
  -70167   -34924     7942     6390   -21042   -32051   -12915   -15453 
  -70683  -100882   -60517   -19615   -21741   -12831    17358     4972 
  -36155   -51096   -35040    -8985    -9499   -18153     -114    -7827 
  -43040   -33133    -2678    -6224   -18559   -10930     6374     -168 
  -25469    -3812    39889    19784   -21516   -22426   -13159   -21703 
  -36113   -19697     7175    -7017   -27140   -29181   -35376   -38300 
  -38087   -35104   -29658   -40077   -50569   -50664   -66433   -70313 
  -33293   -18435   -43480   -48672   -30041   -10083   -14327   -54816 
  -68527   -41885   -35397   -36080   -12681     3720    -5251   -10477 
    7356    12764   -19846   -41041   -19084    -2621   -22986   -48913 
  -42080   -12738   -19878   -54888   -48242   -18060     -899     6556 
   -9007   -17336    -3435    -2347    -5630   -16121   -23071    -3207 
  -12266   -39395   -31761   -33120   -31918    -4677   -11129   -28907 
  -24278   -34944   -37894   -21813   -20912   -11901    -8973   -51282 
  -76620   -53617   -36423   -30333   -23955   -27514   -23106   -19407 
  -32452   -28409   -18719   -29570   -28883   -25203   -45040   -62222 
  -65674   -60551   -44351   -32356   -22599    -2813     6494      -21 
   -5570    -7959     6841    27518    -3855   -72970  -105501   -80218 
  -21223     9576   -12588   -15438     9678     6389    -6853   -10145 
  -11168    -7381   -15583   -16896     4116     3433   -12050   -27828 
  -64760   -84730   -69272   -52443   -33654   -21824   -29654   -27893 
  -10697    11237    35052    28691   -11126   -37185   -41227   -44155 
  -38134   -20259    -8946   -20406   -46851   -43884   -12783    -6372 
  -12758   -11052   -18432   -13004     2644    -5320   -14531    -8055 
    4043     8147   -18014   -41500   -25008   -10713   -33961   -56214 
  -35460   -11240   -23581   -35777   -34817   -36167   -42408   -70904 
  -90188   -61202   -29802   -13635     4089     1719    -7433   -11165 
  -16468    -4590   -10179   -48718   -64736   -54355   -36999   -24962 
  -25049   -12276    -6586   -29628   -45750   -63224   -76378   -33636 
   17163    31475    47121    30553   -29644   -55525   -36404    -6826 
   -1594   -34449   -55228   -59247   -75458   -75076   -49964   -20262 
   -4969   -27608   -44382   -14756     4795    -4661   -12737   -35649 
  -64370   -76675   -82425   -56801     2863    42226    42665    24459 
    6426    -1175    -8965   -28555   -33556   -15583   -10251    -7767 
    8110     8224    -7835   -21016   -23141   -14731   -26401   -50593 
  -28649     6813   -13251   -40694   -32238   -27229   -32387   -37543 
  -43684   -34682   -30235   -32142    -5194    -1100   -49315   -72777 
  -59379   -51742   -49221   -42337   -22632    -6683   -14233   -10723 
    4958    -3662   -13926   -11754   -28306   -61398   -77961   -53052 
   -4413    15711     5871    -2292    -8843    -9234     2689     9315 
    6466     6355     5166   -17402   -53735   -52578    -8139    13879 
   -9329   -32212   -26994   -17864   -25822   -28867   -18149   -15826 
  -19056    -9410    -3445   -23542   -45901   -50780   -58853   -68281 
  -55590   -33091   -20005   -12627    -9794    -2521    13124     8522 
  -16235   -28458   -37929   -58787   -61076   -43768   -43144   -57025 
  -66621   -63709   -43144   -29654   -26901   -13567   -22993   -59775 
  -72208   -68454   -64417   -47108   -35249   -37677   -52278   -74421 
  -77301   -62361   -46337   -38487   -45360   -34427    -3902   -15924 
  -55364   -61155   -42369   -13450     2320    -7234     3268    23471 
   33774    42718    13517   -35139   -54321   -50935   -29879    -8924 
     365    25505    60883    67142    28694   -21610   -24483     3971 
  -14108   -58421   -54151   -23508   -18387   -20536     2154    24730 
   12798      -40    15691    14326   -30107   -63992   -38988     8529 
   25542    19688    12872    12725     3974   -27972   -42277   -21169 
   -6134   -21421   -56033   -56253    -3117    29775     5270   -44914 
  -79091   -64628   -26688      569    11587     -858    -8537   -12712 
  -46294   -58344   -37687   -46634   -57438   -43094   -38372   -29832 
  -10557     5190    34298    38560   -18985   -53073   -20127    10617 
   21965    23760     9256    -5984   -39806   -72088   -43492   -10627 
  -33486   -66623   -79247   -72755   -46083   -12294     6944    -3370 
  -24848   -44274   -70480   -76665   -47857   -18532   -18854   -37820 
  -32073    -3916     -726   -24540   -47182   -55871   -46892   -36996 
  -37967   -23962    10187    38083    47596    31180     -245   -18231 
  -29959   -56701   -76126   -57527   -24646   -15761   -34114   -63911 
  -67392   -30516     2613    10897      253   -19726   -21666   -20907 
  -45230   -73033   -92975  -101973   -92091   -88323   -91867   -70918 
  -30773     8058    27710    21702    17938    14729   -14565   -47844 
  -63763   -74125   -80442   -88943  -103925  -104025   -85276   -63533 
  -49249   -44467   -39599   -40582   -47659   -42179   -35640   -28146 
  -14482   -26038   -49754   -62278   -74525   -67251   -44875   -29470 
  -15792   -31278   -62124   -42859    -3447     1011     7095    48350 
   86252    88094    84094   104020   118320    86305    30169     6878 
    -799   -27711   -15165    40818    55582    36180    24637    27580 
   52408    53083    18463    14079    18238    -8411   -12939    13451 
   30549    37368    24761    -8494   -42880   -86182  -114327  -105737 
 -103304  -100680   -67066   -39943   -34464   -24614   -20529   -30730 
  -40540   -64080   -97684  -101761   -74964   -36667    -8413    -6237 
  -10399   -29242   -73124   -87991   -62972   -46475   -55177   -78568 
  -81677   -53049   -57500  -106398  -114419   -64604   -31286   -47790 
  -68307   -41170    16228    43401    25955    -8826   -50633   -91536 
 -102848   -79348   -58013   -59179   -71706   -80257   -74162   -65295 
  -51243    -8217    35124    39351    30979    33324    15195   -18678 
  -17598     5732     4815   -25474   -54913   -30867    18237     1358 
  -45770   -42462   -17127   -14150   -19753     7159    68472    92182 
   59233    45948    47364     6963   -48649   -91660  -107449   -97474 
 -106427  -111063   -83110   -57036   -27483    -7431   -19422   -21813 
  -29080   -49580    -5795    62294    52555     2685   -17884      477 
   33108    30015    -7605   -21132   -16595   -52600  -107943  -118234 
  -83286   -55927   -62430   -34743    54425   103635    94313    89436 
   83335    70556    28544   -70474  -148478  -155757  -124598   -70910 
  -44329   -44157     2551    24406   -40329   -74675   -45011   -25212 
  -25683   -14160    43380   103717    89341    52853    64049    72212 
   31629   -25759   -63180   -70756   -58936   -55453   -62924   -42194 
   12825    46843    43718    41476    40568    37828    31552    -2149 
  -22214     -556    23795    44955    38496   -10794   -40856   -45920 
  -65435   -86454  -100171  -112110  -119666  -106969   -46448    27741 
   64017    82092    93155    86097    72046    36980   -25790   -80547 
 -104126   -97838   -86243   -71246   -22469    18820     7366   -24933 
  -66765   -97302   -93750  -114914  -146616  -113688   -79176   -92103 
  -89761   -71474   -67755   -79863  -101957  -103195  -105565  -125139 
 -101231   -57612   -58783   -77167   -79601   -69230   -66665   -87454 
  -95470   -71189   -48155   -21948    15291    20038   -15265   -35633 
    6458    69504    65522    15522   -12627   -30041   -52470   -56305 
  -12461    48726    40197   -14017    -7464    37621    32491    -6575 
  -19267    -9192   -15159   -44838   -40501    23292    52478    10466 
   -7615    31197    55042    25547     1638    39064    83170    58148 
    4580     6903    41883    62174    95064   136327   153642   137781 
   76900     8602   -17587   -10206    10492    18256     2943   -15565 
  -34535   -46306   -43210   -44112   -44435   -29292   -20256   -11129 
   24364    28464   -34053   -84734   -93239  -104760  -133699  -158502 
 -138982   -98693  -113373  -145461  -140597  -140598  -138588  -122355 
 -126231  -117186   -71230   -20329     5792   -13644   -31985   -10440 
   -5084   -33760   -49437   -45632   -48398   -58982   -74061  -104326 
 -127643  -125535  -123654  -119342  -103775   -99072   -83775   -35321 
     486      411   -16642   -46041   -60739   -61267   -89857  -104151 
  -84634   -94435  -100565   -61739   -31722   -33655   -58117   -80628 
  -56331   -10642    -2323   -13616    -5888    -1252   -21863   -29309 
   -7013    -3411   -34992   -56702   -23109    45593    69439    45862 
   48922    74610    66386    24451     1363    21290    21995   -30979 
  -45199    26921    84431    71212    64114    97973   108634    63252 
    5629    -7618     7426     2556     9138    41771    50480    58711 
   96456    97904    46577    15908    22719    18401    -5840     4511 
   60482    61923   -23684   -75749   -57059   -54774   -81126   -86204 
  -61861   -43015   -70274  -118440  -117809   -78208   -66981   -81911 
  -70849   -44905   -52753   -80349   -88122   -77913   -80865  -115506 
 -135184  -101027   -74997   -97330  -106299   -81454   -79429   -96346 
  -80912   -35942    -1661     3495     6799    14608      367    -6147 
   17339    34786    31534    10188   -13428   -14662   -12610   -27905 
  -33072    -4056    31463    44270    55445    72010    53482    -1597 
  -33002   -20655    -5903    -4365    -5067    -3699    14559    46265 
   50696    12695   -30632   -45007   -38587   -42303   -57087   -53900 
  -31734   -13724   -17639   -39506   -36861    -6006    -8499   -36645 
  -45480   -59788   -65560   -36525   -14893    -1101      224   -25346 
  -32089   -53838  -108155   -96310   -41609   -17105     3285    12097 
   14835    19246   -35939   -95706   -66712   -18153   -25903   -60461 
  -65877   -43378   -40038   -44508   -23558    -1710    -3180   -15094 
  -16270   -11129   -29744   -64026   -74135   -71814   -68817   -43546 
  -29128   -38292   -19242     5109   -12664   -35644   -41697   -50967 
  -44361   -10539    14998    16179     4444    -6043    -3245      402 
   -7894   -20468   -41870   -57809   -35530      220    11211    12856 
    8982   -22376   -44941   -21016     2485   -18728   -56200   -48791 
    4135    39984    49338    60921    60331    25789   -16661   -20931 
    1827    -1031   -18517     5386    58375    81985    61709    33091 
   21267     4071   -26725   -45419   -54021   -72688   -98190  -100980 
  -58742   -14716   -27041   -52474   -29254     5672     5509   -24359 
  -51229   -43124   -26874   -38314   -47393   -47776   -79933  -117367 
 -115123  -113084  -144174  -167526  -142311   -90378   -74641   -96485 
  -97468   -84865  -103199  -120028   -90085   -57038   -69596   -85460 
  -67355   -59243   -73990   -71990   -65489   -67107   -42912     5314 
   37935    26145   -10737   -23572   -16083     -943    33469    54764 
   40273    19083    23683    61986    86028    59351    25158    17027 
   21690    19757    16147    51767    92190    61557    34420    81082 
  115067    93579    63953    50291    45860    34743    32695    61680 
   76589    50183    41543    56593    35000    -7180   -19947    -5670 
    4365    -7007   -19337    -7344    25065    40818    19457    -9335 
  -38700   -68283   -73643   -75343   -78197   -54332   -38731   -54342 
  -68904   -78216   -85207   -94176  -132622  -162789  -132970   -95427 
  -81934   -62942   -50473   -61970   -96322  -127265  -116027   -98150 
 -112885  -117711   -92518   -82345   -91982   -66985   -10849    12675 
   -5142   -19597    -4171    10081   -30631   -95436  -106724   -70239 
  -38341   -31051   -36813   -35760   -35272   -39028   -24958   -10161 
  -16344   -20032   -18783   -24151   -20320   -14089   -30373   -51171 
  -52363   -42454   -26013    -2940    20914    26160    -1922   -18937 
  -10949   -27764   -30445    25294    59354    34960    14908    33458 
   61878    45551      199     2400    28560    14083    -5132    -2879 
   -7549   -23172   -45908   -47478   -26017   -41314   -68574   -52477 
  -26851   -34727   -68640   -70110   -26302    -1777   -18604   -52189 
  -72693   -69124   -68011   -75271   -74367   -73444   -82418   -83502 
  -54683    -5996    22322    14535     1169     2671      583   -24700 
  -47628   -44316   -40668   -39810   -34754   -30491    -1317    30898 
   27043    14715     -679   -20390   -18958   -17883   -23143    -9278 
    6949    20210    27942    13975    11190    26531    21725     2781 
  -14249   -27175   -30316   -31441   -31517   -29586   -32084   -25942 
  -10504    -9892   -18111   -22750   -45316   -66391   -42803    -9470 
    -270     7727    14040     -382   -35355   -72189   -86516   -80599 
  -82557   -92718   -73084   -32337   -21336   -45211   -73977   -69681 
  -47571   -65616   -87924   -69668   -50203   -41427   -28090   -14882 
   -7707   -12885   -22593    -8776    21313    15003   -17089   -26894 
  -38942   -52266   -35973   -30105   -45230   -41338   -11607    27341 
   44054    31108    17818     2662   -20051   -17761    -6282   -22000 
  -21864    -5275   -28327   -56104   -41153    -1999    28615    26536 
    8484    -4869   -24565   -36354   -29215   -29519   -34296   -19786 
   -5483   -12873   -21475   -20768   -22162   -38168   -68759   -75155 
  -53883   -51605   -55698   -29722     3707     5817   -10397    -5293 
   12479     9356    -9319   -13059     1088     3148   -15174   -31216 
  -34391   -32794   -36277   -40910   -37874   -39001   -49345   -50480 
  -41791   -45173   -64004   -72720   -67810   -73395   -82339   -79510 
