Origin Time       2021/02/13 23:08:00
Lat.              37.7
Long.             141.8
Depth. (km)       60
Mag.              7.1
Station Code      FKSH09
Station Lat.      37.3530
Station Long.     140.4264
Station Height(m) 260
Record Time       2021/02/13 23:08:10
Sampling Freq(Hz) 100Hz
Duration Time(s)  219
Dir.              5
Scale Factor      7845(gal)/8223790
Max. Acc. (gal)   231.121
Last Correction   2021/02/13 23:08:10
Memo.             
[...]
   30642    48733    32632     2074    -6586     2893    12002    22558 
   27583    18137     5934      610     5745    22261    36467    38114 
   34001    22632     3457    -1379    10651    16807    15620    10238 
   -2763    -4261    15903    35872    43846    38296    13761   -14882 
  -23957    -9922    13891    34673    45744    35191     6320   -10535 
   -2868    13853    24345    22620    10096    -5938   -13718   -10624 
    3083    31071    53518    51143    36296    16305    -9979   -26964 
  -20642     1813    24586    40474    44963    35893    25327    17038 
    3294    -6563    -8218    -7959     5738    33357    50433    45013 
   26505     5714   -14775   -22597     -481    37139    62206    61823 
   30056   -16333   -43542   -37997    -1397    48562    72943    57661 
   23361   -16371   -45720   -33534    15280    55279    64107    46017 
    9904   -19071   -19003     3399    25355    27106     6708   -14262 
   -8268    22399    46499    49335    33814     1125   -30157   -37066 
  -16907    23818    62688    72891    56732    26119   -10508   -30068 
  -18647     8803    31858    37324    28890    21290    11273     -332 
    2879     9254     3959     6095    21791    33331    37793    39334 
   33151    19799     5123   -10023   -12575    11230    36927    38244 
   24738     7708    -6775    -7609     5454    22724    32260    26794 
   13979     3048    -7246   -13845    -2943    24021    38708    30028 
   17609     7047    -3092     1181    19433    33312    35947    30766 
   16011    -4645   -12167     4306    33984    56760    57364    36979 
    5849   -19554   -22138    -7514    16205    44636    52583    30564 
    3750    -6185     -711     7493    15646    20599    11106    -8152 
  -14555     6016    33789    38036    23355    11770     6243     1296 
    5055    26478    44400    30838    -3526   -26601   -19327    13543 
   47264    61322    48633    11747   -30711   -50587   -24968    32250 
   69245    66303    36845   -10022   -38858   -23414    10430    39228 
   54531    40406    -5613   -46893   -40417     -153    37920    67859 
   76492    52147    16081   -11650   -25006   -20957     -345    30028 
   50469    46816    31820    18576     1790   -12652    -4671    13606 
    9558    -5795    -5671      445     6093    18515    29268    29276 
   17964     3329     3046    20074    36963    39985    27287     4190 
  -16648   -16530    12502    45844    58059    55946    38013    -3300 
  -38547   -37025    -9370    13856    24486    31302    24609    11830 
   24277    45854    43461    22538    -7423   -35631   -36454    -1151 
   42552    55714    33157     1269   -18291   -17687    -1861    20228 
   39186    36956    16760     4882    -1204   -12104   -13791    -3076 
   14085    36321    52531    49330    18601   -20353   -27589    -7869 
   10386    27993    37307    25348    10843    10976    21906    28264 
   15241     1960     8480    14931    17521    26017    27513    24115 
   21330    12611     6999    10906    15242     9339     1742    16174 
   36698    30026    10269     -282    -2879     5058    23739    35945 
   25417     3287   -10179   -13207    -3018    15836    23425    23751 
   27707    26644    23299    28196    31862    22956     8347    -5638 
  -15678    -6392    20671    40562    50510    50681    24457    -4901 
   -4854     2682     3018     8490     7931    -4630   -13020    -6016 
   17058    33246    24726    14952    17710    18033    20618    35699 
   41617    27228    16784    11475     -213     3315    19859    23291 
   18586     5713   -10692    -1603    21787    30372    28058    15203 
   -8538   -19348    -8230     5508    12904    21502    32382    37963 
   32286    15834     7179    23993    42453    42288    38253    19907 
  -16225   -26460    -4695    22091    48213    50533    20583    -2574 
  -11025   -17801    -8503    10678    18319    19658    16949     6243 
    1441     9836    21213    25705    19122    12375    19249    28448 
   27891    25056    19468     5502   -10204   -22297   -21012     7522 
   46377    64261    58001    36447     2037   -31594   -39772   -17837 
   15588    46977    65362    59981    33959    -6045   -42747   -45651 
  -14936    14609    26441    31572    33924    26457     9999     1763 
   16301    34967    31275     9146   -16071   -27565    -8853    32009 
   74937    95717    66642     8492   -32952   -53281   -41432    19793 
   80040    79096    35762    -1460   -31920   -51058   -19341    42144 
   73708    65229    28055   -10150   -19485   -14385    -2226    27575 
   47814    33156     5231    -8132    -7873      445    21809    40208 
   32113    10449    -1007    -2971    -1138    14296    41744    50020 
   27946      787   -13942    -9269    13329    34472    38944    24106 
    -927   -15252   -10806     4681    24899    33408    15241    -9890 
  -20659   -18138     8240    51934    69588    53597    28671      163 
  -17922    -9705    10258    23827    23537    20587    29524    28548 
   10079     5371    16058    23013    19187     2120    -6349     5521 
    8298     3164     7227     -882    -5194    25834    53218    51178 
   35341     4723   -25481   -30973   -10939    27048    60520    69130 
   55714    25336    -8363   -23993   -23683   -10179    25157    55877 
   46992    12800   -16966   -30231   -15585    23295    50850    46234 
   24474    -7501   -37795   -25793    27116    64176    64538    43507 
    -824   -48888   -55695   -18100    29589    61249    71425    58303 
   18852   -20063   -25662    -7464    17215    40478    39501    11088 
   -6705     6405    25174    27607    15650    -2153   -12212    -8351 
    5178    32076    59782    53523    17983    -8727   -18401   -16237 
    4314    34203    55028    57603    37570    12783     5553      785 
   -9147     -648    18573    24953    29166    35673    28313     7599 
  -16198   -32167   -22496    15712    51213    47628    15049   -10542 
  -19599    -7254    25749    45075    34828    18152     7358     9408 
   33219    52026    43321    28414    10978   -16877   -30021   -15506 
   12810    39336    46735    30639     6582    -5953    -1675    10679 
   26889    31692     5875   -22715   -15337    18253    49265    57777 
   36559     1914   -22923   -25887    -3186    36722    69250    64138 
   18781   -26122   -38056   -19504    22802    67154    80098    63190 
   31321   -13682   -53906   -65649   -47378    -6654    47692    86020 
   73642    23402   -22921   -46626   -38217     2019    44053    63693 
   55237    20845    -7474    -9981    -9472      183    29708    45810 
   42807    29610    -6543   -36526   -23468    12573    46109    67764 
   60566    22534   -23900   -49747   -33589     9049    42055    51656 
   31452    -4558   -16933    -3311    20721    47391    41389     1501 
  -20601   -17039    -5121    25659    61261    58893    18476   -18279 
  -23453     2155    32817    43486    36310    12951   -20468   -24391 
   15048    50265    48361    23662    -3686   -11257    14979    46846 
   53293    42746    23913    -8595   -42304   -48730   -11564    47860 
   87598    83533    31394   -36448   -66429   -54513   -14049    51719 
   93189    77827    36749    -7306   -33582   -23152    11119    49964 
   64908    48483    29542     8085   -17259   -20009    -2994    11734 
   19126    20707    16086     8029     2590     4129    15068    25494 
   24173    21859    24322    18488     2276    -2303    20871    44188 
   36969    17486     7649     2062     6041    23606    30458    23874 
   21242     7734   -13971    -7377    15765    16865     3989      249 
    5927    19217    38655    50978    43757    16074   -21304   -42114 
  -26005    10530    42082    65673    65790    28244    -7447    -9637 
   -5035    -8333     1514    18758    13809     2582    14320    23005 
   15330    18539    25793    25621    27603    19249     5637     7784 
   12552    15422    17510     3024   -10210     3295    24718    30377 
   27303    22376     7298    -6504    -7523    -5632     5061    24430 
   37484    46460    45472    32124    21355     6340    -9834    -8407 
    1443    19600    42522    38403    13896   -13104   -43066   -39155 
    7948    45227    57055    54700    22721   -29693   -54982   -27950 
   33010    82275    84878    54090    16630   -15060   -25328   -15504 
   -1622    16775    36281    42961    37174    20700    -2690    -9720 
    5158    18682    23311    24399    18187     6886     2748    11538 
   30003    46607    44228    21625    -6235   -25262   -18523    11502 
   33567    43946    50521    23962   -21296   -27014   -13749   -12719 
    9217    40869    40772    21816    11377    14088    16278    15500 
   16144    -1271   -19905    -6678    11024    21909    38358    36979 
   20540    15165    11935    -4120   -24343   -21523     7975    28642 
   35498    46974    45590    22848     2952    -4488    -1266    15130 
   34215    46670    48891    22064   -23614   -44253   -33083     3372 
   67882   113782    89993    23885   -38799   -90301  -100877   -33978 
   62109   112006   105594    59258    -5842   -58314   -76149   -40906 
   28749    74844    79466    58355    21026   -13959   -31278   -28433 
   -7263    17879    39110    56589    51714    16101   -26053   -45404 
  -24077    25381    58436    58523    47753    23931   -14451   -24214 
    9705    40946    42425    32097    14068   -11200   -14359     4147 
   11952    10388    12085     9822     5219     9424    17554    18952 
   16740    15897    12172     3357      145    10062    21948    25929 
   20002     8827     8432    17280    23843    28846    22897    12434 
   22445    38163    34608    24441    17396    -1260   -23357   -17463 
   15685    49283    58216    24436   -26522   -43812   -24043    10200 
   40745    39314    16052     5903     -139     1976    34754    62934 
   58255    44015    21154    -7146   -11434   -13626   -30114   -16410 
   14573    18670    22944    43522    51764    42574    28088    15082 
    5324    -7308   -19963   -15527    13375    53986    73094    47475 
    8849   -11352   -27507   -34383   -16911    -3024    -6315    -3082 
    5566     5645    10651    28082    42697    46897    46755    41720 
   25807    11345     5444    -6278    -8078    20089    48820    64339 
   79834    68847    17099   -32332   -59875   -75540   -58109    -4349 
   37604    43530    24425   -18389   -58229   -44343    12241    58880 
   77815    68535    35980    11935    24502    64652    94155    75614 
   20857   -20383   -30059   -11273    33106    67548    62006    33552 
    2500   -25678   -33921    -7434    28023    35766    23290     7527 
  -18585   -41712   -31116     5926    36705    51277    52088    39517 
   27276    18220     1233   -11565   -11510   -12563   -16858   -14342 
     741    23425    38157    34628    21325    16966    24999    37828 
   51868    58133    48112    27855    17577    28942    40554    29300 
    8569     -643    -6324   -24973   -47268   -40221     9509    61439 
   79050    76140    53013      810   -41211   -44292   -22790    12036 
   44466    53426    43183    26040     6756    -4021    -4706   -14260 
  -33889   -39289   -26549    -3655    31858    57063    41003    -1081 
  -35876   -47777   -25890    21242    57477    74240    82896    60170 
    9849   -20125   -27117   -21929     9032    47263    61546    40184 
  -17093   -73062   -74676   -21918    42373    83296    74536    10773 
  -60404   -83030   -48581    25816   104387   120779    59881    -2219 
  -22698   -25859    -7642    30315    47144    39255    18434   -23727 
  -63273   -61280   -18181    39993    95029   137311   144765   107998 
   63278    37338    16908    -1688    -5320     2903     -449   -13628 
   -2721    21304    21697    10150     2689      221    14584    41385 
   72264    98236    85727    28923   -38371   -89444  -102772   -72303 
  -19238    37226    78844    74183    23333   -18067   -19801   -10111 
   -4163    -2961   -16802   -32957   -32667   -18819     3262    25188 
   28412    13757     9061    28458    60840    80825    55586    -8997 
  -62965   -74120   -40217    15515    40595    14986   -26829   -57030 
  -55221    -7346    53601    83955    71928    33623     -361   -20173 
  -29612   -29949   -35469   -50103   -55293   -32867    22998    94513 
  146600   158325   136429    96101    47895     3206   -23714   -17078 
   30956    97637   131661   110948    64172     7422   -56832   -92697 
  -82719   -58286   -31922     5563    32391    20137   -13263   -33721 
  -43930   -50440   -30653    20413    60853    57651    31266    13401 
   11742    21099    39942    69903    88504    76144    51040    24449 
   -3653   -19873   -23653   -22567   -15768   -13770   -23247   -27032 
  -20645   -22091   -31984   -30915    -8931    34792    97143   153175 
  168056   133065    69792     3734   -58058  -103813  -102903   -51289 
   23018    88678   105723    63497     7441   -34268   -68054   -79220 
  -51317     2872    55533    75789    62235    41860    20776    -5120 
  -27202   -39042   -34137    -8370    30364    65113    76314    63321 
   46735    41462    51254    74121    97008    99161    66953    12023 
  -27508   -24948     6786    41887    62087    46680    -4820   -54648 
  -76059   -71716   -39386     4243    12580   -28082   -86892  -123593 
 -101309   -14755    95551   174544   174978    93000    -7206   -59016 
  -42817    28495   108479   139166    97308     6507   -79803  -114625 
  -78428    33748   181990   256536   199983    80604   -33775  -124460 
 -156447  -106213    -1034   103289   149210   120698    47628   -33967 
  -92094  -121115  -135664  -119583   -73749   -47846   -52263   -61268 
  -66121   -45659     6219    48080    63090    64976    55933    59100 
   99831   159622   204743   204801   137196    11286  -126049  -215651 
 -221552  -138878     2178   128579   175120   139919    72539    22526 
   -8309   -32294   -29328   -10062   -10905   -18783   -23388   -20949 
   17019    60187    59705    40776    34103    32863    36566    53126 
   69754    74267    68926    36425   -21945   -56288   -36170    24536 
   86109   106473    84311    43760    -5127   -50240   -73786   -71558 
  -39240    15877    52841    38762   -16502   -75779  -110797  -112866 
  -64638    35036   137002   190993   179987   110884    14172   -60660 
  -76694   -50048    -9571    46772    97771   104409    67024     8653 
  -47493   -82956   -90255   -68400   -27224    13470    31563    15048 
  -18732   -43753   -52843   -41566    -5532    34330    43613    30410 
   43725    84647   103356    86895    45701   -17292   -70267   -75543 
  -29313    48424   119117   152074   154761   142469   121724   103351 
   89513    75343    51713      406   -74329  -145311  -194940  -195629 
 -118323     2289    95443   137971   136765    90127    24467   -16580 
  -27533   -25903   -27502   -34622   -30851   -10561    22405    62009 
   82607    66906    31398   -12150   -61784   -85320   -70827   -63895 
  -78543   -78440   -43854     9263    46831    73485   121629   165014 
  163931   126322    62322    -6662   -44851   -52034   -36990    -1938 
   33154    55682    50368    -1429   -66239   -98257   -92308   -50202 
   11522    48964    44734    26009    20017    23025    19588     8394 
    1057    16947    60712   111307   150078   161644   135679    77348 
  -18346  -131481  -189243  -160344   -80072    11400    73543    79809 
   34099   -35984   -89208  -110870   -89183    -5564    89953   132452 
  125167    95343    62672    30923     6073    14625    39429    30045 
   -9310   -36532   -27429    14284    76337   147378   188330   159135 
   73859   -22642   -91454  -111161   -76484    -1362    66324    80472 
   28834   -70266  -154907  -165632   -90952    50652   182198   209772 
  134431    18447   -78888  -119859   -98261    -1354   132501   188631 
  142141    79419    44289    12152   -28587   -50068   -34626    -2643 
   24968    46381    59607    55597    36643    27014    37660    48982 
   51794    58143    63792    40980   -17489   -79485  -112311  -107221 
  -73357   -33615   -12390   -10381    -4214    14127    37542    73634 
  106164    79497   -17793  -116386  -158014  -151614   -99153     1597 
   84233    97089    64829    12737   -37989   -48305     2694    97005 
  181900   202149   140390    25502   -94678  -181840  -205981  -147698 
  -19784   120847   204527   199296   125054    41898     -184    -5062 
   14477    49250    66356    55757    27508   -23390   -76200   -88099 
  -41851    37559   101425   130030   128902    94350    34034   -36790 
 -105525  -132459   -92929   -21196    54060   118083   128638    76246 
    7817   -46913   -77689   -58854    16789   113576   178173   173584 
  109031    32370   -22292   -51422   -47017   -11497    17879    17398 
   -7647   -51482  -101610  -129795  -115906   -75897   -32352    17906 
   69346    92002    64733     1844   -57230   -93753  -114463  -106851 
  -56450    14833    83577   133045   132841    80194    13525   -25990 
  -20416    17928    66968    96017    77205    36571     8159   -22832 
  -45053   -25609     6137    26325    56296    87357   103123   111133 
  108507    88203    53703    16433   -16596   -56100  -100739  -121360 
 -101142   -46543    19504    55516    57206    66197    81329    66174 
   31243    10998    -1767   -30187   -59651   -64837   -47646   -17971 
    7867     9282     3855    17281    30858    45405    95824   157688 
  175005   142869    80950    11885   -39187   -63922   -54928    -6627 
   57998    95823    77943    23710   -24610   -56134   -64115   -29619 
   27530    65952    69600    42938     5667   -19899   -29596   -26947 
   -8233    14539     9474   -25100   -63680   -87647   -67599    14507 
  121020   183443   159017    63510   -48631  -126515  -144540   -87162 
   46214   188118   240169   166121    17907  -104957  -167174  -194532 
 -159410   -43200   100824   216575   240948   153898    39066   -44108 
 -107069  -139491  -113594   -25525    88819   148810   117915    52475 
    1903   -29659   -43920   -43980   -32374   -18044    -8586     2245 
   20781    52003    75288    58612    23834     -583   -31437   -65322 
  -72397   -53797   -24097    14623    56189    95133   129211   143226 
  122277    69826    -3855   -86935  -150188  -144683   -39247   116167 
  215570   214544   141042    37588   -45662   -85908   -84990   -34281 
   36809    70351    49631    -8322   -67635   -83203   -40968    31351 
   86077    80454     8006   -90355  -147105  -118115   -25174    82194 
  163568   179027   117895    21216   -44869   -51919   -34339   -17359 
    7684    32923    43375    47920    58666    67518    52740    -2614 
  -75131  -104742   -73291   -15367    39229    70815    70185    37323 
  -17377   -52413   -39064     7083    56641    82705    78858    54646 
   26050    18666    36545    61034    70642    51167    17655   -10411 
  -34373   -50504   -43486    -7001    41538    68933    63097    43885 
   17990   -15155   -26616   -10881     -484    -5732   -11402     -899 
   21147    30709    22678    12341    10901    16853    30470    53511 
   62518    43722    14065   -22504   -49273   -31614    16892    55995 
   73714    79978    76326    51339    13647   -19263   -41218   -40473 
  -22989    -7600     3319    -3495   -36863   -59476   -31303    34061 
