Origin Time       2021/02/13 23:08:00
Lat.              37.7
Long.             141.8
Depth. (km)       60
Mag.              7.1
Station Code      FKSH09
Station Lat.      37.3530
Station Long.     140.4264
Station Height(m) 60
Record Time       2021/02/13 23:08:10
Sampling Freq(Hz) 100Hz
Duration Time(s)  219
Dir.              3
Scale Factor      2942(gal)/8224139
Max. Acc. (gal)   42.706
Last Correction   2021/02/13 23:08:10
Memo.             
[...]
  -66141   -70375   -66469   -69390   -67313   -57514   -66999   -90486 
  -89677   -70997   -70262   -82042   -84042   -76985   -72474   -80049 
  -90198   -85820   -79539   -75477   -64407   -76636  -105291  -100030 
  -83177   -83313   -77318   -64831   -56608   -63724   -84072   -82394 
  -72990   -83640   -73192   -41004   -46125   -74389   -76198   -67045 
  -69612   -70565   -63464   -59614   -68956   -78929   -67143   -52196 
  -63944   -79362   -80314   -83859   -81639   -69738   -77080   -93874 
  -83867   -70684   -85534   -98556   -87300   -72027   -75551   -86795 
  -81132   -75190   -84148   -82759   -64747   -53481   -57048   -64203 
  -66324   -65734   -66104   -59979   -51502   -60010   -72542   -71064 
  -71181   -69094   -49424   -40659   -61526   -76486   -69516   -69607 
  -80543   -83295   -85164   -83285   -62710   -55448   -76310   -83401 
  -81866   -90350   -72314   -43644   -49783   -69117   -80870   -89333 
  -86593   -66104   -51507   -57055   -52116   -51011   -76928   -81259 
  -62397   -62209   -67753   -69187   -70945   -67764   -78312   -89977 
  -77128   -72709   -74637   -60493   -65789   -93116  -100373   -83859 
  -73357   -68440   -48546   -37543   -54675   -76563   -86274   -76252 
  -54503   -36687   -28630   -53072   -96574   -96807   -61145   -42687 
  -38473   -35946   -55734   -96458  -114269   -93351   -71559   -62834 
  -57807   -71829   -94014   -97934   -95384   -84917   -60760   -50132 
  -62575   -87220  -104012   -89536   -63667   -60879   -69468   -63448 
  -67648   -98932   -97075   -49778   -19980   -31093   -76983  -108638 
  -83987   -61759   -60374   -42381   -36198   -53007   -68944   -78649 
  -67315   -47065   -49790   -63877   -78160   -94586   -85774   -59143 
  -58201   -75733   -93154   -98020   -74980   -64260   -84663   -81480 
  -58143   -69045   -93861   -90120   -73283   -64554   -65141   -71234 
  -75702   -78274   -80387   -76461   -64311   -58418   -71022   -85434 
  -81909   -73106   -76707   -72010   -48655   -47193   -74611   -95129 
  -97264   -81506   -67095   -60069   -41189   -44058   -69103   -66399 
  -68750   -90954   -75905   -42034   -50234   -81260   -74282   -41562 
  -50410   -81603   -82112   -86850  -101526   -86297   -72763   -80904 
  -72496   -54997   -65157   -84796   -81236   -66787   -64508   -68620 
  -62973   -61349   -68547   -57581   -44574   -53752   -70455   -72940 
  -46715   -43823   -90121  -104168   -80761   -80597   -85232   -70559 
  -61690   -71632   -80898   -76431   -73533   -83824   -86061   -65188 
  -47476   -49842   -57748   -68273   -86217   -98362   -84067   -55088 
  -52660   -73537   -85399   -86994   -86556   -96029  -102952   -79983 
  -59975   -64987   -77583  -102903  -103906   -59290   -54372  -100049 
  -96404   -57299   -65533   -74866   -46156   -49653   -76983   -71149 
  -54924   -58519   -82096   -91740   -70445   -66722   -78695   -68196 
  -54932   -48910   -48424   -62787   -68215   -63236   -71937   -72192 
  -65418   -77267   -78308   -69294   -75176   -76180   -72495   -68504 
  -60467   -53751   -47355   -65322   -93804   -91808   -86840   -85549 
  -62923   -50229   -67398   -85045   -87100   -76735   -64473   -64658 
  -71718   -75276   -69638   -61258   -73224   -76353   -51972   -58368 
  -90607   -90062   -59802   -49558   -77052   -85831   -58341   -52008 
  -77116   -94409   -88539   -72486   -67020   -75249   -70139   -63321 
  -77290   -68640   -50222   -76107  -100475   -85284   -67486   -66739 
  -75544   -76435   -65118   -65963   -73735   -69255   -65375   -62189 
  -53904   -55271   -66802   -71193   -65442   -64897   -64233   -60879 
  -75558   -89812   -80457   -59263   -58203   -92982   -91270   -40996 
  -48648   -92853   -81093   -56691   -72852   -83361   -63379   -46045 
  -38284   -40811   -66278   -96057  -110585   -96943   -58457   -47164 
  -68168   -66410   -58324   -77255   -79602   -67463   -88110   -99846 
  -71798   -52493   -57064   -67136   -71811   -65971   -63682   -73745 
  -93194  -106797   -82267   -53908   -76306   -89964   -61064   -63524 
  -91732   -76118   -44224   -57350   -90514   -88695   -69345   -77822 
  -88730   -71154   -70544   -90065   -82578   -75699   -74933   -49515 
  -50587   -84844   -80473   -53586   -54692   -60651   -64138   -96371 
 -121895   -87458   -34577   -27670   -56292   -64501   -46202   -53762 
  -74557   -64864   -57585   -67691   -71763   -72067   -66733   -60420 
  -55401   -51517   -77679  -106801   -87517   -60961   -59562   -61260 
  -68875   -81059   -96219  -113949   -99297   -60704   -45821   -50456 
  -55231   -69236   -87785   -94482   -99550   -96859   -71949   -60567 
  -69233   -62953   -65335   -90879   -98335   -92052   -78555   -52817 
  -63774   -87334   -73240   -78421   -91924   -53433   -33893   -73711 
  -88792   -64798   -66270   -80869   -58168   -28780   -46234   -72211 
  -59980   -63127   -96774   -94660   -67306   -45986   -28602   -54233 
 -104630  -111646   -84030   -58945   -58777   -77137   -90312  -100727 
  -96084   -73016   -61157   -64368   -76459   -93337  -101756   -91562 
  -68142   -58114   -56690   -42986   -49940   -80233   -76288   -48660 
  -48254   -59755   -56659   -63973   -84237   -82262   -84078   -93328 
  -54873   -25142   -61724   -94466   -94429   -99110  -102176   -74282 
  -40984   -52467   -86967   -90193   -71105   -65851   -57068   -40011 
  -76918  -132301   -96290   -29155   -40130   -73134   -66047   -59922 
  -70235   -69969   -64785   -72241   -86309   -79671   -49140   -46558 
  -72520   -69799   -57944   -63899   -63900   -69611   -81496   -79645 
  -74966   -70833   -74380   -79126   -55044   -44556   -79655   -80345 
  -48031   -63396   -77719   -53226   -48111   -60276   -62700   -65549 
  -81249   -92465   -69140   -56782   -87115   -93540   -77900   -87575 
  -89363   -72705   -76850  -101925  -105285   -76486   -70648   -90823 
  -69813   -42541   -80176  -104849   -67297   -55881   -77971   -81729 
  -85218   -96402   -97066   -78679   -54459   -61396   -81668   -68575 
  -48558   -63521   -87122   -67776   -28729   -39077   -71386   -63332 
  -45345   -45102   -56633   -85946   -92797   -70191   -66150   -57828 
  -46214   -67497   -83442   -79868   -83911   -95121   -94460   -69137 
  -55510   -72847   -84966   -81514   -69564   -63018   -75320   -80650 
  -66876   -57569   -65360   -72268   -54714   -39645   -53538   -70762 
  -87755   -99125   -76195   -51783   -61200   -74950   -73897   -71297 
  -74714   -73832   -68300   -76260   -78212   -62037   -60859   -62700 
  -62532   -86150   -91625   -77105   -98334  -102712   -56774   -48051 
  -80036   -84303   -79956   -97413   -99698   -67424   -45873   -57790 
  -76867   -93826   -95625   -61466   -29131   -40926   -57306   -42174 
  -38839   -68708   -90695   -85812   -68072   -58128   -67359   -79477 
  -84734   -78171   -56304   -50089   -58216   -58460   -69959   -80092 
  -68535   -60727   -73940   -92982   -84068   -56625   -55156   -62429 
  -46197   -50233   -95183  -110975   -84345   -84183   -98442   -69502 
  -47081   -76466   -94032   -83463   -86269   -96302   -91663   -70421 
  -62158   -78598   -86167   -77232   -63717   -52030   -46001   -48562 
  -70544   -89222   -83551   -78140   -77071   -66067   -54182   -63432 
  -86861   -92938   -90938   -84125   -54541   -43502   -66626   -70646 
  -63478   -74565   -68835   -55742   -73210   -79780   -58826   -62550 
  -84601   -76797   -54292   -54988   -71212   -81764   -86709   -88037 
  -82965   -79443   -72773   -59653   -68941   -93316   -89542   -64154 
  -46055   -43734   -53478   -58741   -59985   -60588   -54535   -68288 
  -88435   -62749   -31914   -46766   -72123   -84723   -84680   -57514 
  -36115   -69354   -98392   -67265   -61167  -101794   -94417   -48168 
  -33934   -55746   -74899   -67756   -65819   -85395   -83015   -51007 
  -53667  -102629  -107379   -57940   -46804   -65924   -55706   -63111 
 -105166   -90289   -46361   -65427   -85278   -74174   -88150   -95166 
  -64044   -39633   -48780   -73526   -93391   -95192   -69121   -39078 
  -37670   -60085   -77706   -74552   -69762   -78329   -81183   -65981 
  -46236   -53636   -97141  -109715   -72404   -59242   -58831   -43464 
  -51680   -67721   -83763  -112710  -105624   -55933   -39802   -73782 
  -81376   -64288   -83662   -88771   -47159   -44074   -94782  -104831 
  -65664   -59775   -68580   -52920   -61769   -87297   -84033   -71267 
  -68956   -66945   -71770   -82287   -73018   -67069   -80388   -68663 
  -51119   -68550   -81580   -78098   -82902   -78510   -63046   -64507 
  -80694   -79974   -62812   -74754   -97675   -77625   -59690   -75533 
  -71666   -49829   -51490   -70966   -66345   -34418   -54058  -114616 
 -105320   -50533   -36751   -42904   -30838   -36452   -77919   -93991 
  -77024   -72551   -61476   -50076   -69518   -79026   -70495   -70803 
  -65596   -67733   -81866   -85747   -91597   -84330   -60588   -54132 
  -51155   -55445   -69766   -65238   -70251   -81210   -66877   -74676 
  -93523   -66071   -46975   -68685   -76939   -72183   -73040   -64216 
  -60912   -71262   -62853   -49405   -68829   -94578   -88605   -60785 
  -49898   -67174   -78335   -73858   -73063   -77307   -81723   -86671 
  -94212  -101231  -100182   -96543  -100697  -108298  -104464   -83767 
  -64328   -58391   -55040   -52579   -61646   -81868   -85513   -64014 
  -56871   -61839   -62838   -76125   -76847   -70244   -86695   -86717 
  -71115   -72411   -71321   -67004   -60204   -51221   -71331  -105071 
 -104897   -83592   -92672  -111229   -92595   -82894   -97105   -88079 
  -71070   -60003   -50298   -59336   -63609   -36420   -21010   -54831 
  -90289   -90695   -91993   -92507   -73965   -68135   -77932   -84964 
  -84157   -73758   -72620   -75640   -64627   -61730   -74698   -89399 
 -106492  -111262  -101179   -94020   -74814   -49697   -41008   -31074 
  -27905   -44701   -46336   -33874   -37841   -43582   -42533   -36594 
  -20505   -26909   -54750   -58199   -58000   -69168   -46693   -16713 
  -16336   -15437   -37081   -85860  -100232   -82647   -67338   -76985 
  -96745   -87813   -93514  -116760   -94948   -75836   -82277   -66958 
  -64323   -86888   -91525   -75718   -66625   -85869  -100888   -77548 
  -45701   -40755   -66118   -78727   -57612   -59023   -89220   -91638 
  -67617   -56590   -59171   -49654   -52355   -95114  -118404   -98884 
  -84214   -70367   -66934   -96508  -103497   -88489  -111647  -126233 
  -96388   -90644  -110984  -103304   -80962   -84168  -111631  -107534 
  -71001   -77584  -101633   -78835   -63867   -90624   -89137   -53966 
  -62584   -90178   -57888    -3424    11322   -10075   -52432   -81693 
  -74925   -63837   -59111   -42466   -18620     9983    13011   -28078 
  -40200   -16637   -33593   -69125   -70642   -59474   -64287   -71535 
  -62321   -53936   -57084   -58766   -63930   -72511   -82343  -103734 
 -113486  -102292   -93433   -66546   -28876   -30430   -53673   -61797 
  -54402   -45084   -46283   -55954   -76600   -97452  -103488   -91179 
  -39584    -1854   -42587   -78152   -78125  -101704   -96982   -51429 
  -29203   -36009   -81552  -121342   -96859   -73885   -84534   -95143 
 -106547  -103860   -83932   -79346   -92464   -96036   -86142   -89604 
 -109561  -118273  -103462   -92421  -103372   -99716   -74069   -58911 
  -48757   -43051   -52139   -49126   -28023   -32414   -70268   -89793 
  -60081   -22721   -38026   -77768   -72785   -47845   -57889   -74220 
  -44089    -4203   -27580   -77001   -82070   -60971   -49357   -67338 
  -99781   -90242   -54932   -57373   -87374  -100480   -93271   -83938 
  -76991   -72052   -69462   -73063   -91902   -99069   -74611   -69356 
  -87608   -74623   -63574   -80503   -55763    -3601    -4388   -37311 
  -61948   -89074  -111114  -110153   -92616   -72951   -65859   -77268 
  -82899   -73093   -80843   -93698   -75955   -71374  -101254  -104449 
  -81504   -86518  -115038  -142645  -159675  -157121  -145933  -141091 
 -136158  -123492  -113400  -115788  -127687  -145273  -149581  -128409 
 -105575   -81163   -47254   -35187   -51453   -58665   -29224     6247 
    2660   -14239   -15697   -26061   -55074   -79736   -71298   -33717 
  -15585   -23785   -21610   -28399   -60932   -80478   -79878   -80937 
  -88875   -95793   -95270   -98107  -104930   -86807   -38821   -20765 
  -50136   -64489   -73176  -105738  -113552  -107530  -117498   -87513 
  -43780   -55746   -58338   -31460   -31563   -24698   -10147   -21381 
  -17921      970     8626    11804    -7105   -43074   -59428   -69958 
  -76476   -39225     2551   -15483   -52987   -56836   -45544   -49451 
  -75433  -114743  -147594  -149179  -126416  -122040  -126088  -101125 
  -83108  -103576  -129574  -142948  -146164  -130187  -103370   -77778 
  -55987   -67864  -116766  -137069  -109912   -92911   -85689   -51356 
  -25064   -31371   -40514   -59046   -88373   -78205   -36186   -27703 
  -51618   -57231   -42624   -40000   -49960   -60361   -72042   -73529 
  -55861   -36225   -28201   -18615     6806    20240    -6822   -25501 
  -12847   -39919   -94945  -102807   -86756   -67950   -34867   -26347 
  -43668   -51192   -63593   -81028   -77703   -66495   -66252   -83362 
 -101727   -83874   -60166   -78673  -100780   -88418   -58182   -47204 
  -71309   -84431   -62133   -41208   -40143   -59000   -84627   -81938 
  -51922   -31708   -35054   -43526   -36497   -32413   -65284  -106277 
 -107555   -86073   -73801   -72064   -83710  -105167  -112714  -118493 
 -157704  -190466  -168323  -135446  -116734   -88183   -73662   -97996 
 -132848  -143206  -133706  -125278  -101791   -60359   -57666  -120596 
 -175158  -141652   -74008   -61782   -72200   -66167   -74748   -79500 
  -48859   -34763   -58656   -69823   -69946   -72308   -57272   -48001 
  -46063   -24194    -7979    -7472   -16370   -46302   -65758   -56358 
  -58263   -67621   -30273    26923    12719   -42144   -39731    -8630 
    2786     7057    -8368   -27410   -27707   -40729   -62592   -71621 
  -74387   -63466   -47827   -55521   -74895   -97509  -128100  -126245 
  -91670   -89491  -103890   -80014   -52141   -51659   -53952   -55443 
  -56967   -53804   -69768   -99296  -103000  -102907  -128139  -137249 
 -113649   -83030   -67154   -91871  -128974  -134369  -138595  -155159 
 -151092  -136501  -137806  -143689  -128858   -98641   -82378   -75226 
  -55656   -31820   -29767   -55325   -77036   -95094  -112727   -85754 
  -52596   -73383   -91384   -79389   -78999   -85360   -79726   -61938 
  -41979   -40872   -58028   -73990   -66106   -33226   -14928   -17163 
   -3284     7308   -21312   -60523   -80705   -85129   -83671   -87388 
  -89681   -85479   -74995   -45893   -21601   -36247   -65088   -77716 
  -86670  -104994  -114646   -95951   -70880   -73033   -93220  -102045 
  -88252   -59162   -43942   -62711   -75775   -57042   -56249   -90574 
 -105927   -80943   -57762   -63011   -81688  -104087  -127180  -140111 
 -126391   -89394   -69201   -85675  -101640   -88314   -85104   -95887 
  -57605   -10120   -38836   -95679  -102030   -84541   -98339  -126773 
 -126370  -110870  -114750  -118833  -101425   -92904   -93649   -69977 
  -50384   -53979   -42920   -43723   -87239  -122995  -133699  -118755 
  -71308   -50646   -66942   -67396   -72593   -94651   -86360   -47756 
  -28597   -51390   -71487   -63657   -73082   -77765   -37817   -23712 
  -46280   -36198   -15033   -14665   -10534   -11385   -34075   -48385 
  -43760   -48278   -55024   -52616   -57208   -65144   -77977   -89459 
  -73566   -52577   -40792   -28350   -37597   -56484   -63637   -58114 
  -24237   -12094   -56967   -88538   -93445   -99731   -75724   -31428 
  -18424   -36794   -64153   -90020   -97291   -79851   -67552   -82759 
  -88133   -51333   -38133   -89004  -115862   -95127   -90171   -77768 
  -36147    -4656    -5489   -50724  -101925  -111307  -109880  -113296 
  -98741   -76501   -64741   -69350   -79393   -59944   -29296   -45804 
  -78418   -69237   -47660   -56619   -82664  -101835  -114851  -114319 
  -87529   -57816   -63902   -92542  -101599  -105541  -118822  -108488 
  -70737   -35460   -30443   -48875   -53370   -44235   -37797   -28822 
  -24543   -34447   -42537   -35729   -37979   -52297   -41809   -39572 
  -90337  -127064  -100994   -64035   -58680   -73684   -81280   -81009 
  -90771  -112703  -125725   -91161   -50940   -71932   -86869   -64054 
  -65276   -84144  -103792  -109470   -80904   -53970   -47574   -61875 
  -90288   -92098   -69047   -47108   -34735   -55579   -92986   -93611 
  -73699   -85666  -102942   -78032   -62129   -89116   -90462   -61267 
  -49164   -50796   -72914   -92379   -86107   -98544  -109863  -105741 
 -122181   -98540   -43630   -57445   -85704   -58086   -29523   -35191 
  -51899   -55996   -49346   -45856   -56606   -89209  -100429   -59231 
  -29103   -30514   -22663   -27877   -62083   -79421   -60702   -40041 
  -23873     5643    -2120   -72125  -109560   -75687   -54508   -67335 
  -63159   -43964   -33914   -50272   -84226   -83052   -47906   -35796 
  -66675  -107585  -118233  -102250   -88136   -91584  -100063   -98659 
  -98605   -88268   -61673   -59138   -94023  -123519  -107712   -85338 
 -101826  -119137  -115115   -94637   -57970   -49727   -70278   -68553 
  -67063   -87458   -79347   -39781   -28930   -58045   -87389   -93422 
  -81788   -69126   -68925   -79033   -73970   -43938   -36305   -76142 
 -103750   -86968   -65610   -61037   -68550   -84331   -93764   -80412 
  -60532   -63972   -71813   -69691   -85773  -100388   -82888   -63652 
  -64935   -76273   -65076   -22612    -9053   -34060   -42799   -35181 
  -31185   -26869   -29840   -48149   -60158   -55401   -65236   -80778 
  -64260   -53989   -85752  -112726  -102316   -81638   -76364   -75766 
  -66538   -66345   -80188   -84423   -77688   -65353   -55726   -73920 
  -97452   -93453   -88238   -92227   -80123   -64261   -69043   -70989 
  -64197   -80177  -107740  -127263  -124614   -86537   -66475   -88973 
 -106104  -107704  -107478  -108872  -109502  -103619   -94734   -90892 
 -103871  -111484   -80447   -52425   -71979   -95436   -77288   -48810 
  -52751   -77411   -93744   -94945   -83879   -66121   -47383   -31494 
  -33739   -58557   -88722  -106076   -82039   -38252   -38308   -55877 
  -45276   -36848   -45982   -48807   -47545   -65337   -86447   -81515 
  -73619   -79176   -67694   -55078   -64486   -52697   -40478   -73386 
  -95990   -84204   -73670   -73318   -82665   -85197   -79555   -85035 
  -88788   -91879   -95702   -78968   -68304   -82860   -87546   -65908 
  -37887   -39224   -70208   -83934   -70618   -51968   -38988   -44833 
  -52940   -45099   -42476   -44842   -47278   -66846   -82520   -68349 
  -52689   -61823   -77549   -88113  -102621  -105923   -85274   -64345 
  -56570   -53491   -57982   -77427   -93665   -83668   -70897   -74124 
  -65215   -52099   -62004   -78895   -94502  -103283   -87855   -67032 
  -71493   -91179   -86999   -60895   -53087   -59498   -62324   -69468 
  -78158   -85500   -88452   -88152   -93973   -81207   -52215   -50164 
  -56290   -48616   -52077   -63682   -67375   -65345   -62010   -65055 
  -73279   -61248   -30322   -34634   -77375  -100043   -86136   -60706 
  -47468   -46010   -55131   -79527   -87423   -73808   -77037   -92202 
  -86742   -64026   -62135   -80684   -77587   -67419   -86864  -104286 
