Origin Time       2021/02/13 23:08:00
Lat.              37.7
Long.             141.8
Depth. (km)       60
Mag.              7.1
Station Code      FKSH19
Station Lat.      37.4703
Station Long.     140.7227
Station Height(m) 410
Record Time       2021/02/13 23:08:06
Sampling Freq(Hz) 100Hz
Duration Time(s)  219
Dir.              2
Scale Factor      2942(gal)/8224139
Max. Acc. (gal)   94.611
Last Correction   2021/02/13 23:08:06
Memo.             
[...]
   74105    52030    64671    74414    71693    71582    66735    65284 
   74358    74879    66985    73479    76264    65173    69628    73028 
   66745    72538    75265    74660    74914    70016    77275    79899 
   58671    53366    70675    68897    58152    63039    69222    68931 
   57175    43380    53088    71690    75301    69265    63439    61608 
   67289    78132    78521    67717    62490    72871    90331    82980 
   58853    62895    85519    90013    79608    74239    66501    63047 
   88375    98335    73314    62750    64000    75930    84591    61438 
   55985    69827    74633    83700    88971    91790    71010    35796 
   49194    79655    85195    75438    53532    56623    68319    55867 
   73363    99534    93029    89023    76701    67119    74433    69742 
   79798    82436    57123    70127    87106    65993    68567    77106 
   55062    54969    71550    71271    76435    74939    59283    64002 
   79413    78722    71086    65005    63458    71838    71941    59684 
   61348    78521    89715    81862    63532    58941    74551    86248 
   85098    86213    87214    79861    63682    56621    77411    92491 
   82397    79294    82312    80555    78934    59949    45534    62529 
   69179    63628    72185    70830    61430    50836    33883    48107 
   81410    88843    72553    47042    60440    99103    87810    66044 
   74931    83997    89683    88157    82549    78773    72353    75925 
   72164    59491    68318    75636    72900    73562    69290    77653 
   77951    48872    46720    74742    84755    73904    66276    67084 
   60193    59377    69292    73633    80399    76991    57894    46669 
   44845    50224    63886    77982    89834    90065    80657    87959 
   97155    88561    93299   100103    90223    88612    69051    49215 
   85575    96557    52253    57148    97945   101823    86171    71203 
   57565    54352    59358    69661    81675    87540    81494    75969 
   84595    79439    56331    55343    71031    69496    58176    51915 
   43623    51559    76956    76819    64913    71639    68056    66221 
   92504   101756    87658    79061    65878    63182    78624    75039 
   59306    64443    79871    81244    57885    47078    78171    83709 
   54108    54716    68435    79832    92229    77870    59991    62619 
   72040    84730    82464    61107    52613    72273    82749    53369 
   38738    68675    98930   104382    78883    57095    67321    76932 
   86560    92171    71571    66495    83389    73049    51854    57346 
   75091    84265    80547    70713    69412    79022    81255    75998 
   91600   100577    68951    47185    54349    65739    78533    77909 
   76345    80146    63293    56551    82513   106687   102199    75975 
   71563    92894    90940    66609    54473    62151    79296    93509 
   97845    84110    69113    68790    63895    55999    58671    70825 
   74576    72360    74980    63427    67493    86061    81063    79180 
   71516    61904    78244    71778    51151    72774    95446    74575 
   51173    51605    42932    47135    81631    73116    42703    59864 
   81047    77754    69938    52995    48393    76605    84505    65862 
   71398    71971    59566    66985    72227    73510    69507    54382 
   63227    82628    79589    69758    67663    66945    62860    65368 
   70094    65485    71126    88222    92718    83285    58800    44095 
   74078    92871    69206    66811    74197    58356    63261    83479 
   82806    77298    75286    71365    83740    89137    55856    43641 
   62658    64027    74532    84408    70494    77649    90822    82340 
   82362    76550    64201    89509   106787    70364    49302    72773 
   90336    88233    71641    54622    58071    55363    46414    68450 
   95405    91768    75883    71470    73832    60961    49023    76497 
  106188    82613    45291    53190    84061    91912    77106    56612 
   54837    72875    58035    33231    53055    64215    48185    52481 
   74383    83517    74633    61014    55656    77101    85614    44464 
   25640    54298    89781   113529    96132    66661    76920    95607 
   81206    59146    83902   121792   109877    70873    34680    35716 
   78960    85465    42102    25794    57526    90358    95334    62557 
   26245    54236   107130   117977    88881    29087     7369    55042 
   91297    98833   108621   108133    84582    56373    54283    72814 
   72161    57688    74775    92851    83921    77970    61955    58533 
   85086    90552    75924    73847    88537    88141    69545    50904 
   25936    47825    98088    81680    52937    59287    57261    70480 
   80933    49432    51565    97534   107199    81724    65781    59485 
   57766    79964   104152    94824    77098    76833    78727    78707 
  102687   131485   110945    73827    67933    74337    93048   105478 
   69662    35024    64557   102309    89430    68580    69269    73134 
   62521    46850    55937    57495    36286    41359    61523    83133 
  106876    85652    38805    25041    35563    69607   108953   101741 
   79786    84287    94263    81467    62183    80581    99152    91678 
   80720    53901    41061    65546    86795    65600    35567    49037 
   65917    63834    55698    48757    68702    81598    73138    75752 
   79901    82501    63732    29004    50264    94963    96404    84746 
   58062    35113    62117    82440    77596    72216    50410    52818 
   73175    58375    59339    86711    94817    90636    68782    56968 
   87340   103439    85943    71637    76998    92932    81747    62487 
   74463    77495    73584    85002    60697    38538    69020    65209 
   36472    69160    96462    67373    51772    60312    68848    82772 
   72940    52137    75447   104166    86054    64373    62660    62432 
   67470    59173    48197    65730    76763    69060    60836    55352 
   70605    84018    73024    70937    73070    59790    54560    65410 
   81576   103486    99530    66456    59903    61192    75128   127048 
  117632    55233    50026    74218    86464   102543    87358    36994 
   39969    93436    95874    49777    32607    39383    49318    88366 
  105205    71902    57534    71109    90787    97781    82119    78894 
   82298    81562    95077    86985    58773    61506    72570    64669 
   49916    53053    83758    84007    60825    61273    60376    91027 
  121007    80468    58675    65580    62152    80825    86339    83716 
   95580    72098    33353    38259    62409    78730   105715    98685 
   45754    40576    76711    81579    82057    88627    58877    39314 
   46930    35865    58024   104190   102942    90171    87142    70787 
   56797    83671   111700    77758    74926   114297    88997    67927 
   64521    48273    85765    96762    71404    93721    89796    49087 
   40587    51999    52793    57676    59829    42900    60720    88245 
   77560    80291    86530    86242   101098    98631    89262    88654 
   73059    66472    84257    89554    79976    78314    84750    80462 
   71942   100084   105607    51846    46151    74779    74065    80752 
   67761    23692    25150    66294    59447    29389    56976    85884 
   76199    73354    65175    40716    46683    97430   117205    81924 
   69510    88915    96044    70563    29056    38784    87721    93276 
   79768    82602    68681    66977    71285    45003    67065   108414 
   61553    14297    39550    75460    84711    58016    36653    54527 
   68867    70691    73619    67474    67945    75829    58310    44539 
   54082    52488    65722    77233    56906    60550    69687    60054 
   73527    95287   103805   109229    90036    47930    53019   103202 
  131823   136665   112954    83511   105846   140958   147374   128182 
   96276    91802    93783    82185    74325    51007    42550    66276 
   59012    33848    49879    56727     6716   -20815    21159    65103 
   55985    17012    -3778    11040    46948    65500    48039    28890 
   42545    71567    98153   120856   117844   120596   136537   118266 
  107947   117767   115165   107601    79547    65009    81028    61160 
   22817    18586    23329    20881    32620    38311    39629    85095 
  123542   129531   137771   112779   102189   127273   106880    76686 
   70200    51703    52606    75852    55467    27858    46294    65319 
   92520   111323    82378    65615    55186    50383    82503    81734 
   50170    42299    57802    91806   105790   102051   126530   155692 
  160065   150444   127639    94657    94824   143510   147409    79085 
   46480    60995    70263    81225    82486    70492    71757    64860 
   43148    58529    94290   108598   105428    90682    95806   103160 
   77268    57885    61072    54891    48631    74979    67649    15763 
   12264    17953     6659     1393   -31310   -51038   -22453    25672 
   58347    56369    46188    52124    91952   122567    77016    14790 
   13689    64392    87369    30111    -3449    50936    79219    44309 
   31600    51000    70428    82707    79340    72617    61018    36983 
   35949    54934    40541    21807    68234   125523   126933   102331 
   70281    52720    56978    51171    60116    90699   113680   123368 
  103941    68044    27349     6934    53878    94780    84215   101218 
  119662    99164    96269   104202   117192   142456   128783    96105 
   86475    62133    18229    17352    39461    11919    -6511    28432 
   56172    70510    73067    75039    94305    74058    48926    88214 
  114403    87616    69105    77846    91084    86745    62174    58758 
   85136    69553    30272    66206   120015   117634   117957   133995 
  149796   180108   214901   214031   174101   175081   201021   165807 
  114120   117567   162746   183875   156489   130928   121204   100040 
   98342   133587   140852   115365   102563    82309    42499    11877 
    6467    12787    12802    12082    -3497   -45183   -59223   -27600 
   -1129   -11272   -53395   -60777   -14034      441   -18401   -24466 
  -17319     1698     9825     7553     1312    -9859    -8077   -18725 
  -45480   -32902    21122    53730    57261    84956   121190   114677 
   84312    80935    97532   107063   114844    89355    52749    78227 
  107901    88047    54224    23642    22667    61080    86668    69576 
   60536    84885    99873   102460    97818    76231    68462    88275 
  103642   105961   111871    94186    45837    30971    53963    58469 
   69063   119265   142726   120347   109933   112006   116892   123364 
  111896   102015   100627    87129    81797    79785    67697    78333 
   79940    63780    91918   120214   116333   126874   129934   125402 
  172189   229294   233073   241891   269068   240387   193260   195718 
  199759   171240   153750   169923   192680   182132   144834   125258 
  122625   115924   108444    95727    94960   120676   119161    65097 
  -11892   -78379   -95058   -88538  -106045  -116097   -95715   -76663 
  -95316  -136374  -114585   -43409   -40707   -74869   -67505   -58411 
  -63134   -73332   -67774   -15503    12502     6272    55024   102776 
   77236    75865   128676   141652   126868   118488   101109    93595 
   84842    93302   162707   237109   270703   298489   330632   328341 
  297151   274923   239473   195967   188241   181093   156994   155706 
  165114   155314   142658   146311   124348    57134    17749     6444 
  -34183   -54783   -19519    41130    96692   102481    83089    80870 
   76126    57396    -1622   -47660   -13331   -13926   -67216   -60345 
  -37498   -43159   -51381   -69623   -79691  -107387  -154880  -155169 
 -157792  -167439  -127121   -98312   -87295   -58079   -16518    38072 
   68158    64423    49736    35075    37076    44988    64133    98743 
  117240   134211   163255   162295   155792   187795   187515   134387 
   97553    82452    98540   148990   173209   160575   126991    71500 
   28803     9286      342    27589    79798   100654    97397   106369 
   93486    64949    86495   120108   122156   128764   157567   174708 
  138073   111754   138974   134312   107921   106942    96903    83506 
   76449    91913   148513   184924   162638   114072    86821   120757 
  191050   212305   161705    94185    50996    50900    76584    90845 
   90004    82800    66613    46302    28684    -6231   -42708   -31968 
    4660     8452   -38535   -92280   -95443   -47706    19816    58656 
   31114     9258    59518   106929   108734    71123    13414    48999 
  118200    74117    22258    52010   125331   163549   109518    77942 
   97773    87639    97768   139051   164070   164521   143367   132675 
  116922    74996    41651    24221    31290    49626    40402    45470 
   87930    84655     7307   -58403   -39405    38051    69812    35993 
   14496    16262    30454    69642    99819    92344    80391    97100 
  123099   148883   182375   192337   171224   123943    61859    44913 
   68748   107141   147251   141218   134944   156532   121783    55775 
   40325    33867    -6523   -22634    22971    86036   112063    82251 
   50280    82615   115033    65229      194   -14778   -20461   -49351 
  -48062    31785   104664   115362   132939   148558   135168   136273 
  151583   154681   122569    85957   107900   151391   167482   153706 
  106574    53584     6990   -49913   -93202  -109495  -140772  -169415 
 -143171  -118854  -101756    -4549    86746    68199    24031    20116 
   40207    55651    56016    44716    12190    -9899    -3252    14686 
   48180    83450   121707   172585   217896   275198   336633   330201 
  255688   185349   162576   153499    91951    31984    19877   -18422 
  -47380   -26330    -4202    48393    63539   -13387   -16988    47409 
   70472   118655   168886   173697   192277   195712   170703   166210 
  163757   146026   133942   143464   155120   173839   243365   304693 
  286147   243967   236952   234195   200128   161014   114489    37747 
  -28603   -61307   -81180   -91169   -94544  -103416   -75446    11946 
   73369    84215   108557   122378   103580   112433   116860    76131 
   56866    51032    27865    31795    67173   114384   148396   118494 
   55431    33178    23044     4864     4279    -8387   -27986   -29740 
  -55455  -104444   -78498    24783    59036     8796   -22974   -41447 
  -69703   -78109   -34211    61371   105800    72905    54535    34010 
   31430    86414    99181    89282   129471   141928   112966   117971 
  156135   165654   118863    81301    84559    83964   112240   170309 
  183721   191393   225711   216481   181394   198868   231450   197272 
  131376   118754   149561   177264   166980   102294    57287    45978 
   11584    -1270    11169    15206    25132     9423   -35684   -65080 
  -57215   -34117   -38094   -36995    -9914    -2745     4017    21548 
   16746     4626    -5189     3939    51297    79706    51387    27187 
   37338    54198    77599    73584    22559    -3280    27133    64062 
   72106    50213    29500    64494   109277    80013    27438    28952 
   87050   139432   139583   122721   123647   140830   139322   123481 
  127847   124015   136147   167659   142006   112024   118048    81176 
   15770   -12773   -18346   -35253   -43271    -1799    66811   126697 
  173119   185336   190418   197818   139314    58326    11653   -31985 
  -49229   -20636    16383    15153      773    44905    88622    56350 
   11244    -6446     -549    64674   148652   163539   129150   106623 
   93933    92091   112896   117568    97282    85912    85336    94849 
  128263   161588   152115   120746    99858    79751    80750   106587 
  108341   109150   147696   175846   180972   184192   158480   113892 
   97231    84990    36969     9933    37781    48685    26609     6238 
  -19631   -54236   -90489  -101478   -38522    64542   100353    66546 
   50695    59697    65566    87295   112190   113206   115824   110633 
   73780    59167    83332   103053    98028    70726    58577    59359 
   49707    50079    21651   -13306    32464    92438   125008   143406 
  119784   119850   136325   100874    94967   128011   123512   118120 
  124656   107590    75907    41324    36204    56614    46784    38855 
   83145   111793    63958    16741    34641    45319    10466    -2774 
   46323   116838   127642    86587    67456    65618    71082    98694 
  102398    60623    33813    63537   114011    93920    22713    34161 
   63710     2529   -34809    -1613    32007    62171    94234   125543 
  157127   168710   136935    88943    57701    19017    -6731    42014 
  123623   131186    78433    59894    78717    78011    54306    68891 
  108881   122040   143471   151633   102247    63169    62579    45955 
    6193   -13655    14139    69290   103387    85201    34568     4004 
  -10647   -13215    28395    67302    74817    91243   105320    98074 
   91376    88842    72053    50411    34430    25494    48016   103380 
  153326   161299   144640   133159    85418     -480   -19901    44022 
   78543    79307   118255   149197   136552   124097   118968   114529 
  122125   146221   141542    78324    34921    43399    63541    88728 
  105777    92190    57451    66846   107146    91677    68457    73171 
   67690    73957    74367    49364    32827    38894    57090    40041 
    7326    30153    83014   107474    78501    35257    31234    36016 
   18981   -10586   -12282    38084    74675    67142    45733    21744 
   16282    32077    57221    78606    78830    90648   110678    78696 
   47024    83478   113647    97330    80165    70961    65588    50815 
   32676    38673    53925    95173   147792   143113   144763   181576 
  163710   135071   135834   111620    99449   104577    69095    23544 
   14295    37443    55445    45195    54278    96217   119033   124703 
  113151    76383    67913    72245    56936    77820   133304   166814 
  146877   108353   120926   114390    60613    70083    69053    -3523 
   -4040    34805    -6534   -29795    25797    68943    63940    38426 
   27939    45604    52902    23985   -24131   -47247   -13100    21940 
   15700    34072    85579    98136    66314    57107    84931    78343 
   43247    64760   126000   142998   109304    73776    86258   139307 
  145150   109790   104738   106733   103837   105281   108819   133890 
  122681    60397    43645    50448    42400    57088    68705    85638 
  106814    87023    81481    99311    82039    52270    35291    23330 
   29061    57815    79902    65188    34434    34634    43221    37423 
   60656    70961    42500    57190    84132    76545    77553    70039 
   48336    52366    73125    92040    96265    87432    95709    98729 
   67510    40055    36401    40207    36803    31407    46623    82810 
  113274   112861    92210    82421    86584    75020    52365    55756 
   67177    65611    79822   110809   121815   111153    91578    54415 
   20344    14374    31889    54673    49962    32410    45858    74445 
   89737    87621    75811    69781    62969    47368    34036    39405 
   71280   102639   104959    90752    78459    65778    41628    27071 
   50835    66623    66495   101510   108864    67506    75277   103708 
   79830    37678    16989    29049    56261    63913    64038   100953 
  148478   130435    77665    63836    76910   103222   127113   108730 
   86304   106358   122397   107896    89587    59035    34842    61873 
