Origin Time       2021/02/13 23:08:00
Lat.              37.7
Long.             141.8
Depth. (km)       60
Mag.              7.1
Station Code      FKSH20
Station Lat.      37.4911
Station Long.     140.9871
Station Height(m) 12
Record Time       2021/02/13 23:08:03
Sampling Freq(Hz) 100Hz
Duration Time(s)  300
Dir.              4
Scale Factor      3920(gal)/6170801
Max. Acc. (gal)   311.745
Last Correction   2021/02/13 23:07:48
Memo.             
[...]
  -20791   -19827     2650    19007    24509    26744    21643     8522 
    6520    22579    29728    24252    31838    39474    26912    17106 
   21276    16737     3415     6979    24561    34171    33697    23861 
    4765    -7387    -1497    12367    19944    15819     3399    -2655 
    3959     7860     7296    14738    21315    20336    25357    28135 
   17179    17528    29652    22891     8561    14354    34120    40599 
   21999     4190    -3802   -17270    -7682    29169    32497     5583 
    2343    12376    11272    12341    21123    26656    17690    -4566 
  -20134   -19264   -18038   -19063     2097    28599    18917    13208 
   47559    52436    13205     1920     4278   -11246     4607    50143 
   61732    31424     6323    11676    21529    26490    48417    61778 
   23831   -28382   -30319    -7622     2525    38424    79700    57904 
   14375     5156     2076      557    21177    28074    -6317   -37243 
  -28589    -1314    26529    50318    47819    16987    -4019      948 
    8436    -3550   -32144   -43896   -21021    15300    53614    80499 
   62760    15252    -4510     2490     1614     9116    27683    15061 
  -14130    -3248    31686    45037    53559    65910    50108    13898 
  -13550   -29077   -32259   -21060     2235    32998    53418    45349 
   25708    27107    33942    13554   -11278    -9336     2045     5107 
   19312    41889    33280    10060    18549    27793    -6675   -44192 
  -28718     5331     5871    12560    44771    42011    12506     9846 
   13729     5423    11144    20414    11266     7539    10259    -6224 
  -19594    -8639     5911    18300    38336    55013    44763    10988 
    1337    26732    29686    10235    19092    36199    31759    30135 
   35066    17745   -11302   -11588    12930    34020    40761    28190 
   10331     7301    13036     4776   -17074   -23873   -18790   -15859 
    5140    38074    48782    34811    18925     9054    -4681      579 
   40368    50958     9842    -8245    14697    21210      -91   -14491 
  -10186     6546    28113    44840    60993    64436    30092    -2306 
    8491    15434     3279    21215    45936    38556    41625    64415 
   50870     2575   -29242   -38181   -38523   -14590    32348    53052 
   30141    14745    21854    10714   -10549     1686    38442    48339 
   25332    16106    11153   -31487   -69700   -55284   -17944    13568 
   33119    24772     -138    -4496    14808    35594    43892    36917 
   35341    49004    51618    38378    28691    18817    -1173   -15707 
   -7333     5918     3444    11416    46947    70749    68193    63267 
   43942     6213   -13902   -12426   -13837   -23795   -30770   -26822 
  -20809   -12639     3199     4688   -13029   -18189     3188    28211 
   20519    -3870    10518    49838    74658    87746    75382    30787 
   -7608   -14540      846    20228    21314    -7731   -42052   -49425 
  -30936    -8973    13218    52081    74340    38864   -11213   -37744 
  -57530   -59539   -12224    67413   118246   102587    46390     5025 
    -103    23933    69034    81369    26958   -23824   -32987   -19005 
   24920    47620     6576   -22544    -5723    14681    43950    69228 
   38061   -19016   -27645     8855    29826    11550   -10096    -9093 
     272    19181    54744    65906    30369   -11467   -37893   -52401 
  -37959    15763    68545    61371    19078    13710    33683    30260 
   13741    17271    30150    32440    44513    66308    68504    48231 
   12669   -21305   -32256   -28080    -9581    38065    79866    65881 
   22788     5303    13120    16612    12351    12788    -1365   -26206 
   -8676    23887     7374   -11804     3115    -4392   -33348   -36765 
  -36413   -41909   -19306    15018    31422    41673    47382    42491 
   39489    35433    30984    44095    51815    33353    25658    35592 
   30293    16469     -847   -31548   -37870     -517    35519    45024 
   27501   -11233   -31816   -13441    14323    31467    43671    41026 
   17256     7684    23522    24494     7553     4254    10197    14672 
   31286    45177    23734    -4538     2700    16690     6657     2540 
   16944    11039   -14698   -11710    19510    37804    41395    50683 
   49805    24081     5907     2969   -14742   -34316   -40272   -41759 
  -28645   -13776   -14410   -12225    -5925     2042    17837    35777 
   63545    86337    62648    11560    -9051    22033    80902   116210 
  100933    52429      608   -27597   -26269    -8180    11193     7292 
  -17703   -16685    19427    42995    26592   -17137   -50475   -45150 
   -5217    58535   106058    92650    53541    40152    32405     2856 
   -7020    34082    42685   -32438   -94690   -88669   -52030    -5938 
   24749    34628    47704    52839    52228    63957    63037    39313 
   17051      -44   -25267   -44585   -31865   -18638   -27222   -13425 
   11548      321   -20527   -15469     -212     9349    18697    17977 
    2896    13024    57349    81088    74813    74705    64089    29377 
    3329    -8400   -10546     7209    25761    23522    20524    29569 
   38989    48577    35372    -9323   -20040    23357    67280    85090 
   72286    42729     8765   -37362   -52176   -10433    19194    10441 
    4811     3436    -2977     6184    19764     6001   -21530   -29191 
   -7700    25505    35070     4155   -43991   -72095   -60534   -23416 
   20325    60541    69617    41626    15978    14464    14630     6986 
   25878    70892    77609    22776   -32080   -35624    -9151    16022 
   48724   100885   138957   117286    69734    52877    43599    32832 
   45571    35429   -16598   -36811   -11707      791    -8757    -1137 
   23259    14845   -15618   -20975   -36146   -85113   -95217   -36003 
   19463    25326    24515    45863    26580   -57383   -97773   -55702 
  -23977   -29139   -31573   -15333    17537    45967    70105    93441 
   79965    46260    41269    41827    31427    26205    12474     3772 
   19927    36800    63024   105317   119809    98423    59700     1570 
  -49827   -62513   -52996   -23842    29679    60351    51354    32432 
    1882   -26683    -3767    44996    53681    44436    45423    33683 
    6830   -26552   -31234    19708    60330    56477    56953    55732 
   31073     6064   -15595   -31826   -48683   -83252   -88519   -33293 
   17257    15998    -8124    -7231    23670    22217   -27451   -48538 
  -37584   -62937  -102486   -81176    -9485    31973    37709    70164 
  110330   118318   119435   106838    65605    28734    18322    45719 
   89919   105397   105594   107601    98316    85883    59721    13083 
  -17014   -14266     6106     8738   -27271   -57362   -54843   -44997 
  -29158   -22801   -64201  -113351  -110612   -83754   -54874      360 
   51210    56579    35903   -17186  -110802  -149619   -75517    -8676 
  -25464    -9590    81273   133048   115785   100667   111568    90733 
   21198    -6747    26464    38894    20303    21867    57502    96037 
  118327   147161   175618   148721    65305    -6893   -41241   -67862 
  -85889   -74436   -39815    -3778     6772     2189    17788    43251 
   58407    66874    65865    42166    -5177   -33470    -7394    41067 
   82117   113386   119261   107104   103054    96806    80987    80918 
   76932    25944   -26349   -27362   -14926   -20605   -38003   -60107 
  -63964   -52002   -49040   -29539    20498    43369    18082     -231 
    2165    -7269   -17929    -5088    37803    83891    70711    18197 
   -7308   -25882   -45716   -26294     9464    -6209   -81698  -131428 
 -108481   -89590  -108780  -110705   -89046   -77040   -71395   -42060 
   -3661   -16338   -62589   -64765   -27530   -19405   -60984   -99550 
  -85891   -43882   -20943    -6878    24975    46527    30594     -989 
  -25380   -35310   -26660    -2589    22925    31100    19954     3575 
   -9539    -9856    21697    73950   100004    93558    84245    70973 
   61282    87525   135810   167984   181624   188264   191969   189887 
  182483   181586   180367   165256   152955   150023   140953   140466 
  161195   170656   160290   154595   138814    94375    42480     3111 
  -18708   -36083   -72195  -122295  -161913  -166902  -129059   -82275 
  -56828   -32302    -3227    -6844   -34197   -41491   -44016   -66709 
  -93069  -113801  -119162  -103482   -92016   -94636  -102154  -113902 
 -120099  -118039  -122827  -127804  -124380  -136977  -164423  -170543 
 -156003  -133963   -94270   -54506   -35971    -5684    55744   108606 
  131890   149018   166278   172222   179480   188854   163514   100697 
   48762    29505    29514    58555   120297   170191   186776   176632 
  123145    57428    36450    27289    -4541   -14952     2351     1495 
  -15021   -16871    -6538    -1770     7338    55198   129370   171856 
  173661   160965   141822   124150    97118    46710    10419     5525 
    1054    11029    49236    67760    37808   -20830   -63815   -72085 
  -82893  -100906  -101680  -101103   -94758   -61533   -34276   -48676 
  -76260   -69899   -39780   -25655   -19149    18138    76030   102026 
   96131    97337    95555    87005    92390    75327    15749   -30742 
  -41587   -46440   -55483   -72485  -103831  -133654  -149165  -145554 
 -114331   -70155   -42732   -43054   -50236   -32011     2894    30822 
   73501   136891   176165   181962   181551   169135   133561    96904 
   81863    88202   100088    97612    75834    55365    50591    44773 
   30833    30460    46838    49232    23568    -3335   -23283   -61931 
  -99375   -95815   -82083   -92499  -107236  -121542  -131634  -112934 
  -91669   -96859   -84743   -34583    12315    33318    37418    56388 
  107309   144990   142644   126984   100888    54227     7211   -17071 
  -27690   -33780    -7985    39116    54041    46985    52781    67107 
   81422    71867    18038   -40206   -61596   -68775   -88725  -108056 
 -114837  -118156  -130467  -154473  -182147  -197934  -184925  -163560 
 -173821  -198538  -213993  -239123  -261447  -258028  -241533  -212790 
 -178820  -162143  -148886  -121757   -79857   -13834    57131   107170 
  155097   219997   291971   345631   363913   357527   334356   293550 
  246939   201317   160475   145271   167841   203319   224887   249160 
  295381   335398   354398   375156   376868   333846   293943   281666 
  256717   214499   175377   134372   100630    84773    69920    54492 
   50131    46526    36112    24989    -4408   -67707  -122408  -136681 
 -150158  -178562  -193004  -204890  -225797  -223830  -197943  -178749 
 -160365  -135244  -137369  -171576  -193652  -199428  -216808  -234305 
 -233923  -214053  -164761   -89099    -8096    50727    81130   114782 
  134115    95652    50446    49068    53435    42079    36346    40010 
   55612    90622   124285   149392   185541   221889   255127   305206 
  348907   363443   369539   361568   299940   193471   115467    89747 
   46070   -15724    -3079    69488   108022    99581    70942    26496 
  -21672   -60614   -99709  -138159  -152230  -143930  -140438  -145233 
 -146420  -147675  -154332  -159426  -160143  -160116  -154024  -136327 
 -124770  -144166  -183272  -211506  -229101  -245100  -236498  -186942 
 -126969   -91739   -79461   -65844   -33896    -1781     5460    11552 
   33827    38500    26753    26678    18174    -5373   -22067   -36998 
  -44900   -27621    11538    51870    63326    65129   101486   139913 
  143829   141441   150510   169037   197115   223011   237035   235798 
  215677   183800   162254   162216   160271   134069    97207    67869 
   42000    19024    11000     3082   -28592   -57876   -53199   -33987 
  -25624   -27515   -26016     5610    71940   137592   192896   250688 
  293775   309151   306517   300911   317085   350966   348192   279546 
  187080   117615    55917   -18005   -62930   -75691  -122384  -196995 
 -247747  -285006  -325090  -344176  -319501  -265907  -215133  -166132 
 -111151   -79962   -89145  -107242  -114404  -116026  -101344   -62068 
  -15087    23599    54258    79890    96250   102772    99191    71509 
   23826   -12289   -31198   -46194   -55064   -57521   -44544    -9573 
   20518    32290    32810    18597    -9010   -47028   -83043   -98301 
 -113196  -146088  -166940  -169438  -176241  -169387  -131348   -78930 
  -23469    23728    55676    74021    64795    39869    28555    10172 
  -29268   -57974   -57366   -22516    41163   103209   144572   173015 
  195961   203981   190615   163373   120169    73354    54219    41625 
    3380   -26669   -38253   -73021  -126542  -172919  -209193  -213529 
 -174587  -129975   -96784   -42545    34760    90450   108248   107234 
   94916    68186    29549    -1318       69    14319    15710    33443 
   82227   125516   142244   141987   138185   139826   136391    97219 
   29456   -14080   -26323   -32886   -30615   -28006   -23048     4983 
   23941    13855    19371    54490    88231   116134   148018   170238 
  178431   184590   176902   140818    94396    56690    24475     7333 
   28000    72913   107402   122442   130351   143641   150529   128278 
   90845    62306    38454    25624    33469    31420     -326   -37312 
  -62135   -81518   -98113  -100007   -90417   -85580   -82537   -92017 
 -131678  -176526  -202344  -210119  -192608  -156643  -123613   -77027 
   -7478    39332    62847   120641   203159   255141   271967   279588 
  294079   319514   343783   344590   307877   242878   181676   132739 
   62980   -20941   -74998  -116358  -179966  -245879  -293493  -331616 
 -371568  -414588  -451216  -474795  -476260  -423832  -318249  -227772 
 -166654   -82862    -1157    44448    96389   161057   212621   258598 
  300755   328378   325143   280907   227459   194584   161472   111967 
   72388    63576    81808   121291   166729   195670   202970   200262 
  193845   168895   116354    68229    49294    32546     9442     7803 
   20611    26222    25283    13017   -16421   -50394   -78691  -115127 
 -166568  -210187  -238198  -267221  -297458  -316806  -324436  -326453 
 -319728  -295643  -257604  -213151  -158876   -88384    -5920    74229 
  136181   167604   167662   146353   116900    95334    80121    48863 
    1887   -44468   -95730  -156822  -214080  -249626  -254863  -248746 
 -248349  -231506  -189445  -147350  -100380   -30989    37839    87526 
  133854   187255   246565   308781   359473   391106   413592   426162 
  416413   388688   357704   322284   282958   258607   248586   227663 
  196544   180543   171396   135135    86191    69616    79495    83207 
   80796    76866    53730     4267   -47563   -78637   -95406   -97665 
  -63714    -5453    46820    98151   146481   158083   128394    92591 
   69702    46555    15180    -8739   -15977   -20563   -26821   -18917 
   -2274     1778     5068    23020    33365    25919    17321    -4257 
  -65326  -148983  -210295  -237812  -257329  -281675  -301337  -307455 
 -294170  -262696  -225413  -193416  -161783  -123475   -92895   -72958 
  -45604   -22921   -26911   -48117   -68789   -76442   -68913   -58232 
  -37870    13643    74096    99764   101877   109645   113160   111393 
  121561   132633   133333   137920   147438   137155    91435    42571 
   38285    65146    83606    95887   119064   155017   181089   175613 
  163774   168933   171139   147129    86967     6602   -57337   -95164 
 -119910  -132866  -121879   -78252   -25242    -2888    -9620   -19161 
  -31552   -54311   -84603  -113856  -123762  -106218   -68544   -13517 
   44935    82511   106996   138230   167715   191506   221489   246342 
  237050   190354   136860   100203    71020    29873   -18770   -46448 
  -49758   -64512  -101127  -139374  -177781  -211121  -226609  -233297 
 -234076  -219835  -182648  -112391   -25626    41702    84069   118174 
  143272   139697   103350    62083    37649    34993    65636   109184 
  127938   134306   134195   108831    72954    35400    -6172   -38823 
  -62571   -75208   -75329   -75866   -71301   -54985   -37461   -23617 
  -12702     3761    35980    69234    87575   103054   120503   128261 
  127247   122854   119382   120949   119788   118490   131217   150524 
  169336   186868   179548   142851   105180    79581    67556    59042 
   35697    10724    -2916   -24206   -55213   -73175   -76819   -86130 
 -102690  -115469  -128779  -150790  -180350  -202782  -206391  -209228 
 -224230  -237842  -248281  -259044  -249699  -205264  -150920  -113716 
  -81446   -40735    -2640    25196    47657    73896   108310   141239 
  160566   171245   183175   191981   194754   195316   193766   194723 
  199097   199576   202511   220323   246467   261189   257116   239988 
  199817   128993    62907    23798   -18887   -62075   -70605   -63482 
  -64666   -61736   -59426   -66158   -70932   -71494   -69740   -61222 
  -50682   -46425   -39205   -20335   -11043   -21293   -20133     7593 
   42471    69200    86118    94035    97005   106647   118490   108064 
   73127    36708    13722    -1045   -13721   -19876   -32450   -67017 
 -102338  -118031  -131941  -158982  -172694  -152752  -120655   -91018 
  -66917   -62705   -74126   -87851  -108863  -135637  -153736  -154116 
 -135771  -106101   -74895   -53222   -46967   -42029   -30824   -21621 
  -13577    -9278   -11395    -7316     9136    37730    77457   113235 
  138142   167726   200816   216310   218154   227316   244384   261384 
  278906   293655   301189   301980   288044   251880   200585   145015 
   97261    65798    45604    25437    -5322   -43867   -75620  -103306 
 -135254  -160894  -175941  -192252  -211971  -220802  -208677  -190600 
 -182290  -170656  -146488  -117843   -82832   -48327   -35826   -34704 
  -15097    16687    36392    44562    56693    83110   115507   129943 
  125791   117334    91722    44304     -158   -34271   -60495   -71614 
  -79804   -97846  -114387  -127460  -144204  -162588  -180272  -187790 
 -175135  -147552  -112384   -70931   -23487    24585    67087   107059 
  141106   158785   169201   181906   189075   195721   210376   223587 
  233168   239362   225584   187989   149519   124217    97020    58204 
   26563     7932   -14345   -34674   -40316   -41439   -36738    -7276 
   37678    68631    81471    93011   115052   142153   159364   172784 
  198590   226171   232073   213474   190437   167511   121806    60174 
   21340    11910    11423     9915     1332   -15012   -28012   -44674 
  -84498  -131797  -159224  -175712  -194937  -210770  -220721  -221596 
 -208420  -194152  -186995  -167703  -132330  -110765  -107383   -96024 
  -74828   -57194   -44156   -32121   -17995     1255    23721    39636 
   43576    41026    41681    52887    62408    56776    48689    40393 
   26898    24963    35738    51533    74141    85773    81129    80507 
   83750    82550    80116    76264    68284    56265    43272    34669 
   34046    41870    56267    70061    70821    56649    37373    14880 
   -8336   -23392   -30555   -28523   -16244    -8404   -11641   -11429 
     -84     7538     3682     5479    18029    23527    12895    -4041 
  -14196   -19955   -24736   -18819    -1728    12580    12618     8277 
   17404    31252    38434    38803    21615    -3516     -562    28936 
   45320    44017    48939    51931    40802    32697    29972    15852 
    4051    12247    10909   -19697   -50226   -63065   -69601   -75371 
  -72740   -54932   -32159   -20131   -12045     5121    21272    26620 
