Origin Time       2021/02/13 23:08:00
Lat.              37.7
Long.             141.8
Depth. (km)       60
Mag.              7.1
Station Code      FKSH18
Station Lat.      37.4894
Station Long.     140.5380
Station Height(m) 410
Record Time       2021/02/13 23:08:08
Sampling Freq(Hz) 100Hz
Duration Time(s)  227
Dir.              4
Scale Factor      7845(gal)/8223790
Max. Acc. (gal)   450.243
Last Correction   2021/02/13 23:08:08
Memo.             
[...]
   -3866   -11932   -21671   -30928   -34959   -32098   -24875   -17863 
  -12738    -6818     3148    16418    31261    47353    58959    56338 
   32691   -10550   -52243   -63602   -44956   -20796    -6377    -3462 
   -4908    -1070     5611     8253    13744    31515    52909    59240 
   42477    16478     3225     1113    -7639   -24565   -38109   -40230 
  -34041   -32899   -37339   -31117   -12020     5718    17261    29328 
   41974    43684    26379    -1826   -22393   -24833   -15514    -6828 
   -1675     7761    21278    26531    24148    26886    32562    29578 
   14689    -6127   -22218   -31984   -37612   -39460   -49100   -57878 
  -38658    -6415    14030    30122    37975    30970    25882    27074 
   28161    31997    34020    26592    13072    -2677   -19635   -26825 
  -18099   -10847   -11929   -11819   -16441   -24570   -20440    -6077 
    7061    17712    28524    33149    20254   -11087   -47066   -62060 
  -46444   -22187     -643    20727    31419    31603    29944    29785 
   41870    57823    50880    23315    -3493   -22428   -33054   -33910 
  -36394   -46134   -42612   -28105   -29559   -37412   -32456   -20933 
   -1482    25573    42611    48049    49709    47231    47459    49585 
   43503    31405    12420   -12256   -27456   -32514   -35390   -30568 
  -19739   -16552   -23631   -36622   -49740   -42857    -8032    25157 
   30673    14482    -5513   -11936     2208    20299    30878    45023 
   53303    39515    27116    33399    37523    25065     3311   -15971 
  -26762   -38011   -54295   -61317   -56400   -49524   -46838   -51090 
  -44918   -16290    15803    40952    59706    70802    82053    89488 
   79890    54360    18594   -16740   -38056   -48528   -54203   -50606 
  -42449   -38400   -32836   -20988    -5846    14902    42007    57034 
   37554    -2250   -26732   -29825   -20842    -4356     -198   -12340 
  -10168     4554     2268    -3603     8505    24247    31617    31635 
   29478    30488    25959    12136    -1799   -11268   -12661   -14524 
  -35106   -61560   -65827   -43600    -7241    22110    36896    47601 
   52303    49395    44163    37122    33623    31179    18864    -7175 
  -44936   -74717   -77241   -59610   -35208   -21500   -28088   -35494 
  -27249    -4842    20244    36329    47326    48146    35359    33431 
   40342    30790    11657    -8498   -32401   -43695   -33312   -13475 
    8041    24240    26252    16752    12829    27615    43200    39341 
   23488     4232    -5116     2558    -1899   -29600   -55026   -66876 
  -65342   -53752   -42858   -30966   -11377     8062    24050    42843 
   54596    52077    51359    54950    49249    32584     -187   -41179 
  -49545   -24988   -12367   -16907   -24484   -31965   -24779    -8560 
   -7119   -14620   -12471     -895    12892    23112    20871    15040 
   22366    29848    27637    25847    21617    15924    18739    26681 
   30688    22372     2722   -21055   -48186   -65414   -63850   -64400 
  -69025   -53855   -24007     4625    33459    54685    62737    62368 
   53042    48066    52189    46442    29640     5614   -25733   -54450 
  -77584   -89546   -85855   -66731   -30253   -10390   -25498   -24314 
    7761    31789    42315    42057    34469    48733    81036    99358 
   95650    69720    38489    26956    16699   -12784   -44281   -65388 
  -72242   -62874   -52006   -47341   -50305   -56959   -47629   -26989 
   -3766    21068    21402     3434    -6759    -9883     3808    23863 
   30163    39784    46591    32269    12699     -472    -2339     7727 
   16976    19588    11414    -3754   -10575    -7310     2199    12800 
   13242     2590   -10785   -19828   -18368    -4249    10014    10334 
    2856    -9042   -31789   -51012   -41708    -7219    20071    30277 
   40559    39577    15322    -4891    -8338    -8143    -9603   -15745 
  -18831   -13278   -21292   -40811   -35332    -2177    35874    66058 
   69101    40282    16858    24948    38799    33555    19180     2415 
  -15757   -22879   -18029   -15866   -22663   -32458   -40494   -45717 
  -47939   -45458   -30900    -8129     2050    -6023   -13903    -4225 
   22327    47529    56158    50552    33725    13730    12044    22341 
   19948    11819     4423   -11772   -22091   -18198   -18107   -18912 
  -10773     2747    21505    29054    12546    -7321   -14121    -9423 
   -1919    -5132   -21811   -38491   -36047   -14184     3173     4554 
    2328     9273    22279    30118    33401    29404     8537   -17126 
  -33578   -39656   -31380   -15145     4396    28574    41299    42539 
   42110    25520     1383    -3067     8209    22410    23252    -6369 
  -41412   -51700   -45473   -31488   -22725   -30916   -26389      380 
   14877    18333    26395    30053    35866    43494    33397    15797 
    4174    -9201   -14944    -7840    -8122   -16745   -26195   -40373 
  -35830     3415    44618    59692    46129    19569    10258    18898 
   16220    -5769   -31509   -45752   -41249   -30944   -34670   -42549 
  -33112   -16409   -12680   -13971    -1336    24760    49184    66733 
   78692    70422    35661     2813    -3249     9000    17795     5749 
  -26091   -51395   -51328   -41068   -36995   -22006     8800    19538 
    2608   -15375   -21662    -6427    18404    20929     3975   -10635 
  -11892    -3411    -1479     -278    19543    42179    40532    21531 
    7249    10673    24345    22914     7798      660    -1447    -3130 
    -245    -5510   -25589   -46799   -62189   -72639   -75235   -64465 
  -39225    -9877    17964    45368    62741    66214    59301    43567 
   36229    43638    43322    31148    18069    -3167   -34730   -56435 
  -52739   -32368    -5857    14593     2451   -26157   -32865   -33480 
  -32339   -10073    13798    31264    38045    13829   -11529   -12055 
   -9019    -5553      222      187     2500    15449    35085    49924 
   54868    52362    42287    31031    14833   -18195   -45944   -47733 
  -45133   -43299   -31615   -29355   -33754   -21840    -1355    26828 
   64385    80223    53848     8451   -17460   -20628   -26308   -38041 
  -47466   -46426   -26596    -5919    -7555   -20528    -8496    36693 
   71000    65618    35183      754   -18573   -20444    -8353    18022 
   28158    13659     8091     4942     2320    23745    38016    27965 
   21787    10372   -11616   -25222   -31673   -30110   -25131   -31554 
  -43322   -51972   -53692   -38843   -12394     2976    -3661   -17113 
  -21951   -15377     5201    33369    58803    78223    82593    67809 
   35125    -8311   -25137    -1830    24327    39726    37386      114 
  -32745   -31982   -26380   -12341     8478      295   -14756   -17014 
  -39571   -63390   -52469   -33442   -24838   -16830    -7088     7948 
   24354    31585    33473    41588    48212    37755    31536    49499 
   64511    57963    36790     3854   -28204   -45958   -55507   -60795 
  -58573   -59593   -75670   -91783   -85114   -55036   -13544    21971 
   38115    46350    53785    57334    78246   109498   102346    61770 
   32695    21917    12803   -10268   -45994   -62928   -47328   -28850 
  -35067   -55884   -60011   -40319   -12926    13057    24922    23872 
   33760    43092    36713    35110    26970     -918   -19597   -30582 
  -47888   -48780   -32460   -21529    -9613     5320      951   -16422 
  -10647    23673    55050    68673    65827    40120     9815     3511 
    7844    -4789   -27550   -30200    -3438    26374    33250    18319 
   -3040   -13778    -4912     8937     7037    -7493   -22812   -32163 
  -29502   -24328   -24727   -25515   -29736   -24345     2199    23422 
   29756    27896    11746     -874      765    -4114   -10534      758 
   19149    27751    24636     8803   -12271   -13313     5483    20634 
   35907    41912    18499    -1894    -4190   -13061   -20691   -15612 
    -716    13868     5697   -12773   -18526   -18107    -9131     6212 
    8704     2249     1912    -4963   -29609   -42959   -32827   -19353 
   -3181    -3045   -34095   -47268   -20443     9096    22769    17506 
   -1571     1582    35756    55692    51196    52859    54392    43290 
   33991    21649    -1641   -17227   -15927    -7813    -4760    -6369 
   -3767    -7175   -21185   -29691   -33619   -33600   -16097     8947 
   14943    -1283   -21598   -31949   -26912   -14845    -9030   -10173 
  -12109     6633    45532    58715    43771    30381    16634    12090 
   14634    -6767   -36013   -36852   -16987      872     6821     6767 
   11677    16258    12722     -793   -19757   -20704     4167    24196 
   22937    14956     4247     -405    20980    46167    39969    15228 
    1733    -3172   -17848   -37450   -49242   -48779   -37330   -33620 
  -41787   -37816   -22196   -12316    -5440     1497     9390    22666 
   25998     7769    -7823    -1806    15699    33293    35498    12756 
   -9026   -10963    -8444    -6855    -7793   -23900   -36713   -19538 
   11834    31364    32439    20239     6601      140     5313    23749 
   48585    61696    43594    13922    13373    28674    32003    28159 
   13784    -1219    -4546   -20714   -43582   -45582   -35650   -28698 
  -38267   -61241   -68773   -54027   -27271    -4025    -4047   -16965 
  -25319   -27147   -10494    20189    42468    59859    73742    67502 
   49852    44127    51691    67437    86829    94608    88267    71926 
   41694    10928    -6914   -13193   -11850   -18426   -42300   -74024 
 -100830  -113899  -117671  -119294  -115788  -106645   -97006   -89394 
  -78715   -58125   -26430    13379    50267    73569    84388    82760 
   71886    65246    59944    43464    22669     4369   -13864   -26269 
  -29164   -25417   -16461    -2899    19855    41917    39829    20838 
    2517   -15036   -24516   -28179   -40841   -55007   -62939   -69753 
  -68143   -59632   -57276   -46280    -9585    39079    83984   115762 
  127777   134397   141164   128483   102732    80030    50280    14438 
  -20455   -66881  -122750  -161100  -169967  -162970  -153057  -138375 
 -108595   -64951   -24069     7979    41571    75789    90540    77942 
   53042    38515    58401   104620   130555   124245   117302   119133 
  121027   123206   125478   122562   105131    77494    54274    33690 
   14752    -3007   -32144   -66024   -92670  -123041  -157291  -176613 
 -176058  -161985  -133066   -95181   -67127   -48705   -32134   -33350 
  -47645   -38948    -9574    12606    27117    36162    39271    45198 
   51105    57507    64384    53821    33891    25735    18107     5358 
   -3392   -11743   -17049   -13879    -2062    24120    54729    81283 
  116569   152802   172296   168690   122885    41504   -27406   -75023 
 -126677  -168308  -190232  -216468  -241582  -250379  -247384  -232795 
 -214401  -198109  -177234  -155974  -137039  -108939   -64484    -9466 
   42385    83342   114785   135932   149982   163615   178104   196786 
  216688   217098   182301   128333    94209   102334   131333   144128 
  137413   131838   131978   131620   128101   117825   100192    79871 
   63798    52045    34574     7395   -28054   -66675   -96142  -120563 
 -154241  -187532  -205912  -214636  -214510  -196473  -162594  -121432 
  -76203   -19845    53180   120010   156099   175494   185980   157438 
   86163    16965   -33413   -91303  -145419  -164724  -172962  -185467 
 -172609  -132274   -84839   -32513    20860    57397    80509   111493 
  143353   162702   169065   153878   124619   105179    96884    90143 
   87882    86833    68987    31644    -8942   -45397   -77448  -110168 
 -147326  -171109  -179814  -196523  -214903  -210708  -176777  -126989 
  -94732   -97047  -108567   -98829   -61222    -6751    43011    91569 
  148606   165312   117053    58595    23163     9652    18979    34420 
   39872    41870    47818    49320    38556    22104     4757   -11874 
  -21473   -26840   -28899   -15148     8958    27541    45323    58693 
   55541    51088    60775    82736   114153   146484   173858   195983 
  205846   193081   146916    75934    15105   -27896   -76048  -121933 
 -153661  -183008  -195971  -176238  -144711  -124591  -118135  -105471 
  -72711   -36167   -13359    -5340    -2639     2679    12552    27939 
   33393    18588      791   -16335   -40946   -70459  -110060  -159011 
 -197259  -210959  -198549  -162965  -119223   -89021   -68486   -35599 
    2905    33967    68467   101753   119051   125739   130711   141621 
  158604   158805   123955    77041    52874    42633    28890    28366 
   38442    39231    44398    66418    94311   117065   127143   124953 
  118134   110326   102139    93845    81422    61237    36659    12833 
   -3846    -1759    23899    51451    55124    48909    47542    32486 
    9097    -7901   -33683   -68951  -101243  -126700  -141151  -147313 
 -146859  -135089  -114880   -97524   -90053   -88427   -90876  -103013 
 -123741  -144564  -152583  -126110   -62467     2227    50125   100453 
  152236   196307   237303   267395   283174   290164   284612   265180 
  235147   199835   164169   128209    92111    54280    13065   -25114 
  -56647   -98444  -163530  -230831  -285776  -339481  -386532  -419199 
 -446355  -463826  -457907  -418913  -343835  -253652  -179663  -119418 
  -51198    17217    73306   125319   175355   224448   274753   320093 
  361426   396296   415404   426347   438988   446862   447836   447903 
  438386   395595   303735   183357    85433    27267   -26804   -94846 
 -157183  -208641  -259459  -310536  -361300  -409214  -445774  -466209 
 -471253  -460182  -431958  -394389  -359005  -326407  -289808  -243870 
 -183104  -114813   -64080   -25488    38707   111959   155282   198645 
  258569   301685   327190   342890   345429   346115   348972   350285 
  346890   330752   296566   244838   183109   127464    91399    70179 
   49160    25004    -1385   -33259   -65394   -90454  -113255  -141423 
 -174441  -208103  -241050  -273573  -306579  -343055  -382428  -411362 
 -404491  -334137  -205771   -94575   -51553    -8449    69003   116607 
  142082   182946   215643   241995   273218   300547   326760   348671 
  364965   377262   368365   315589   217906   116029    53991    14535 
  -38515   -94204  -139869  -186933  -231846  -271811  -319175  -370662 
 -411816  -434837  -431746  -393309  -321430  -241038  -180072  -129074 
  -65303    -1566    49401    99982   145704   179012   215584   259690 
  298776   325931   341162   349293   350447   334268   293950   244703 
  221530   224853   203677   148541    96834    46772    -6910   -50811 
  -95800  -144922  -187690  -225051  -256225  -282181  -305341  -319553 
 -321258  -320936  -329200  -333594  -315562  -279614  -232009  -166646 
 -101241   -60509   -20412    38161    85429   121625   170356   215636 
  247803   281165   316045   343267   354053   343066   314311   276820 
  233375   177846   116838    71729    41477     7221   -30094   -64997 
 -103705  -146982  -196136  -250923  -301445  -344655  -374876  -372119 
 -328001  -256184  -168832   -76816    -8776    28042    66181   105038 
  115013   108691   110700   116206   113587   102737    95512    95488 
   91234    78298    63867    61747    74368    84186    89757   101277 
  104098    88908    76169    68773    45759    16933      889   -15840 
  -36632   -51673   -66040   -73759   -58221   -26410    -4175     9822 
   32482    33525    -4955   -36459   -49088   -72345   -98084  -107099 
  -99387   -71219   -31342   -12679   -18831   -23429   -25253   -20235 
   12603    59225    95952   121446   125572    99967    61646    31121 
   11587    -5443   -25618   -52223   -88645  -126584  -157192  -180742 
 -181953  -148560  -112702  -111392  -123110  -108850   -73654   -20638 
   48336   105065   158780   211103   228648   239765   273329   300446 
  313131   319400   306574   261096   193027   133436    85915    28786 
  -23758   -61551  -109058  -159416  -203251  -256362  -307536  -345740 
 -379663  -404528  -412117  -400130  -361675  -294532  -220302  -164647 
 -114906   -53343     -236    42102    98070   158452   207507   247434 
  273176   287358   296439   290638   269370   253647   251147   245077 
  229803   209632   177500   130673    74873    20549   -21204   -59059 
 -101582  -132151  -144279  -147739  -142253  -139378  -153308  -168998 
 -175420  -177377  -163047  -117612   -61723   -29245   -12415     6115 
    2432   -23670   -32545   -29380   -32844   -24198    -1409    20407 
   44713    77309   114964   152073   187073   217364   227190   200488 
  147204   104839    85153    47702    -9350   -43283   -71608  -112500 
 -130231  -126493  -126145  -128598  -135334  -145559  -151449  -154889 
 -164423  -175208  -160663   -99949   -20414    20752    40227    94107 
  137828   135977   148618   181980   200211   205040   192352   155011 
   97556    32923   -19550   -56448   -78933   -86503   -91017   -92480 
  -75199   -44994   -26615   -29219   -42105   -49707   -41794   -20455 
    5620    21161    13899     2803     8460    18638    20748    15272 
    5768    -6705   -30132   -51987   -51872   -48006   -50005   -46029 
  -50861   -65195   -60134   -28420     7507    23998    28807    36007 
   40298    53782    86074   116349   128776   119634    91065    55922 
   28487     9301    -8074   -13713    -5756    -4344   -13792   -22584 
  -23701   -16191     -517    10350   -12048   -55201   -80758   -95119 
  -96828   -63432   -27086   -29531   -41886   -18293    17271    36090 
   64670    91011    81071    45742    -4882   -48559   -67624   -82144 
  -70968   -21016     4135     -654    13078    24162    23178    42574 
   61630    53140    27737    -2512   -15271    -2014    24011    56974 
   68347    44508    19857     3244   -14189   -29066   -43727   -50591 
  -54851   -75737   -98830  -102361   -83995   -52474   -36585   -49296 
  -56685   -37994   -10224    25917    79988   133837   160023   150792 
  126293   118885   135021   146373   144157   144891   134410   106678 
   84045    59258    23078   -12564   -48011   -90421  -138572  -182074 
 -209081  -216693  -205919  -176246  -144031  -135538  -137890  -126430 
 -111789   -90498   -50672   -15762     2664    17518    33012    48362 
   61231    71045    80360    84866    82313    80329    81747    86668 
   98620   112051   122673   133440   132590   106957    74644    61067 
   47899    13481    -9228   -11468   -27596   -50753   -71608   -99716 
 -121772  -132495  -136011  -133092  -129496  -116727   -86818   -47391 
   -6656    19521    26465    34561    41292    32340    30740    50809 
   67703    68085    54406    28113    14516    33480    56845    69140 
   90100   111052   110029    88581    56949    29817    14254     6851 
    8619     8028   -13138   -40450   -55849   -73612   -93818   -95418 
  -86729   -91570  -107287  -113780  -104504   -89533   -75546   -66187 
  -71518   -89556   -95644   -69080   -21527    14918    37851    67838 
   88011    84715    81522    74835    61422    61177    64570    69128 
   86888   100300    98150    88392    73890    62857    59340    52550 
   36991    17778       28   -21797   -50958   -73267   -85737   -98093 
 -109748  -123157  -134341  -127006   -97119   -52147   -14237     6416 
   41690    86823    97058    94352   113304   132884   143293   143630 
  117207    71581    37866    27202    22605    14628     1193   -26063 
  -54946   -67257   -70443   -76152   -79172   -63173   -28090     3298 
