Origin Time       2021/02/13 23:08:00
Lat.              37.7
Long.             141.8
Depth. (km)       60
Mag.              7.1
Station Code      FKSH10
Station Lat.      37.1616
Station Long.     140.0930
Station Height(m) 564.9
Record Time       2021/02/13 23:08:15
Sampling Freq(Hz) 100Hz
Duration Time(s)  293
Dir.              5
Scale Factor      3920(gal)/6170801
Max. Acc. (gal)   276.293
Last Correction   2021/02/13 23:08:00
Memo.             
[...]
  -61487   -48203   -23502     9509    40929    59885    61288    50104 
   31431     2491   -36922   -71998   -84409   -72515   -42761     1061 
   48077    81043    87714    64872    17878   -36345   -72323   -77230 
  -59933   -32337     -287    28571    45002    45229    32252    13974 
   -2046   -13656   -18941   -17728   -16112   -14043    -7367    -1215 
      87    -1482    -7672   -17803   -19567    -6772     5784     5227 
     177    -1940   -11751   -32305   -45414   -39064   -23807   -13563 
   -7546      689     9853    15357    17183    20415    28525    35138 
   30158    10668   -19846   -53143   -77195   -85167   -79873   -62689 
  -29280    13502    46981    64672    71145    64736    44618    16463 
  -15161   -44928   -65463   -70123   -56813   -35594   -20957   -13336 
    -257    22724    43631    51070    47598    40973    29415     6531 
  -22529   -46432   -60151   -62973   -57173   -45873   -28240    -2697 
   26774    49789    62419    73036    77885    58492    19480   -15799 
  -44808   -73849   -92273   -89288   -67048   -36588   -13712     -481 
   14195    26717    27826    24896    27591    33681    34379    25096 
   10289    -6064   -25057   -45272   -63294   -75909   -76964   -64279 
  -43011   -17334    11539    44500    79077   102166    98737    66589 
   18171   -34801   -86984  -125587  -136199  -118783   -81281   -30374 
   25696    75713   107894   113119    90842    46093   -12937   -68587 
 -104162  -115481  -104295   -73354   -26791    25894    67243    85576 
   85644    71851    41399       38   -40452   -70356   -82208   -75841 
  -55445   -24035    15871    55702    77597    73847    55687    32608 
    3464   -31355   -61691   -73095   -61867   -44143   -31859   -15380 
    6646    19420    15148     -522   -10259    -5671     -999    -4601 
   -7391    -5457    -4819   -10631   -20906   -22931    -9916      802 
   -4451    -9378     1148    14950    17067     7173    -9152   -21856 
  -27881   -37415   -48622   -43207   -11952    31323    61161    65464 
   54771    41988    19630   -22508   -69365   -96526   -95042   -71738 
  -35986    10351    57144    82839    86243    79905    59210    21477 
  -17104   -46950   -69104   -77381   -68514   -53457   -37643   -11625 
   24625    55167    70086    68990    51029    15901   -27762   -61709 
  -74903   -70713   -55365   -35128   -15805     2582    22059    40727 
   53377    53216    34893     4290   -21316   -34106   -44042   -56689 
  -62596   -55746   -38854   -12833    17289    39224    49269    52942 
   51745    46434    39685    28338     3647   -38347   -84455  -113037 
 -118970  -109457   -80788   -24773    46262   103801   131857   129100 
   92143    24226   -52026  -108683  -134491  -136515  -120498   -83982 
  -31231    22237    62131    86848   102974   108355    88686    37432 
  -25958   -74630  -102817  -112976  -100061   -63810   -13488    38900 
   83309   111546   113298    83635    33605   -17159   -56846   -87352 
 -107802  -107404   -85438   -47046     6472    58838    91715   107918 
  105959    71490    11860   -42111   -74035   -93450  -108605  -108416 
  -80065   -32119    17866    61236    87040    85560    62960    31771 
    3962   -12860   -22074   -28899   -32405   -29704   -20385   -12460 
  -19233   -38294   -49581   -42650   -25916    -9290     9020    33425 
   53650    55054    40166    21977     2788   -25113   -57406   -77228 
  -75615   -57899   -33298    -4087    24219    42310    53069    56499 
   43021    13539   -19405   -45243   -64975   -75256   -59836   -23260 
    5540    12134     9860    15783    27609    35393    36102    26848 
    6234   -19860   -41582   -53898   -58483   -55140   -43622   -27489 
   -8461    13346    33040    41387    33816    19094    13720    16261 
    9363    -3975   -10443   -15973   -25449   -28029   -18989    -8567 
   -7871   -15297   -17324    -5811    12008    23646    24869    21644 
   13801    -6744   -34372   -57666   -72605   -69920   -43693    -5336 
   29531    53799    67685    66804    43717    10802   -12422   -30392 
  -50641   -64462   -69586   -71718   -65820   -44588   -14021    17245 
   45973    64575    67715    59069    38722     6381   -29410   -59280 
  -76667   -81002   -74699   -49436    -5552    35162    63171    83391 
   89126    73769    46362    15147   -23649   -64384   -82139   -66672 
  -38516   -15580     5334    26059    36365    33014    22315     7352 
   -3599     2172    15989    12155   -12028   -33740   -43863   -48067 
  -46276   -40539   -31229   -12664     9158    21575    23575    21016 
   13114      978    -6163    -8388   -10643   -11450   -10640    -8254 
   -8166   -16621   -23855   -18885   -15815   -24653   -27592   -19870 
  -18196   -19952   -10961     6408    23411    38745    48049    39829 
   15273   -14170   -44443   -71776   -90229   -93261   -72157   -30639 
   13734    46398    64891    74940    75921    59114    24338   -11496 
  -30774   -37489   -44903   -50766   -45614   -29885   -11962     1726 
    9763    11296     6075    -3032   -11281   -14239   -11064    -3859 
    3170     4426     -233    -7080   -15379   -25360   -34970   -40536 
  -38200   -23964     2451    30734    47470    51517    46114    27336 
   -3084   -35098   -58451   -60964   -41136   -16084      130    12014 
   28255    39634    30089     4719   -19427   -37060   -48611   -47916 
  -32938   -14168      727    13966    23338    18355    -1188   -18508 
  -24203   -26003   -28333   -25419   -12204     6388    17404    20913 
   30367    43170    45097    32137     8173   -21286   -54449   -87151 
 -104167   -93983   -60660   -13895    40777    91805   117101   104858 
   66446    26116    -3002   -25497   -42959   -49785   -44329   -33162 
  -25519   -20999   -14840    -7847     1656    16835    31945    39708 
   38800    31248    19525      312   -26444   -50108   -65080   -70628 
  -62044   -38881    -6979    26604    49488    49228    31732    16310 
    9650     2398   -11249   -26556   -34328   -28135   -15409    -9881 
   -6743     5941    15711     5992   -12420   -22975   -25051   -24616 
  -26342   -30171   -30535   -22613   -10109    -2266     1571    10642 
   24346    28751    15596    -1080    -6122    -9173   -27179   -56474 
  -74624   -70323   -55430   -41294   -28106   -12404     9296    39231 
   74917   103437   110941    94779    60708    17488   -30214   -77536 
 -110490  -116285   -93117   -51749   -10458    22218    47977    62728 
   58577    35936     7095   -13325   -23069   -30848   -43868   -58838 
  -63497   -50174   -23583     6984    36285    58665    66511    57462 
   32105    -1610   -24671   -30402   -30175   -30410   -26853   -15802 
   -3960    -2542   -13131   -28158   -35946   -25227     4145    36703 
   59080    74706    81144    59831     8065   -53334  -105604  -139539 
 -144827  -111893   -48899    22282    83341   114446    99165    47147 
   -8870   -44723   -65561   -79263   -70916   -36200    -2597    10129 
   11739    14605    20939    30701    37681    39715    42158    32141 
   -3252   -49147   -89632  -115866  -114569   -84251   -36422    18232 
   65641    93576   105427   103286    73266    17963   -30422   -55069 
  -69368   -85135   -96928   -87712   -53241   -15573     8261    26469 
   51031    77672    88276    74820    52925    33438     5811   -38303 
  -86899  -112472  -101084   -69060   -36279    -5844    28624    66090 
   89391    85617    60315    21578   -24885   -68244   -96995  -102268 
  -83131   -54257   -27454     4431    44309    72684    69239    39838 
    7597   -18532   -44770   -67845   -76272   -63572   -27906    17295 
   46905    56993    59410    50306    18388   -27893   -60411   -63622 
  -49064   -28311    -1230    27316    45211    47216    39664    30858 
   21462     5484   -17991   -38853   -47900   -47177   -43716   -37930 
  -22441     4819    31021    43720    48714    51335    40874    16693 
   -4295   -15300   -25632   -39652   -50150   -53701   -52383   -47702 
  -43073   -37667   -25821    -2852    29318    54451    59792    54942 
   51918    43825    18899   -20594   -61215   -85429   -85024   -72574 
  -58825   -32645    14294    65420    95557    93489    65593    24234 
  -20509   -60025   -87479   -95812   -82047   -56192   -31970   -11388 
   13941    44400    68511    78115    67197    36394      513   -31109 
  -59800   -84822  -100034   -93443   -60371   -16766    17275    36501 
   45104    46876    39064    14503   -19931   -43900   -51203   -54235 
  -57901   -51338   -29435     -917    24200    42276    56326    63660 
   51477    23774     4050    -4430   -18314   -33575   -34405   -25372 
  -14866    -3274    -1636   -17655   -31077   -20313     3354    19867 
   29051    34419    32185    13605   -26330   -70365   -92746   -87692 
  -65915   -35858     1117    41006    72556    82236    68443    48642 
   36277    21860    -9720   -50186   -74799   -78673   -76584   -73740 
  -61486   -35612    -3321    30137    58350    69790    70288    70270 
   58132    25127   -16127   -50992   -77577   -98769  -110364  -107122 
  -86507   -48567    -1193    44854    74994    76582    60120    47005 
   39325    27893    15943     6878    -8004   -28610   -44335   -52403 
  -55738   -50925   -32694    -4702    27305    54503    60705    44613 
   23388     6785    -7358   -16188   -11158     4472    19203    28276 
   26613     8914   -18794   -44990   -63779   -76203   -80765   -68720 
  -37058     4438    44657    81472   112163   119827    90699    39947 
   -7206   -47276   -84897  -110196  -109418   -85025   -53618   -27231 
  -10160    -2037     7886    29760    52849    57204    43160    24722 
    4374   -22958   -52959   -72580   -68830   -37112     4103    28749 
   38190    43382    38080    17003   -12307   -39522   -58424   -67170 
  -68265   -67134   -60974   -39209    -4175    26674    43676    51750 
   51668    36824    10238   -14186   -22775   -14139    -6184   -12947 
  -24040   -27648   -24028   -10960    15079    48597    73460    73722 
   50559    18277   -13341   -39032   -51506   -50800   -42988   -25868 
   -3188    10075    15147    19104    14519      158   -17227   -34677 
  -46967   -48579   -35621    -8783    22870    48123    54117    32777 
   -4724   -35411   -51115   -59792   -60621   -47932   -24970     1902 
   23985    37077    42549    34957    10321   -27649   -72795  -109987 
 -121394  -104817   -65325    -3821    61512    99517   108007   103155 
   85031    52187    15248   -17734   -42512   -52036   -52797   -65109 
  -87268   -94600   -79129   -55561   -28412    12427    60266    92673 
  101544    96570    85103    63048    27483   -15148   -54459   -83173 
  -99552   -99874   -81428   -49823    -9764    32460    62964    75114 
   71230    50720    21276     1126    -5342    -4722     -340      549 
  -11999   -42983   -83387  -109831  -111537   -97984   -75175   -38669 
   12627    67337   110040   134901   143033   132288    96750    34656 
  -40103  -102927  -138866  -145746  -128627   -95417   -50182    -2070 
   32268    49555    59868    66351    66452    60288    46488    21979 
  -13157   -51606   -79239   -86218   -75811   -56711   -31838    -6303 
    9557    14762    12980     6989     3596     5456    10512    16409 
   15503    -1307   -29774   -53352   -66068   -75098   -79799   -70395 
  -43023    -4034    39497    80922   105830   106304    89254    58794 
   18819   -23103   -66188  -105409  -128766  -131359  -113544   -81363 
  -41263    10925    68941   109346   122151   112948    87207    50781 
    5734   -45477   -88557  -109385  -109408   -99228   -80201   -43852 
    5470    49954    82373   104302   109681    95577    66942    23319 
  -27967   -67242   -84974   -80867   -56232   -18198    21001    48383 
   61709    65670    50190     9075   -31152   -45760   -43780   -40838 
  -38805   -33044   -18574     2058    18620    27407    37189    55507 
   70002    56660    14798   -28885   -54674   -60843   -49554   -23414 
   16019    64475   100222    93759    38804   -36778   -94618  -121684 
 -127193  -114334   -82208   -41870   -13168      429    14436    30103 
   36083    29155     7682   -25295   -55388   -73536   -83024   -81116 
  -59602   -24498     8841    30713    42416    46852    35484     6533 
  -21782   -37988   -53263   -74418   -81838   -57716   -12936    31157 
   60491    67185    54666    36325    15213   -14382   -43140   -54975 
  -49382   -36696   -22837    -2336    30403    66975    95626   109788 
  100782    62133      927   -59070   -88479   -80157   -55821   -27465 
   10972    44855    54361    53879    64127    77662    74307    46600 
    4343   -35164   -58533   -65891   -67696   -67897   -60419   -45420 
  -33509   -25712   -13289      911    10805    23412    44585    61137 
   58664    46058    35150    26851    25293    23008    -1506   -47556 
  -91966  -126628  -160178  -185940  -184153  -141862   -57156    46885 
  132895   180467   181587   133910    45447   -68966  -179157  -244982 
 -256791  -235091  -182943   -91535    26409   144734   233978   273616 
  265308   211788   113751    -4564  -103159  -156185  -162397  -136630 
  -94331   -42174    13642    61583    94118   108590   103851    85138 
   55101    12152   -30458   -58644   -71528   -59176   -15695    39990 
   90204   119088    98117    21106   -78444  -161766  -206538  -203112 
 -150468   -60030    39110   117725   170812   201539   204054   178578 
  125783    46688   -43724  -139433  -235225  -303585  -322396  -285161 
 -200785   -92040    34607   176076   305718   396470   429252   388446 
  280006   128165   -40510  -192256  -298326  -359308  -385396  -364970 
 -286601  -173459   -55998    62193   178288   267211   303430   285426 
  215164    84367   -73112  -198332  -281091  -320185  -296409  -216723 
  -98122    36847   144480   191139   167593   101102    46069    24935 
   28316    47412    69212    84889    91985    77427    32879   -25823 
  -75314  -103373  -112455  -117435  -121620  -113254   -97503   -82153 
  -59726   -30022     3748    34335    41691    24979    11116    11412 
    1994   -34044   -66301   -53854     -749    58153    95609   107808 
  103942    74445     6161   -81386  -154247  -182409  -150034   -72465 
   25732   126742   205001   237453   223545   178784   120779    66454 
   24434    -8957   -35432   -57344   -84961  -119995  -151011  -169688 
 -181404  -190195  -181342  -138535   -60061    44127   154703   250524 
  305724   295705   232406   152320    69056   -15714   -90948  -150129 
 -189948  -206926  -205120  -188560  -151736   -84270     9041    97989 
  151025   161847   140589    87758     2421   -92562  -165241  -202001 
 -202895  -169681  -111123   -43886    22269    88973   147719   171291 
  142447    66395   -36945  -125538  -162655  -161521  -148794  -111687 
  -35971    48416   101377   115793   105084    74543    25659   -20924 
  -30155     8153    63388    98954   101027    77165    40820    -5949 
  -60192  -101562  -111229   -89888   -50253    -6478    30698    64130 
  104598   139517   135279    83303    14111   -43615   -92316  -137888 
 -163708  -159724  -136423   -97559   -45189     7452    51944    88898 
  117192   127667   121057   116442   118814   114057    91175    52811 
   12276   -27258   -63446   -82231   -83123   -80219   -82555   -85825 
  -84065   -88307  -104614  -117061  -112723   -90265   -50729      343 
   47601    69507    60226    37094     3936   -46555   -83944   -76351 
  -40759     3118    46785    63929    42986     6108   -31177   -70935 
 -104853  -115793  -102290   -71366   -21785    44428   113662   166590 
  187113   179588   158527   120114    57681   -19396  -100410  -176030 
 -235923  -272359  -274051  -235334  -165428   -74790    22786    99949 
  133395   129554   119612   120797   120573   110970   105821   105428 
   81470    23011   -46137  -107717  -151458  -158566  -124889   -62534 
   18957   106088   181265   225519   219279   163600    79516   -10164 
  -82711  -131017  -161185  -170160  -157295  -122818   -63773     5239 
   69623   132446   192075   233583   237944   189172    92502   -20636 
 -129083  -228994  -301607  -333186  -330730  -282103  -177440   -51203 
   66652   170194   235386   242608   212620   173664   126087    56122 
  -33607  -122720  -194684  -242342  -262190  -256910  -228380  -169546 
  -81075    16301    99219   161343   205871   231974   236012   212897 
  166444   112159    58391     2816   -61244  -133446  -192959  -213501 
 -191427  -148195   -95737   -25140    54247   114440   138450   122484 
   86817    58716    28414   -19430   -65085   -88165   -90150   -81243 
  -79362   -95053  -107064   -83484   -20895    57469   127467   175867 
  196562   184122   134322    55342   -27539   -99592  -170100  -231068 
 -252912  -230668  -172217   -75065    40954   138934   206429   235773 
  200760    98620   -27668  -128377  -180892  -188376  -158371   -89299 
   17249   130113   189778   175700   141927   129767   116203    89211 
   70054    56795    34199    -2030   -59160  -130341  -189199  -220615 
 -222604  -190490  -119864   -24682    65546   134630   173197   167094 
  129447    89823    51080    12317   -10027   -11299    -2155     2401 
  -12884   -50968  -105937  -160266  -187297  -179041  -141019   -76849 
    3271    85500   155837   201242   223680   228248   203945   144390 
   55705   -56010  -176813  -281889  -339807  -326518  -248605  -130163 
    5021   126526   212055   249558   217687   115087   -21659  -148665 
 -228385  -247546  -221395  -160456   -75985    10388    91644   161993 
  199551   185578   109364   -16838  -142658  -214930  -204017  -120137 
  -23082    54070   134365   203437   212678   153616    46611   -70928 
 -151221  -176030  -156605  -106523   -36571    33019    74180    79299 
   68216    56885    39287    11974    -2135    22183    72194   112762 
  135979   146249   124970    58270   -46933  -173744  -287181  -347744 
 -332568  -243602  -112435    36953   201727   344654   407828   385906 
  307634   189325    53486   -72403  -180559  -264856  -306075  -286325 
 -211609  -118681   -36358    36222    96799   132984   146805   148507 
  135137    91589     8556  -101519  -208779  -283149  -308150  -293375 
 -258892  -200992  -104466    26879   166887   264487   272595   203735 
  115805    43974   -20119   -83775  -130914  -154828  -155907  -130687 
  -98550   -75346   -43707     5056    51581    74928    69961    47744 
   19806   -13655   -47043   -61812   -47683    -7170    51084   110286 
  154288   173215   162865   129144    80374    20563   -42394   -98768 
 -140420  -149724  -114811   -55904     4193    64886   114293   136117 
  142182   141809   125790    92767    51158     7431   -36061   -70167 
  -74477   -41489     7625    44534    60531    59118    39621     9158 
  -11956    -7767    15615    29654    14644   -22939   -66640  -100442 
 -114130  -101104   -61937   -16543    16125    33199    34836    23226 
       7   -37507   -85875  -130645  -154147  -153812  -141604  -120934 
  -88002   -38682    26202    82044   102120    87724    49870     1868 
  -35407   -49688   -41600   -21818    -1666    20383    27795    -7783 
  -64251  -101045  -112073  -103407   -88893   -80952   -70907   -52960 
  -29505      767    31821    56269    76708    91483    90725    69150 
   32553    -3159   -28553   -50629   -74483   -95688  -109058  -106109 
