Origin Time       2021/02/13 23:08:00
Lat.              37.7
Long.             141.8
Depth. (km)       60
Mag.              7.1
Station Code      FKSH20
Station Lat.      37.4911
Station Long.     140.9871
Station Height(m) -97
Record Time       2021/02/13 23:08:03
Sampling Freq(Hz) 100Hz
Duration Time(s)  300
Dir.              1
Scale Factor      2940(gal)/6170270
Max. Acc. (gal)   148.305
Last Correction   2021/02/13 23:07:48
Memo.             
[...]
  128904   117549   115584   124227   130728   126971   125081   134523 
  150204   163005   151774   115634   102834   128839   147121   140405 
  128577   127998   145603   151140   129263   120990   121820   106155 
  116773   148675   144654   135222   143687   134813   125935   129535 
  127760   131734   138263   141445   147181   136580   113281   111747 
  128254   134082   131223   137265   144844   138349   133523   143145 
  142856   129185   119723   114611   121859   129257   117797   120599 
  144757   153371   151354   147990   124814   104244   118907   138575 
  135206   133144   144247   146980   137845   132279   130857   133234 
  136442   126844   113280   110640   118759   131740   132078   128306 
  144951   163248   162706   146762   124825   120681   129351   123744 
  120540   132410   135075   129637   129921   126237   125800   140370 
  140029   126338   140753   150090   117990    94761   108599   139782 
  171777   175422   140096   109672   111651   119530   123481   130056 
  134154   148997   158637   125794    93474   111194   137073   141687 
  145621   139059   125471   125517   115899   109276   127434   128313 
  132051   172174   173417   126021   115577   129449   123268   135054 
  160618   139940    96514    93752   123723   149516   154426   141410 
  138121   139997   117558   100174   115498   139323   155445   159748 
  152741   145026   132445   106415   101575   142252   165070   136063 
  118630   132088   132588   122016   119359   117372   128463   150980 
  152721   127966   102774   122021   168040   164809   129652   120437 
  132022   139969   118991    91132   102647   133779   157314   165146 
  156290   153308   152164   145826   140804   123635   111999   122272 
  124815   123326   133852   136322   133675   132415   122639   124237 
  144346   145999   121025   126914   162158   151732   130183   147449 
  147910   130020   121621   105445    98315   117251   142072   147044 
  123198   110566   142311   165526   144507   144330   180207   182542 
  145948   121273   125309   121197    85670    74084   104979   119267 
  120517   127044   116222   121078   147917   147071   137808   143538 
  144294   144233   153018   158320   141817   117564   123653   139895 
  123425   108567   132511   156077   137180    91623    79207   111304 
  126346   126928   151839   175583   176235   146970   104669    98561 
  118831   126029   121929   121125   132346   147539   147293   130855 
  115153   123176   153297   162207   128256    87276    91445   138213 
  161714   150269   144843   134414   118907   132946   157899   154858 
  123452    94873    97746   120860   135905   135068   145404   178634 
  182690   144217   115776    98383    75177    88187   138316   155348 
  144208   157022   154722   108366    80074   109166   173652   211196 
  173422   116940   105914   104672    98873   119278   144564   151036 
  149902   156801   161197   126677    97564   129713   155910   140955 
  139496   152058   137876   116721   128660   149248   145482   122410 
  100036   102801   124833   138382   146298   166886   166574   124685 
  108536   122795   103612    89825   140495   204039   206133   156720 
  113069   101804   113237   115769   103252   115354   140542   136300 
  131905   146595   149816   140243   126473   119932   133388   137541 
  131489   145031   148894   127959   116102   115445   119883   135522 
  139806   132780   144862   147694   128890   132645   135650   115815 
  124921   151268   143646   131846   134663   132159   143224   150678 
  128040   118357   124320   109350    89923    94705   125871   158854 
  159523   145721   152612   147455   113372   109926   131625   114564 
   98003   118661   118897   112540   138684   154820   156015   161483 
  153695   135931   115295   100738   119659   152062   163104   167292 
  157573   123019   107708   121793   131658   132227   129486   122924 
  115690   109025   107886   122145   150795   167621   147064   123601 
  140771   160047   139411   116433   121195   129641   133487   132226 
  121798   129188   144228   132110   123749   131101   121783   112163 
  124263   149690   173295   167377   139289   126586   123130   115666 
  127720   144733   127794   113018   118061    99991    89916   110716 
  117710   132005   170769   185008   167313   136046   102818   107310 
  152756   168504   136670   127363   150716   151083   125983   103371 
   92527    94076   103900   129417   160139   160273   146861   161690 
  176319   159116   137425   108547    78455    93563   115657   120854 
  147726   143223   100961   115078   158125   160339   157634   168184 
  155929   128221   112735   113139   127664   135206   123451   114873 
  112611   117221   147150   168970   141728   113405   110195    94863 
  106647   165912   188615   161956   138735   119797   105362   120304 
  148711   151623   135205   115521    99294   110219   124405   106672 
  116480   166989   178497   169696   163567   124476   115739   151842 
  154967   143304   141322   128323   126816   137320   125237   114296 
  138395   153515   126431   103604   108274   128115   160261   155181 
  113880   127162   162916   140014   111440   107465    86338    67348 
   75555   100923   151086   198852   201121   182062   168026   148582 
  131132   119541    99919    88026   104831   140119   167562   159507 
  122670    99840   112135   134500   139645   129905   110863   102334 
  124048   142565   146317   162169   167504   147907   127056   107133 
   95350   106424   136067   164166   158672   126448   112960   126800 
  148874   164429   166600   174197   177326   144286   104574    89927 
  102543   137886   157150   149311   142404   127340   104029   100169 
  105562   118731   143677   132834   105159   122299   139716   119882 
  100876    95534   101138   117923   133171   151303   166318   166257 
  175191   177081   142231   107560    94140    89390   104912   151977 
  201065   226681   227851   187675   133792   115870   113268   106913 
   98257    67087    40269    74610   136038   155415   154229   173670 
  182441   154172   111652    68857    51011    66972    77247   105325 
  160877   171694   154127   157583   156327   146885   151796   166347 
  156321   108766    81957   101618   127436   160334   195919   190027 
  157441   144851   148096   137047   107585    90250   103399   118377 
  110413   106009   126177   135602   130720   148698   144857   101351 
   99174   118760   109597   122109   155147   170200   171928   150324 
  119948   115478   112244   108843   156163   203796   184487   168359 
  182691   185703   199699   204393   162508   127589   114203    82047 
   59531    73149    98896   139025   178882   181371   162128   143904 
  122680   119561   142942   146156   132544   138421   136247   127521 
  135305   134186   152561   214586   237803   187945   119470    69972 
   67057   101546   112978    95238   105360   143058   156311   152230 
  145415   112672    91445   116783   144844   156626   156242   122279 
   73294    60656    71697    73060    81968    75706    46056    74192 
  145242   167645   151008   130062    97037    66798    61637    82030 
  126462   164803   161060   123257    67874    30547    55369   115760 
  162717   190276   196133   178576   146874    96994    53407    78598 
  161394   211697   200363   180535   175391   153631   113496   102670 
  132941   142767   103823    78885   100593   135726   177617   209318 
  184618   140315   131476   116111    88096   104052   122698    96186 
   92716   128658   140493   132385   130275   137629   156372   176129 
  209652   241155   212213   143521   106081   104653   109480   125923 
  142839   128587   105750    99845    94469    88022    98008   124738 
  151881   154326   131089   124992   138377   133701   126245   136376 
  143057   134739   124599   124132   130533   150410   185670   198688 
  166535   125350   117861   133681   135998   134675   147351   140888 
  119278   126601   136866   122323   115020   119003   121715   117310 
   91757    74189    92407   110588   109277   113746   119306   102110 
   83163   104968   166522   221364   249101   253042   206377   121493 
   79821   113326   150935   148030   148021   146014   114521    91989 
   83757    76777    85937    99270   110956   111448    85124    82500 
  126174   159587   161664   148227   123110   107291   132514   171260 
  172195   151036   143956   154508   159155   148939   166347   211043 
  222753   195067   159419   126076   110226   111274    89045    43869 
   21339    26214    50588   106439   161931   170650   142564   107046 
   91262   119367   167569   189945   190208   203002   227487   232609 
  209247   170857   136826   116373    93351    74212    88582   122131 
  143384   160673   188070   214440   233663   231972   179816    94402 
   37884    48249    97649   116134    75635    25248    22030    52426 
   84227   132392   178267   171521   126334    89998    81313    96786 
  145062   218739   259413   241317   200511   170161   162050   166665 
  167129   144770    80650    16339    26457    88962   125930   131893 
  132026   128142   142094   183992   212458   217791   223034   186514 
   81769   -17956   -67178   -87561   -74722   -15775    55181    88696 
   74331    36067     5309      410    13389    40721    71712    77090 
   66359    58607    57829    76172    89552    82934   104693   169039 
  229485   257756   267916   274535   261159   245084   257985   236524 
  148132    77506    53882    33973    19984    19898      824   -16651 
   23296    97295   180668   271141   332341   359673   344229   270850 
  189341   131179    91108    73954    72688    83861   105842   116341 
  122456   155919   192255   189238   161623   142169   128437    96860 
   71403    99753   152752   179161   189456   198444   191254   176169 
  180150   198832   210674   192647   138850    75445    21734    13350 
   80003   149259   152815   134170   136041   163320   217813   251609 
  226890   191914   174414   142028    96403    69347    78368   126017 
  186531   222145   225884   216330   210713   228283   276485   325924 
  343147   325764   284758   216634   131933    85823    97935   116926 
  112900    88044    41517     3995    21757    93428   177788   241771 
  266051   235066   151123    53053    12010    48526    98652   139935 
  187368   198612   170379   153680   149141   149121   153610   131233 
   85021    55650    37285    12443    10785    45959   106467   207343 
  315599   331641   235614   119081    52054    31519    45295    65431 
   50587    18339    10091    47125   128860   210587   245111   207252 
  103235     2398   -40619   -55789   -66968   -38415    36025   125292 
  215124   277447   292298   288572   286527   260155   196206   128416 
   83434    68338    77842    84334    72207    60126    89830   158457 
  205383   227489   240955   195651   102620    41743    28144    57050 
  122616   158924   149135   154157   162652   140531   143390   199471 
  259283   304841   332485   303529   228921   184022   190107   195330 
  171648   135642   113821   114245   104246    83668    91226    92462 
   50070     7317    -7856    -1409    31140    77560   114414   161383 
  234982   275025   245679   204117   178070   150353   143763   155120 
  132926   100759   123561   180848   229398   262461   267568   258037 
  245384   198826   135036    99706    80700    64375    75148   106594 
  128084   145865   168697   189437   206629   195603   126289    32195 
  -18575   -32392   -53504   -56847   -27449     5004    47031    97922 
  139866   181001   224854   262042   260006   194163   104911    45825 
   46417    99762   145354   140898   109427    88608    74649    50411 
   52135   122774   215808   250331   236268   225280   212131   177369 
  116274    47045    20733    29966    29812    34718    41643    11395 
  -42959   -70548   -54236   -13217    57650   145523   191623   193692 
  185284   173621   172944   182358   168057   131913   115773    93003 
   10457   -65761   -54431    15782    93882   166999   244832   319174 
  335374   274109   205448   176798   148435    89512    18196   -39579 
  -61034   -37793    27034   106468   152992   168551   176522   173477 
  169901   182761   219274   269158   290270   257734   192370   123006 
   64923    36216    58499   118122   167438   178950   165505   158098 
  159731   149356   153821   207565   274811   300127   261596   187454 
  140448   156831   203219   208350   168688   116903    42202   -10747 
   27851   120089   186614   182675   117902    61810    62939    97539 
  124766   153582   202061   242812   248043   210691   160016   162944 
  230699   311928   375005   389491   319769   216717   157253   117755 
   72456    43136    -3950   -90115  -140024  -116942   -75682   -41566 
   -5906    28311    62682    88483   107124   139476   183664   237180 
  300468   340075   318510   252163   192132   145975    99500    80622 
  125678   231110   340177   396492   377242   235719     6513  -124039 
 -104069   -66767   -21194    80785   167270   209460   228068   204721 
  180681   205989   250177   272023   245910   163253    63456    13767 
   29694    62968    98634   149917   189530   189458   136515    36170 
  -49507   -61061   -19032    14037    12273    -1497    12012    54190 
   84581   100633   130000   168864   195496   199003   184378   166351 
  177194   236294   291668   292472   268644   247979   206812   138412 
   79174    37154   -33506  -128777  -178874  -162786  -112272   -45371 
   23803    77268   118001   143110   136759   129159   161567   200905 
  201941   205758   248910   276803   279261   300025   294529   216802 
  107674    10988   -43873   -32833    35463   126717   190674   188840 
  148511   117398    82888    41049    50748   123413   196907   241599 
  251844   225161   209283   211547   181913   142232   122253    98867 
   89174   119817   160241   185750   211260   233994   238681   229746 
  210760   203054   213140   196866   153282   116274    75022    18688 
  -19824    -7263    38270    88108   146078   203721   234899   231256 
  211226   203381   205276   180479   122607    66931    26917    16363 
   55545   116467   168215   190267   171632   140628   102649    56435 
   56573   119727   177033   192268   185482   160475   129836   108325 
   90329    90701   104560   101951    97440   121772   171411   218465 
  230588   205017   182066   189051   207105   203449   174373   147917 
  127892    88424    30538    -5579     8375    51539   104350   175182 
  252713   301860   306239   273802   208459   124007    56057    20958 
    2545   -23143   -44358   -18882    40860    87774   105803   103613 
  119165   156667   172318   160833   142009   126879   109243    75786 
   52837    79763   144458   206086   243896   250999   239649   226957 
  215700   213700   206556   162646    94524    62516    83043   103174 
  114615   132578   125953    85824    48637    32596     8780   -22669 
  -31904   -33669   -26900     7895    55565   118110   212994   308474 
  350443   352792   336532   255891   132304    45324    13014    45841 
  121350   166246   173728   177651   184405   196713   205239   188959 
  153284   114706    69221    25471    15197    48057   113149   186238 
  223198   211471   174596   125286    92020   104360   126488   120122 
  117414   142744   167103   175188   182799   195491   189177   157760 
  146712   163089   159870   145292   154963   161580   140842   124736 
  127034   139707   164371   179594   171680   157249   138299   111181 
   88187    89892   117306   137404   134965   120069   105736   113760 
  128555   105006    37338   -33907   -48001    -2033    35044    49094 
   81207   127286   165261   181608   162698   146661   174109   201139 
  200884   218814   252815   251022   216976   193946   196513   207839 
  200756   165049   122770    97219    92383   107971   140601   172488 
  186679   187705   178183   143570    89801    52612    52920    76033 
   96850    99911    82023    59509    57789    85119   129369   167158 
  184293   189139   181470   153969   129664   136251   161603   171891 
  157871   131544   108168   112533   147043   185339   217767   241662 
  240951   215325   187658   163108   142243   146659   159381   154082 
  152213   142555    97460    46341     -514   -49007   -52005     1050 
   60933   102428   125178   136882   137888   137274   163657   200364 
  192589   132935    71956    43354    53256   110036   179095   200059 
  164632   116665   104387   128558   148112   145509   136378   122730 
   99550    87176    97387   121290   155708   180221   176900   164515 
  156932   148033   137190   132870   137716   152508   173460   177891 
  162446   139562   105119    80870    95860   129905   138971    98915 
   40887    17754    33849    73629   131309   174045   167956   136957 
  109351    85154    88799   114131   110717    95217   113634   139444 
  134942   127885   148283   180646   200246   188558   159405   143756 
  133747   126168   139457   171048   203919   206047   165811   115372 
   72557    40195    24913    33844    63304    72834    55123    47405 
   44627    47962    76927   104049   111496   113408   105073    89664 
  102040   146098   188067   220446   230284   199122   160240   141101 
  141718   163126   187954   199862   195648   166358   121569    98782 
  103879   116419   135142   135992   102218    69873    57424    67092 
   95790   109008   113360   144685   184059   211668   228062   219908 
  196116   184075   196969   222158   224341   195739   169123   161645 
  165762   173772   161215   124879   107399   119789   145392   173448 
  181333   165192   150498   149406   151056   150127   138781   107316 
   80121    78778    89669    93627    83850    76078    91634   132668 
  180204   201636   184863   149570   120818   114930   126553   136711 
  136646   125716   114470   124617   156853   179566   174672   160757 
  146076   125961   114523   109766   103787   122072   163945   187310 
  178416   148961   110084    91036   109510   135578   132325   104068 
   93543   118596   136661   118125    99955   117241   151920   181191 
  187909   155884   106369    74683    67593    68655    78007   105555 
  132385   145147   143384   131902   131087   137984   143011   151191 
  151861   134396   107475    95197   117412   157503   171325   141459 
  102121    84226    85447    97498   108968   124945   164327   200018 
  184463   129885    87231    80699   103108   132596   153703   168241 
  168427   144511   107513    75803    68829    89557   111185   116521 
  116526   107645    82067    71261    94259   124209   139853   144964 
  144191   135620   128282   132003   144897   158283   160052   162271 
  178883   184000   150560   101692    82796    90374   111421   152399 
  177324   166002   150221   149137   161627   168456   159331   147798 
  135501   124944   124882   127457   128879   135893   141617   146865 
  160113   162867   147246   134875   144155   175788   198136   190056 
  174422   163970   153460   144948   133420   118715   120530   141239 
  161566   168930   150423   119405   118997   147719   163178   149905 
  129124   119894   112268    95782    84245    96933   138768   184572 
  202944   192561   164298   130424   102023    87178    99932   132896 
