Origin Time       2021/02/13 23:08:00
Lat.              37.7
Long.             141.8
Depth. (km)       60
Mag.              7.1
Station Code      FKSH19
Station Lat.      37.4703
Station Long.     140.7227
Station Height(m) 510
Record Time       2021/02/13 23:08:06
Sampling Freq(Hz) 100Hz
Duration Time(s)  219
Dir.              5
Scale Factor      7845(gal)/8223790
Max. Acc. (gal)   521.336
Last Correction   2021/02/13 23:08:06
Memo.             
[...]
     278    -1853    28871    53624    43873    25230   -11394   -34489 
   -8195    19777    28510    32094     5071   -39163   -47278   -25045 
    2149    34308    57133    51954    20956    -7796   -13086   -18142 
  -15142    32185    73557    53762    16993    -9744   -42653   -42360 
    3685    30221    26804    31681    33766    16698    10712    31245 
   37354    17257    18901    32285     5105   -15020    29085    49735 
    4517    -3137    13000    -7561    16096    59467    23988   -14320 
   -4591    -6016    -9359       29    -4735    -3426    22659    44737 
   48451    36485      583   -33629   -32139   -25169   -17139    15315 
   15642    -3581    32306    47507    13834    36016    80742    65210 
   32749    22169     6399   -12393     7514    43082    31936    12653 
   28548     7427   -36019    -8723    14050   -17984   -16996   -17203 
  -50997   -30165     9690     7447    26300    51833    27530     3015 
    1156   -15574   -20914    12534    36702    61344   118442   122496 
   57654    21875     8337   -15641    -5810    22977    15357     -387 
     641   -17386   -24073    15099    26221    -3734    -1051    13329 
    -920    -6624    -5961   -23427   -26431    -7992    -2201    -5420 
    5436    16887    13851     8850      862    -1813     7533     -168 
    5868    64269   114099   119014   105800    79416    35418    -5404 
  -22110   -33843   -25745    39865    75465    24205   -13864   -20008 
  -39415   -39394   -27535   -13386    20671     2087   -67606   -65581 
  -19390   -26605   -29944     8667    28578    43902    71281    57609 
   33316    53910    57569     9764   -14137    18864    56358    58699 
   53914    77260    84688    44774    24468    38917    26933     7279 
    6562   -19496   -56816   -61238   -45333   -11983    18716    16835 
   26542    39873    -4417   -45777   -31531   -24780   -21817    12398 
   13123   -16846    -1343    19750    12619    41825    83620    66275 
   37856    30095     -896   -23440    -8203    10559    56654   121386 
  115161    54926    18253   -13597   -61126   -80848   -61539   -24325 
   21506    42152    24341     9444     2215   -13539   -12969    19379 
   42292    11160   -23595   -10678    -4233   -15047     2594    33840 
   54719    60642    41034     7784     1387    26036    35448    23291 
   16582    13788    12746    11518     3350    14328    60023    77479 
   16614   -46402   -41512   -24223   -14505    30107    53376     9821 
  -15538     8672    -1169   -35251      955    43131     9350    10474 
   58874    38381     6531    34312    49971    35797    26649    -1008 
  -45084   -50298   -12348    19290    35904    63455    78702    48396 
   11900    15045    24892     8977    11321    43201    39490    -8513 
  -47737   -67578   -75069   -49077     5574    48087    67900    79463 
   73568    38512     1167   -14470   -26994   -20205    22470    31032 
   14067    42865    50595     5836   -16193   -39367   -72206   -38052 
   16588    41040   114747   182511   118725    17383   -38759  -113427 
 -146344   -67656   -13626   -19585    42439   104214    60165     5325 
  -11090   -21944   -18743    -9667     1071    27696    48343    55615 
   59891    35503     3329    11738    25057    22673    30817    29178 
   14890    13510     4186   -10609   -12857   -29619   -26260    24842 
   45943    44455    65371    34053   -27588   -15634   -10162   -65313 
  -46909    29980    30573    28231    70268    45959     8887    28919 
    1552   -53700   -28462     8995     3373    40863    87729    62702 
   40636    31013   -13224   -13366    45550    64798    35098    23542 
   19113   -31649   -75128   -42809     6164    31820    63836    62792 
    7975   -37330   -56135   -58946   -25284    38491    81577    71199 
   42003    19820   -16214   -37303   -12278     2199   -14076     2143 
   41577    50610    61354    72492    35305    15651    37181     -789 
  -61854   -51642   -34877   -44486   -15165    23305    21722    25419 
   40984    28849    15466    15390   -17675   -53410   -29259    12000 
   48374    93170   103935   110006   138869   100940     3055   -44937 
  -43359   -44751   -37017   -26472   -25127    10245    37658   -12410 
  -45565     2899    31372    -2965   -23977     2556    37778    52740 
   38416   -17236   -80165   -94811   -71136   -31568    33806    99395 
  129197   127930    93683    43718    16019      560     9952    72976 
  115578    73801    19808    -4467   -26322   -11742    16038   -13023 
  -52265   -67674   -83612   -74457   -35818     -233    42869    70000 
   28335   -27475   -45979   -61414   -50394     5576    34396    43158 
   93823   113385    46869     -519    17930    42611    83575   140826 
  116881    32539    16634    30055     6015    37686   109232    92302 
   31818    -3315   -64864  -124285  -118577  -108406  -109327   -40603 
   48972    41370    -4032    22246    41164   -19857   -42145   -16617 
  -63775   -88680    -2473    52918    61931   115277   112248    20121 
   -5422    27992    26233    54086   111659   101093    76941    94107 
   75921    22958     5211    12942      664   -17589   -35287   -79928 
  -90333   -41250   -16387   -10763     3150   -18372   -67819   -99202 
  -83166   -17694    44679    73901    72331    29893   -15633   -36556 
  -37963    14318    91125   115273   105696    98523    82167    72276 
   66113    29004     3535    20143    20838     5186      295   -18261 
  -20402    19923    25023   -32891   -75097   -68990   -45889   -22397 
    1013    35656    57460    22025   -18715   -24675   -28331     6708 
   56461    29215     9517    52181    25586   -43017     -276    83219 
   79875    52925    59522    39488    -5244   -14335    -9818    -8575 
   27472    51683     4348   -31464     2039    13649   -19456   -19739 
   -6543   -17790   -14211    -5684   -11088     8005    23890    10197 
   20341    24201   -16858   -20514    35321    82647    86197    51810 
   26797    35684    47198    61360    76088    45856     1125     3499 
    8897    -2867    16876    18098   -43600   -58880    -9428   -26964 
  -81364   -66654   -41046   -35561    13783    61414    45250    38943 
   69901    55093     2042    -1131    30483    25049    17815    55686 
   64827    22503    19755    51476    37524    14215    42970    51294 
    4815    -3827    14747     4086    19650    38454    -9509   -56839 
  -62336   -66127   -39815    20447    41878    32312    10365   -53136 
  -88854   -47925     2035    45956    89947    95683    71479    40163 
   12279    16428    23059    -4321   -13707     4425     8074    30103 
   84230   110208   105273    96186    38129   -49377   -53141    -9944 
  -16035    -7358    32967    19357   -39019   -90042  -102678   -56795 
   -2995    14304    41935    73194    51432    23299    19616     5498 
    2479     8896      351    23780    67757    59208    20063     8861 
   31521    47497    26819     9702    -1336   -20213    15847    79840 
   92904    81028    57847     4008   -42807   -43934   -18484    -1822 
   -1142    -6473   -10404    -5676      869   -30812   -88951   -70345 
   11105    11342   -44770   -25677    24972    27351    39199    51892 
   12079    14692    64771    45567    21138    74000   112835    92061 
   62046    31588     7605     9814    13767     9406    13238    22250 
   31779    21710    -4891     6168     1930   -96071  -164251  -133112 
 -120934  -105532   -13011    57159    71080    97244    94485    26210 
  -14766     9189    20254    10627    21028    14995     3728    51301 
   84798    53597    67570   108059    62991    17589    56103    82979 
   56882    33939     4941   -36999   -28854    16700    14365   -18732 
  -12582    20051    39399    30337    11659    11518    -2786   -29863 
  -21573   -19488   -48293   -35010    23652    45369    34308    41908 
   10484   -91760  -140119   -89252   -52731   -37022    17928    39557 
    3600     8467    33809      221   -21620    16077    44964    66957 
  101602   120768   139804   155946   139077   110944    85445    46114 
    9148    -2354     2694    10297     9173    -7248   -37473   -79365 
 -101069   -89654   -82035   -67767   -45349   -48385   -33612    12687 
   23114     4330    14588    35004    18989    -5200     3262    17787 
   12669    33029    91866   108626    99351   144344   166417   105383 
   47255    15836   -43198   -97816   -83101   -51300   -47819   -12221 
   49108    79922    92776    91984    68481    36879     8943    -8866 
  -30084   -30538    25377    57523    15322   -16426   -14382   -28402 
  -27064     7574    18472    25165    67890    81981    29413   -16197 
  -11543    -9278   -14382    30464    72760    30915   -13115   -15591 
  -67589  -104625   -36772     7483   -23893    -6801    52006    28497 
  -33718   -35954   -60301  -129801  -117271   -38489    -1885    13593 
   71755   127473   128503   125717   104048    13446   -34477    10725 
   20645   -13895    16389    67231    49751    25402    31303    32011 
   37308    34523     8067   -25736   -75895  -114313  -111496  -107302 
  -94860   -25664    68451   116911   105638    74079    35719   -43708 
 -130909  -128175   -42623    34186    94994   179751   224602   172800 
  115546    95042    32151   -49901   -45370    10206     9918     2887 
   65650   124779   126796    82412   -19014  -111424  -136926  -167674 
 -181607   -92233    -7668   -12390   -23438   -30747   -58754   -50395 
   10677    64882    84276   108849   126330    71632   -11059   -52112 
  -74598   -61680    17496    88678   128395   195882   225917   139006 
   51941    74116   101063    42587     4633    30434    33723    49080 
  114926   136321    96511    65705    31737   -39008   -91932   -80033 
  -52134   -32493    23584    78305    60743    18927    11654    16348 
   -8055   -43600   -28687   -16918   -83830  -137238  -136451  -144159 
 -115287   -50005   -45854   -77431   -73182   -50213   -45615   -49779 
  -40934   -39164   -46526   -37424   -24759    -3638    58792   130566 
  147028   101700    41189    12834     9227   -11596   -39043   -26784 
   18180    49966    86116   158569   202918   185596   162940   134622 
   67501   -11380   -61410   -85626   -93124   -55669      649     -654 
  -39123   -48859   -48783   -91323  -127774   -75771   -10084   -10477 
    7445    49227    12032   -46056   -24925     2633    -3549    51139 
  141170   145044    96692    72173    46842    31552    70630   120135 
  120746    96385    79677    68297    66243    67111    59555    39646 
    4978   -37887  -100759  -165466  -163597   -96943   -33081    23206 
   94562   136614   133569   112722    56008    -3723     5868    63659 
  117917   164664   206055   216814   180482   122616    74503    42392 
   19596     9541    27332    63427    81554    66866    33802   -11867 
  -64883   -92637   -83736   -73519   -92045  -137077  -179641  -204842 
 -229986  -250950  -253301  -253150  -251120  -224164  -186320  -160621 
 -118750   -48401     8849    38769    48440    24169   -21928   -53824 
  -53696    -4595    99241   224764   324356   357771   337487   327481 
  330527   299594   254695   232309   198690   127045    48874    -6289 
  -23328     9521    75633   145824   206918   236490   202738   122400 
   49565    -8442   -79851  -152699  -202200  -235307  -241100  -192349 
 -109973   -38304     3562    17563     -784   -73411  -186718  -282996 
 -311463  -251166  -132902    -8680    86825   136012   154209   151563 
  105119    14914   -63782   -80014   -79930  -111438   -99131   -40828 
  -46326   -59632    21374    84377    36309    -8614     4183   -11421 
  -56442   -91921  -141917  -198556  -199422   -75320   126858   249172 
  273181   266376   207856   128892    70356   -16120   -86063   -53040 
   45828   132112   174306   202489   235164   225552   151856    46237 
  -40068   -77695   -87359   -79795   -63138   -66879   -77930   -89055 
 -118343  -108477   -34804    11124    -8499   -53779   -98645  -121923 
  -92890   -17028    42145    75639   116876   139444   137326   128332 
  116189   129721   149342   105943    52307   105692   175139   126382 
   84196   142099   171508   110307    29632     -280    30254    67501 
   80455    51528   -35272  -127618  -207777  -278298  -260120  -173414 
 -122971   -93540   -69491  -100291  -164953  -212417  -226543  -197571 
 -152486  -130762  -115103   -77562   -20568    55328   147066   228033 
  278746   313821   334385   291462   173823    75215    59333    61169 
   51850    97937   180594   222767   231456   224687   174808    86562 
   14709   -31135   -88334  -117472   -86553   -81321  -130395  -160272 
 -161194  -184009  -232984  -267028  -261076  -205752  -101931    -2108 
   30829    15044     7410    25901    51231     8606  -110741  -134299 
  -14617    68922   103658   201746   282807   276546   278256   290368 
  238063   175069   176839   204587   184231   121603    70297    28570 
  -19489   -48843   -40490    -7677     9759   -23244   -91019  -131761 
 -131353  -157275  -216861  -236939  -221412  -228526  -232040  -160293 
  -35723    30542     9309   -22189   -44818   -93926  -154485  -155970 
  -36794   116036   162670   207260   374576   476410   398553   324014 
  303885   210968    67892   -12618   -12042    32956    89725   130372 
  115805    34360   -61966  -170460  -313568  -397755  -392185  -401769 
 -411011  -341671  -227834  -112206   -17514    29574    53231    68130 
   41774   -21845   -98092  -187038  -241836  -199670   -88165    46352 
  196784   346700   475031   550262   559188   544986   528002   495383 
  447512   371051   259255   136198    18442   -88616  -175670  -256023 
 -353010  -400291  -321124  -216434  -201951  -233361  -239325  -207905 
 -166870  -119061   -43268    22707    36104    21635    19980    16645 
  -18932   -40680    -1998    58741   127886   236390   343514   387753 
  403057   439685   461029   428365   357384   248610    92632   -88784 
 -244679  -325526  -350885  -348979  -284531  -209077  -205808  -185159 
 -112249   -98405  -114868   -82817   -58904   -76040   -66681    -6385 
   20974   -42871  -142380  -206118  -195806   -49958   204708   371299 
  367070   294070   224634   190890   114787   -61830  -187143  -217733 
 -196858   -35951   169645   192480    91038    41181      113  -144606 
 -304014  -325093  -235462  -123847   -40050     5444    96603   209673 
  196915    93648    41864    77741   146691   162788   131612   130566 
  136436    96188    45268    19348    20985    62383   142954   231394 
  280474   259546   190151   135063   132757   135222    62282   -61153 
 -143453  -169695  -167325  -163416  -183902  -201802  -202980  -200142 
 -169323  -123106   -92890   -65321   -64370  -135091  -218384  -218384 
 -169897  -135621   -82409   -23195     7321    56112   106543    91134 
   52524    70691   131280   177592   208502   230310   219906   189222 
  162822   128306    69345     9396    -1957    31660    54842    46009 
   17270    -4506     3092     1178   -47910   -92480   -81043   -50706 
  -32269     2589    35390    18786   -26881   -68272   -84835   -30159 
   81780   147569   142358   126130    87123     -577   -81510  -115372 
 -146843  -191196  -178563   -94086    -1296    70834   140601   220788 
  293939   330809   315951   245068    92383  -145625  -364509  -460490 
 -452949  -363295  -155202    89486   219406   266565   308496   278529 
  145704    -5833  -115975  -171077  -147899   -77191   -16888    53557 
  134931   177002   180322   160930   107538    44524    32328    72134 
   95902    68399    34464    28933    25841     9740    -5611    -9379 
   -6330     5927    52929   108207   104708    54665     4460   -58097 
 -136946  -184099  -179447  -168053  -164812  -133944   -95530   -88454 
  -98058  -109201  -105219   -56317     9327    33605    49381    97498 
  111017    83641   105413   167016   202203   204088   176310   116621 
   64488    74925   112379    96161    53075    47623    64064    48128 
  -24718  -102979  -118989   -69121    26083   103578    76497     3767 
    -753    -6158   -90414  -151529  -127103   -85438   -64377   -51607 
  -37135   -18847   -11425   -17131    -9865    25759    80662   126370 
  128011    81143    10503   -51561   -75811   -69707   -37334    52574 
  148113   165592   156159   170118   154298    99320    40506   -38808 
 -136355  -168249  -106782   -48968   -44409   -33369     6561     -195 
  -91102  -171576  -165238   -93645    11716   107693   178997   251919 
  277011   203854    71139   -80225  -188175  -195146  -120681    22226 
  181869   237872   192257   132673    61383   -22859   -79443   -94189 
  -57381    15130    69441    83358    80661    69873    -9153  -159312 
 -238092  -176260   -71107     7137    52006    32042   -22624   -40099 
  -51638   -75973   -76855   -59880    -9829    63998   116797   173601 
  207698   126901   -18547   -91550   -57624    32344   120811   174530 
  207269   238747   228879   126347   -33930  -155842  -178821  -109802 
   -4218    68860    99777   120436   102240    28093   -40428   -66648 
  -75906  -110752  -141050   -97671   -49441   -56263   -21189    51895 
   70985    70841    66379    26551     3541     -334   -11457    11335 
   22970   -23808   -45150   -12352     3032   -19737   -15498    46703 
  106698   124517   104943    56538     6527   -34303   -75154  -104599 
 -108147   -78131   -19353    15589   -14131   -43802   -14451    28570 
   65175   110007   128318   109641    66606    -8156   -69957   -52980 
   21262    70501    76002    88123    76077   -15460   -87115   -62934 
  -24057    11106    74914   111888   122253   162143   185737   147733 
   92111    49430     6687   -51208  -114350  -163556  -200654  -199270 
 -119861   -14858    40649    76523   136381   172126   130867    47441 
  -19807   -74744  -119222   -99387   -17550    41959    70112   135880 
  212379   208892   139753    72669    -5304  -129319  -232193  -226990 
 -179560  -155629   -60018   111715   203854   158881    66317    20409 
    1791   -60897  -145227  -196256  -199798  -164297  -107743    -7534 
  100525   107669    66625   105274   174114   160049   103036    95662 
   86454    37523    20819    25276    23245    56967   112519   153451 
  177448   177272   147316    88912    23862   -13635   -39349   -78355 
  -95312   -82266   -86290  -104595  -102965   -83065   -70626   -78931 
  -82337   -67331   -57096   -58897   -71544   -94347  -101657   -69847 
  -23490     5026    41627   100249   135961   136823   131720   125370 
  108151    88248    78428    75390    89426   130287   144697    87821 
   21339    13278    19961     1868     8530    33018    13729   -28931 
  -59687   -99558  -150412  -180430  -176436  -134088   -50980    41521 
   99497   112725   100376    62799   -12970   -82250   -93694   -81294 
  -60041    22461   128468   167185   166047   161307   104674    16710 
  -26843   -39872   -60789   -58909    -8518    48309    70367    79994 
   93721    70563     5503   -52918   -93985  -127488  -130819   -77849 
    5039    51660    52096    56997    68251    50615     7361   -49088 
  -76789   -29339    27994    45774    72732    97106    82533    42201 
  -15507   -46398   -29355   -30184   -23788    65348   159395   179716 
  164971   119992    27122   -53064   -72729   -77917   -79029   -17517 
   66160    88873    71062    36684   -21358   -65862   -69796   -53689 
