Origin Time       2021/02/13 23:08:00
Lat.              37.7
Long.             141.8
Depth. (km)       60
Mag.              7.1
Station Code      FKSH18
Station Lat.      37.4894
Station Long.     140.5380
Station Height(m) 410
Record Time       2021/02/13 23:08:08
Sampling Freq(Hz) 100Hz
Duration Time(s)  227
Dir.              6
Scale Factor      7845(gal)/8223790
Max. Acc. (gal)   203.931
Last Correction   2021/02/13 23:08:08
Memo.             
[...]
  -18681   -38005   -43521   -24638     1560    21097    33134    32900 
   14334   -15122   -36391   -38838   -23205     2330    21114    29992 
   33764    19026   -18377   -59157   -83936   -77191   -43718   -16012 
  -12382   -14436    -3615     5362    -1944    -8329     2702    24286 
   31139     6588   -19660   -10797    15939    18921    -9784   -35247 
  -22280    12048    21043    -3113   -26779   -21033     3145     5594 
  -18123   -33542   -34789   -39023   -47456   -54750   -53507   -33604 
    2273    33264    36020    12707   -10085   -11998     4733    16131 
   13032    17220    20617    -4634   -39438   -56396   -55854   -42462 
  -29424   -21645    -2629    25077    38470    28911     6413   -12753 
  -19606   -21466   -32381   -51293   -66744   -75180   -65638   -28026 
   13377    28671    16564    -3823    -7828     6547    20291    25097 
   26761    38925    56335    40932   -16200   -67876   -77494   -60793 
  -46624   -33417    -9495    16491    28669    19997    -4340   -22752 
  -21405   -13092     4564    42383    63001    33354   -18754   -60768 
  -81633   -72280   -44475   -22982    -7776     6789    11403     9379 
    5517   -11630   -21764     8478    46376    46816    25893     6227 
   -8340   -10744   -16363   -45323   -70491   -61969   -41220   -24533 
    4158    33436    34821    15954     2538     4063    13855    19472 
   12731    -3315   -25735   -59462   -92408   -92188   -46838    15028 
   43758    21301    -6100    -1397     3654   -19052   -44213   -37854 
    6763    58579    64042    15912   -22412   -12218      224   -30558 
  -69682   -64594   -29556    -9396   -12980   -14841    10754    47025 
   42360    -3538   -32375   -31387   -43475   -72153   -69714   -20638 
   25982    24692    -2380    -6771    13760    31475    27877     5055 
   -1050    19812    13374   -30642   -54126   -44313   -36868   -46561 
  -56992   -41134      847    44240    67856    46089    -9811   -41674 
  -42535   -42724   -30928    -9254    -6087    -9566    -9651   -25604 
  -42862   -37143   -30325   -33528   -15951    21909    52006    71224 
   64851    27596     6448    10666     -457   -24412   -47494   -86368 
 -116534   -85684   -10910    48147    62573    34618    -2157   -15552 
  -23595   -39156   -33123    -2187    17609     7504   -15865   -22794 
   -8310    -5151   -28247   -42236   -23136     5715    12799   -16880 
  -58795   -45612    29700    81098    69900    30014   -24094   -62818 
  -39954    14651    38151    15939   -29384   -55885   -45129   -21315 
     251    18034    30214    40560    34069    -3396   -45052   -62210 
  -54139   -28728   -15211   -43783   -77792   -66167   -30318    -8563 
    -814      812     5491    25130    42951    37921    32838    31197 
   -6238   -46099   -25128     8918    -8425   -50747   -70200   -46387 
   -4027     3967   -19846   -20198    24254    64469    54811    34244 
   40733    36545    -5622   -69808  -124235  -124132   -68299   -14966 
    1826     1944    11237    27776    31558    16568     4811    17118 
   38886    40277     8336   -51922  -100326   -78775   -11227     7790 
  -31010   -49330   -24740     1343     8889    -6170   -32802   -13190 
   52083    71078    35025    10365    -5614   -32891   -46462   -33002 
  -14945   -22464   -59243   -95523   -94385   -37245    43279    76385 
   50695    24706    26524    27517    -1934   -42290   -50510   -25409 
    4591    14234   -10260   -48076   -64881   -53851   -33127   -25100 
  -26246   -16582     9626    44590    57048    31942     7560     3649 
    2951    -8302   -31369   -45292   -54409   -77643   -69476   -16586 
    9277     2258     5498      114   -14872   -10656    -6281    -1873 
   29444    49588    13084   -30865   -13500    31033    31557   -11618 
  -62596   -75352   -30273     2685   -17797   -31398    -9028    21190 
   42989    39879     4013   -31720   -42125   -34717   -10778     4097 
  -27527   -58266   -26181    37226    79497    68639     1285   -38061 
    -643    22886   -11472   -42850   -51360   -43497   -12887     -638 
  -37185   -64746   -42514    -5625    22758    33053    15858     1620 
    7874    18910    30993    31633      387   -48215   -69136   -53086 
  -51345   -76189   -84017   -61604    -1732    80968   109557    73615 
   38645    10704   -14031   -10372    -3387   -14777   -29006   -47582 
  -53916   -33508   -16189   -16407   -27367   -28197     1637    23700 
    1021   -39170   -45192     1340    25633   -23186   -49146     -248 
   43690    40576      892   -53435   -64619   -28448   -12630   -35777 
  -61763   -52011    12887    87340   104205    63533     3554   -38545 
  -39933   -14620    10056     2606   -35310   -53419   -40004    -5779 
   31010    20453   -18242   -32224   -25739    -5628    -2859   -38673 
  -51341   -20920     7153    15454    -5317   -37079   -33893     3311 
   38295    45418    33255    20692    -3793   -33003   -32051    -6787 
   14735    17464   -15913   -70020   -91133   -76291   -58797   -17984 
   57090   101268    78522    42352    21250   -27135   -86641   -88119 
  -51717   -30721   -12564     4857    -5147   -33673   -53703   -33319 
   33048    70606    29913   -31203   -53931   -27832    27603    50066 
    5089   -45469   -39029    -7526     -519   -12372   -32381   -48316 
  -22890    31687    45519     6748   -33980   -54911   -48699    -6158 
   33249    34037    26933    28858     5555   -41936   -62220   -45138 
  -31172   -24740    -2731    12193      101    -3713     1987   -20105 
  -38322   -18177    -1316    10620    47680    61672    21104   -30204 
  -55960   -46807   -29880   -45122   -78028   -77939   -18060    65373 
   99219    56855   -15784   -47798   -24923    -8575   -33444   -63464 
  -66595   -47953   -20758     8507    21629     -734   -32844   -35640 
   -1722    47052    54213     6501   -31769   -28786     7785    52940 
   38931   -34557   -74876   -46499    13971    53361    20494   -49867 
  -65851   -20035    34132    54345    19460   -20393   -10689     4737 
  -11418   -41295   -76237   -82387   -40541    -8121    -6605    -6281 
  -21274   -37797     -854    55395    71385    51098    -9205   -73055 
  -50622    34371    70490    20935   -62731   -92574   -34082    32589 
   28829   -20291   -48459   -32405    -4320     3816      801     7495 
   24008    30802    17953    -4889   -39143   -83798   -97637   -49356 
   11853    14025   -24290   -29014    13570    60131    73028    46834 
   10170   -10706   -33475   -81000   -98386   -30113    49917    48474 
  -20439   -77217   -57538    -3829    -5166   -42907   -41891    11361 
   67324    63691      148   -54314   -59270   -39478   -24491   -10338 
   26732    78827    91253    51331     8320   -32035   -83955  -102265 
  -73714   -45817   -22161    10754    28701    27121    22975      608 
  -50490   -85014   -67768   -16837    43918    75316    40159   -16537 
  -42506   -63954   -78844   -36524    34103    54734    34871    33100 
   36664    27413    31070    14729   -35172   -47931   -34385   -52825 
  -72835   -57119   -19687     5946    -1152   -13315    -3600    16904 
   35201    34788    11865    -7275    -2080     8606   -23573   -92808 
 -136139  -127186   -66356    21621    64840    48605    28340    18697 
   22203    47969    50735     5204   -50174   -88156   -86016   -29074 
   28892    17104   -43104   -57021      -17    46992    23689   -36877 
  -48396    23066   103646   103041     6399  -108168  -141137  -100684 
  -58086   -26079      650     7361      197     6504    30646    35282 
   20223    22810     9987   -27963   -25420    -8044   -24966   -20861 
   20142    26800   -20170   -54548   -34514    -4785    -3854   -12140 
  -24252   -42438   -32813     9161    30295    15835    12877    25729 
   16985    -6304   -38777   -93631  -121886   -71456    23149    81780 
   60941     5223   -18581     -287    46781    77364    42489     2524 
   13167     8324   -27504   -52876   -90510  -111457   -74209   -53507 
  -64685   -37779     -105    -5493   -18052     7888    46807    50025 
   17759   -14659    -7862    28458    22801   -15268    -4029    36485 
   36364    -8429   -60759   -79672   -60937   -39135   -22154    11986 
   43330    26437   -17001   -39075   -49299   -52982   -25803    19683 
   48897    39646     2972      811    34896    11234   -74104  -113948 
  -66195    12348    46171    16100   -14324    15472    70717    64486 
  -14299   -74993   -55027     2242    29705    13741   -13802   -20538 
  -21286   -38200   -49682   -58864   -83353   -74457   -16958    25385 
   42430    48296    15183   -18199    17005    61528    16885   -70688 
  -94543   -60650   -22789      121   -13258   -40382   -16923    45231 
   66055    19213   -31580   -32343      950    36840    40309    -9343 
  -52805   -34657    -7184   -20765   -39580   -31523    -4255    26103 
   34245    19313    -9298   -67158  -104604   -54365    16065    33076 
   23693    -1777   -31671   -17155    15431     2407   -23423    -9155 
   19120    45563    74981    56340   -18243   -79242   -97758   -72092 
  -28183   -22194   -24094     6200    17085   -11650   -27962     4158 
   49053    47079    16043     2231    -3249   -10617   -16179   -33400 
  -43193    -6091    27557   -17679   -86324   -99908   -72175   -11612 
   50805    39924    -8048    -5478    21278    19299    -6517   -47009 
  -66607   -18233    36196    12501   -35171   -49000   -54554   -35762 
   16749    47702    41092    26036    14553    -5994   -23095    -4602 
   15765     5455    -5532   -26667   -71891   -84160   -46664   -17487 
  -13279    -8121     3314    28306    62706    67393    21875   -39611 
  -45839     6700    21899   -20175   -52043   -58927   -31602    25722 
   31807   -23049   -44668   -12428    15330     9991   -13073   -30304 
  -32015   -18885   -18235   -54877   -69238    -3264    69537    77174 
   63699    51015    18231    -2848    -2235   -27780   -71138   -62357 
  -11576    -1925   -34218   -59755   -66722   -38033     8602    16102 
    2099    17505    45100    42190     9177   -12861      205    16733 
    3277   -20547   -28732   -23332    -9544    -6392   -27554   -37254 
   -7165    29965    43816    38707     2604   -56046   -73831   -39915 
  -13818    -8183     3643      454   -35811   -64787   -64737   -44153 
  -11743   -11809   -44977   -34213    17274    43085    34508    11327 
   14323    56043    62977    13741   -16519     4095    26164      330 
  -52442   -88015   -97688   -74650   -34265    -8957     7431     5629 
  -31580   -56046   -37299   -12430    12133    48899    57483    27592 
    7177    -9016   -43046   -57233   -28663    22492    62714    63323 
   33239     2448    -9144    -8738   -19174   -34300   -35577   -19153 
    3491     1777   -24343   -34929   -18689     6156    25474    29551 
   25076    28416    30046     8136   -26731   -51063   -70201   -85608 
  -70946   -29691     -716     8085    11188     3248   -12456   -11025 
   11776    31463    35186    42639    53639    35923     4083    -5881 
   -1134     8884    16517     1201   -28406   -45540   -36845     2182 
   35149     8796   -50377   -79459   -74106   -50953   -29305   -40716 
  -59112   -40918   -16868   -16681   -31199   -53488   -56195   -21211 
   13231    10147   -10123   -13267    -6613   -12829   -29943   -40367 
  -39297   -43821   -54631   -35370    15358    37577     9320   -35506 
  -67635   -47088    32930    82773    38098   -41322   -71181   -45546 
  -12650     1802    -6551   -43587   -71092   -48714   -12771    -4282 
  -15989   -33061   -24651    25976    67541    73506    79969    77658 
   38196    -9697   -41449   -59910   -56558   -36929   -29650   -34122 
  -20557    13406    42207    49218    27850   -11502   -42773   -52965 
  -30915    16056    33154     -417   -42823   -67907   -64612   -33064 
   -9495    -9181    -9548     8780    45291    64755    54317    47821 
   42211    21479     2551   -20561   -55270   -69863   -52795   -29012 
   -3056    31433    60486    81974    93301    76277    42489    22993 
   27170    28263     -118   -30673   -33188   -21143    -7171    10542 
   25228    23321     7581   -12852   -44049   -72130   -65321   -23982 
   21493    32977    -4160   -57447   -79209   -62984   -55877   -77013 
  -84726   -67016   -54018   -56247   -62590   -68706   -84855  -103195 
  -97443   -67873   -36069   -18400   -14716    -8534     -176   -10690 
  -31603   -33640   -23491   -19071   -15858   -17955   -30312   -33654 
   -5773    44244    60766    14578   -34855   -38940   -20972    -2421 
   12147     7570   -12501    -5836    45355    85090    68334    29127 
   10650    13890    25033    31502    29840    30299    31515    27063 
   27068    19398   -27838   -93413  -119537   -96862   -60925   -34134 
  -27683   -49646   -61285   -15502    51394    81527    77996    65616 
   62739    62125    32760   -14110   -35895   -28861   -14917    -8455 
  -26874   -60782   -58515   -13878    13761    14197    44745    98655 
  109260    91145    96565   113964   121991   115909    77868    11369 
  -34981   -29222    -2775    -6558   -49770   -96726  -106655   -71447 
  -29100   -15280   -16968   -16092    -7722    20218    53102    59891 
   42259    14431   -19039   -54449   -83458   -91584   -80613   -68555 
  -64795   -78382  -104371  -113528   -99561   -85356   -87783  -107551 
 -125793  -121782  -100186   -79149   -72212   -84619   -94521   -68049 
  -12131    40971    70740    62611    37866    49496    91373   104998 
   84535    68854    71728   100548   156087   198994   204483   191728 
  172476   144367   108540    65975    26407     6069     2848     -387 
   -6158    -6643    -5741   -13884   -38944   -72135   -88137   -87964 
 -101618  -138357  -175803  -188661  -169732  -132382   -99072   -86458 
 -101856  -135630  -151545  -127631   -92279   -76241   -76488   -83458 
  -89222   -81160   -59032   -39812   -35653   -41177   -47709   -52107 
  -47756   -23973    23271    80362   118908   124189   108685    85104 
   56581    27164    -1309   -16438    -4869    10871     6714    -2506 
   -1262     3003      311    -7790   -11233   -12812   -29020   -58332 
  -83037   -93609   -84211   -56832   -28501    -6281    14943    35950 
   61518    92187   115916   128497   129689   113235    79096    36548 
     714   -20186   -31598   -33771   -25735   -17679   -11075     3611 
   21292    16540   -19510   -54375   -62621   -51027   -23893    11076 
   35155    44109    40045    19049    -9379   -26954   -40981   -69822 
  -99277  -110691  -109225   -85656   -30879    26383    59992    73693 
   71856    45719      152   -37297   -57929   -75128   -85133   -76604 
  -58155   -49145   -44604   -12942    46030    93124   115190   130545 
  134635   102431    42391    -5323   -22333   -19579    -8449     7861 
   26200    31075     3902   -47291   -94825  -124479  -137218  -136644 
 -124937   -99299   -68057   -52084   -44351   -16318    38884   108172 
  164880   179219   150939   104257    59991    29686     9499   -21427 
  -67498  -107778  -133934  -140173  -110879   -67339   -44847   -32093 
  -17520   -19106   -26732   -11681    19865    40528    35841     6326 
  -33847   -54931   -46981   -36834   -41008   -46962   -41288   -26306 
  -11686    -4118    -8009   -13398    -5508     6053    13606    28024 
   43048    46033    49300    62202    72708    70814    54542    35144 
   27360    17027    -4018   -11712    -6269   -11072   -22437   -31688 
  -47486   -58596   -45361   -34519   -62321  -107538  -131839  -137035 
 -133527  -110506   -63327   -13184     9038     2490      896    12507 
   17308    24726    37881    22253   -17946   -45696   -59655   -68165 
  -69390   -67582   -65773   -66374   -66307   -52438   -19364    26796 
   74308   101298    92807    64863    42028    33704    37326    36702 
   24718    17965    22103    18904    -1121   -17470    -9414     7734 
    6443    -8814   -15464   -18621   -39428   -75547  -111346  -132649 
 -126284   -98474   -65603   -29585     9379    46935    76000    96025 
  125783   165161   190865   194051   169055   111504    31023   -52382 
 -110604  -128348  -113895   -90732   -84704   -90063   -80007   -54633 
  -32535   -19938    -6134    16225    32378    28513    12977    -3188 
  -15665    -9228    16931    23271     3395    -3167      174      322 
   16803    31599     8633   -36605   -75828  -109120  -124765   -98423 
  -51116   -20891    -3443    13327    17815    10624    17516    45700 
   64420    48335     5490   -43317   -75278   -76121   -61245   -51742 
  -48945   -52169   -56577   -44489   -16190     2826     7352    14250 
   19126    21594    44454    79627    97135    91993    71656    38632 
   -3952   -36576   -37482   -26156   -37767   -64956   -76256   -60588 
  -28152     3898    13597    -6643   -27882   -26728   -17882    -8397 
   11183    29679    30537    23940    29434    35360    14666   -18837 
  -32163   -27222   -17313    -6690   -12471   -42768   -63283   -48123 
  -25324   -16428   -19003   -42662   -66382   -55294   -34543   -35113 
  -38539   -29867   -20422   -15311   -11560   -17774   -45166   -79442 
  -89074   -61433   -11766    35001    73068   105656   110870    73074 
   15082   -32074   -58098   -64864   -50808   -26033   -11735   -17223 
  -34299   -40054   -28556   -11867    11003    25181    10338   -16102 
  -35824   -42520   -20285    22277    48941    49172    39947    33199 
   27967    11816   -16942   -33357   -24656   -13306   -21971   -46666 
  -70200   -87978  -100195   -92774   -62160   -30025   -14835   -12186 
   -1472    28291    65130    87372    77638    42687    12672      845 
  -10332   -36940   -68459   -81581   -72716   -61292   -54955   -40533 
  -17338     4899    29479    57177    72044    58621    25039      176 
   -2147     -546    -1046    18940    46612    51904    45253    28629 
   -9016   -51466   -77425   -73021   -44334   -12754    21811    56274 
   61121    34705    13794      114   -33381   -66939   -72921   -72453 
  -74725   -51559    -2799    34407    42572    34334    21957     7075 
   -6972    -8654    -2632   -12676   -43528   -75739   -83812   -52096 
   -2415    25100    19913    -1760    -7653    15716    28351    15214 
   -3372   -39576   -69553   -44462     9231    50373    72447    72033 
   50503    10967   -31557   -52963   -53485   -38959   -17969   -21892 
  -52328   -62287   -29848    13629    36980    33898     7573   -21628 
  -31153   -27521   -30042   -47040   -62388   -44986     2602    40775 
   47028    29633     5096    -7377    -8694   -22187   -39530   -44458 
  -50176   -34207    15789    28782   -16653   -59549   -75517   -61884 
  -24734    -3462   -11862   -18144     4158    35027    42079    27554 
   -2758   -39205   -54031   -36502     2307    37855    45580    22913 
  -19542   -59015   -71822   -72932   -77598   -57578    -8127    38191 
   68654    76994    56155    23940     4558     6605    22662    28787 
   13591    -2432   -11047   -23195   -33515   -31733   -12168    16640 
   22960     -873   -26149   -35102   -26501      683    30150    33080 
    6430   -27344   -40313   -25288   -15267   -24960   -27155   -18409 
  -11978      488    14658     4207   -28769   -47237   -35536   -11362 
   13076    31658    32921    16402    -6529   -28305   -41677   -43191 
  -40798   -33745   -20664   -18365   -33092   -46206   -43210   -28791 
