Origin Time       2021/02/13 23:08:00
Lat.              37.7
Long.             141.8
Depth. (km)       60
Mag.              7.1
Station Code      FKSH17
Station Lat.      37.6636
Station Long.     140.5974
Station Height(m) 205
Record Time       2021/02/13 23:08:07
Sampling Freq(Hz) 100Hz
Duration Time(s)  258
Dir.              6
Scale Factor      3920(gal)/6170801
Max. Acc. (gal)   124.061
Last Correction   2021/02/13 23:07:52
Memo.             
[...]
   40041    -1972   -79953   -85116   -27219    13494    40703    37802 
  -18043   -43591    -1777    18798   -19401   -54299   -57942   -32131 
   26821    65661    48581    23308    10505   -16220   -42041   -47668 
  -55893   -53272    -8306    31686    16730    -6926     6202    24895 
   22294     4022   -21443   -27452    -4498     -592   -25443   -16483 
   14890    -2168   -38232   -31715   -13426    -1006    23527     4450 
  -47407   -21491    53053    44001   -52677   -89177    -4073    63384 
   27477   -24150    -4842    43957    30323   -11221    -8152     4316 
   12244    26288     -816   -53461   -48600     6915    30137     2045 
  -27963   -33463   -15636    29568    67679    33625   -31254   -27407 
    3863    -7846    -9544    11260     2413   -17942   -18423    19197 
   73754    37930   -52623   -26443    50163    14953   -45537   -26359 
    -331    -9220    -7245    -6000   -29533   -21539    10790    -6444 
  -15806    42645    55382   -31087   -74499    -7920    42964     9568 
   -6803    30557    13323   -45151   -31577    15615    25040     9329 
  -24228   -46215   -26516    -9614   -35337   -57456   -25738    23468 
   44991    29173   -17425   -30251     9738    26641    13095     6196 
    8718    22967    23128     1851   -16218   -40317   -52107   -18879 
   17662     4135   -32988   -37192   -11104    12764    -2192   -47122 
  -27980    26587    -4064   -39701    13816    43955     4332     -675 
   28131    16234    -7350   -18020   -46921   -37002    36141    34932 
  -55648   -80295   -31820    -5084    -8305    -9769     8453    31142 
   55524    65632    -5339   -84383   -59138   -14532   -24869   -28619 
   14633    34920    -9234    -8839    30758   -24009   -96108   -54766 
   11249    -3178   -14985    44508    44518   -61480   -74064    37926 
   46221   -59135   -71337    28898    81460    31412    -4483    23852 
   28936      909     2359    23332     9988   -36563   -43600     7668 
   27267   -21020   -42312    14035    62293    39831   -26917   -81754 
  -62694     -581    16033     6141    18522    24654    -9022   -60246 
  -52364    29677    64493     7601   -25926   -23041   -62400   -78576 
   -1024    81496    91632    71602    59641    20873   -15737    10488 
   27817   -21486   -79381   -81341    -2124    80149    50978   -38390 
  -50227    12330    38963     -803   -39090   -42107   -41619   -50211 
  -23381    48193    61565   -26909   -83651   -35813     2893   -13983 
   13821    64044    33226    -8719    -7596   -43174   -56243    10211 
   -3770   -87425   -40246    73173    62616   -20233   -19034    24510 
  -27694   -98434   -32155    74534    50394   -35849   -43452    -9162 
  -15388   -19819     8226     5265    -9832    20242    48213    44422 
   28684   -12569   -86513  -120762   -35847    60824    31866   -10408 
   44375    93039    53400   -27821   -71599   -44555    -2467   -21519 
  -93621  -100133     6867    68631    25501    -6457    -9269     1767 
   32514    25364   -19081   -35565   -45274   -50047      177    23806 
   -3537    24812    43286   -28373   -71188   -13528    55498    65014 
   35257   -34345  -101633   -69695    -9786   -10991   -10390    12952 
   34248    21780   -34403   -32561    14019   -17478   -72867   -71940 
  -36076     9519    37106    64977    89049    23204   -87302   -90475 
   -7406    13455   -34162   -29474    37089    49440   -26719   -66837 
  -28223    -2614    60432   124573    18606   -59914    48634    76467 
  -51280  -122927   -52741    47527    15313   -65371   -25312    10285 
  -27107      378    45544    15493    -7068    32223    88683    79144 
  -24434   -89671   -41115    11752    37970    69548    43448   -36661 
  -65152   -11412    36294    -1138   -61052   -50651    17066    81296 
   50661   -72205  -107720   -18907    36469    35776    19858   -33285 
  -46591    18671    41715    -1721   -27684   -27137   -22729   -14713 
  -37858   -90946   -58457    57778    69464   -21674   -22818    66282 
   98717    51256    14845    -8266   -65413   -37384    98678    99676 
  -32288   -42036     7970   -53426   -71028    25559    32722   -55011 
  -65356     7436    25499   -54406   -82847    -3386    45611    -2142 
  -84730   -82778    22236    88526    74115    45892    -6318   -81566 
  -84400    -8629    21677     4309    28594    58777    22143   -51287 
  -55723    37407    75760    -1448   -27715    23272    44920    64906 
   51544   -52736   -75094    27620    32871   -34344   -21156   -24508 
  -61593   -23102    16527     1362     7832    24007   -22963  -103354 
  -95234    25151   114139    61841   -50067   -66120   -22855   -56345 
  -76593    27254    86814     7606    -7214    88471    76105   -43170 
  -63474    -2522    16841    35726    43132   -46998  -136981  -114084 
  -41917    30018   104711   109174    27099   -26081   -22454   -28790 
  -35103   -25959   -43463   -68508   -39339    31975    74426    36239 
  -39519   -68484   -35233    40925    84986    11561   -79358   -36459 
   64872    59294   -22733   -61617   -66160   -60978   -10516    60251 
   85010    49543   -12527   -32521    -4073   -45590  -139261  -109693 
   12643    68958    51889    25839    17216    15580     4837    -7016 
  -16151   -19432    -5128    22242    40028    13420   -48837   -58264 
   -3778    19464    13614   -11574   -80802   -78370    26786    94692 
   67596   -32534  -105614   -50971    39720    61354    45742    25908 
   15251     8507   -46428  -107200   -61055     1454   -63551  -115192 
  -17251    92743   106553    53078   -20770   -28877    20799    24440 
    -113   -22885   -57260   -52058     6088    50322    25398    -9758 
    8599    20686    15315    -3326   -57997   -54500    12961    15407 
  -14119     2065   -10182   -44480    -7761    30296    34576    65771 
    7058  -117928   -46604   116600    96327   -10951   -47363   -43496 
  -31725   -12826   -16132   -35265     1272    68913    56942     2482 
    6819    -2565   -85439   -92778    -7748   -22704   -75348   -10079 
   17585   -24864    35553    77017    17255    21592    29912   -53272 
  -96115   -52853    13678    96541   153692    96551   -34204   -86930 
  -34449     5004   -40981  -101130   -47001    76028    81781   -19706 
  -74374   -68134   -45035     2237    62548    82960    21518   -30443 
   20465    45851   -31747   -92413  -106656  -102498   -42198    45599 
   79076    57331    65852    66799   -55310  -139871   -61017     1172 
   10192    18169     5991    62880   108860    -5678  -101249   -60236 
  -14601     7779    48073    80718    93289    51913   -68964  -167266 
 -147980   -67883   -19738    24613    97547    94955    24115     9039 
    2142   -37260   -40497   -31787   -43833   -28866    30605    85990 
   79236     7870   -66837  -102770   -97840   -24139    84373    88233 
   -1535    -6588    62038    47020   -18379   -43000   -99972  -171054 
  -78890   108529   122427   -11487   -40141    33024    13867   -61559 
  -30774    28305   -17022   -33053    30160   -24759   -94195    35600 
  132184    12084  -141249  -174728   -88011    34113   132603   162625 
   64541   -25904    -2476   -10962   -57576    -3529    62963   -15269 
  -98187    -2296    80569    -7786   -63226   -30535   -42946   -23978 
   43728    -3051   -77521    14750   129867    51119   -80527   -54919 
   20555     5620   -56805   -97683   -50135    54772    98284    69609 
    8650   -30076   -16982   -35370   -69276   -33123     8530    27299 
   48509    21868    -2908    21487     -877   -42677   -36102   -20100 
   41053    78313   -44020  -146423   -47408    72510     7407  -122715 
  -78556    85630   131761    29290   -54555   -37401   -22148   -47766 
  -21507    19704    10801     1500     4041    19767    46956    28841 
  -26868   -51579   -19993    39288    56223     -188   -55089   -26284 
   51130    51190   -35234   -65483   -19357    12091    -3717   -78857 
  -99610    16451    56357   -39547   -50186    10777    -9432   -39306 
   28378    82313    14433   -76387  -115253   -78968    63428   140274 
   16674  -102622   -40011    58658    13853   -60824     -661    63902 
   20523    10939    32901   -10824     6051    61351   -24846  -108584 
  -29296    66074    79324    56343    26712     7207    -1455     1422 
    2195   -24229   -68648  -101521   -66397     -861      776    10093 
   53835    15450   -56795   -38737     8369    -3465   -18239    13223 
   13760   -25265    18294    82888    39015     2158    37001    22238 
  -55362   -73320   -21197     6139    40309    82591    23464   -63352 
  -52575   -11609    -7207   -11259   -13013     3269    44955    59442 
   12193   -54809   -58388    12065    57384    -3356   -84701   -39299 
   31690   -21130   -55387     9371    23692   -28572   -62407   -66043 
   -6817    50485    11348     6715    69653    43734   -11364    31320 
   39294   -59150   -52562    71195    66678   -28257   -14215    66408 
   69868    -8188   -45017   -27460   -55902   -67471    -3275    31312 
    9777   -19639   -37272    -3046    86355    87926   -46309   -56873 
   66938    -7802  -177669  -112984    31685    16514   -18059    10415 
  -31763   -90823   -53390   -16019   -44128   -52218    -4276    27339 
    6541    -3994    33318    54673    14750   -44192   -66136   -31515 
   26927    43643    16846     6159   -19482   -43452    44801    83948 
  -53082  -107465   -13947     3504   -31977    28064    62389    -8471 
   -1485    56568    -4468   -63269    11824    42558   -65512   -88265 
   10147    35031    12309    39999    51780   -21106   -88868   -40641 
   37600    54257    63772    52076     5804    12248    29833   -18110 
  -59426   -44842    -3009    38813    76288    95678    35532   -41264 
   -2402    44756     4313   -13716      844    20973    60446    61964 
   31193    -7341   -43041   -22576    12878     9199    -3954    14592 
   60553    52206   -13385   -55218   -45686     4531    26515     8765 
    3524   -18087    -9116    57572    39296   -18437    21308    18237 
  -83718  -105550   -37505     9546     9202   -25227   -34442     5487 
   18690   -20383   -33967    20541    55119    -6146   -77952   -89159 
  -85843   -76569   -36418   -18935   -64704   -85091   -32202    12442 
    -637   -59931  -109377   -83984   -11490    38401    42681     9927 
  -26861   -40350   -46355   -37649     -589    13340   -12339   -17637 
   -6699   -28803   -37774     8268    43649     6112   -86181  -136858 
  -67041    24769    15305     8877    55841    12309   -60835   -19236 
   39627    37174    19922    -5775   -18907     4453    19600     6585 
  -35031   -66697     1666    77023    30381   -24552   -10641     8510 
   35093    75135    54661   -30915   -52953    29476    86703    44963 
  -12123   -12160    -7553   -20170    12480    53517    15525   -48516 
  -35657    14632   -13025   -79171   -36452    59062    45903   -13889 
  -26078   -31174    -8202    33375   -14439   -66986    17358    85386 
   20343   -22890     9911    49666   111304   155300    69404   -91094 
 -141098   -58918    35581    71004    39906    24184    70425    69201 
  -16316   -61578    -5758    33171   -14448   -11662    73049    89541 
   49966    46431     3303   -68267   -16190    49580   -16396   -63674 
  -69233   -93451   -13909    96452    67327   -29106   -94035  -106760 
  -64809    -7737    25755    15677   -45561   -91101   -71165   -76838 
 -113454   -76231   -33616   -63006   -95412  -110414  -113515   -71082 
   -2389    34761    27069   -14180   -83312  -103211   -21022    39077 
   18676    36994    83695    47332     9999    71420    88286    -3506 
  -57753   -78292  -100052   -44723     9579   -19574   -40664   -21328 
   -8526   -18409   -42782   -49763   -39285   -50137   -71355   -38269 
   39473    52720    -4017   -15522    38151    56781     9789   -10222 
    4361   -11781    -7998    37104    23677   -32159    -4866    64329 
   50722    -8087    -7800    40473    33268   -19532    -5396    44128 
   51760    36654     6828   -28810   -39191   -26100     -472    55183 
  106336    61821     1048    39538    63186    21774   -10749   -35180 
  -16726    27015     6513   -18472    31707    89132    80741    51605 
   44710    10132   -30104    12912    93707   112111    66359    23646 
   39912    71290    50449    38722    62793    31107     7114    94677 
  159174   114528    67124    40180     9169    28837    59349     7582 
  -46989   -16602     8532   -34179   -56468   -15267    24949    36414 
   16437   -20854   -17445     1249   -19417   -27871   -11183   -31734 
  -55639   -28646   -13983   -56702   -99335   -92576   -68149   -79313 
  -84724   -50754   -59538   -92913   -51289    -5597   -36270   -44788 
   16738    51978    44092    34632    14614    14143    29401     7906 
  -22313   -57472   -98841   -64154     1417   -35352  -111610   -89508 
  -15970   -25511   -88424   -97992  -100721  -120132   -80934   -29266 
  -41200   -79305   -77413   -27051    19044    26182     9901    -4250 
   -9084    -9730    -2621    -6565   -40157   -50638   -20657   -34125 
  -68323   -19230    39147    26233     5258   -15588   -28823      358 
   14658     1309     4555    -4935   -37888   -58269   -75047   -65549 
    -562    13034   -64936   -84055     7342    95445    77741   -28523 
  -66755     5600    59028    79793    64797   -21777   -50349    -3931 
   -2215    -1455    15677   -10534   -41360   -30672    24938    88792 
   94012    50706    24467     6267   -51557   -83711   -25849    12147 
    8397    98262   191120   123206    26851    14950   -11507   -44649 
   -2480    66629   104499    92473    25878   -41703   -71078   -55249 
   -6045    23393    36501    41202   -21819   -77508    10800   142690 
  152214    72130    -3079   -35189   -17876    10234    22222    32429 
   39786    28808     1399      100    41073    62735    38270     1158 
  -16580   -15867    -9081    30147    49258   -10799   -33802     5086 
  -23531   -68432   -22299     5033   -46955   -59348   -45170   -62850 
  -41606   -12875   -52923   -92167   -60957   -12988   -21184   -25825 
   21863    30940    -1513     8732    40111    46168    39673    20645 
   -5221    13198    50470    13864   -53366   -42385   -15089   -62574 
 -104429   -77642   -46572   -74913  -134899  -126861   -58775   -32908 
  -45432   -40464    -2031    37458    14353   -17004    48718   106275 
   33048   -32065     5719    26892    -2637   -28910   -77402  -119227 
  -63326    20204     7091   -32241    -5195     7266   -27194   -21320 
   -9388   -43786   -39941    -5804   -43135  -108536   -74793    22282 
    4033   -94910   -81728   -26104   -52654   -73884   -66480   -65988 
  -30126     8241    10084    28174    62210    69919    59217    46210 
   43195    64411    78887    78159    91867    75924    38809    70933 
  121997   104490    44512   -27618   -92212  -124399  -106925   -34310 
    8700   -51836  -106917   -42116    58060    89068    66488    -3459 
  -75157   -55098     2926    25799    32804    37371    79708   129030 
   83584     7904    -6995   -45521  -126536  -132539   -76336   -55085 
  -36903    16342    25558   -23623   -35275   -17216   -36334   -55233 
  -65102   -89448   -81921   -62689   -49978    19117    65661     5819 
  -32895    -2370     3335   -21346   -37601    -2435    58281    22381 
  -40592     5138    40601   -19826   -65532   -50816   -39189   -47856 
  -10560    68078    98204    76709    48057    39348    69836    96924 
   99023    95102    56066     6280    14037    43256    47243    58300 
   47459   -48006  -128524   -89756   -36567   -39569   -29141   -24902 
  -52784   -35372    30197    71605    71560    61857    32419   -38221 
  -63806   -13305     8086    15809    61685    59752    12602     7235 
    9314   -19244   -31013   -23098   -34292   -38975    -6506     9009 
  -26323   -44979     2229    78461   120053    87541    15362   -23642 
    -412    62687    92742    48411    -2778    -7425    -8765   -30816 
  -30527   -14412   -21547   -10129    27088    11620   -22806     9610 
   36986    -3240   -33565   -38421   -42322     1917    59368    55211 
   29779    41522    89936   100022    24797   -12167    11484   -49161 
 -126230  -118427  -129069  -159233  -142614  -132146  -125715   -64759 
    2593    -2877   -43767   -51657   -56772   -74339   -61273   -35810 
  -16049    19738    37809    25815    35071    50052    49194    59709 
   40173    -5376      572    16256    -5337   -28515   -46584   -54925 
  -51086   -28557    24350    33305   -18672   -29770    -7404    -2394 
   14939    26331     7656   -14562   -47389   -78996   -58856   -14285 
   -3523    12624    34066   -18794   -71286   -28651     7274   -24917 
  -63965   -85249   -78787   -64545   -45744    39619    95512    47087 
   61809   128978    98887    49923    50706    58253    45849   -17315 
  -70437   -66068   -70478   -57855    19507   101874   141566   131593 
   91799    58611    22981   -32803   -72712   -68625   -49767   -49226 
  -70588   -91199   -71385   -37284   -62703  -106053   -91810   -65538 
  -66521   -58259   -35943   -22006    -6182     -840   -39005   -92106 
 -111109   -69692    22335    79179    48709     9445    27467    61034 
   65586    64919    85688    74283    14109     6892    50339    47718 
    5148   -29909   -39223   -52572   -69544   -54617   -70856   -83875 
  -11639    19740   -14217     -707    28023    18799   -12395   -27044 
  -15879   -11764   -10005   -11402    -1842    55156    87769    34479 
  -18408     9059    49147     9941   -48761   -40315    -3376    19909 
   40250    47753    41131    48232    64431    64473    50585    16263 
  -24881   -35080   -38072   -34870   -17359   -27467   -26968   -18820 
  -48823     4690   115439    82699    -2044   -12492   -30354   -35394 
  -16480   -40180   -38653     9168    22810    13709    12196    12673 
   15143    17074    32807    54042    28645   -39743   -68621   -27549 
   23313    49383    72186    91848    71427    17897   -10944   -12142 
  -26255   -32475    13639    69494    72241    46220    32887    42278 
   49063     3695   -62743   -96848  -111049   -92372   -55538   -60378 
  -78859   -79763   -83463   -75072   -37486    20053    55906    30252 
  -15972   -43295   -58576   -43615    -9446   -13962   -57899   -73549 
  -33000     8953    21446    21245    -5990   -46217   -23240    39507 
   31377   -14292   -12551    -3940    -4708     8209     8499     7571 
   31714    47403    44850    63461    81677    57284    10285   -48422 
  -80091   -44153   -11317   -16500   -19483   -17908   -23733   -53395 
  -80026   -47429     5327    28489    45246    44144    15943     3431 
  -36424  -125994  -127640   -40161   -16415   -35441   -22399     1840 
   30269    43068    35122    56119    74018    31716    -7230   -23012 
  -65231   -68676   -14981     8602    13981    25535     8311   -15313 
   -9166   -10175   -33645   -32885   -20975   -30715   -29994    -5697 
   -2041   -21456     1463    35628     -396   -45449   -27296    12272 
   11187   -24370   -30462    -3849     6934    13410    44868    69469 
   42278    -4693    -5046    48291    99268    75999     8701    -8454 
    1605    -2997    17007    53218    65807    56352    24135   -14381 
  -24525   -19067   -26451   -47603   -57181   -15946    33162     3837 
  -42016   -20158     3426     4312    28759    37040    -1489   -33363 
