Origin Time       2021/02/13 23:08:00
Lat.              37.7
Long.             141.8
Depth. (km)       60
Mag.              7.1
Station Code      FKSH12
Station Lat.      37.2169
Station Long.     140.5703
Station Height(m) 470
Record Time       2021/02/13 23:08:09
Sampling Freq(Hz) 100Hz
Duration Time(s)  227
Dir.              5
Scale Factor      7845(gal)/8223790
Max. Acc. (gal)   311.543
Last Correction   2021/02/13 23:08:09
Memo.             
[...]
   -6593   -18619   -21648   -16059   -15163   -13882    -5104     6485 
   13581    12960     8797     4523     -756    -4885    -2974     3542 
    4409    -4716   -15900   -20413   -13716    -1950    -2533   -15434 
  -20304   -15526   -11453    -4190     5304    11859    16364    13420 
    4055    -1364     4148    19110    20956    -1443   -16411    -7530 
   -3564   -16259   -25204   -19924    -1937    12024    -4002   -29810 
  -21336     2778     2629      -28    10000     2409   -10935     -706 
    6875   -10972   -25091    -6847    14723     -924   -23457   -12559 
    2597     -639     3996    15041     7219    -2695     5935    10277 
   -6447   -22084   -13365     8019    15160     7740     2259     4703 
    5613    -5231    -8239     6057     2675   -16206   -15857   -15865 
  -32367   -29493    -7434    -4351   -14049    -9499     6637    23630 
   36549    37108    21548     1250    -4336     3943     3970    -8419 
  -15404   -11350   -15994   -32476   -24926     5117     7697   -13212 
   -9823     3697   -21231   -47857   -14366    27467    15836    -3762 
   13593    40381    38453    11927    -9308   -16514   -17687   -16418 
  -16086   -14715   -11400    -8191     1073     5275    -9281   -15603 
   -1968      823   -10389   -12652    -2658    10292    15182     6970 
    -811     5105    11115        5   -10408    -1421     2968    -9104 
  -10199      770     -685    -9320    -4548     -618   -16711   -17934 
   10246    16421    -6822   -15823    -7703    -6799   -11975    -7134 
    1624     2720    10331    23641    14419   -11614   -19264    -5263 
    4702     4565    10692    17913     8344    -2463     -850    -8330 
  -24740   -24175   -15967   -21170   -23689    -9452      935    -4947 
   -5107    12321    22427    12599     1456    -1526    -2880    -9197 
  -16930   -12402     4166    15402    12352     5340     4861      190 
  -14948   -19845    -8020     -804    -6254   -11993    -5316     9428 
    8719   -10216   -16638    -1324     8058    -4356   -18642    -7680 
   11433     -827   -20846      283    31433    17961   -11025    -7415 
    6733     -918   -21803   -35037   -17977    24351    36918    -2042 
  -34615   -28742   -23265   -26828   -13794    -7626   -20938   -11704 
   14890    18311     8301     7558    12213     8425    -7523   -13757 
    5225    20430     6261    -8760     3975    21358    17107     4831 
     630    -6308   -28590   -53874   -53964   -28209   -11554   -18388 
  -20314     1958    21004    10274    -7136    -5900     5065    17685 
   21980     8959    10276    37889    43568    15904    -3111     -461 
   -1178   -21956   -40613   -26850    -3447    -9049   -21701   -11203 
    -972    -3357     1809     7549     2605     2575     3850   -10833 
  -29218   -29104    -8024    15861    17848     -275   -11103    -8757 
   -6280    -2617     3538     3038    -1140     9879    29835    24710 
    -812   -12042    -9946   -12445   -22920   -35581   -31977   -10469 
    1860     2845     7042     2952    -6682    -7191   -19890   -41439 
  -33205   -11380   -12526   -17305     6475    42032    50091    39985 
   45894    56785    44339     8243   -24549   -31904   -33431   -46576 
  -44668   -15873     3113    -3235     -769     9316    -6816   -23768 
  -18655   -29825   -48748   -22638    25693    32968     6876     2995 
   26021    35833    24931    11965     3291     1304    -1525   -18728 
  -38464   -40239   -23074     1723    17051    14609     7163     5169 
     924    -8469   -11088    -6798    -5151     1939    20304    32440 
   24147     4495    -5645    -4779   -15036   -34987   -36024   -15993 
   -7342   -27072   -41569   -20255    -1237   -19233   -27463     2809 
   18640     5341    11142    35149    33538     7357     1275    29255 
   51484    37852    10440     1965     2862   -14403   -37000   -43587 
  -56457   -77935   -69222   -42502   -37503   -35965    -8796    28925 
   52092    51756    30835    14218    25609    40798    33573    22427 
   22987    26153    15250    -7796   -11533      330   -13728   -42448 
  -44193   -33727   -44856   -54024   -28745     3990    10484      221 
   -8411    -8646    -5701   -10430    -8253    15306    31947    22590 
   17176    34123    37380     5003   -22754   -21956   -15080   -10320 
   -6912    -9980    -3129    16686     7865   -35452   -50098   -19334 
   -1432    -5019     8969    21466     4707    -6264     6230     7456 
   -4571     1155     8240    -9751   -24869   -21951   -26420   -32121 
   -9833    35401    63710    43154     7627    13420    32167     5125 
  -37129   -38672   -23392   -25895   -28737   -17653     2515    19777 
   13045   -12957   -28105   -26585   -28453   -34479   -15612    21906 
   34591    32622    44064    43794    20433     4850    10015    15310 
   -1389   -34993   -58972   -53804   -26808    -5184     3716    11545 
    8201   -13157   -23028   -13505   -18800   -31587   -12668    17882 
   19396     7609    10598    13059    -4540   -13089    16972    40549 
   19063    -3962   -10058   -25384   -36081   -26863   -14547    -8487 
   -8322   -15502   -23647   -19373    -4930    10369    29883    43394 
   37432    24441     7447   -18354   -29682   -14316     5549    17323 
   20148     5044   -20599   -29722   -24506   -39051   -64316   -52852 
  -11499    15967    22415    23903    25018    20237    12981    13327 
   14455     4918    -5236    -8545   -19332   -32861   -23440     5391 
   23221    16252    11115    26203    23020   -17280   -44429   -33149 
  -25713   -36184   -21845    18281    37184    29525    28552    33679 
   10801   -28486   -30323    -7773   -19805   -44140   -25458    17687 
   46608    54249    38519    10292    -4159   -11630   -37216   -59212 
  -48231   -21852    -8691   -14226   -13450     7072    15844    12160 
   25321    28987     2535   -13722    -3315    -3670   -33381   -45534 
   -1329    43492    27018    -5907     4293    27742    24732     9759 
    2695    -1348   -16486   -37839   -44628   -27774     6766    30748 
   12626   -28194   -46951   -40699   -29910   -13146     8656    17316 
   13412    -2412   -30111   -31523     3411    32351    35756    20684 
    3275     -615     -457    -4102      700    13444    20355    13871 
   -4858   -19372   -15522    -8386   -12916   -14227    -9481   -20529 
  -36988   -34582   -22704   -13649   -13555   -21222    -6488    34060 
   48794    28979    31024    61117    60119    14210   -23955   -29290 
  -30719   -33727   -17263     3801     8968     9383     1485   -23746 
  -39545   -35853   -35378   -43798   -43348   -14848    25583    46072 
   53303    56265    38083    10233     7183    10400   -19124   -50419 
  -36108    -2432    -2822   -22299    -4633    27099    12181   -16815 
  -13714    -8017   -16692   -22231   -24923   -27815   -25955   -19587 
  -11912    -1964    19133    45598    53955    47451    40747    22156 
   -2384        1    18627     6312   -34361   -56091   -48046   -44359 
  -55063   -40030     1956     2119   -38452   -34938    10027    23333 
   18206    41887    62409    48311    26767    14060     5601     3877 
    3989    -7682   -23703   -22940   -10636    -1448     3383     2147 
   -6234   -19982   -31807   -42122   -60297   -67363   -46726   -20309 
   -6913      873    27113    69476    80183    47232    17427    10673 
    3376   -11628   -18806   -15176     -900    17477    13867    -4671 
  -13764   -22879   -28864   -18850   -12160   -27741   -50047   -46677 
  -23463    -9778     5837    30611    39780    32127    22306    22532 
   38534    47663    31523    12839    13605    11169   -16393   -41025 
  -40969   -38138   -44896   -54013   -59265   -55529   -49152   -41724 
  -25689    -5464    17568    42184    54805    56089    58108    58816 
   49797    29610     8379    -3037    -5987    -2824    -3974   -19830 
  -26119   -11476    -7958   -20902   -32069   -46053   -57834   -53234 
  -43467   -39495   -34209   -15479    21305    53812    62627    62064 
   57042    46125    45920    43799    15776   -15519   -21829    -8924 
    -552   -16074   -38890   -30747     -367    -2744   -38881   -50191 
  -39726   -54454   -81045   -80507   -45408      697    23315    26882 
   34782    41582    48670    56797    48024    32903    30501    31446 
   24131    14316    10671    -1340   -29479   -43384   -36899   -47591 
  -80785   -93370   -62831   -26549   -24761   -32116    -1391    50630 
   72661    65304    54581    36127    11060    -1642     3466    12919 
    8671    -2126      407    10287     9217     1294     3230      958 
  -23253   -46805   -57261   -63871   -55194   -37210   -39910   -44076 
  -10193    40869    64280    54729    32503    15456     7925    -1865 
  -12887    -4645    16931    24079    21145    28792    31965    10976 
   -2382    18415    29830     1891   -22497   -18540   -20070   -37593 
  -35186   -13801   -18279   -42670   -45750   -33639   -20686     1413 
   16116    11781    14006    30391    40853    33162    13478     9146 
   27315    25266   -22643   -75365   -81606   -55741   -47248   -52015 
  -36842   -17729   -24989   -35333   -13393    16596    13387     1667 
   23336    51472    52776    50791    52423    34588    22968    49688 
   68077    31679   -15326   -20861   -10602   -22507   -34272   -24505 
  -31939   -71062   -81670   -42994   -21805   -45690   -54191   -20290 
   -4116   -35704   -45852     3767    43484    34808    26322    44579 
   63995    58646    35287    26420    37916    40757    25841    11038 
    3338    -8843   -28285   -43722   -47965   -41904   -40744   -42132 
   -8468    46558    60080    42059    45431    58648    48740    27908 
   20051    19228      838   -27978   -30990   -21077   -41364   -73275 
  -74821   -63796   -79261  -104981   -93935   -51907   -25157   -13231 
   16498    54274    68733    60637    56906    70363    76590    50252 
    9258    -8980      288    12324    20340    33478    45370    42394 
   19796   -11851   -42411   -73959  -101032  -116074  -116591  -102690 
  -86443   -70733   -38728     4880    31118    35310    28453    17810 
   13690    11573    12702    29042    54102    72719    68061    48294 
   33169    11897   -13446   -30715   -45235   -44806   -28861   -26843 
  -37878   -33577   -15169   -14038   -33783   -44104   -30812    -1788 
   19718    21797    26314    33381    24073    10057     6123     7572 
   -2502   -28148   -38842   -24501   -12175    -3192    18161    46618 
   73533    97875   111080   100441    72751    47387    24667    -1607 
  -10794    12683    38084    35644    19900     8681    -2960   -17976 
  -32907   -51997   -80725  -107326  -101190   -52232    -2006    17244 
   33129    60890    71463    60369    51013    45840    31858    14674 
    4090   -13691   -38465   -53962   -60377   -49707   -25405   -20293 
  -39411   -59907   -74854   -91064  -114249  -142696  -156681  -140533 
 -115446   -99323   -83174   -79307   -96354   -97534   -68104   -47806 
  -49203   -24873    34754    68384    64350    82354   138755   189411 
  209482   216064   211245   174187   119472    80522    64095    59937 
   52182    35762    21188    20128    37812    54854    48301    23392 
  -14004   -59224   -96465  -137335  -197901  -242689  -244420  -217547 
 -164920  -102585   -66118   -44162    -4260    48008    89151   109070 
  116934   129578   147866   163794   177480   188030   191393   188482 
  183658   167200   118038    50687     1271   -38782   -89999  -132358 
 -151402  -166414  -191978  -221003  -238362  -240738  -236672  -221721 
 -192323  -160438  -119699   -60269    -8399    13711    23653    49212 
   95254   131122   134131   125567   118721   102154    64902    12544 
  -12688     7766    33691    33775     6525   -32840   -66812   -94123 
 -105468   -85432   -44632    -1791    37378    66182    69475    41316 
    4716   -17266   -38021   -58282   -36020    29943    81426    94737 
   98347   112190   118457    89268    34668    -6088   -12059     1800 
   13084    28502    52068    54789    38333    48651    91832   131723 
  152791   149037   105873    28888   -59763  -141010  -196285  -216989 
 -205784  -158934   -76550    11878    68870    90454    83286    44709 
   -1471   -28082   -43228   -58394   -69974   -75253   -92207  -132846 
 -164731  -165484  -143068   -90131   -11052    54823    84275    93434 
   85826    49140     5653   -29767   -78030  -134293  -167047  -163391 
 -139725  -123195  -112286   -85058   -52852   -46716   -62661   -65308 
  -39710    -6864    29428    84322   140711   185849   234389   278100 
  298734   296775   280724   266990   261354   244007   200562   143473 
   90468    38223   -25425   -98667  -170322  -223844  -249058  -256096 
 -250777  -234531  -224316  -218506  -198005  -172088  -144382   -86964 
  -10257    35428    46580    53492    60075    70231    90408   110632 
  135476   162086   171352   168381   158053   133591    93887    42705 
   -5216   -44606   -84769  -134208  -193129  -231658  -234277  -232776 
 -232465  -205551  -146283   -71338    -4692    52893   116689   170977 
  199079   214732   232995   251588   248736   210683   153169   101864 
   73035    53739    25504    -3825   -36942   -77209  -102180  -111157 
 -129871  -171946  -220315  -244688  -250857  -250311  -218617  -166129 
 -139239  -128575  -108085   -95817   -90213   -63240   -10154    56344 
  112182   147771   182542   222636   256489   275248   273380   259147 
  243688   221991   196171   173381   138442    81525    15415   -51007 
 -117135  -182212  -241562  -287239  -316306  -329335  -320576  -278380 
 -214880  -168280  -132788   -62012    33390   101025   134318   152312 
  161951   172088   171058   143784   124796   137388   157419   179518 
  207874   223589   212379   167159    92361    19452   -32046   -79093 
 -132444  -178941  -209069  -216301  -194227  -166477  -171880  -207955 
 -237158  -235847  -215292  -195897  -160053   -87573   -17928    10966 
   26661    60210    97492   119990   125046   122581   137058   172166 
  208903   234445   227645   178546   117512    75177    50834    24201 
  -12071   -40718   -57296   -73701   -92137  -114100  -136372  -147336 
 -144633  -120793   -73562   -42728   -55663   -83193  -105663  -127039 
 -132814  -103994   -35490    54789   129402   175146   209891   232240 
  212731   141824    55782     9408    13190    24709    28359    42357 
   57892    56818    39301    19552    12545     1730   -26805   -52205 
  -74152  -109980  -155775  -202293  -235791  -235094  -193423  -127982 
  -61878     -743    51447    77080    74223    61805    50433    41524 
   37052    40940    61240    93166   116086   122962   120916   106110 
   70536    27650    -2832   -23377   -38728   -45247   -46651   -44450 
  -42889   -55405   -74814   -76048   -60320   -56647   -74922  -100271 
 -117765  -123951  -134520  -131930   -66796    29914    91720   136759 
  194144   238320   256207   251957   224652   188361   143160    74008 
   -7944   -85365  -151740  -197791  -217914  -219468  -211287  -186984 
 -147212  -113652   -82259   -32255    20321    48973    42484     7705 
  -18771   -25262   -38048   -40938     -679    51987    81932   108176 
  133284   131440   115897   115599   123961   116901    78629    13490 
  -52384  -102421  -151730  -212315  -262934  -269738  -210641  -105324 
  -12586    47173    96526   122661   101229    61831    44188    47196 
   51964    44533    31789    35829    53430    69245    91069   118434 
  126090   103079    63994    24165   -17520   -69724  -125656  -167582 
 -187026  -176983  -128992   -63988   -28441   -32462   -42608   -46399 
  -53122   -54090   -39285   -13451    13107    34086    52666    62644 
   53226    46657    73113   113008   131818   136447   135517   117454 
   84863    47479    21474    30163    65091    85918    64242    15977 
  -29647   -74748  -116372  -138144  -142426  -124016   -81643   -46665 
  -37266   -44610   -67603  -107049  -147444  -166477  -143430   -74748 
    2752    56115   100265   137118   132169    76364     4905   -35780 
  -36667   -21212     3149    31437    54893    77939    95804   103524 
  103921    94807    86441    85592    81297    72253    59362    38176 
   14139   -12461   -50048   -91296  -120868  -141870  -170290  -203677 
 -215812  -195031  -159702  -123198   -78919   -25351    20803    41897 
   46404    59783    75593    69790    61183    67622    64600    61133 
   89347   124880   133697   115528    73881    30969    22874    39513 
   39307    14145   -18816   -52555   -93082  -147069  -199218  -226390 
 -210471  -126262    -7223    55466    51679    29895    -2440   -21940 
  -15223   -29436   -49983   -23461    19502    46595    79501   116116 
  135738   134586   109757    68883    26676   -12976   -47047   -80399 
 -110054  -105904   -50171    38965   113502   138303   131310   109317 
   74317    34593   -32341  -117354  -160402  -177730  -204611  -193221 
 -125782   -45933    21386    73668   127213   181953   199312   162168 
   89765    16213   -34797   -79428  -126770  -151395  -148274  -121458 
  -60093     8090    37289    32983    21807     5301    -8802    10584 
   54175    73604    76219    89959    81560    32659   -17459   -41084 
  -46780   -57820   -76640   -89550  -106182  -127996  -116866   -52675 
   20248    56349    74298    96377   102373    73454    10384   -55512 
  -80227   -70143   -49530    -9294    47657    99040   137338   140009 
   82872    10143   -23048   -31922   -39685   -36768   -28568   -34724 
  -50782   -56076   -37497    -2015    18794     5570   -22983   -39109 
  -31591   -10866     8892    27194    36439    25351    14411    29930 
   56728    64469    48065    20213     -363    -5181    -8776   -10540 
    3061    10632    -3439   -17625   -22725   -30620   -47233   -59863 
  -56324   -50685   -52038   -47575   -29532    -8348   -11553   -36432 
  -29502    23776    65275    61179    41860    28711    11138    -9979 
  -23926   -22138     -364    27438    45470    53288    64987    90140 
  100453    61697   -12691   -81945  -129979  -167375  -189958  -183452 
 -147002   -82571   -13219    23499    33740    41169    39877    29346 
   12170   -18188   -33581    -3503    51071    93399   110199   111690 
   98092    58641    18119     1350    -6686    -5892    11400    19221 
   14791    23251    37405    36625    12216   -25382   -42539   -34102 
  -33889   -46021   -41080   -20552   -13595   -31305   -63682   -89397 
  -94315   -79143   -44311   -19467   -44059   -80592   -75038   -47854 
  -17683    26121    63802    78119    81337    82408    84902    89175 
   90490    92389    89662    55853    -9074   -70791  -109289  -119781 
  -96248   -37073    38047    88831    97324    71439    21054   -32250 
  -65095   -70033   -53771   -29214    -8135    -4359   -14339   -14222 
    -502    21205    56604    86957    83646    56088    29596    11071 
   -4214   -15957   -22659   -39721   -80036  -124152  -139545  -120984 
 -102833  -115842  -137192  -119684   -69136   -30960     -634    52544 
  112126   151947   168149   160157   133112   100156    74839    59208 
   57303    79586   102532    96878    76617    59493    38502     4554 
  -40158   -89162  -136946  -177290  -207940  -230987  -242156  -226204 
 -181167  -136541  -109075   -77026   -27013    27453    67630    84584 
   92342   108199   127522   138480   140340   145480   161013   178815 
