Origin Time       2021/02/13 23:08:00
Lat.              37.7
Long.             141.8
Depth. (km)       60
Mag.              7.1
Station Code      FKSH18
Station Lat.      37.4894
Station Long.     140.5380
Station Height(m) 310
Record Time       2021/02/13 23:08:08
Sampling Freq(Hz) 100Hz
Duration Time(s)  227
Dir.              1
Scale Factor      3923(gal)/8224838
Max. Acc. (gal)   66.121
Last Correction   2021/02/13 23:08:08
Memo.             
[...]
   -1817    -5162    -3816     4526     8183     4209     3870      568 
   -8436    -7387    -1784    -5447    -8375    -5649    -4965    -1116 
    7125     6103    -3169    -5721     -546     2779     3146     4005 
    1391    -5539    -7639    -5784    -6696    -5715    -4603    -8598 
   -8945    -3775     -666     1971     3935     -535    -6029    -2947 
    2926     3593     4691     4440    -4418   -12669   -11839    -5900 
   -1813     -488     1166    -4337   -12887    -6601     4058     3623 
      86    -3003    -6662    -5007      571     1297    -1075    -1244 
   -5077   -11240   -12340    -9175      427     8195     1367    -7105 
   -8973   -12108   -11303    -3496     5659    13545    11875       58 
   -6917    -4330    -2808    -7408    -8685     -372     5960     1244 
   -5150    -4662     1794    10584    10327    -2947   -12702    -9030 
   -2702    -5416   -11605    -9595    -3538     -199     5047     8761 
    3607    -1633    -2687    -6480    -6822     1385     6332     4359 
    2952     -326    -7331    -9103    -4180     -614    -1613    -3477 
   -3889    -5440    -5255     1331     5252    -1352    -6724      -35 
    6853     2921       56     2138    -2297    -7280    -5950    -6222 
   -7021    -3985     -171     3512     5093     1017    -3269    -1073 
    3061     2733    -1800    -7983   -11794    -8437    -2458    -3356 
   -2508     8661    10825    -2335    -8760    -6056    -5111    -2120 
    3507     8332    12039     5062   -10925   -13120    -3935    -7121 
  -14099   -10486   -10855   -14199    -8172    -3010      542     7011 
    3600    -4873    -2533     2482     2760     4413      822    -9909 
   -6215    10547    11897      939    -3622    -6280    -5047     4357 
    3454    -8529    -8996    -4691   -11853   -11881     3076     8060 
   -1026    -7696    -6363    -2532    -2577     2401    12075     7435 
   -3007    -4671    -5532    -2623     3497     1560    -1615    -5239 
  -10887    -5421     -384    -6944    -3696     4351    -6822   -19006 
   -6228    13416    11300     1443     6126     8756     2253    -2604 
  -11653   -12764     1405      558   -13366    -9999     3720     8245 
    2126    -7623    -8160    -1244    -1840    -3532     -927    -3730 
   -2002     6196      -98   -13007   -13189    -5991     3100     7059 
   -2760   -12850   -12152    -3495    12123    16058    -1522    -9101 
   -1426    -6731   -11342     1260     2733   -11275   -11701    -1548 
   -1104    -4684    -4213    -5004      325    15442    17536     2083 
   -5115    -1404    -1868    -1127     6648    11812     6832    -3820 
  -10592   -13028   -13244    -8554    -1404     4904     4932    -7776 
  -16838    -6180     8344    12031     5239    -7657   -13918   -11294 
   -8708    -3998     3026     4341    -1146    -6600    -5175      249 
    3268     6127     6886     -641    -6023      841     6782     1197 
   -4591    -1996    -1921    -8309    -6650     -139    -4101    -8503 
   -3096     1336     2856     7879    10162     1968    -9435    -6107 
    9143     7277    -6231      784    10642     2265    -2208    -5688 
  -16494   -11044     2303    -3258   -14376   -13346   -10164    -6968 
    2806     7045     2462     -378    -6249   -11719     -823    14073 
    9817    -5996   -13500    -6494     7866    11742      442    -6292 
    -692     3153    -2043   -12328   -17770   -12276    -7743    -7813 
    2872    17656    12289    -4880    -6393     3692     8985     9269 
     911   -10111    -6064     2570     2473     2725     -202   -13321 
  -23872   -20175   -10073    -7794    -7569    -1001      634    -1251 
    2527    -1074    -7959     1246     9391     4017     2594     2825 
    1332     6859     3476    -9096    -3616     8667     1867   -10621 
   -8247     1040      391    -6929    -6891    -3535   -11740   -21473 
  -10574    10606    16438     6304    -7867   -18754   -14832     3306 
   11290     1058   -10269   -12746    -5013     6714    10006     4649 
    -260     -622     -515    -5491   -12271   -14131    -9792     -510 
    6349     2084    -2767     3173     5698     -587    -1966    -3609 
   -9894    -9324    -8587   -10152    -1362     8078     8344     7032 
    4414    -2502    -8257    -7230    -5971    -7564    -3539      191 
   -3272    -2987     3389     3258    -5368    -7442     1800     8257 
    4575     -747       -1     -351    -2883     5196    14365     6222 
  -10490   -14220    -2259      695    -4900     5933     9421   -12806 
  -23529   -11622     3345    11221     1017   -15468   -14427    -7068 
   -6558    -2103     4108      396    -7484    -6929     2860     5811 
   -3003    -2447     8301     3142   -13293   -10181     2559    -2444 
   -3947    11627    12721    -3983   -10687    -7499    -8274    -6343 
   -1202    -4872    -5976     2455      291    -9283    -5200     3869 
    1352    -5375    -6933    -8229    -7350     2778     8812    -1644 
  -13775   -12560     -135    11113     6799    -3399    -1075      546 
   -6222    -2766     6474      969   -13020   -11722     6705    14277 
   -1325   -20665   -23571    -3827    18092    13483    -6197   -11623 
   -5441     1950    12960    12943    -5494   -17890   -14458    -3748 
    7950     9477     1883    -3762    -6200    -1621     7928     4194 
   -8966    -6524     7221     9271     1975       20     -992    -9305 
  -15107    -8175      611    -4549   -11967    -4569     2579      237 
    -730    -6500   -13841    -4032    12444    17288     7994   -10095 
  -15774      -64    12611     3834   -12040   -11295     1908     7402 
    2778    -6281   -13510   -11210    -6750    -5020     2839     9150 
    2270    -7126    -4568     4209     2762    -3356    -4687    -9653 
  -15431   -15572    -8397     8348    16478     7915    -1629    -8305 
   -2635    13386     7321   -12857   -12825    -1633     1547     -201 
   -3082    -7388   -11541   -14607   -15034   -10258    -1054     9780 
   12564     1190    -4001     4839     1953   -11612   -12889    -8473 
   -8839    -4984     5062    11522     7867    -5649   -18550   -16962 
   -5832     -565      101     -348    -7159   -11605    -7906    -8124 
   -6907     4044     7260    -2347    -7986    -1876     6332     1987 
   -6369    -4753    -2430       16     4267    -1046    -8310    -3936 
    8571    13749     1371    -7901    -1944    -3491   -10255    -2895 
    6538     4241      506     4099     4357    -1486    -1336     1991 
    2704     1999    -2320    -7429    -6617     1440     5972    -1414 
   -9917   -10624    -9059    -9228    -7578    -2139     6589    10115 
   -1077    -9027    -5147    -8442    -9834     -672     3038     6570 
   11218     3743    -7277    -8830     2893    17509    13150    -4186 
   -9702    -1937     1027    -2473     2841     5875    -8124   -16808 
   -9381    -7784   -14362    -8336     4943     3125    -3570       47 
   -6974   -22875   -12472    12484    18262     6070   -10832   -17026 
   -8602      183     7985    14852    10022     -761    -7182    -9196 
   -5417    -4884   -10122    -2571    10675     4344   -12125   -14164 
   -3910     3519     5464     1891    -7839   -11410    -5796    -2550 
    6627    20756    11570   -10280    -9455     -274    -5580    -3615 
   12424    12594     -827    -3441    -9007   -25382   -27172   -12085 
    5032    12742    -2959   -24602   -17381     8256    17378     7167 
   -3842    -9309   -14837   -14894      118    12386     9354     5227 
   -3640   -18484   -16488    -2029      849    -4423    -2840     1642 
     623     1783     7674     2944    -9077    -7184     5374     9979 
    4270     -280    -1777    -5206    -5644    -3921    -3947     -773 
      44    -4318     -249     4384    -6301   -12406    -8378   -14099 
  -11283     5292     3464    -2173     5421    -1355   -11219     3262 
   15215     7182     5004     9478     -950   -10956    -2706     6721 
   10131     8592    -9474   -22307    -1638    21249    19071     5196 
  -14204   -25492   -14652     2871    12063     6079    -9456    -9922 
    4234     3410   -10172    -5699     6960    -2997   -21510   -15565 
    9640    15789      291     -626     7985      818    -8581    -5081 
    2562     8618    10882      202   -17270   -17170     1440    12278 
    8222     2166    -2756    -5598    -4954    -2018     3055     -101 
  -11639    -9976     4604     5454   -11287   -16264    -5382    -7051 
  -10804     2844     5405   -13023   -20650    -8770     3470     3883 
   -5398   -11973   -10832    -6643     5906    20275    12816    -9031 
  -13501     -835      989    -8338    -5491     2880     -696     1116 
   12185     3979   -11551    -4182     8166     4332    -4819    -7560 
   -4525    -2957    -4590    -6373    -6512     -621      213   -10030 
   -9053     2694     9005    12486    10380     2801    -4368   -10778 
   -5852     4796      256    -6164    -2029    -6431   -13165      691 
   16838     9595   -10287   -19109    -6918     9317     8649      823 
     459     5138     5171    -4372    -7948     -452      525    -1444 
    2411     1281    -4247    -3481    -1999    -4045     2085     8885 
   -3485   -15014    -3306     1896   -18230   -23116     4712    13653 
  -13648   -28950   -19908    -9930    -3283     -803    -2230    -3385 
   -8283   -17768   -23314   -14409     2663     1626   -13049   -11637 
   -4750    -9521   -12313   -12255    -9956     5277    20534    23024 
   19630    11227     -391    -2710     6089    11533    10539     8125 
   -1880   -10593    -4486     2655     1012    -1416     1698     7654 
    5968    -3096    -9074    -7429     -442     5343     7368     4320 
   -5867   -14166    -9351     1772     4698     3796     7496     7041 
    4148    12366    22185    20158    15549    16114    20869    29452 
   27136     4368   -10488      103     9028      699   -11310   -16974 
  -16849   -16324   -14828   -10833   -11641   -15250   -10328    -1197 
   -5158   -20810   -25192   -13049    -2848    -4029   -17427   -35262 
  -33358   -16294   -10725   -12538   -16056   -21587   -18546   -14191 
  -14771   -14281   -19338   -21535    -7047      -21   -16086   -34308 
  -42082   -38331   -25124   -13281   -10704   -18360   -26948   -29929 
  -32971   -30450   -15947     -361     8459    14516    21478    25867 
   26260    25814    22268    11479     1422     4544     7859    -5481 
  -20709   -27832   -30547   -22748   -15147   -22581   -27249   -16425 
   -4949    -1063     1715     7067     9254     6227     3280    -7296 
  -23172   -12425    23712    41283    34958    36180    43957    38299 
   26662    28948    47619    62753    51486    27928    28819    47567 
   49488    33845    10758   -13539    -9229    13410     5028   -11877 
    1528    16413    17427    16654     3114   -16788   -21751   -16825 
   -7684     2921     5409     4116     3148    -3146    -8745    -8239 
   -7111    -9425   -16812   -23488   -25425   -29320   -33093   -24892 
   -3650    11832     4988    -8937    -8571      928    12071    27951 
   38537    25779    -3504   -27544   -45354   -57415   -54276   -50751 
  -61736   -68744   -56624   -39444   -33380   -33756   -37497   -48894 
  -59321   -70977   -91431   -96102   -69581   -35841   -17300   -20412 
  -35818   -38691   -29184   -31857   -39569   -28336   -10840   -18169 
  -45987   -52986   -20760    22863    49704    59767    65997    72557 
   79255    86671    80044    56114    45150    54017    56543    49962 
   46912    47592    50791    51192    40266    21533     5300     -282 
    5961    21014    40554    50692    46047    45307    63128    89036 
  102379    97804    93451    99648    83536    20136   -45252   -70056 
  -79983   -94886   -99480   -95971   -84279   -52910   -19673     -978 
    7180    10316    25114    43954    37463    18499     7528    -2490 
  -13166   -20491   -24713   -36598   -59019   -62569   -35378     -396 
   24556    22869    -3276   -18285   -12887   -13953   -29907   -43767 
  -44743   -44194   -49318   -43891   -29764   -34441   -57387   -70857 
  -62567   -41617   -26127   -26217   -23191     3915    29484    15515 
  -26271   -61711   -80747   -83389   -66722   -42943   -28205   -18346 
   -7199    -1555    -7414   -18279   -19272   -16069   -28628   -45951 
  -43363   -24925   -11851    -6147     8117    21613    14756     6984 
   22994    52658    74931    78314    73233    82038    95023    88447 
   65524    35650     9902     7393    18430    13204    -2425    -2199 
   16050    40813    59576    54587    31770    27175    44454    52442 
   46109    35459    15520   -12583   -33758   -37851   -28696   -29848 
  -60997   -94826  -101274  -101370  -109005  -109054  -102799   -87771 
  -56286   -32564   -31854   -39096   -49540   -58139   -48446   -24763 
   -9100    -7084   -15051   -41439   -70819   -68458   -54527   -69191 
  -90378   -85787   -72133   -64454   -48039   -19345    10493    40340 
   67992    88510   105251   113054   103064    84645    69839    59529 
   46961    29227    23419    38884    58004    72094    84225    89692 
   93058   104124   110911   104473   103095   112469   106424    66734 
   13359   -19219   -25531   -21315   -12717    -2068     4791    10120 
   15028     2305   -30723   -52951   -44566   -14326    12685    10993 
  -11781   -23333    -7499    26469    59067    74725    73996    73321 
   80144    80829    69592    61523    49106     6970   -39451   -45736 
  -20541     5509    12769    -5329   -29893   -46041   -62478   -83589 
 -108608  -135132  -140607  -105551   -55111   -31295   -36135   -41138 
  -30171   -10729    -4764   -28668   -58027   -45081    -4193     -768 
  -39982   -58911   -26639    13420    27788    47085    82294   101772 
  104232   106355   106751   102047    80454    34117    -7334   -19483 
  -15013   -12904   -23708   -37532   -40582   -41218   -46148   -54646 
  -56358   -35941   -15777   -16386   -11649     3530       24   -24013 
  -36099   -22318   -13466   -18482   -13208    -9413   -25839   -44043 
  -40613   -23588   -29263   -58676   -66120   -33377    15461    48934 
   51021    37299    32753    35861    30338    11468    -9514    -9594 
   10863    18779    10373    11385    24484    35770    30919    12696 
   10044    22923    18311    -3892   -21324   -24192   -19489   -39499 
  -88344  -114581  -101136   -75786   -41199     4000    40084    50238 
   39723    37640    56848    81588    95943    94431    87681    73666 
   40068    18454    34121    52601    47079    22658   -15666   -46157 
  -41503   -20621   -15697   -19206   -14829    -3564   -10004   -50730 
  -77349   -51139    -9417     8540    -4149   -34614   -54457   -56918 
  -62407   -72624   -70595   -55016   -33050   -12811   -12133   -24899 
  -11016    27534    47038    54039    69890    72453    61353    60567 
   59684    41991    20915    14593    26136    43260    46843    38539 
   30014    20183     8100   -10619   -35087   -47398   -44416   -38466 
  -31352   -21703   -13906   -17782   -40378   -67657   -76071   -65612 
  -54720   -45698   -28435     -815    27927    33663    15381     7246 
   12845     6369    -5343    11214    49585    57470    26079     3192 
    5888     9891     3646    -4280   -10274   -19429   -32679   -44979 
  -45720   -25701     2793    11577    -5710   -21612   -20298   -20493 
  -31853   -41424   -40729   -28871   -20164   -35124   -53094   -35910 
    6926    41466    49707    29263    -1152   -22947   -36656   -37206 
  -15317    12626    13651   -10821   -26536   -23645   -15110    -9942 
  -11149    -5267    20252    47422    50406    32269     9911   -10957 
  -10161    26080    52663    37976    11134    -9437   -17151     -598 
   22350    30983    33601    44892    65573    81122    75903    45928 
    -901   -42816   -55767   -36836    -8488     -454   -11624    -9520 
   10552    18000      869   -19018   -18943     4379    43074    76848 
   80838    53808    11601   -34915   -69083   -69403   -46518   -32772 
  -33633   -45072   -74158  -104750  -107007   -74272   -18805    31575 
   39447     -891   -44678   -53762   -30816    19417    79768   100745 
   65989    29272    41719    72609    59468     9517   -16602     5644 
   39062    49824    46938    35667    15445     3343   -13945   -57906 
  -93754   -86787   -54891   -38500   -54434   -65106   -34010     5142 
    5763   -17208   -22972   -15959   -29042   -41056    -8842    34650 
   34418      216   -27696   -29324   -17663   -17918   -27712   -23321 
     727    20918    21231    20663    23962    10426    -3375     1969 
    1582   -15010   -24745   -15518     -326     3894     5219    28459 
   59877    54835    15587   -18503   -26812   -10353    10496    21057 
   30705    35172    15912   -21258   -53682   -67860   -63190   -42271 
   -4947    28109    23033    -2154     5019    40209    61595    72220 
   90416    99176    81110    41465     4072    -9871   -19303   -41669 
  -48803   -35375   -44628   -80493   -91431   -51651     8649    35649 
   12510   -13483   -11188    -4338   -12545   -37172   -56123   -34103 
   14304    47100    51221    32884     9350    -8271   -20522   -21832 
  -16494   -12731    -3885     7458      562   -27642   -41158   -25524 
  -23824   -43560   -31213    21992    61554    54349    27270    20166 
   22177     2477   -16783    -6016    14011    26420    35041    22866 
  -21925   -69687   -81294   -45851    11372    41266    23511    -4904 
  -12472   -11828   -14053   -16287   -20711   -22584   -21895   -28325 
  -32472   -19348     2646     1171   -33754   -50055   -15672    29577 
   57414    70680    60442    22488   -30441   -70985   -65338   -24760 
    5375    15111    12564     -533    -2362    10187     2631   -14779 
    3909    45420    57796    26947   -23959   -59501   -47185    -4718 
   14396     1405   -11233     1323    26963    33156    22604    17930 
   18503    -1429   -53455   -93583   -81940   -35222    11929    31340 
   15514    -8310     -373    36289    49698    30063    16202     6944 
  -14447   -36917   -47902   -32313     2266    13297      564     1220 
    8687     2235    -6174   -10265   -22748   -39347   -34655   -10947 
   -9656   -40902   -54001   -15523    26901    12285   -41658   -63644 
  -12611    67590    92234    53040    13635     -155    -7815    -6278 
   25068    59491    50063    24268    28842    38956    30161    19593 
    9440    -9320   -33187   -51938   -50668   -24570    13285    36238 
   27616     8661     -973    -7385   -15383   -21261   -15955   -11468 
  -25883   -35627   -24979   -22701   -39780   -52008   -44158   -21789 
   -5440    -8260   -10166     -110     5884    10237    21510    29238 
   29188    33131    30628   -12340   -65550   -52489     4969    21096 
   -4148   -16033    -3341    10685     3952   -23834   -39789   -18503 
   13149    15334    -8159   -22794    -7925    19522    28593    16105 
    9019    12887     -507   -23372   -20209     2265    14731     3669 
  -22792   -38676   -29448     5325    51850    69268    57420    58652 
   56087    21533   -11940   -21223   -14756     2415    18324    20416 
    9563   -17485   -54904   -58783   -10600    30951    28173    14580 
    5285   -13651   -25415   -13344    -3381   -25030   -65205   -83263 
  -61002   -17694    11645     7133   -10712   -12302    -2951     2235 
    4900    -1633   -29613   -49667   -24478    10189    11242      189 
