Origin Time       2021/02/13 23:08:00
Lat.              37.7
Long.             141.8
Depth. (km)       60
Mag.              7.1
Station Code      FKSH20
Station Lat.      37.4911
Station Long.     140.9871
Station Height(m) -97
Record Time       2021/02/13 23:08:03
Sampling Freq(Hz) 100Hz
Duration Time(s)  300
Dir.              3
Scale Factor      2940(gal)/6170270
Max. Acc. (gal)   109.348
Last Correction   2021/02/13 23:07:48
Memo.             
[...]
   80265    80263    80263    80266    80265    80266    80268    80265 
   80264    80268    80270    80266    80265    80266    80266    80264 
   80267    80268    80264    80265    80266    80266    80266    80262 
   80264    80269    80265    80263    80267    80268    80268    80267 
   80267    80268    80266    80261    80263    80267    80265    80263 
   80264    80264    80265    80264    80264    80266    80265    80265 
   80266    80263    80262    80264    80264    80265    80269    80267 
   80262    80262    80264    80266    80266    80267    80267    80264 
   80265    80268    80268    80265    80266    80269    80266    80263 
   80265    80267    80265    80261    80259    80261    80262    80264 
   80266    80265    80266    80267    80267    80267    80267    80266 
   80265    80264    80265    80266    80264    80264    80267    80265 
   80262    80264    80267    80264    80264    80268    80269    80265 
   80267    80268    80265    80265    80267    80267    80267    80266 
   80268    80268    80266    80265    80265    80266    80268    80268 
   80267    80268    80267    80266    80265    80264    80263    80262 
   80263    80269    80270    80267    80265    80265    80266    80267 
   80264    80264    80265    80262    80263    80266    80265    80264 
   80266    80264    80261    80261    80261    80264    80267    80268 
   80268    80268    80267    80267    80268    80268    80265    80264 
   80265    80266    80267    80268    80268    80267    80266    80266 
   80266    80266    80268    80269    80266    80267    80268    80266 
   80268    80269    80266    80264    80264    80265    80268    80269 
   80266    80267    80272    80269    80267    80268    80267    80268 
   80267    80265    80265    80265    80266    80266    80264    80264 
   80265    80263    80259    80260    80264    80267    80266    80264 
   80264    80264    80264    80264    80265    80266    80266    80265 
   80264    80265    80264    80261    80258    80258    80262    80265 
   80264    80264    80264    80264    80264    80264    80266    80267 
   80266    80262    80261    80264    80265    80264    80263    80264 
   80263    80262    80265    80266    80261    80261    80268    80272 
   80271    80270    80269    80267    80264    80263    80266    80265 
   80263    80266    80267    80267    80268    80266    80264    80267 
   80270    80269    80267    80267    80267    80268    80268    80268 
   80266    80264    80264    80265    80265    80261    80260    80262 
   80264    80266    80265    80265    80267    80268    80269    80267 
   80265    80264    80265    80265    80262    80264    80265    80265 
   80266    80266    80265    80265    80264    80263    80263    80264 
   80265    80266    80265    80266    80266    80266    80265    80266 
   80267    80267    80266    80266    80266    80266    80266    80265 
   80268    80270    80266    80264    80266    80266    80264    80263 
   80264    80265    80265    80267    80271    80271    80271    80271 
   80271    80268    80265    80265    80266    80266    80264    80265 
   80265    80261    80260    80263    80267    80269    80269    80268 
   80268    80270    80270    80267    80267    80268    80267    80269 
   80267    80263    80262    80261    80260    80263    80266    80269 
   80269    80264    80263    80266    80267    80268    80269    80267 
   80265    80267    80267    80267    80265    80263    80266    80268 
   80267    80266    80265    80266    80265    80263    80265    80269 
   80269    80268    80268    80267    80266    80263    80264    80266 
   80266    80266    80267    80266    80265    80262    80258    80257 
   80259    80262    80261    80260    80263    80267    80267    80270 
   80273    80270    80269    80270    80270    80269    80265    80263 
   80263    80262    80261    80262    80264    80262    80259    80260 
   80263    80262    80261    80265    80269    80271    80271    80268 
   80266    80266    80264    80260    80261    80262    80260    80260 
   80265    80269    80268    80267    80266    80266    80268    80271 
   80267    80262    80261    80264    80268    80271    80269    80265 
   80266    80268    80265    80259    80252    80245    80247    80253 
   80248    80233    80228    80244    80256    80215    80132    80074 
   80071    80098    80128    80129    80127    80187    80240    80238 
   80270    80265    80049    79705    79497    79639    80195    80771 
   80778    80421    80328    80408    80233    79721    79156    78953 
   79286    79947    80388    80509    80509    80137    79976    80481 
   80592    80023    78905    77681    78268    80452    82259    83174 
   82660    81259    80615    80766    81637    82162    80628    78703 
   78648    80682    83140    82925    80891    80375    80428    79955 
   80276    79727    77188    75736    75350    74420    75533    78137 
   78526    77478    75841    73825    73498    74320    75626    76423 
   74358    72934    74156    73947    73690    75933    78523    81144 
   82177    79801    78869    81653    85371    89295    89313    83896 
   81818    86078    90558    91335    90524    93818    98057    97202 
   94788    90794    85465    86607    92148    94015    91483    87772 
   86616    87019    85200    81751    79114    79722    82171    79666 
   73441    72220    72089    65935    65178    74930    78847    73941 
   72606    72957    66811    61432    63141    63240    65409    78874 
   90636    91125    85527    76491    72227    76219    75565    69045 
   66248    69766    81823   100233   110478   100722    83253    72375 
   64537    67579    83667    89272    82744    79150    77331    80053 
   89483    93121    82792    65588    59353    68664    78714    80485 
   72882    67193    76909    87598    91571    96280    83684    54573 
   51100    79281    96493    88202    78255    75316    71787    68491 
   73487    82232    77225    72611    92047   103852    84149    65164 
   61441    62061    67694    83071   101992   102599    87471    79245 
   74691    73622    82979    94150   102640   102174    86176    71653 
   75144    84957    83955    79331    91278   112070   113097    92208 
   71077    63990    67775    80724   107053   116090    75920    29417 
   31505    66156    85863    78320    80378   108749   123676   110659 
   91004    64768    33927    30906    80550   136547   132058    89811 
   71864    87098    98706    88966    79922    74396    82838   119719 
  122361    73648    51015    52422    51451    75802    87368    65940 
   71009    97002    98353    70467    42063    45719    71886    99992 
  112524    85984    46243    34018    54049    92230   112836   109038 
  107242    93350    56311    43215    80400   109919    85338    63051 
   80734    84615    67597    69937    80867    71506    41483    34634 
   72454   101399   106540   107365    87804    77139    89714    74631 
   48074    48785    58638    74485   102623   120430   110645    88215 
   85596    93860    72220    46812    72749   126305   143777   109094 
   60235    28389    19104    43737    81211    81365    63020    75246 
   93169    89749    90618    88953    63354    38460    45366    83383 
  107418    89541    62743    46882    49006    77900   101539   101368 
   98239    93663    84495    89103   100853    91879    77302    84595 
   92763    79887    60565    48433    55799    78817    80008    69486 
   91482   128324   134911   109188    88642    72965    37941    49059 
  115405   113491    75256    98644   103856    73666    75621    74849 
   66003    60709    46226    74318   118142   122119   135082   146814 
  114264    65810    46804    69121    61415    17313    43888    88091 
   76963   125322   189427   125760    42830    46861    77972    88361 
   87529   113386   101464     6487   -12105    69144   105209   110793 
  125972    95211    25603     7946    65807   106536    97306    87823 
   59427     9594    17243    80542   112101    94252    71495    50130 
   33399    69061   128905   111592    48221    37155    70228   116966 
  159489   153629    83966    -1979   -19251    54306   125731   131951 
  121942   112583    70226    42874    84491   124193    89795    50526 
   59835    46509    21073    62976   111997   115532   128751   134886 
  106024    77134    45138    42337    99730   114539    54474    39419 
   82197   105146   109083   103403    78474    45783    49831   126832 
  170614    97346    48416    89112    93046    53234    57604    64445 
   10491   -12046    71647   146428   148484   155614   160208   118121 
   67212    16376   -24215    14162    92703   114695   105166   103036 
   88656    55021    36234    79809   121783    81831    61515   111203 
  125862   103037    87865    63879    39546    33107    74667   131548 
  102995    49673    54006    59789    75143   107422    98573    68720 
   55161    59613    84401   120279   141906   125353    99855   102130 
   97858    76324    80814    76174    -1904   -62856       60    77310 
   65811    59330   122056   183530   186255   172119   161593    97170 
    8783    -6034    60717   126795   117236    81733    93696    86648 
   22284   -13601   -11951   -33768   -33215    42653   127753   164035 
  161370   131328    63960   -10738     -774    40556    -6897   -25211 
   53854    93099    70813    58382    94043   121741    67370    64894 
  172397   212748   166667   111650    41274    27118   103310   161931 
  151000   114245    85960    83847   110753   126707   100433    55412 
   36963    73040   133566   147756    89355     4388   -17209    36796 
   58540    46375    72173    82446    88620   159753   187814   120904 
   75321    64212    56176    66458    65219    55191    41660    23640 
   74351   141987   114675    68042    73549   107803   139488   120706 
   77096    43092     3971    25602   117987   166574   139537    81262 
   21907     2241    55990   137181   147418   108581   112502   104807 
   54905    53635    39944   -27653    19418   157591   189481   126279 
   69564    43061    57318   114070   152716    95478   -15513   -63813 
   -1726   110510   151597    91016     3462   -35955    28654   152032 
  213349   169693    46217   -42847     8794   100921   114770    42737 
  -50563   -22734   122990   223549   207088   105681    -4478   -45053 
   -5615    72243   140398   172264   164091   120717    72080    67081 
   95615    71478    17081    29186    51726    63510   124978   160852 
  129065    81627    38462    31262    62851   102847   148139   180446 
  166804   101016    33251    34346    86279   103949    54122    -8886 
   -3678    65248   129799   172968   155455    58956    34350   105334 
  108722    83505    88381    42583    32736   120908   157107   102212 
   48999    38368    54839    73068   102498   114200    78368    71561 
  104985   104566    80407    52653    19926    19889    55922   100139 
  132972   117491    64631    49203    82530   109821   108153    68579 
   12928     7115    45489    78674   111977   143287   134054   101119 
  110212   138603   123564    94457    58534     6743    24443    93113 
   88221    42649    48324    72896    68551    86413   155849   178828 
  124974    91739    84725    41821    -1712    13243    47153    50723 
   59307    97631   129137   139899   114545    56058    46533    70956 
   88785   149681   181693   139562    91607     8763   -60141    -8890 
   76178    91214    35865    -8393    49090   145560   215111   246639 
  187913    81767    26070    37592    86901   116498    51991   -60448 
  -41125   122300   253064   288756   245858   111299    -5434    14289 
   64355    48224    32504    46745    54086    24074    -8749    23906 
   63091    53052    60613    54878    31294   107773   187038   144094 
   54128   -52553  -111482   -56184    16464    61458    74227    56767 
   96491   183527   239030   201260    82585    51987   105609   103608 
   91957    65429   -10704   -25065    45152   111041   102196    62420 
  115307   188730   165273   118194    84327    49082    43812    70993 
  100045    91417    68055    61463    34241     6046    37324   125633 
  195274   167337    91512    60962    64799    62535    74453   122164 
  126411    47157    23382    69267    37065    -9677    25990    38824 
   13039    51535   125032   151854   114047    13594   -68137   -49873 
   27215   108593   140200   107359    92043    80562    44470    72867 
  120019    96653    86918   149074   195796   133592    40345    51005 
  113724   132962   131524   147723   164776   134964    75560    73753 
  115430   102246    71514    85249    56263    26534   105457   149115 
   92132    54583    41524    49820    85395    94097    80518    41890 
   11121    92763   182138   121977    57399    97792    99989    45187 
   50550   118280   148940    74892    -4593    21129   104226   176781 
  205389   179559   121751    39457   -29439   -15442    19641     1697 
   19286    92870   162552   224155   230205   179380   123198    39609 
  -34868   -52382   -41572    26243   129090   193167   234397   218243 
  123997    46190    -3152   -34140     3684    50236    31015    16328 
   85738   163020   140869    84821    67065    65872    62352    18413 
  -14873    20950    34750    46988   122227   157301   144789   140454 
  133199   172554   189597    82333     6925    60599   140794   195517 
  168604    80922    79216    79301    -2195     9698    83007    64645 
   41833   116836   220258   214765   122915    62086   -34072  -149227 
 -118380   -49983   -41226     5444    48927    99879   191079   216743 
  181841   104337    24682    42771    47106   -34450  -101916  -118649 
  -17092   155903   210574   190656   176950   143863   184718   269919 
  227480    89925   -11987   -42519   -35137   -21931     6324    77997 
  183817   216101   143769   124512   195538   188756    66293   -13428 
   -6516   -23444   -44620    47116   173368   137430    21122    53224 
  149318   171003   167674   110655    15048   -29701   -41229    18060 
  118221   113079    63589    66078    87773   113884   105075    53607 
   30967    57794    97309   119250   114938    88161    58333    45071 
   54294    66916    48466    52632   107658   122199   128042   176725 
  180272   147696   135226   100844    33012    -5240     6308     2123 
  -13742    28445    98663   144472   161112   161271   166229   130831 
   44873     6548    12474    -4148     6912    84311   149154   148888 
  109811    46491    17198    46274    63097   111902   155038    49195 
  -47861    17641   143385   231546   180967    83353   119382   113966 
   23034    45955    74341    -1220   -37986    63617   206075   187671 
   45655   -19270     1227    46653    97801   131689   139152   104055 
   58078    54035    73934    80955    81775   110684   142399   109764 
   50376    31825    14449    -4269    42552    96823    85799    96649 
  157034   170647   145818   132940   101657    42532     4138    25201 
   61210    60550    62257    85888   100488   102049   118263   147914 
  123660    68565    83612   103613    64346    68755    98132    46421 
    3743    59011   115458   120123    97422    49208    33508    72847 
  112643   113942    44873   -13274    18812    36453    18257    53638 
   92410    61887    34062    88217   149186   136189    94176    46851 
    8019    17443    64025   115561   104815    35123    20379    46475 
   45779    84977   163047   176702   154035   143878   119590   129670 
  179351   163595    78608    36660    83537   136542   141105   139792 
  114576    33612    17023   117948   178620   146620   131174   134542 
   83284    20010    10472     3536    -2884    24524    20259    34983 
  133040   153678    70483    56984    83183    41367    24873   103788 
  156013   101723    44025    84109   143382   116745    85046   102556 
   81280    66934   128534   160252   120926    56900     6479    32910 
   87872   104995   111141    88767    76404    99635    84944    68997 
   31703   -77443   -70841    93183   181339   146863   142419   187184 
  155146    58428    25790    44857    47731    50550    83375    96364 
   42108    41546   137765   160350    90198    25703   -13799     5974 
   70366   128666   150509    94793    25277    16023    17051    24099 
   62040    67726    68790   143648   190343   141684   111072   105876 
   57717    49406   124243   185400   171350   112457    92690   103836 
   87868    91080   117198   139117   177625   184048   132168    81529 
   55154    48650    77345   130454   149819   104621    59607    75422 
  110675   115159    81900    19198   -16539    28265    86270    61433 
    4515     7239    38764    37912    12468     7014    14703   -14808 
  -23542    35943    82429   106509   131033   120246    61645    -7748 
    9444   100893   134844   116297    86640    38159    55843   131776 
  114916    21788   -11528    34581    85301   107936   160193   225558 
  207202   155226   121268    48769    21309    68086    63429    80181 
  136904   104313    80284    92809    48972    34780    46449    36243 
   49600    27680    41184   153475   126683   -14759   -53071   -47285 
  -23572    33317    76329   120290   115019    74353   113964   164617 
  136688   109274   107283    66370      919    -9575    20962    22426 
   52387   125039   102703    44452   115376   188463   150587   120463 
   98965    49442    51996    99069   123969    89130    17231      658 
   41372    88895   116897    87465    80385   137141   142242   135622 
  168471   122681    45217    60727    98253    93231   106793   158156 
  166163   133967   174262   212196   123640    39796    35101    16646 
   -9669     8075    52366    79027   118544   186926   153672    35020 
   11974    43326    13234   -16324   -11448   -15842    11301    70719 
   89520    82234    46574     2207    39070    75796    45384    59445 
   93909    67292    38963    46785   101271   138412    35850   -40615 
   77066   153705   104663   131902   165480    92823    67843   110635 
   82993    12859    16123    99586   156698   156782   178807   187661 
  153206   160556   159549    77419    22673    62649   100327    66240 
   50356   106765   113334    37940     4163    21095    21213    18266 
   27941    51641    80393    61238    32697    54499    40831    -1304 
   36488    85277    79458    72787    56063    24028     1890    12736 
   92238   128949    35892   -10647    63582   111503   105082    87557 
   52674    46763    81548   110911   133889   127446    78769    58802 
   93717   134312   153079   129788    73477    62678    99931   127416 
  153095   140853    58880    14342    90254   181658   160239    91378 
   67231    48410    34473    83609   160192   191489   189036   176066 
  120386    73534   109490   137884   133846   149442   132415   113075 
  107464    84855   112475    99806    -2247     1264    82826   100321 
  106853   116895    92452    23264   -71594   -72645    14596    23843 
   -8260    44090    93624    73295    75057   110891   117578    90864 
   60189    51544    36882    25131    70558    65224   -28150   -22143 
   82703   123808   102111    76857    54162    36858    35237    74173 
  114755    91620    42983    30820    82276   135401    86060    26882 
   68359   105302    82512    75543    78640    54028    41739    68830 
