Origin Time       2021/02/13 23:08:00
Lat.              37.7
Long.             141.8
Depth. (km)       60
Mag.              7.1
Station Code      FKSH17
Station Lat.      37.6636
Station Long.     140.5974
Station Height(m) 105
Record Time       2021/02/13 23:08:07
Sampling Freq(Hz) 100Hz
Duration Time(s)  258
Dir.              1
Scale Factor      2940(gal)/6170270
Max. Acc. (gal)   52.196
Last Correction   2021/02/13 23:07:52
Memo.             
[...]
  131282   133393   130795   129465   139692   142613   127278   116419 
  123334   132494   133923   135595   138696   137300   132349   128813 
  129038   133104   141559   146400   136665   124423   126022   131812 
  132521   134825   140618   142882   137022   130039   130054   132007 
  131717   133121   135915   135072   128054   124319   133857   141322 
  134726   130642   132588   129015   125966   129134   133559   135637 
  132694   129785   129528   122110   117549   133276   147968   140703 
  127505   124303   132855   144925   144536   137573   138439   132810 
  119080   123458   137690   133590   121900   124346   132820   133112 
  129447   129832   131889   135065   140449   138504   128592   123472 
  126424   133777   139404   133411   118247   114314   130315   142073 
  132545   122522   126083   129823   127147   124031   126660   135869 
  140079   129912   117841   117020   120479   124531   130308   128591 
  119914   115292   121929   134965   133284   118562   116170   124492 
  128685   129400   127207   122932   127063   138124   139666   130457 
  125511   131052   134953   132378   139708   147374   132604   121577 
  132923   145535   149840   137866   122122   130405   139454   130250 
  126561   132305   134622   133252   131896   130825   130152   133547 
  137617   131289   120458   123426   133924   132473   124284   123098 
  127436   127582   123996   131617   141034   131038   120285   125410 
  131036   135067   145704   149900   141940   138861   137587   128501 
  127850   138809   144325   138914   129878   129396   133360   128990 
  129572   140224   138126   124307   124453   139643   143989   132301 
  126204   127722   122865   117877   126573   137272   132626   125014 
  122914   118086   121734   137081   144787   144335   140683   127207 
  114660   118533   133430   142980   136601   128642   135173   142212 
  136870   128007   127387   132369   130867   126200   128755   132739 
  128514   122627   130002   143314   140537   126723   124532   138328 
  151575   145462   127048   123310   133703   137755   141536   148092 
  132405   109961   122866   147125   142815   127106   123125   127585 
  134882   140968   136491   122628   116805   125882   139821   145863 
  136669   122148   118818   128089   141725   148005   140101   127197 
  120449   127306   141803   138844   123305   122336   130209   134846 
  137261   136820   133883   127478   126039   132525   131023   126687 
  133762   142703   144003   139562   136618   138185   134736   125423 
  120101   121497   127884   131503   129433   130141   131350   129398 
  130468   134609   136215   130005   121051   121546   126817   130084 
  134558   137858   140669   138469   127851   127071   132977   127880 
  126079   131317   124820   119727   133528   146941   146753   137349 
  122143   115918   126284   136023   133246   127647   131040   139334 
  140065   135268   136912   142371   140417   133306   133416   139735 
  140123   132906   126574   127697   130544   129337   131475   138023 
  140472   136573   126467   114518   118518   136318   139773   129822 
  123165   120784   128310   136939   125243   109944   118765   135841 
  138715   137432   134253   121579   120504   138993   148245   142332 
  137155   130766   125189   129645   135790   135360   131836   127476 
  128631   140872   148041   137244   130857   143108   148427   134984 
  122839   124647   136562   142079   133583   126873   125188   122770 
  126929   129289   123418   129150   140927   136733   129813   132996 
  132326   126514   128220   131808   131880   135261   134907   128572 
  126766   124556   120008   122009   126461   126400   126565   129586 
  128461   125798   128333   128361   125650   126304   125605   128502 
  137145   137795   133794   130104   124661   131581   143582   138981 
  127987   123933   126055   133166   138719   133536   121228   120849 
  135334   142989   136669   127566   123755   126739   130056   130048 
  129612   128810   133035   141170   135097   119438   119137   134217 
  146948   146703   136001   126065   123726   129778   136827   131971 
  124173   131133   142167   143458   142021   145012   147967   142432 
  130941   127818   133634   133313   131097   138574   142529   133160 
  121026   118703   130278   140077   135522   130373   129582   126350 
  129437   138876   138852   131103   130444   139822   148122   139721 
  119884   114763   124994   130746   133573   138894   138639   133879 
  131352   130283   133956   143351   147071   141496   134167   132065 
  137404   140503   136497   132919   133403   137236   133339   118264 
  114780   127888   138609   135644   120477   120673   143253   150035 
  137084   127045   124892   128353   128335   130395   140119   138491 
  124785   120592   130970   142979   143976   134873   123377   115933 
  124939   142593   140363   126390   126561   133047   132388   130073 
  131774   130069   118680   115693   132783   144090   137221   130260 
  127854   128981   136772   136754   121258   119998   141236   140820 
  117615   115452   127342   127249   125328   135943   145870   133460 
  114821   117095   124264   120876   122567   128689   125716   125521 
  135540   137473   131232   131270   128078   116428   117526   135751 
  147227   142784   134673   131797   133517   134366   133209   132699 
  134277   139813   143310   136404   125468   122049   125274   128431 
  132020   135482   132979   128554   131230   133761   129881   132036 
  139657   133697   116869   117210   133941   135600   127173   124691 
  120867   127810   141813   138161   134947   144113   141619   127885 
  124686   135590   143609   141363   139810   135324   124288   122395 
  129626   132966   130880   127470   126942   131615   135060   129230 
  122772   124234   127245   128859   127745   127007   130553   130917 
  133811   144881   148756   140731   129926   127855   138183   141021 
  130141   129205   141669   144146   137302   143742   149893   138013 
  127728   119209   111293   120447   127685   124749   130974   138912 
  138490   132551   123356   121477   132675   144561   143947   131258 
  119991   121518   126958   128885   132019   133387   134704   137018 
  129740   127251   147264   159432   146165   136104   137586   138008 
  138205   145345   154434   148578   131388   124317   126373   123549 
  121585   123612   117294   111311   122249   133927   129821   126692 
  127867   119706   115220   121648   128892   131710   125393   118548 
  114032   106160   106640   117291   127221   134099   139087   137892 
  129725   129901   137180   134910   131876   134293   131327   126357 
  126500   130842   137757   140923   138572   135548   125951   110484 
  109234   117917   113732   112026   125863   127377   117173   123157 
  133892   133126   138447   151455   150392   140684   142647   149731 
  147620   143115   142432   140457   139615   145017   153420   156794 
  152863   148821   146968   141761   131257   124837   130266   135850 
  135136   137359   140120   134139   124213   122708   127839   130674 
  130684   129256   132497   137793   132311   124876   124940   124163 
  123825   128521   135347   142522   144776   137917   133347   141964 
  149476   143682   135454   133477   136335   137550   138635   147500 
  154661   149937   142521   144315   151878   154751   151109   145044 
  142127   140679   134006   125340   120001   115033   111383   118710 
  132280   133839   123403   115431   112016   107619   108327   118400 
  125508   122296   118163   126069   148491   167120   161840   145196 
  139491   140263   138987   135232   123443   108968   107509   113650 
  113557   108058    93494    73830    71052    84541    94675    98913 
  109932   128353   139841   145104   153121   162520   171271   179206 
  189581   196638   185363   170060   177195   191330   186163   170178 
  160416   162479   170374   168101   154583   144192   141360   144279 
  152409   153853   144808   147480   162531   165035   156234   148903 
  144246   145336   153207   160101   154067   136846   124133   120711 
  123256   126237   124896   120182   111684   108258   112865   110945 
  103871    96073    79898    64407    63309    62557    46942    38185 
   52923    71345    83719    90282    85649    82037    81917    73884 
   70865    80404    92138   110479   134266   143536   136418   131512 
  132212   133436   141532   148893   144033   143674   156151   165065 
  164690   157495   146901   142359   138913   130410   127771   130775 
  136860   147861   147132   132444   125473   128068   129693   128280 
  123037   121988   130968   135178   131830   136511   140699   128146 
  118306   131258   146719   146792   143717   145449   149307   151281 
  147401   146208   148526   145519   141210   128602   109038   109290 
  123594   132071   142089   147715   136538   125273   125855   131573 
  141780   158005   175208   178559   163776   154005   156531   162942 
  179324   189592   178980   182465   206492   203659   176413   166696 
  167546   164093   175504   200633   214923   210425   189719   164099 
  160268   178804   185306   176194   175941   186287   200859   208116 
  192888   174270   177199   189756   193093   184013   164576   141459 
  125303   124110   131473   131271   128496   127608   112512    89499 
   79478    91702   121481   142795   141491   132156   129886   132609 
  126007   107011    81696    55905    42279    41142    40467    38242 
   35785    37223    45467    51282    51040    49036    49830    62087 
   80910    91473    90723    80496    69215    68471    75468    83581 
   88487    81528    66782    63037    71299    76464    80380    89051 
   91618    90038    98789   106062   100503   104156   124235   138191 
  141400   141630   139384   136686   128301   113702   108875   115214 
  116735   109776   108918   125185   149322   166727   171632   170550 
  176769   186802   192835   201898   214732   221708   214763   192790 
  163312   137011   126414   135240   145748   143470   137811   133933 
  127610   122375   115487   102720    88673    76622    68724    67039 
   71465    71404    61470    62902    79513    86354    84788    91148 
  102333   113670   124126   130808   131953   123449   109676   101004 
  102482   120378   146683   167525   184879   190298   178957   172322 
  181177   195788   205479   210862   217014   218841   219720   220117 
  205385   185597   173955   162873   156454   158929   163842   165493 
  156669   145903   154100   177933   195446   196317   185247   172237 
  159826   148597   145847   149423   149492   139321   125483   125667 
  132111   125770   111719   100308    99086   113948   135839   145258 
  135059   126020   137597   151610   143872   122395   101636    83352 
   75160    81831    85891    71670    47710    34732    43083    54705 
   54571    61272    77695    79382    70623    76743    98135   114601 
  116536   116632   131157   150411   153486   148077   146768   141284 
  131724   126535   128180   138640   151183   149993   131147   104732 
   74916    50955    50930    67463    79831    81346    72116    66617 
   87990   124851   135980   118939   109459   115675   124674   127385 
  119917   117935   125493   123797   119405   133634   155150   156279 
  144085   143577   157029   180195   201190   204471   201145   201917 
  202729   200282   186478   169623   168702   167655   142611   108790 
   87558    80735    89074   106944   119914   118433   109022   110685 
  120849   124034   123509   125098   135461   157510   172131   168861 
  159313   153223   155627   165466   175272   181022   180596   173792 
  165735   158607   149852   144798   155834   179491   197633   198615 
  182020   163471   155921   156644   163573   165811   157643   152659 
  157890   175325   192393   181808   145894   107947    87050    97858 
  118659   115322   108435   124091   136312   123590    97733    73351 
   66370    83902   106891   115659   109743   102177   107890   124237 
  136586   137674   127498   116423   119365   130822   130100   122463 
  130836   146142   144220   125652   110573   104924    87916    66376 
   65852    67235    54891    53717    73651    92060    95888    97006 
  102035   112904   135521   159119   172851   180973   177480   164564 
  167835   180797   172880   155513   148869   138643   123400   121405 
  129995   137654   139903   134676   123739   115028   121867   142475 
  159400   164832   158497   139429   113631   102831   122668   150624 
  161417   159151   143915   121680   121303   141246   147279   133577 
  122057   120537   125969   136330   138112   128490   125741   131084 
  137753   149213   162835   179986   200700   205808   188142   171941 
  171574   171816   164030   153877   144740   138887   135484   129901 
  123921   127716   132353   116741    93158    84437    90482   109508 
  140476   165139   165602   157752   167750   186612   194991   199141 
  201395   187505   161938   132057    95692    78845    90034    89317 
   74764    76166    84149    83939    78411    66487    53224    47405 
   54382    77797   101689   104924    92976    78647    65013    53458 
   40718    30440    40130    69729    93538   101668   109816   122932 
  133331   143571   159399   172172   173456   178413   192145   193676 
  189917   197448   197419   189186   195927   210290   215921   209737 
  197659   197664   212180   221727   214665   192014   160879   138254 
  136130   136940   117423    84018    51689    26173    22196    48159 
   80598    92219    83416    76467    90461   114529   124899   125135 
  125360   115142    96261    92417   110085   125049   122672   123533 
  139427   155287   168971   181795   178191   160456   153548   166061 
  183515   194046   198377   194584   177644   152641   123796    96815 
   92565   114031   137625   154190   163701   154837   127117   100356 
   87897    87737    97572   104109    88874    66139    65281    88682 
  113124   120431   121818   127590   128162   126760   132838   149570 
  178884   203042   202593   186991   168680   146521   133287   141503 
  150222   149280   156856   170149   176077   169951   146574   117984 
  102930   101143   104253   112288   124939   126914   109955    90170 
   81692    88683   109739   127428   128069   117030   107667   114586 
  130670   127648   100619    78526    81605   101022   130498   162073 
  167628   147853   134098   131246   130325   131875   130136   122825 
  122403   133665   141893   137089   131356   139013   153983   157847 
  151931   149596   139006   116517   106858   111669   117500   125430 
  130485   122434   107852   105822   122542   150234   174504   175135 
  157189   141399   128700   121708   126295   137072   148891   151221 
  135822   114792   105979   115981   134351   141934   138819   145967 
  172892   199324   196222   169665   154351   164576   182926   181694 
  158344   134656   115134    97454    92005   100061   110933   119093 
  128818   142723   154811   159066   153697   134873   110805   110311 
  130354   137320   138434   148638   143209   117829   100932    97194 
   99675   113283   127940   129862   123937   123326   133961   136144 
  117890   106769   120128   141027   152144   151422   147389   146839 
  147464   147504   137939   117066   114337   131575   140626   142939 
  140303   132032   132080   134581   125717   114868   123890   150355 
  170009   177050   171442   151924   133337   118538   101589    96585 
  104055    99904    91581   107689   135824   150221   151346   145659 
  143322   151974   159327   150671   133952   135103   159027   176051 
  170466   157684   145609   136088   132831   123316   110864   119619 
  138104   140995   132688   121527   114162   121085   133694   131200 
  116973   114442   121200   121800   123408   121336   106980   105499 
  121553   127407   122137   114451   105372   111914   135696   150632 
  146633   133493   120548   114694   118093   125543   132041   139476 
  145616   143349   135138   124365   111426   104121   110900   129350 
  142705   140729   135325   130099   115043   100476   101816   110075 
  119370   133445   138260   127138   117669   115087   107849   103273 
  119097   138795   138665   131958   129672   124036   119237   121238 
  123728   123743   129683   144204   153814   154201   152677   141165 
  122935   128560   154549   161781   146259   135411   141908   155454 
  155911   144433   139541   136101   128426   128761   132073   130143 
  130398   138418   149811   152260   146355   141494   137353   139429 
  144326   132114   116320   126893   145121   144077   136477   130564 
  124819   128117   138922   144636   133989   114149   107189   108019 
  100781    95461    97132    98763   104207   110596   109565   109689 
  117113   119563   113661   115236   123740   124448   125198   132280 
  126794   106705   100059   112645   120760   126557   141566   148599 
  150011   163517   168679   156963   156560   157907   139275   128485 
  134471   133189   131519   138224   137554   126281   120187   122498 
  120942   120176   129750   134998   128783   127303   132779   137449 
  148410   161998   155729   131777   116655   115863   126259   148915 
  159550   147406   139701   142917   145019   147487   148982   147148 
  149445   155677   153571   145871   150080   162715   166241   163092 
  163055   160853   151902   142951   139200   140624   146399   149225 
  145216   145292   141998   118372    96743    98424   105784   110334 
  116938   110621    94500    93179    95591    92154   100049   109365 
  109233   113539   120950   123901   127273   134155   143273   146663 
  132034   112318   119048   146946   164468   166134   160712   152211 
  147658   147076   142543   137222   138722   139931   133015   127855 
  133613   141105   141071   136089   134086   139016   138241   127984 
  125098   124078   111147   103286   108540   105208    99220   116210 
  133326   125888   118068   121502   130908   146241   147176   130746 
  125492   131622   130274   123258   119562   122599   130243   128230 
  113322   109428   120451   122363   112487   104047   103740   115172 
  130255   140974   148985   143778   125182   117304   126365   138336 
  139870   130777   128520   131814   126241   126172   139397   147724 
  148374   146244   140207   137850   140820   140635   138326   137945 
  135581   129454   129976   144218   150573   133782   119976   123555 
  130588   136261   134825   123570   115919   116144   125157   142102 
  142043   121727   117542   133566   143689   145061   144952   143023 
  140715   142773   145684   145877   151041   155628   151427   145854 
  141606   143668   152514   152608   143423   135298   129475   131092 
  141033   148410   148512   142979   137893   134973   125999   119999 
  127196   131790   128819   132148   141177   143848   138150   130628 
  122295   112435   106837   111192   117863   113427   107637   113404 
  118665   116453   113926   117110   124342   125067   120624   121919 
  130911   139840   135986   124167   119625   120399   126233   138886 
  145328   140910   133099   123520   112898   108963   117291   131646 
  141428   146266   151888   147198   126511   117082   126126   130427 
  131019   140322   151500   148938   132964   121835   119340   120387 
