Origin Time       2021/02/13 23:08:00
Lat.              37.7
Long.             141.8
Depth. (km)       60
Mag.              7.1
Station Code      FKSH11
Station Lat.      37.2006
Station Long.     140.3386
Station Height(m) 170.5
Record Time       2021/02/13 23:08:12
Sampling Freq(Hz) 100Hz
Duration Time(s)  300
Dir.              2
Scale Factor      2942(gal)/8224139
Max. Acc. (gal)   108.435
Last Correction   2021/02/13 23:08:12
Memo.             
[...]
   30630    19326    17248    30080    32958    26827    24498    21694 
   22886    34842    39881    23062     4428    -1501     5346    24738 
   33084    17424     1831     4403    13336    20236    29628    33571 
   36873    53912    68516    64733    52176    38874    30052    35159 
   48028    55143    58437    57060    46831    39147    33804    23442 
   21492    31958    47366    62834    58753    29776     5571     8854 
   31282    46526    38769    21505    12330     9537     9607    15535 
   22144    21830    20999    24648    24339    17651     8262    -1414 
   -1640     6982     9871    11564    23477    39109    49813    50625 
   38858    23097    22824    45370    63622    55980    39708    28686 
   29415    48890    62166    51420    43449    62032    91261    88546 
   46872    21797    41295    65153    66376    51524    29502    24714 
   43776    53576    39742    11377   -10652     1792    31820    43864 
   43677    42896    40005    42175    48656    45235    25901     7684 
   14970    38515    45836    28050     9711    13913    29139    34898 
   31955    21050     2821       78    21664    39082    38244    34393 
   34564    39252    50645    59580    59248    54102    49465    52003 
   56235    50095    47451    59938    69448    64678    54183    50143 
   50565    38298    12453       90    17460    38997    42309    36026 
   27773    20318    19930    30056    35406    16244    -4635    10798 
   38358    29883     3267   -12120   -22034   -13814    11720    22041 
   18088    22627    32933    39785    49817    57894    59402    67020 
   61573    33696    27909    45666    48219    46942    53693    41265 
   14094    -4553   -15857    -8888     9055     8357     8375    20393 
   19014    17641    31938    35746    22960    17547    24536    27534 
   21733    30395    54526    58772    44126    33268    20115     8629 
   16158    25083    13991     3727    14187    29515    36580    40404 
   37852    34477    43841    49875    45260    48767    49648    37926 
   32987    28027    15003    11105    13568    16033    21855    24285 
   30639    56002    82235    82568    62399    47661    49442    49416 
   34908    14785    -2501    -6150    12094    32560    37291    40343 
   44014    50591    67289    62518    32266    10366     1836    10370 
   31881    27326     -562     6311    50058    74100    61230    42757 
   46557    62005    66538    70459    69975    39941    15121    31914 
   50125    45910    39278    35243    43648    65654    72123    60764 
   44220    14497    -4575    11676    25107    13859     5530    15738 
   34075    43081    50670    66060    73535    79019    84500    64331 
   33597    38065    66104    71034    58842    57616    61703    50207 
   18561    -4499    -1813     7753    21303    34469    24414     4372 
     781    11377    23141    26372    22998    17258     9892     9811 
   18921    22908    15560    10925    19309    31990    43451    56845 
   60937    48635    43594    55709    66946    74321    71180    50031 
   34763    28391    16210    18011    35703    35106    16218    16455 
   45920    61955    35661    14427    31765    39772    22365    17794 
   26244    32447    38691    36715    24480    18538    16190     7341 
    9612    20947    20719    31066    61801    73795    52142    20530 
   -3501   -12907    -5541     1534      465    13111    34079    35364 
   31575    42709    54704    60589    61292    48331    27210    20675 
   31919    43146    49858    55952    66000    85726    98859    83146 
   58583    56022    60164    53997    49373    42348    26399    21930 
   34565    44165    40462    17770   -15479   -18624    12090    27202 
   26804    38874    37498    18974    15334    11850    -4445   -12339 
   -8006     9625    38952    42030    11149     1939    24426    37716 
   40941    47083    55686    67122    67585    51128    37189    42947 
   62392    70035    56987    40578    22141    -1740    -6239    11769 
   22248    28173    44379    53323    50441    42853    27176    25193 
   42097    45719    42276    52763    61919    58374    50167    32406 
    -240   -18960    -2172    27018    41176    35158    17263     5463 
   15785    31735    27472    23063    40038    52064    39654    16340 
   -3796    -1448    34700    61354    37933     8834    16592    20699 
    6691    15741    34560    38419    60716    98190    97526    63393 
   39926    38500    47267    47722    38380    32919    20518     5566 
   16135    27195    16082    11718    19431    34695    50768    42913 
   31564    37095    29520    18265    23746    14828     9745    45597 
   76094    70497    57283    49997    44686    35089    25739    34711 
   53401    63348    70997    74120    54110    13780    -6995    19863 
   56609    50072    15963     2871     9184    19796    31936    27958 
   19357    35515    63339    71645    55138    26974     6033     8536 
   16210    14057    23654    39002    41243    43688    47124    34782 
   16768    15726    23033    19665    10262     8602    20494    28590 
   12596   -15507   -23144     8307    48649    64482    70646    68075 
   54130    65337    91112    93154    84700    68958    43915    42460 
   52594    31124     8783    27005    56115    63202    49561    29972 
   15869     6797     8067    23770    40328    43090    31055    18632 
   12906     -391   -18139   -14490     9748    32074    43195    37488 
   19988     9601    16730    45698    71706    65466    56423    64513 
   60663    43771    33061    30896    38022    44131    44273    56593 
   67135    45091    26310    40582    39808    20391    28615    42938 
   34146    23296    19082    16418    24132    51413    78804    70252 
   35426    19947    33660    44878    36385    25569    33949    52948 
   48369    20250       22   -13783   -23203     -818    32837    36657 
   35816    38742    25057    19043    12775    -8289     5744    47580 
   51502    28741    31159    51754    57604    50527    40140    29254 
   31405    47062    63063    71524    65340    44999    27828    29311 
   41237    52623    60658    54240    32085    11745    10014    28956 
   40504    30604    36043    58186    50750    26244    23688    26940 
   25944    29745    23048    10305    13246    29903    41844    32445 
    9026    -9333   -13236     7123    48632    71648    48601    15967 
    9609    21624    39946    43654    20939    -3786    -9013    10921 
   41700    39457     4611    -1206    17004    18612    34520    62235 
   55316    42138    54388    59225    52573    56879    53535    43671 
   55286    69030    65373    62765    64778    64841    69861    70210 
   43897     5611    -5103    12976    27556    29034    21385    10940 
   17082    28078    27302    33160    36429    18227     3346    11078 
   27222    35251    29236    20128    27946    40545    31892    17030 
   18894    26200    34047    57349    86069    86071    52633    31295 
   40427    45357    41258    35891    19398     7253    15041    26360 
   29436    36823    44131    35494    29955    42098    45339    32803 
   43083    77728    94142    89345    75481    47482    27581    31205 
   24128    -4703   -15723     2172    27623    37995     8900   -23565 
   -5698    28741    42406    47780    43864    31891    34997    57788 
   81351    81175    55821    36238    28227    21342    17933     8756 
    7458    30719    45937    39013    31232    30322    47177    69649 
   63950    52114    67599    86687    80114    63397    50549    23251 
   -5059    -6669    -8264   -22252    -9938    20061    21998    13509 
   18370    21955    33046    45733    46159    58456    71023    51366 
   23557    16362    17122    15701    12009     1560    -1449    18195 
   41870    46818    44936    49219    45442    40686    47258    49887 
   56614    67154    53692    36602    36306    28876    22513    31749 
   43401    55989    66622    69068    51401    20401    20615    39538 
   35884    40131    57154    44062    17396     2758    -2342    11286 
   26310    20965    21246    36389    36491    14053   -15862   -37261 
  -29956     4645    31318    30287    18058    21227    47591    68203 
   72435    74002    58426    40417    48384    46068    12906   -13312 
   -7665    22134    37837    13913    -3088    22003    49192    55308 
   56824    59327    69260    83257    84771    75706    64871    64851 
   69198    47129    17902    13109    11249    13271    29702    27372 
   11245    18850    45889    65052    54760    28432    16433    17248 
   29795    45994    28260    -9886   -21844   -16895      141    33181 
   37732    16888    21708    36144    29666    18574    14833    25213 
   48847    59316    50357    37935    29323    31399    45357    49461 
   33736    35205    68384    89711    78819    54923    33134    22175 
   27184    41852    44937    28725    18539    25119    32965    34256 
   25393    18148    34618    52057    35301    14295    15130     7971 
   -2763     7851    27149    38753    33025    18462    12410    15574 
   28975    41661    42279    43468    46653    47675    55486    54028 
   29681    16594    26546    39980    54329    51894    36923    37122 
   34296    21066    15477    26130    49817    60671    59714    53757 
   28499    10971    19468    32935    56755    82366    69938    38538 
   28937    25513    22453    34001    40964    44894    61557    59435 
   33251    20264    20781    22762    35395    51737    55058    49376 
   37864    26600    22806    13088     4696    21737    55242    63363 
   29677    -2142    -4167     -891    -4386    -1124     1109    -4691 
   -1989     3658     5134    10667    13286    26117    70173   105128 
   92776    66618    55124    55694    70193    74640    49684    30087 
   30037    26327    15569    -5571   -28911   -23738     3680    19894 
   19537    16052    16753    26481    40537    42840    35883    45090 
   69377    76323    63490    57161    60947    62725    67194    76891 
   76297    71062    78475    80283    62154    38543    18532    15506 
   21668     8191    -4514     8818    26732    29686    21289    10260 
    6423    15415    27880    34943    41581    50642    52824    45528 
   35599    28323    38917    69348    95287   108233   106254    78482 
   40460    21975    26646    36780    34192    12862    -7996   -15664 
  -28202   -39690   -29199   -12843     1674    37644    88252   117848 
  119612   113293   109156    95555    74714    68060    74015    89797 
  105360    97382    81422    65202    36724    26725    35978    28107 
   27422    40019    26017    -3743   -29035   -52992   -69399   -65511 
  -46512   -40058   -48513   -54103   -41831    -4839    18416    -5679 
  -29161    -4311    27012    36695    44386    33091    15010    31361 
   62019    72381    57493    38267    43848    70136    84254    67701 
   38730    23039    28042    45939    47788    28501    26122    43896 
   46803    20093   -17687   -24721     9043    40795    49740    47445 
   28960     9548    18385    27818    25882    50483    81001    80239 
   72318    69896    59344    44543    24232     9991    41542    96712 
  113115   101607    93870    88588    85851    70355    45837    44350 
   45119    26445    20436    34948    41818    29736    17471    31841 
   57797    52695    25579    20131    43320    57986    38092    14085 
   12856    17649    25749    39066    31807     7427    -4823    -8020 
  -10964   -11071   -15969   -30477   -37540   -26944   -20854   -22999 
  -15849   -15785   -36578   -53084   -51875   -41463   -29380   -30970 
  -40529   -27780     9859    42525    45813    30136    16920    12549 
   18883    32506    51476    69704    72489    64288    52424    32559 
   17795    27922    59242    82186    76879    68466    84915   108108 
  110478    99365    97069   105208   105857    94894    81926    59714 
   28660    18594    40612    67713    81708    87878    93270    89322 
   60192    32563    39143    52749    56219    79274   118336   129814 
  117297   115322   107304    74561    40603     8928   -21494   -24545 
   -5549    12495    16617   -11545   -42372   -37119   -18085     9163 
   57308    98355   112864   108178    83470    37454   -25934   -98686 
 -147920  -148454  -132012  -119133   -83326   -40126   -24860   -17385 
   -7361   -14908   -30163   -38565   -35264   -13086    -7612   -55896 
 -108519  -110092   -81652   -45542     1246    47985    81043   102508 
  121807   123835    90890    49735    30626    39114    75745   118863 
  144363   163061   178416   173988   165750   174312   173989   151681 
  135575   131195   112936    72665    33812    15731     9232    22297 
   83079   155258   182579   180720   173769   159320   146006   137828 
  126164   111519   103175   109954   120888   110343    84176    63494 
   50653    47023    50668    43456     5240   -58172  -117671  -155619 
 -167074  -148216  -106280   -66216   -60022   -83982  -101016  -113328 
 -145096  -171223  -161430  -130102   -97004   -68419   -41600    -5213 
   30165    36659    25197    23804    30121    35833    29992    16885 
   14334     3947   -15129   -20088   -25632   -29785    -2131    51306 
  108803   161185   185052   170033   138878   121026   139766   163945 
  163271   177016   198047   193290   190526   189318   174252   172341 
  177846   157835   118945    70087    10177   -31496   -36636   -28777 
  -17275    21543    77926   101683    87046    69994    49354     -774 
  -69412  -140123  -206914  -241146  -254134  -269192  -241512  -164627 
  -90790   -32929    10983    43391    74547    91778    99049   109210 
   87266    34298     8598    13778    29832    58239    84630   106516 
  121639   106247    68361    41960    25770    -8968   -56563   -82894 
  -81349   -60922   -19192    37692   100930   155089   167923   146075 
  130883   124260   107052    82543    47931    10886      330    11850 
   25046    27529     9472    -5950    29984   125374   218239   258304 
  257018   226042   180081   150484   133816   118543   105429    76755 
   26046   -31819   -79980  -100134   -83540   -37542     8032    24066 
   16808   -11550   -77903  -152860  -186838  -178515  -133772   -67509 
  -38859   -64253   -88310   -79998   -51259   -20564    -4417    -3122 
  -13710   -31741   -40016   -39232   -29590    -1618    21343    23997 
   21389    12603    -3138   -20557   -49086   -64462   -26863    30605 
   60714    82297   124317   159266   134476    66856    13644    -4968 
   18770    69253   119269   167535   191567   175483   153952   137227 
  103084    68486    67954    86840    90240    79718    75949    86629 
   88404    67925    56328    50818    20160   -23673   -59008   -77830 
  -83061   -77037   -40468    21173    71119   107770   144599   157721 
  143621   122115    77352    32602    36355    59251    66854    79991 
  113262   144221   152172   155056   170914   181130   172343   161123 
  158140   158560   151046   107649    31980   -17956   -21523   -10378 
   -1135     7130    11276    -5925   -60339  -123874  -155609  -167030 
 -169936  -159642  -147533  -113811   -64420   -38905   -22316    -2641 
   20144    53991    74491    65952    31945   -30240   -87901   -96583 
  -84630   -88160   -70090   -21136    21351    65030   104688    91331 
   35530   -10149   -46753   -84951   -97430   -78510   -40135    21793 
   89214   135272   150754   130311   103674   101000   100942    89992 
   70945    48438    51036    75905    84345    87228   119897   172760 
  224152   262813   268123   232684   170145   110843    90699    95648 
   84268    61867    60752    79864    94103   108299   130297   133739 
  109517    80075    65754    64987    43206   -13548   -59039   -52370 
   -4405    41931    61882    72226    71109    35743    -4853   -16947 
  -26295   -46746   -71064  -115663  -165790  -190767  -202528  -200092 
 -152539   -62770    12884    24702     4846     7128    -2353   -68246 
 -133655  -124892   -57306     7213    26711    12557    19915    65890 
  117494   156610   168799   135742    77457    23816   -15002   -24984 
   -5281    24097    53017    83494   114660   131139   123003   112897 
  123631   139391   129459    98305    78289    73572    51953     4772 
  -26639   -13744    32903    97048   151968   162924   124044    75897 
   54741    46896    45403    56704    48282     5867   -36367   -64447 
  -82432   -75347   -32964    27877    88867   139657   143187    87137 
   29697    -8806   -52978   -63880    -9459    48967    70282    83797 
  102608   120305   131980   139720   165581   196479   182482   116546 
   54822    38668    27237   -12869   -34489    -4328    45085    73654 
   61792    32454    34310    42542    16945    -8718   -20949   -31905 
  -35002   -37913   -31311     2914    42452    67933    87520    91183 
   57510     -681   -62154  -112129  -128503  -116831   -99925   -70617 
  -17814    22011     7261   -43173   -89802  -119026  -117497   -67971 
    -542    20518    -5842   -12283     8268    -4962   -28101     3474 
   53632    66226    50454    32406    16708     8954    23175    37735 
   32707    36825    55063    56631    47015    48771    62379    89712 
  129531   163757   173400   155336   126673    95951    48284    -1189 
   -6150    28042    52531    48398    39873    53638    88515   123647 
  140686   148971   162264   169265   155784   128883   102874    70980 
   38207    25735    20949    -7017   -54198   -85464   -96808   -93730 
  -57285    -3942    24375    13666   -12677   -16459     4401    21176 
   23052     8128   -34618   -82780   -90012   -53835   -12181     2708 
    5977    35353    69406    60979    21740    -6949   -13045     1021 
   30442    46114    26114    -9987   -15130    42643   134010   199215 
  205983   163367   105578    63162    51563    58040    64100    87558 
  132201   158710   153947   132007    95007    65693    62893    55120 
   19364   -32937   -70856   -64972   -37384   -21718   -15017    -9292 
    3032    32143    66711    77777    61123    44385    42550    52690 
   71867    74548    49171    54241   125539   198876   204869   140381 
   41719   -32306   -50016   -50988   -65269   -60447   -24707     1788 
    1883     2654    31665    86682   136165   144999   106902    57234 
   33451    30878    17691    -9308   -24605   -25358   -12183    13851 
   35465    61800    90373    87097    61403    37844     9108   -12958 
  -15742   -23947   -28676    -7171     6674       59     5559    35473 
   79728    99241    56558    -3549   -16321   -15195   -49280   -82032 
  -83054   -70077   -43916    -5684    16618    11253     -216    11965 
   54499    91203    87035    54411    23423     4201    -7627   -10134 
    1930    16079    18739    22886    30468    25232    14334     4320 
   -5780     4230    33081    47181    49326    49773    26179    -8058 
  -11531    24686    83230   140428   178451   193448   189618   172984 
  157241   148578   136255   118162   106085    93193    47012   -20336 
  -56139   -56762   -33218    17034    63150    91308   111746    93881 
   37747    -1134   -13262   -15137   -12422   -18667   -20070    15271 
   75014   100107    71845    32000     5260      189     8137     1209 
   -9310    -3060     3389     -608    -1660    -2829   -14291   -16638 
   -3366     -299    -5995     8024    40306    74190   105224   119326 
