Origin Time       2021/02/13 23:08:00
Lat.              37.7
Long.             141.8
Depth. (km)       60
Mag.              7.1
Station Code      FKSH18
Station Lat.      37.4894
Station Long.     140.5380
Station Height(m) 410
Record Time       2021/02/13 23:08:08
Sampling Freq(Hz) 100Hz
Duration Time(s)  227
Dir.              5
Scale Factor      7845(gal)/8223790
Max. Acc. (gal)   450.311
Last Correction   2021/02/13 23:08:08
Memo.             
[...]
   12996     3827     1665    -2145    -2309     5032     1566   -15990 
  -32355   -43005   -44293   -32200   -11568     9082    18296    15161 
   13529    15553    13699    13432    19618    23001    22135    26248 
   27915    16278     2956     -796     3998    12208    11962     1651 
   -7843    -6482    13991    36737    37323    25921    12706    -8568 
  -32333   -46132   -41648   -27993   -21879   -17793   -10656   -11060 
  -19939   -29520   -32184   -19955     2108    20677    37513    55896 
   61803    44275    10670   -20655   -32891   -22673     2857    31430 
   43187    28223      -41   -23090   -30167   -24671   -15461     1317 
   22688    33980    31059    15660    -4698   -17316   -22052   -23870 
  -18652    -6164     2745      859    -5833    -6439    -4703   -12858 
  -21994   -15441     4930    29344    47063    50130    39090    14694 
  -15620   -30559   -15093    20682    45931    38844     8492   -22077 
  -34530   -24759    -7732     4295    14986    28497    33836    12637 
  -23629   -38014   -22990      108    21165    38281    45798    39951 
   18589    -8580   -23255   -27361   -29880   -23217    -3210    21176 
   36193    34414    26528    19344     4800   -12155   -18605   -18655 
  -14224     6261    31330    36578    27526    13749   -11072   -38400 
  -49779   -41971   -24198    -5431    15803    32057    27153    22800 
   36636    37192    19741     9593     3686      565    11885    30542 
   40640    33174     4229   -34015   -52479   -41008   -16305    14731 
   41264    40675    29891    28156    12650   -15697   -33200   -39326 
  -34495   -16830      386    -1129   -18631   -26771   -15448     1598 
    9117     4926     1204     -157     1270    23029    58575    79346 
   73819    39129   -12969   -47617   -45557   -23722    -2370    10392 
    8429     7115    23754    31419     9475   -15259   -23539   -18293 
    2616    24412    16545   -14929   -31399   -13610    19201    31247 
   12482   -20460   -52454   -58058   -23431    16438    33941    32621 
    7385   -31108   -48740   -38935   -21001       74    21751    31511 
   32391    29100    22918    29470    52132    70575    70390    56478 
   34835    16006    16074    19935     5229   -15871   -29110   -35935 
  -37345   -36860   -37179   -34325   -26333   -13806    -3692     1827 
   13957    24189    20571    13308     2907    -6662    -5124    -8017 
  -22083   -25362    -5977    20860    28856    13837    -5810   -25338 
  -39263   -27039     5741    34111    54224    73255    78606    40378 
  -25246   -47945   -14477    16532    22369    22415    14729      450 
    5576    19963    14563     7107     9818     5652    -3114    -9799 
  -13366   -16891   -26407   -22945      872    17798    16563    -1188 
  -29698   -35671    -5638    27688    39202    25181      396   -10933 
   -4487    15859    38705    44648    33165    13575    -7395   -22821 
  -26894   -14450     7065    21093    24567    22238    15067     4761 
   -5352   -12565   -20509   -24952   -13159     1483    11668    30391 
   34187    12865     2760     2157    -5151     3399    21357    20052 
   16191    25432    30165    24788    21617    19958      -40   -33199 
  -41905   -19057     8997    20518     9482    -6983   -15398   -20092 
  -18365   -13926   -20914   -34588   -38731   -28169    -9963     3040 
    4286     9309    33003    54506    50109    27881     5718     1864 
   20848    30307    15480     2898    -9414   -30785   -39429   -37968 
  -44000   -49287   -41801   -27075   -14602     3277    29836    55216 
   75215    82038    70825    43283     7975    -9120      -28    12198 
    6251   -17838   -38254   -47367   -54668   -50179   -31039   -18461 
  -12313     5528    30149    48432    54334    40602    23025    27081 
   49333    70012    61115    11098   -47655   -81650   -83768   -65676 
  -48088   -35819   -23650    -7542    11643    22275    34399    57501 
   58168    31129    14848    19834    38718    55582    47580    26023 
    5591   -12064    -8422     8014     7221     -175      360    -3137 
   -9782   -11773   -16143   -30345   -49049   -45696   -13859     9670 
   13243      -71   -32012   -47259   -33637   -11846    10751    12204 
   -1182     5794    23427    32865    29394    13423     6038    11360 
   14987    17240    18133    20332    29702    41173    47291    36738 
    8556   -17108   -28107   -25833   -13042     3547     8017   -10891 
  -37415   -50820   -46044   -16933    30955    55663    31008    -1742 
  -14102   -24796   -18084    20075    48579    45237    25844     -577 
  -24641   -40529   -56218   -50350    -3662    42095    60968    67567 
   51112    17003     9741    28220    30199     9462   -18372   -42804 
  -47038   -32134   -12487     7446    10481   -10211   -24889   -20729 
  -13459    -6185     9107    32842    54787    61142    47390    19148 
  -19637   -55819   -60006   -31935    -5227     9844    20841    16594 
   -6197   -22073   -19669   -13899    -6974     9367    31970    49904 
   57631    61287    51358    10615   -28404   -25648     1156    24452 
   34642    26453     9336    -3420    -6066    -8864   -27114   -42616 
  -36405   -18125    14099    54313    63760    31648    -4723   -14048 
    2430    23495    28201    18002    14404    24425    39376    46273 
   13077   -49612   -69958   -40670   -12463      287   -10208   -35797 
  -34708    -8631    11708    21174    14268    -4271    -8494     3460 
   12735    10679    -2196   -13566   -14632   -17543   -19095    -5026 
    5568     1965     8181    21263    21667    24555    34508    38325 
   56388    83026    67578    14076   -25848   -28269    -8175     2138 
  -12351   -38329   -56513   -54974   -30966      517    15516     7245 
  -13306   -20995     2913    34017    42260    32949    14716    -9074 
  -27900   -37914   -38458   -18659    15919    32031    25222    19750 
   15809    13225    19788    21662    15034    16965    13150   -18682 
  -41463   -21050    14191    30146    11819   -29698   -52046   -28702 
   21469    59917    73080    67551    49608    27375     1132   -24798 
  -33939   -16085    12955    21784    10621    -8710   -38668   -58909 
  -57387   -55092   -50264   -26125     5671    26107    37551    45424 
   33424    -1401   -26480   -29087   -18064     9528    39950    55962 
   64323    64411    52382    35810     9605   -28620   -46569   -15934 
   36185    63688    59934    30325   -25926   -71435   -77306   -69989 
  -55876   -30800   -15529    -6577     -791     4752    27834    39895 
   17113   -11892   -22404    -1466    34061    52111    53492    38664 
   18330    11319     2849    -4845    -2816    -6478    -4228    16854 
   43702    62634    46908    -3381   -34812   -23858     5940    34339 
   40478    11973   -24980   -30790    -6650     5040   -10939   -29967 
  -42273   -42375   -22322     6544    28688    30991    28699    35442 
   18354   -14492   -24287   -25277   -24444    -1082    35206    45415 
   13489   -22923   -37264   -34161     8283    72447    88978    65379 
   39973     7830   -15557   -22426   -25802   -22264   -32425   -55957 
  -54059   -37897   -21721    13572    44829    35429     2104   -13587 
    2853    29947    42365    38877    34204    32217    28522    24992 
   12675    -7084     -804    24854    22025   -11326   -50697   -69033 
  -38163     8426    27699    28525     3048   -42958   -66869   -76314 
  -82071   -52123    -6542     9872    15607    35507    59757    69699 
   60291    60083    79412    86370    73904    61805    56717    45605 
   12328   -28440   -51351   -60808   -72033   -83277   -80887   -67381 
  -52879   -27866     7013    33922    46284    39069    12638   -12415 
  -16067     3654    35924    70109    91994    75108    24048   -13003 
  -21801   -30843   -49227   -56614   -34623    -5908    -3036   -16424 
  -32864   -42217   -26639   -10581   -18615   -20152     1576    26663 
   39348    40192    46414    47294    12993   -23607   -16877    13873 
   39143    51715    43515    22748    13857     7626   -24939   -58225 
  -38330    19260    57719    75201    82474    57493    19236     5668 
    2899    -8050   -18469   -20143   -17815   -18172   -17053   -10975 
     -48    16567    17267   -16104   -49852   -51605   -37450   -21219 
    2193    25297    37004    33737    24374    26492    19350   -15187 
  -31648   -18748    -9601    10376    43120    44813     4044   -37079 
  -31897    10328    47293    57908    39707    16657    11619    14728 
   14558    -5409   -37026   -41094   -31143   -25404   -10521    -8172 
  -31396   -59404   -66353   -31125    23815    64917    88368    87373 
   54958    17525    13760    21442     1387   -20603   -35287   -58029 
  -67923   -64092   -50363   -13998    16343    19211    14508     4441 
   -1718    30341    77128    88713    83964    85816    71494    37247 
    2141   -26692   -46510   -53125   -40656   -11947     8186    11654 
    9080    -4573   -15665    -7034     7746    21104    25263     8236 
  -20598   -38901   -32408   -12761      427      -78   -12907   -26194 
  -25331    -5707     8935      774    -1229     9130    13350    26206 
   40166    30796    19349    19719    10839    -9424   -24293   -24521 
  -12912     -125    12355    22049    24405    27166    19642   -11686 
  -30268    -4245    24808    21490    16441    19395    10243     3724 
   10026     9636     1471     2745    10601    10851     -334   -24044 
  -44680   -37314   -11647    12291    31214    40290    48455    60416 
   50994    29115    35307    56273    56131    36909     8275   -14374 
  -17070   -29438   -67541   -93379   -90265   -76885   -57649   -34935 
  -26644   -35166   -38985   -26705    -8459    15017    51345    81288 
   86682    67590    22765    -7869     7668    16015    -9235   -34501 
  -51520   -55098   -44547   -29189    -1949    23658    38341    54020 
   63763    69547    74090    67412    54257    27417   -17263   -53792 
  -69855   -68476   -54908   -49161   -54567   -53265   -46291   -37638 
  -12402    29682    63898    79123    82215    72211    53056    37331 
   28255    20112    -1274   -36553   -63957   -72104   -67865   -59680 
  -43065   -15854     9385    32953    52760    53343    40994    25932 
    8758    -2049    -3161     3512    16869    30974    38296    34271 
   26230    26597    36491    49594    57815    53924    34207     3572 
  -20925   -38919   -69562   -99895   -98325   -70021   -37705   -10758 
    7982    21404    32599    44417    67154    99392   124033   129932 
  107902    51370   -13578   -46958   -56091   -70569   -89178  -105239 
 -113749  -102174   -76376   -50707   -28105   -15102   -14959    -7685 
   17363    38410    52640    84904   121930   124036    93972    56709 
   15820   -25814   -52686   -51394   -22692    12723    31056    37251 
   53241    74586    81452    64200    27000     1856    12692    41261 
   60777    54340    23553   -16244   -45495   -42843   -28574   -31178 
  -43914   -71813  -101645  -108580  -110685  -107218   -81812   -49123 
  -16826    20837    67027   114390   140900   137910   105783    46936 
   -1783   -12546   -17736   -41913   -74040  -115874  -158899  -176839 
 -160829   -99732    -6758    60862    95801   130013   145471   134867 
  126156   111011    87157    78372    76677    64725    36194    -7661 
  -41989   -54534   -61580   -70004   -79598   -89382   -96072  -103384 
 -103349   -82999   -53362   -29370    -9802     6426    17296    31175 
   54540    76863    86350    84747    87112   104981   128289   146742 
  164220   176647   172979   149998   107418    50927      226   -30298 
  -47796   -60100   -63772   -56538   -41505   -28394   -30856   -52728 
  -74329   -76192   -75155   -83538   -83177   -73118   -70420   -84638 
 -110366  -128387  -130523  -120870  -100657   -73449   -48585   -37794 
  -41735   -45057   -38376   -26865    -9092    26115    69172    95168 
  102324   101486    93406    79029    67379    72589    91520    99272 
   91409    85873    92286   110574   132439   151478   157775   132325 
   87156    52122    30856    13822    -7342   -26840   -32359   -41040 
  -71424  -105575  -124457  -126476  -101588   -46812    -1146    -7275 
  -43715   -63576   -66087   -57819   -37377   -26960   -25056    -8139 
   13902    27368    37048    43988    52042    61111    45937    -6303 
  -57655   -73125   -66071   -47988   -21124   -16787   -39980   -49383 
  -36780   -16937    22833    71805    87713    73457    65412    75022 
   95161   119191   142669   163965   181035   192962   205850   220315 
  219113   181606   104739    13532   -60497  -120128  -181340  -227341 
 -246754  -259148  -265280  -253939  -234774  -217183  -199586  -178877 
 -154592  -129432  -109032  -100599  -101802   -99937   -88514   -73228 
  -59042   -41581   -18900     2147    13464     7337   -16835   -43507 
  -51071   -32000      955    34427    66761    96687   124156   149845 
  166017   174513   193911   224066   238608   222798   186525   152666 
  139126   135253   125267   120928   130623   140584   142385   139118 
  137625   149958   179880   211879   234000   250848   261581   254326 
  215581   136246    42655    -8681   -16389   -37885   -86394  -137614 
 -189010  -233263  -265827  -298676  -324454  -335148  -345721  -365122 
 -384523  -397885  -410486  -424985  -436536  -441385  -438601  -426832 
 -400113  -345649  -265118  -194096  -152886  -108380   -47772     3431 
   55575   119358   175305   228417   285755   334423   368764   388588 
  402001   419565   436668   448185   459675   471710   476019   468882 
  449554   408121   329764   227734   155881   128700    91281    39694 
   14782    -8537   -51513   -89885  -123565  -157928  -191181  -231168 
 -277646  -323015  -359510  -381658  -386788  -363978  -296146  -191779 
 -104835   -74206   -64731   -42863   -28899   -20935     -760    14400 
   17367    23730    42522    78277   120993   146604   149206   149010 
  160078   172289   174847   170769   160354   141816   124281   110933 
   88279    44475   -21487  -100692  -173921  -226184  -261715  -288723 
 -307324  -323109  -337352  -330142  -290983  -245072  -216564  -195439 
 -162950  -114346   -58924   -12307    29525    81429   140162   200017 
  261841   317200   353100   367163   369808   373072   379973   382513 
  356454   279883   191361   160365   163989   136598   100494    76967 
   37012    -9926   -54702  -108495  -159274  -201741  -241127  -278861 
 -318882  -356568  -377914  -373897  -346370  -298480  -233552  -165616 
 -104893   -45864    10700    54176    88998   128159   166414   193754 
  217161   244507   271799   290409   291683   273341   246618   224773 
  196052   135589    68989    45268    24834   -38325   -80935   -84366 
 -106540  -141471  -179320  -230840  -269534  -284069  -280881  -259831 
 -233042  -204820  -157245   -82375    -9933    31110    61942    99245 
  124460   147783   183259   217814   253662   282236   284493   267726 
  231930   169851    99176    45025     4683   -42593   -88276  -112630 
 -121726  -119969  -113756  -118609  -127651  -132981  -138954  -141610 
 -145544  -162441  -187596  -206740  -207882  -179483  -112935   -33158 
    1171   -11070    -2658    28467    33120    27595    35614    39803 
   37600    39009    53165    85816   128210   169600   208471   248512 
  281190   289635   278959   270765   274484   281178   271208   229367 
  168347   120556    87008    46576    13076    -1672   -15523   -29982 
  -47760   -78904  -113329  -149983  -198209  -254438  -306413  -334180 
 -324311  -285529  -233047  -174695  -117391   -66123   -17830    34163 
   90142   135162   154639   148590   116646    60049   -10324   -78302 
 -121036  -128822  -118642  -101765   -77406   -62618   -63883   -58738 
  -40325    -9994    23484    30727    20024    23113    35856    44024 
   33164   -10426   -56239   -56832   -17243    25647    45577    32945 
    8109    -4075    -1074    21552    57265    87339   115415   144431 
  166857   183519   188254   165894   115842    65909    39685    21373 
    3458     4014     7079   -11287   -35202   -49836   -58787   -62814 
  -58587   -43534   -16561    19816    55863    84073   106181   122166 
  122512    98421    59749    20498   -23895   -68179   -91910  -104639 
 -125551  -139405  -128915   -98257   -63439   -52461   -67394   -81126 
  -92398   -91866   -49917     -417     5490    -6876    -6043    -9220 
  -16502   -14301   -18123   -27940   -32136   -46800   -68084   -72835 
  -68184   -60697   -37345     1424    38381    63532    89645   121196 
  133404   125687   126172   141172   156277   152088   124771    90327 
   54683    19299   -10701   -43035   -84775  -117358  -110612   -68581 
  -26757     8405    52448    97923   141324   189318   230189   251591 
  248020   211279   137446    40697   -44994  -109668  -169736  -208741 
 -212201  -218551  -247820  -267363  -255097  -222218  -190287  -168556 
 -138364   -88036   -37928     5857    51106    87578   111287   127134 
  137015   152185   175217   176948   130998    60419    13036     4429 
   16194    32103    49720    66096    78788    87706    80762    55683 
   38874    38284    33204    24295    23099    17907    -4800   -35814 
  -40900    -1571    34564    30346    24305    22059   -13819   -59579 
  -87231  -109877  -121822  -116024   -96982   -54095     4442    46024 
   73156   102205   106312    66540     8594   -35411   -49434   -37739 
   -3145    41107    60714    59832    56652    41951    24945    13049 
  -14716   -56097   -87756  -108838  -125046  -120858   -83906   -36886 
  -11427    -9667   -21892   -31830   -14867     9182    13431    27707 
   52103    50739    38670    39062    43673    46830    56006    77153 
   96735    95238    73533    47968    28161     4824   -24798   -42152 
  -42913   -36148   -21467    -3834     6438     1209   -22666   -51880 
  -68328   -68832   -58820   -35897     1129    43152    79327    90724 
   75331    64872    61738    40547     9574   -17821   -46707   -69488 
  -79026   -83802   -80376   -57761   -31194   -14897     6552    34450 
   52004    53838    45725    43641    42529    26084    10469     8826 
   17289    31575    35135    21082       44   -17949   -23522   -21200 
  -19417   -15163   -24102   -57304   -86034   -94610   -85658   -55958 
  -24885    -3848    17118    31270    47206    77429    89861    73199 
   62073    64885    70968    76991    65480    33836    11584    12398 
   22056    28883    29614    10840   -35013   -74893   -74375   -49998 
  -31800   -17833     7875    45662    74356    76701    63852    58479 
   70949    82474    67031    36863     9728   -17018   -36150   -46057 
  -55240   -57580   -53190   -57046   -71571   -82070   -78876   -65718 
  -47426   -33798   -32486   -29496   -15568     1312    23618    50268 
   62819    67077    86467   111087   123623   126187   108901    64959 
   22588     6845     1707   -13637   -33230   -50284   -63034   -63732 
  -55328   -48999   -46467   -41802   -29197   -12232    -8079   -26374 
  -41831   -26563    12455    59250    88912    80357    54251    30854 
   14237     9166    -3916   -35317   -61580   -76708   -90049   -91295 
  -72393   -51645   -37968    -7551    39725    70050    88859   120626 
  141629   127171    91822    50207    15866      -54   -15631   -42535 
  -65232   -72951   -66247   -63680   -83019  -108972  -128829  -142979 
