Origin Time       2021/02/13 23:08:00
Lat.              37.7
Long.             141.8
Depth. (km)       60
Mag.              7.1
Station Code      FKSH10
Station Lat.      37.1616
Station Long.     140.0930
Station Height(m) 364.4
Record Time       2021/02/13 23:08:15
Sampling Freq(Hz) 100Hz
Duration Time(s)  293
Dir.              2
Scale Factor      2940(gal)/6170270
Max. Acc. (gal)   40.535
Last Correction   2021/02/13 23:08:00
Memo.             
[...]
  218101   219968   215644   216162   220244   220637   220392   220486 
  219830   223052   228660   226972   218721   213619   214355   217569 
  218245   214383   211705   213761   215335   213708   215324   221221 
  223998   223109   220565   217994   219063   219084   214934   213932 
  218247   222169   222052   221070   222096   219363   213618   215759 
  220950   218621   217305   221227   221741   220745   221567   219391 
  216299   217384   219888   218302   212955   212167   216821   217435 
  215827   218853   221045   218786   218404   220151   217417   213117 
  214912   218768   218059   216524   217587   217019   212639   210136 
  214302   219964   220605   218397   216059   213071   211058   211508 
  214076   216840   219328   222513   222406   216638   209566   207136 
  209607   208722   205422   208370   213323   216435   220877   222064 
  219325   221130   226270   229502   231834   230616   223306   215688 
  214944   220192   224763   226854   224608   216865   214340   220290 
  221869   216719   212150   209996   214499   223570   221810   211347 
  209225   212110   211871   214475   218567   218961   219331   217804 
  211838   210388   217494   224767   225357   219976   214997   216841 
  221385   220042   216895   220150   225197   225827   224970   224983 
  225383   223464   216257   209882   209242   208874   209263   216661 
  223791   220668   214500   212919   214017   217398   218789   214916 
  213202   218159   226587   230435   223545   213905   210001   212015 
  220662   228319   224954   216331   211434   211167   216515   225363 
  226255   215914   209409   212584   213863   213078   218019   222888 
  221478   218397   216090   213113   211208   211560   213403   216674 
  221472   225977   225899   223810   225758   225718   217475   209378 
  213040   224983   230688   229822   227671   220005   213407   216236 
  220690   222302   223636   224476   226067   228993   227063   213949 
  198094   196200   205273   210145   212501   218514   222072   219708 
  217159   217534   216364   210497   205303   206317   209453   210054 
  213251   221275   225286   222736   222613   225748   224146   220627 
  219813   215681   210506   211009   212634   214793   220118   222285 
  216910   211307   216278   226695   229929   229775   231094   228343 
  221464   215239   210614   208323   212410   219545   218637   213006 
  216728   227240   227255   214679   208431   216135   224990   228346 
  230804   229975   220286   210677   210612   215487   219611   218740 
  213926   214822   224427   236378   237993   223967   211196   208564 
  206587   206367   210277   212738   216625   222611   222847   218030 
  213771   212188   212430   211472   214020   220719   221590   220282 
  220540   217261   217663   221587   220597   221442   224492   222594 
  219728   218548   220447   225162   223794   217624   214776   210897 
  204689   205665   214443   220572   219659   213811   204264   201742 
  212690   217926   210561   209991   217763   221166   218164   211840 
  209347   211315   211919   215437   220719   223505   228869   227743 
  215074   213025   224751   228962   223416   216467   212249   214193 
  219205   225706   230343   224698   216216   216671   222229   225233 
  221831   214426   210747   212941   215726   214585   212047   212024 
  212114   213165   219121   222394   218999   221625   231816   233064 
  221376   211398   214490   225069   226181   215646   213100   220172 
  215065   199773   197247   211352   226973   229717   221578   217004 
  217324   216904   218477   221451   222966   222915   223236   227977 
  230290   223593   218753   221420   227143   234802   236507   224738 
  212994   217065   226279   223138   211083   201912   201304   206676 
  211459   216297   221685   220587   214191   213847   218146   216387 
  212867   213925   215340   218299   223749   224128   218311   214977 
  218904   223479   222102   219463   219584   219027   218590   220895 
  221886   218143   215273   221052   229436   226699   215859   212269 
  217121   218484   213256   208728   210791   215975   215678   211925 
  210599   210137   209672   208339   205686   207564   216158   222361 
  220607   217103   216605   219574   224275   225137   222855   222663 
  223333   223014   220022   211635   207193   215791   223258   217994 
  210800   208518   208946   210847   212061   214776   217752   214738 
  210422   211302   217215   225672   227891   220063   213874   218693 
  225384   222294   215336   213604   217989   227265   234970   235940 
  230775   220774   212012   209675   212304   216909   219369   217115 
  214436   216484   218873   214853   207065   204420   209492   211768 
  207515   207004   209676   208891   208073   206102   199827   201011 
  217030   234397   239534   233820   227165   224943   222623   217676 
  217196   225218   231621   228275   220715   214133   214384   222322 
  223001   216626   218278   221284   216486   214787   219960   221848 
  218422   216161   219290   226313   231902   231090   224285   220669 
  223509   224770   223975   224419   221468   215228   212585   213462 
  215355   219232   222635   222675   218561   212774   212497   216132 
  218257   221733   222524   216106   213464   219058   223538   223274 
  219528   213431   206751   202381   208267   222820   229998   225464 
  218236   214034   218021   228050   230446   225110   224123   229178 
  234862   232597   219543   207857   208419   218225   225842   227280 
  226693   219042   202874   195232   203586   212189   212247   213614 
  222097   229646   226710   216756   211082   210961   212012   213957 
  216249   218469   221037   223637   225741   225125   221860   217769 
  212373   210509   213534   212435   209165   211942   220132   228700 
  226969   215240   209754   210580   209614   215264   228148   231984 
  224006   216450   212093   204998   200711   208806   219644   223643 
  227109   227746   220386   212743   210536   214001   219201   221978 
  228731   237961   236771   228165   219689   212258   212922   220071 
  222319   216629   208844   209890   217576   216321   207250   204366 
  210085   214718   212686   211023   215013   219323   220171   217293 
  211601   212103   221425   225537   220879   216673   212859   209606 
  212490   220106   226084   227126   229154   235711   233999   223016 
  221042   226175   226475   224802   219248   210192   208430   211745 
  212106   209781   209936   216244   219556   212601   204394   202574 
  206845   213237   217684   220698   219589   212285   206991   208222 
  211139   214081   220427   228143   226515   215479   210867   216229 
  219757   216264   210202   209023   214809   221743   226118   228085 
  227941   227065   225092   221575   220812   221680   215350   205823 
  204254   209390   218175   225862   225962   224367   222833   216811 
  212781   213273   213611   214486   216169   218264   221002   221228 
  219104   217384   216464   218753   222392   223949   228024   231702 
  226970   218497   213396   215174   223605   228614   225083   221450 
  220982   219652   219452   222889   227935   230426   224061   213822 
  214020   221610   223639   220818   217747   215397   215302   213522 
  208277   206477   209704   212785   213614   215127   219056   220482 
  215905   210474   210136   214130   218214   220366   223085   227474 
  227797   223134   221067   221464   217532   211866   212306   216847 
  219667   222768   227892   231445   228754   219246   213342   218233 
  222472   217133   212457   214320   211513   203710   203123   204915 
  202242   204642   211633   215343   222868   233188   230503   219030 
  215388   216423   214865   217527   225724   230478   231239   232804 
  228283   211858   200928   208255   216500   215980   216830   219040 
  217966   215112   212194   210505   209660   212041   218323   221668 
  223343   226499   223793   218776   220416   220263   213421   207373 
  204059   203590   205290   205703   205744   206985   210116   214984 
  215842   210298   208167   216183   223969   222076   218369   220639 
  224410   224141   219367   214337   213287   214675   215251   214520 
  214043   214078   216916   223618   224574   219076   219459   226858 
  235098   235454   221286   206678   205900   212067   217482   218772 
  215525   216085   220616   219485   213068   210080   213319   217654 
  220546   223938   223858   216073   209940   213157   218306   220964 
  225676   232550   231857   219746   212963   221204   228674   227428 
  227483   230392   231652   231007   226522   222474   222972   219239 
  211085   207467   204461   199200   201221   211522   217472   215013 
  214927   221010   225598   226926   225278   219244   214398   215383 
  219504   221294   220138   221821   224306   221398   217592   217961 
  220866   223744   224784   225358   226365   223802   215838   208726 
  210255   216741   220176   223073   227917   228418   221936   217469 
  222574   232020   235649   229549   222087   222706   226195   222511 
  213975   211261   214405   214909   210918   205020   203799   210902 
  216437   214197   210555   211837   216836   214699   204874   205796 
  216494   218656   217088   220516   221676   219255   217651   219102 
  223393   224557   221008   218142   219503   226308   231411   225949 
  220198   221582   216479   206169   207031   216163   219648   213702 
  205930   203027   203496   209249   218522   218795   214126   216908 
  221353   222908   225072   226495   225731   224375   225767   230434 
  234168   232097   219454   202186   198024   207384   209506   201859 
  202588   211452   214852   213663   214486   218922   226984   234653 
  235821   229645   224669   228140   230280   222975   215946   214050 
  213068   213470   213776   211550   211687   215905   217186   213310 
  213176   218451   216370   208329   210223   217666   215983   211985 
  217498   224227   222551   216904   210776   207126   211706   217934 
  219083   222889   227456   224744   223085   225230   221345   214665 
  214181   215912   213455   207614   200270   196279   199852   204151 
  207031   216061   226542   229649   231150   234473   232642   229214 
  230023   227128   222764   226366   227772   220991   218560   221971 
  221531   220238   229227   245053   250122   238367   224073   221431 
  223556   216887   209498   209499   206737   201307   199526   200457 
  204760   205071   201496   209103   220036   219727   216748   217045 
  217337   216530   214910   217072   222230   219340   207792   203515 
  213124   222148   221621   216574   206890   198064   201272   207829 
  207997   207463   206983   203793   202920   208120   212585   211423 
  213308   221955   224795   215192   206385   210685   219159   219519 
  216743   219760   228566   233329   225267   216115   216108   214082 
  207047   203395   205650   215401   229390   237329   234026   223537 
  216736   221827   232144   235716   231022   221317   209300   202369 
  207184   220718   232329   231803   225072   227930   234334   230938 
  226752   231354   238671   241681   239642   233627   227445   228708 
  234149   233658   230260   227531   222617   216767   208973   200283 
  196793   198012   200865   203702   209576   221014   222976   207774 
  194193   194820   206736   221570   226887   222392   219941   222264 
  224705   228382   233132   233641   230375   226438   220883   210814 
  195916   187735   194791   202105   200482   202864   211180   216153 
  216016   211173   206364   206452   210401   219210   230843   237522 
  234740   226331   221274   218313   208502   200100   206316   217563 
  225581   234191   230418   208805   194018   197450   209594   224930 
  235738   236635   232834   227947   221514   214219   210555   214050 
  219239   220435   216311   207798   206340   215444   216056   207192 
  212918   234085   248511   244944   231915   225837   226167   220991 
  214242   215369   220980   219168   209557   210318   222624   224091 
  212000   202129   200753   207393   215884   216234   208121   199744 
  197962   199733   199000   202133   214284   226969   233720   237266 
  240457   238737   224873   203457   187242   178096   176992   191705 
  214192   230021   234306   223610   209671   211259   220940   222531 
  219605   221450   228436   240223   256496   265612   254163   228765 
  208607   202166   207278   222809   241387   247028   238870   231310 
  227118   222755   223928   233717   248245   257629   243935   211299 
  188224   179138   172318   168986   170476   182749   208601   229710 
  235852   234203   227390   214684   203052   204634   217356   226955 
  230170   230868   231010   228599   214795   192502   179787   185030 
  203677   223233   231142   233254   236748   232513   221221   216789 
  224184   240119   254791   254802   241239   225264   210489   202265 
  207864   217708   221420   226170   232832   228666   213711   203583 
  205961   212716   214932   211309   202048   193942   199590   213768 
  220116   216103   209095   208749   214216   215140   221892   245355 
  262053   253606   234134   221907   225243   237611   243003   236781 
  219238   197977   196950   215348   218773   197354   174278   162007 
  157073   156467   158777   165250   179691   200704   214591   213863 
  211859   212679   209434   208283   208118   199681   191439   193128 
  201834   214060   220258   214128   211679   226252   252519   281403 
  301735   303029   286693   268574   263032   261287   245181   220677 
  211782   219772   220133   207708   198602   193635   188072   188439 
  196516   208194   223401   240715   257667   274310   276385   245946 
  205405   192109   200057   202216   194140   187305   190365   203604 
  219368   229725   233529   236895   246422   258273   265482   266167 
  255909   236654   220034   207364   194954   190315   198327   210217 
  215126   208078   189522   171028   171261   184674   186473   180008 
  184294   196065   206982   219008   227911   225492   218432   214023 
  206431   200727   207045   218738   229469   235878   235228   239879 
  255318   266328   265025   257656   249576   242130   236218   228571 
  212401   192198   183737   190564   199498   204792   207785   206236 
  207335   214031   212901   203147   198685   204376   213020   220828 
  233458   244427   240174   226886   214961   206762   206563   214196 
  226053   237951   238837   230221   226643   225257   225963   241373 
  258747   258829   243443   218959   200391   200448   206581   206375 
  206013   210080   211330   206458   204703   207518   201874   188787 
  187390   202996   218677   218928   206446   196863   201907   217157 
  229391   229978   219261   211223   217074   224843   222883   217189 
  212408   205768   199311   200991   211212   220512   224103   223683 
  220349   220106   230417   243136   243053   230302   211651   187117 
  161948   150217   161849   192176   217691   217009   202947   200940 
  202298   192037   190650   209065   221477   215232   206327   208598 
  217706   218591   210944   210953   223701   241606   258962   266795 
  257404   244792   246039   251105   242019   222551   210969   213182 
  222171   230449   229439   219399   211892   217171   234012   246952 
  248306   245457   238676   223097   204945   195449   196986   206543 
  220380   230678   232025   223836   211762   207335   207003   203442 
  208818   219642   216662   213918   230425   247496   246304   236174 
  227719   217313   203163   192985   191549   196243   206443   222592 
  237325   241448   238559   238636   235937   221208   206809   203557 
  203971   205947   213022   220080   220013   214566   214674   222437 
  225605   217926   202710   190574   193818   207882   221757   231629 
  234064   230095   226546   225615   220845   209568   198533   190657 
  187064   191137   200785   211713   218429   215772   207348   200285 
  197530   199109   205176   217590   230200   228264   214828   207897 
  206694   200454   192104   189157   196394   213050   224629   222250 
  220292   226926   233462   239124   242411   233519   216881   207506 
  209918   218621   227022   233136   238474   237669   225573   218029 
  232068   251381   256280   257607   259566   251329   244836   253000 
  265377   272682   269696   253902   234297   216601   196427   173683 
  161657   173394   200502   223708   236200   242235   244358   238538 
  223395   213483   219127   225191   224632   227894   234072   238594 
  237182   229217   228096   231721   223917   205114   186482   182816 
  194746   204876   210657   213257   206686   199526   195063   189190 
  194396   207603   202476   179725   163226   156910   156065   170738 
  201040   224949   226051   216469   220444   230843   226367   219429 
  226758   237977   243180   243660   238434   229753   227841   231977 
  227912   215518   207495   204069   202250   207227   219006   232060 
  239763   235519   223236   217437   223740   227191   216588   206118 
  207220   208155   205702   213455   224237   220462   213723   217373 
  220849   221963   226108   226666   222394   220425   221289   218188 
  215609   231363   254302   256044   246844   245701   242121   229053 
  215140   204162   193696   184319   182854   193806   209990   218373 
  212127   198136   189975   191423   200465   217786   235107   240673 
  231320   204781   175514   174088   197280   218410   233360   239833 
  231685   222372   222241   223554   211611   182929   164890   178680 
  201875   209992   209094   212409   222444   235280   245466   244107 
  222828   190079   167759   163754   168927   178427   191454   203322 
  215978   230597   238082   240004   241980   238162   227353   208983 
  183934   171780   186972   215470   235045   239178   236558   235579 
  237200   239142   240962   247294   258961   266496   263769   256836 
  254424   256009   257118   258757   258133   253089   252834   255865 
  251662   248650   251192   244125   230408   225596   225162   220119 
  209522   195098   186882   193477   209283   223332   227962   221660 
  210284   199604   191375   189032   197077   213954   228020   225239 
  205729   186542   183499   189925   188625   185010   192091   201622 
  206847   215371   227980   237510   239673   233295   220671   213131 
  221956   237578   242934   238304   231636   225325   216138   199500 
  182002   180909   200018   219142   222222   221203   227799   228745 
  218044   210182   208938   205469   198501   194783   197787   199962 
  194465   192519   204636   216710   214376   207098   209450   217776 
  213384   193749   182278   190711   207131   220227   225757   223860 
  218427   214137   212788   208836   199671   195181   203081   219498 
  232504   231441   226210   232000   238166   234445   233280   239440 
  243558   239810   228405   218515   213644   204356   199499   217275 
  244455   254483   242786   224053   217602   226489   234204   233111 
  227432   219330   214179   212945   206237   195475   198325   218163 
  233105   235237   238530   242999   241175   235795   230232   225785 
  221050   218375   222410   221661   209564   204809   220306   244449 
  253978   240088   224036   225593   237306   246823   249967   243909 
  228290   207144   191900   189997   191204   189397   189731   191744 
