Origin Time       2021/02/13 23:08:00
Lat.              37.7
Long.             141.8
Depth. (km)       60
Mag.              7.1
Station Code      FKSH12
Station Lat.      37.2169
Station Long.     140.5703
Station Height(m) 365
Record Time       2021/02/13 23:08:09
Sampling Freq(Hz) 100Hz
Duration Time(s)  227
Dir.              3
Scale Factor      3923(gal)/8224838
Max. Acc. (gal)   49.689
Last Correction   2021/02/13 23:08:09
Memo.             
[...]
  -10716   -17096   -26680   -21870   -10756   -12349   -15755   -10314 
  -10395   -18387   -18848   -11742    -9240   -10446   -12101   -19422 
  -25531   -17707    -7628   -11562   -15267    -8216    -6443   -13404 
  -17444   -13506    -9344   -15300   -21672   -21816   -22300   -18539 
  -11940   -11996   -13559    -7483    -2309   -10640   -16058    -2374 
    7701    -2396   -14692   -15507   -10759    -9620   -13656   -15658 
  -11669    -7028    -9039   -17725   -21551   -14338    -6880    -2813 
    2832     -843   -13301   -13107    -3578     -319    -1971    -2862 
      82     -931   -10798   -15041    -7612     1196    -2114   -20526 
  -27148    -7141     3807   -13319   -26557   -21602   -19734   -25763 
  -23841   -16536   -17512   -19152   -14280   -12339   -13436   -12164 
  -10291    -5884      958    -2073   -11952    -6910     3310    -3844 
  -16368   -19862   -13768    -3167    -5015   -17564   -16991    -7596 
   -8899   -12756   -12847   -13895    -7425    -1578    -9516   -12750 
   -4695    -3142   -11425   -21388   -23588   -12988    -4162   -11357 
  -21851   -21450   -15256   -10257   -11897   -19554   -21043   -14146 
   -8388    -9092   -14575   -19107   -20155   -17278   -10752    -6986 
   -9404   -10743    -9490   -13356   -20025   -21536   -18546   -13911 
   -8047    -5231    -9556   -18019   -23483   -17320    -4021     -932 
   -8492   -12946   -10039    -3616     -189    -5942   -11291    -2305 
    4086   -10126   -22920   -16583    -5233    -2952   -13248   -28930 
  -33451   -19597    -2925    -7002   -25582   -27434   -10540    -2855 
  -10681   -18486   -15650    -3672    -2512   -19309   -30075   -19253 
   -1741    -2743   -15365   -15360   -10849   -12768    -7497     3925 
      71    -9427     1462     9267    -8201   -17466    -5875     -592 
   -3991    -3775    -8472   -21267   -22478    -8725    -1873    -9487 
  -19045   -18997   -14692   -18638   -22998   -18241   -11034    -8496 
  -15098   -21641   -16946   -13032   -16201   -13568    -9364   -18886 
  -25004   -12587   -12048   -30052   -31178   -18042   -13262   -10062 
   -7242   -12798   -14632    -3481     2670    -5638   -11465   -10615 
   -6845    -6966   -20992   -24310   -12232   -16891   -19967     4118 
   15140   -13703   -26121     6932    17509   -16355   -33608   -16879 
   -1223    -2925   -11881   -20252   -22443   -12502    -2003    -4035 
  -11330   -14598   -15874   -18449   -19094   -13055    -3894    -2668 
  -12436   -22343   -23827   -17543    -9725    -7084    -7627    -7014 
   -4653    -8530   -26443   -30119     -990    12141   -13879   -34368 
  -27826   -15418   -14125   -10646    -5506   -21855   -23089     7352 
    4568   -24127   -21471    -5054    -3478    -7233    -7551   -10804 
  -15731    -7383     1813    -8488   -18277    -9393     1543    -6077 
  -25987   -31108   -22303   -21528   -24246   -22632   -19480   -11520 
   -2378     1050     -224    -3647    -7896   -14046   -20391   -18589 
  -13701   -19688   -25277   -19179   -10987    -4430    -5610   -15460 
  -16200    -5227     1595    -1680    -9482   -18211   -20302   -12035 
  -10505   -15094    -8579   -10627   -27279   -16941    12843     9540 
  -15330   -17328    -8492   -12788   -13139    -8019   -12380   -13284 
  -14427   -22168    -7295     9895   -17173   -40610   -14210     7160 
   -4992   -20736   -30090   -16259    16957    11935   -27603   -26754 
   14141    29351    14643      -78   -17032   -23889    -4590     4792 
  -20017   -40470   -25151     -927    -7415   -31824   -32611   -12172 
   -5722   -17778   -24201   -20174   -16282   -11092    -8849   -14682 
  -12544    -8742   -19186   -15376     4175     3843    -9919   -18478 
  -12390     6502     6331   -13980   -18613    -4390     6777    -2324 
  -25598   -24312     -908    -1934   -18420   -20861   -16958   -13049 
  -14427   -20538   -13834    -8127   -24389   -31553   -13842    -3873 
   -9610   -17562   -22562   -14339     3537     7562    -7554   -19327 
  -15030    -4226     1935   -10033   -27229   -16263    -1035    -7318 
   -8662    -9016   -23703   -30645   -15156     4488     3684    -6569 
   -5821    -4514   -12168   -19211   -16931    -8766    -3545    -6558 
  -17304   -24024   -17371    -5482     2420     1144    -8482   -12749 
   -9694   -15209   -24371   -12590     -137   -24175   -48315   -35722 
  -17406   -14003   -15410    -9703    -1074   -10143   -27903   -28098 
  -10816     1448    -5927   -18443   -26291   -23799    -3453     -392 
  -29126   -37891   -10790     8384    -3978   -23333   -16308     8514 
   15454    -2751   -22233   -17435     8704    19414     2019    -9694 
   -2600      612    -2485    -5548   -18661   -27444   -15834   -13845 
  -32074   -36375   -31126   -39035   -35094   -15066   -10890   -17531 
  -16592    -6173     5451      315   -15654   -20356   -10052    -2729 
  -19448   -32536   -12067      766   -12544    -9171     6108    -4558 
  -13408     8225    18330    -5945   -30272   -28836   -11411    -5821 
  -25501   -42666   -25080     5726    13231     5853     1570    -5202 
   -3334    17614    16619   -11476   -17490   -10075   -12055   -13494 
  -24216   -38299   -23796     2378    -5724   -34086   -40963   -29056 
  -19408   -24544   -32259   -18501    -5703   -17304   -25601   -17378 
  -11442   -15051   -17617    -6435     7778     4730    -5432    -6447 
   -6772   -12214   -11290    -1717     3626    -4770   -23032   -22802 
    3666    11659    -1364     3325    13960    10902    -2311   -25141 
  -37667   -17066    12514     7705   -18222   -18168    -9714   -27247 
  -28077     4878    11157   -13089   -21061   -21551   -31008   -30534 
  -22034   -23967   -27437   -13690    -1474   -16374   -30061   -17616 
   -3531    -8252   -27473   -34719   -11236     2369   -23676   -36200 
   -9707     2390   -15489   -29597   -24714    -3360    16710    12722 
   -8854   -11200    10145     7628   -17705   -18613   -10362   -18393 
  -17936   -12037   -24364   -35527   -23743    -5062      595    -3493 
   -9563   -15581   -14430    -8599    -8518    -9252    -9559   -14959 
  -22099   -25612   -17726   -11349   -17103    -5402    13707     1494 
  -16642   -14152    -8326    -8592    -5445     4267    -2633   -24699 
  -25407   -16152   -16532    -9828    -4851    -7126    -3600    -9070 
  -22785   -19730    -6000     -646      495     3018    -1541    -8860 
   -9639   -14589   -27248   -30677   -20827   -17032   -24854   -29817 
  -28008   -18805    -3133     2058   -13849   -24776    -2826    15758 
   -3755   -23434   -18435    -6362     3519    10616     5949   -17976 
  -32547   -16441    -6165   -16779   -18666   -15083   -20864   -29042 
  -32128   -13576     9860     1368   -15896    -9427     8193     8931 
   -4815    -6647    -3052   -13316   -25076   -17531   -10482   -30292 
  -35333    -1660     8031   -27615   -42358   -16357    -5109   -15392 
  -13824   -11765   -12660    -3262    -5535   -19353   -15373    -3397 
   -2326    -8522   -12810     -685     6925   -16810   -26357    -7291 
  -13574   -24452     1524    13998   -17338   -41215   -23662     6679 
    4159   -30855   -42807   -16393    -2974   -17293   -35916   -39614 
  -17760    -3593   -21081   -33079   -16035     8140    14817     2544 
   -5690     2666     6023    -7986   -18733   -14731    -5054     1313 
   -4938   -15402   -11435     1733    13090    12236    -2474    -6060 
   -1358   -12842   -17336    -4919   -13865   -38199   -47575   -49083 
  -39376   -12262      788   -13671   -21508   -11481   -11449   -14382 
    -751     7379      750    -8873   -17238   -11677      103   -10223 
  -29874   -21979     3616     -531   -34811   -42284   -18445   -11515 
  -12769    -7751   -19954   -27047   -12951   -10613    -9667     8284 
   14465    -3365   -33924   -51333   -33952   -12029    -5260    -2556 
   -9678   -16475    -6351     7851     3060   -15813    -8772    22041 
   15595   -29673   -40680   -10606    -2905   -23340   -29860   -14203 
   -4889   -15203   -22524   -13263     6878    23769    17667    -3010 
  -15132    -7450     7507     -984   -10716     2116    -4691   -25088 
  -17074    -6783   -17826   -21739    -8125    -2398   -16640   -29803 
  -17444     2713    -9378   -35748   -29073   -10764   -21223   -32827 
  -18968   -11254   -17031   -10983   -12607   -29494   -24447   -11630 
  -20876   -22412    -8473   -11480   -26469   -28425   -10338    11375 
    9753    -3013    -4981    -8170    -7661     4745    -5690   -40092 
  -35079     8291    19280     -325   -15091   -24721   -11592     7253 
   -8532   -21776    -6863    -1015   -11724   -15562   -16411   -23662 
  -12012     7712    -1237    -7067    -1096   -14885   -19082    -8194 
  -19907   -32462   -23604   -24088   -38778   -33461    -6621     5043 
  -11751   -32755   -27324     5533    20268    -1806   -12058     2515 
    7545     1802   -10137   -21321   -16189   -14374   -20587   -19456 
  -17189    -9552    -5952   -19164   -26376   -17934    -3786    -3500 
  -22435   -25045    -9648    -6840   -16094   -30871   -33772   -10412 
    7908     2336    -7886   -13197   -13084    -1073     9859    -3801 
  -20480   -18538   -21439   -30096   -33979   -35932   -24841   -12422 
  -10403    -2882    -7793   -29512   -23703     3469    18399    17936 
   -5304   -24671    -4405     9255   -18451   -31607    -7591     3697 
  -11951   -29486   -27777     -793    14405    -6338   -26075   -23849 
  -13182     2037     8041    -6516   -14548     1352     9494    -7488 
  -11375     5911     2357   -10282      108     5722   -11747   -31568 
  -35047   -20776   -18954   -38323   -33496     -712     7264    -9869 
  -13795    -9633    -8676    -4040    -2679    -7614   -13828   -23495 
  -28113   -19257   -16366   -23614   -11981     4723    -6353   -20233 
  -16869    -5598    14014    20812    -1382   -29014   -38896   -24241 
   -2744    -1954   -18719   -26925   -17037    -3789      604    -2234 
    2199     7547   -12733   -28069   -15770   -20617   -36161   -23620 
   -3983    -9913   -30655   -27317    -1111     4326    -8418    -2029 
   13637     9938    -5680   -17807   -21151   -15321   -12336   -19562 
  -22941    -5140    14949      -29   -31773   -33277    -5197    16000 
    2794   -27075   -29597    -8860    -3836   -12252   -10521    -4291 
   -1655    -5030   -17504   -15678     1360    -5575   -24776   -18756 
   -7010   -13882   -19055   -18168   -27884   -16247    24148    20559 
  -20952   -16569    15317    11375    -9975   -10585     -484    -8726 
  -30007   -29349   -15510   -32849   -49944    -6010    32008    -6640 
  -35830    -9979      780    -7611   -11628   -17014     1224    21552 
   -4916   -35418   -21972     8116    17293    -3878   -22989   -11944 
   -7495   -20791   -10026    15534    15273    -7122   -18954   -18144 
  -25817   -32192   -21528    -2415     7731    -6887   -30002   -22326 
   -6219   -31537   -46516   -12194    -8700   -41567   -37639    -8071 
     932   -18585   -24409     5439    13703    -9968   -18646   -15298 
  -15637   -19660   -20043    -4313     6539    -4668   -16391   -16622 
   -3044    13652     4653   -17566   -22897   -22076   -32564   -43359 
  -34831   -15068    -1134     1718    -9040   -11669    -2918   -13400 
  -22866    -8923    -3433   -13444   -25450   -29425   -13837    -2614 
    -916      448   -22316   -37546   -23815   -24544   -22646    -7203 
  -13633   -24078   -20478   -22748   -32837   -30925   -25690   -40698 
  -38892    -7015    -5366   -25654   -26747   -25481   -26322   -20609 
  -14388   -11206    -8221    -8283   -21713   -28822   -19616   -18778 
  -21093   -15529   -10169    -8912   -13805   -18075   -17632    -7213 
    6794    -6898   -24125    -6110    10600     8132    10057    14841 
   22646    31918    23125     3915    -4723   -13539   -23140   -17340 
  -21713   -35430    -8289    30152    25564    10974    14307    21833 
   36856    48701    36516    24979    26855    14397    -6858   -10716 
    5000    19584    12137    -2164   -12279   -23386   -22727   -19818 
  -22079   -10210     3699      317   -10030   -12262   -10449   -18500 
  -23336   -12808    -8722   -18883   -23917   -25825   -49316   -67764 
  -34962    -4645   -26874   -40971   -22022   -16821   -33975   -45013 
  -31556   -13139   -23754   -47069   -45457   -28651   -26253   -35810 
  -41434   -41477   -35922   -31553   -34670   -26191     -568    21605 
   27627     6355   -27225   -30873   -15196   -20599   -36012   -37189 
  -29563   -18063    -2729    10289    15137     3785   -15442   -16480 
   -1952     9721    16490     9828    -8009   -13166    -8267   -10744 
   -9634    14839    43991    39668    10810    -3670     4347     9622 
    8891    30203    51783    37565    15408     1659   -21377   -47250 
  -54556   -34798    -9846    -8580   -19114   -15820    -8257   -17300 
  -34059   -35050   -14416    -2484   -35078   -66226   -45193   -29447 
  -40737   -37197   -35122   -37142   -18682    -7177   -18019   -17145 
   -2193    -3782   -14762   -16301   -16299   -19055   -10620    12085 
   14941   -13625   -24680    -9035   -15932   -44775   -48501   -20845 
   -4448   -18083   -25586   -15323   -13363   -14852   -14677   -15715 
    2871    27619    29494    31396    42155    34137    17120    14894 
   18667    22540    32953    38693    26125    10403     8554     6625 
   -3281    -2412    10963    22411    35565    48566    45427    35683 
   28433     5319   -22333   -30565   -33817   -33621   -25030   -36386 
  -65576   -85491  -104201  -115965   -97005   -71860   -67575   -55008 
  -18578     1354    -3662    -1629    -6151   -30634   -53951   -75865 
  -82769   -63917   -53451   -51379   -39231   -26036    -8172     7122 
   18152    34213    21082    -7260    -2467    -3937   -30362   -37100 
  -23260    -8262    -2181   -11747   -18875   -20763   -35614   -42353 
  -22399   -10033   -18310   -14764      459     2262    -4428    -6404 
    2585    16626    20758    16560     1992   -12317    -7177   -14511 
  -37569   -23603     6417    -3881   -31371   -35178   -29504   -32933 
  -27616   -14099   -19975   -32983   -28397    -8152    16722    21682 
    8526      727    -8544   -16411   -14064   -14422   -13412     1907 
   26455    35958    24854    28752    35338     7927   -14744   -17755 
  -28674   -22428     2335    14705    28001    35356     9408   -21906 
  -33282   -46153   -51374   -28503   -20274   -38241   -30335    -1810 
   10897    12793    11805     7053    -8390   -35326   -39696   -14597 
   -3468   -18272   -35224   -32024   -12313   -20899   -60242   -67351 
  -30466    -3586   -14737   -39380   -43372   -12625    27502    22732 
   -9305    -6018     4978   -11466   -19589   -16788   -30998   -42986 
  -34501   -31731   -45542   -56064   -45067   -12634     4573    -3754 
    4298    27878    26072   -16348   -59402   -45967   -12712   -23641 
  -40668   -19846      175   -15738   -33295   -18490     7767    25066 
   37354    44091    42465    41251    45713    37099     9972    -6359 
   -1352     9836    19772    21699    16541    17460    28744    40736 
   22960   -18794   -19855    12318    17064     3766   -11688   -34069 
  -42290   -42626   -54437   -47922   -17799    -8695   -16414   -18706 
  -34523   -42601   -15363      128   -14837   -27992   -37442   -40707 
  -33326   -30501   -15167    17988    22346     5316     9337     6878 
  -20548   -37112   -38021   -34299   -14203     8295     -702   -26415 
  -36894   -43669   -45407   -17367    17859    20650     -695   -21462 
  -36875   -38785   -30229   -25007    -5096    31614    48228    29818 
   -2003   -15425    -5773     7510    19286    25115    13097    -4785 
  -18304   -31117   -26981   -22106   -41589   -43146   -23816   -28871 
  -40409   -39078   -35996   -17166    11199    16645     3874    -3380 
   -2058    -3757   -11619   -17204   -21127   -28763   -33312   -26812 
  -20530   -22821   -15489     3383    14752    18577    16822     2940 
  -22875   -41006   -28786   -14266   -27783   -30215     4143    29326 
   14408    -2079     7510     5359   -26983   -47155   -30171    -8156 
   -2745    14219    35434    18087   -22754   -44590   -37901   -32161 
  -49426   -52176   -22712    -3766    -5343   -12336   -30314   -40161 
  -24331   -13433   -17959   -22027   -25191   -11186    11529     1617 
  -23688   -35158   -45561   -51274   -47112   -47007   -43803   -36043 
  -46252   -61628   -54999   -44242   -41391   -33066   -29971   -41643 
  -48506   -29342     7855    25342     9267   -22470   -48516   -38095 
   -1965     4892   -14158   -15291      -40    14862    27800    27186 
   12916     1201    -8525   -18539   -25659   -28764   -22513   -16983 
  -15267     3647    22391    13682     2998    -3919   -29673   -39664 
  -14949   -18543   -51513   -44911   -14196      469    12047    15255 
    5516     2667    11381    29187    35627    13343    -7607    -7098 
    1907     8326     3993    -2921    -1305     3847    12047    15055 
   -3832   -35104   -51954   -46776   -35914   -25597    -9801     1879 
     149   -13906   -27302   -26117   -31699   -48050   -38176    -4916 
   19874    20027    -2096   -12996     2752    13077    -2417   -28472 
  -36709   -23040   -13397   -11256    -3392    -1221   -14389   -26176 
  -21037   -15364   -31099   -46179   -32499   -11130    -9981   -19022 
  -20115   -16444   -13882   -12205   -13054    -6107     9560     9741 
   -2641    -6816    -6654   -10311   -18570   -16653    -1594    -6785 
  -29488   -31596   -20514   -32670   -50128   -18851    29808    27862 
    4541     5437     8818    -1134    -8548   -13120   -21701   -24830 
  -22816   -20065   -13524   -15368   -19030    -2478    12285    11404 
   24694    48189    45729    23098    12577    10500     -220    -1844 
    8209    -4654   -26022   -12132    18084    26200    12557    -4140 
  -11279   -12937   -25209   -60216   -92624   -85078   -58342   -44477 
  -36228   -25690   -12754    -2716    -5023   -18088   -20603     2884 
   17170     2913    -9960   -19090   -19531    -7034   -16495   -40545 
  -45077   -30936   -12702   -14357   -27238   -15604      229    -6766 
  -23800   -44315   -42835   -11572      162    -3154    10314    15334 
    7140      842   -17178   -36813   -37381   -40613   -52315   -41990 
  -18642    -5977     6444    12555     8982    24483    35785     4716 
  -20248    -3019    16298    25724    36626    24248    -9424   -27067 
  -18218     3051     6534   -13343   -15857    -1244    -8020   -27079 
  -27189    -5474    14141     3389   -23188   -27784   -16070   -18149 
  -41465   -58924   -39988   -14049   -24977   -38491   -18314    -1576 
   -5825    -5119    -1247     7256    29265    24208   -16194   -32362 
  -20447   -20885   -26102   -26655   -34562   -28368    -2575     3511 
   -2046     8071     8630    -3623     3434    16044     7628     -402 
    8968    15720    12946     4607   -15689   -32370   -33497   -31924 
  -31862   -40470   -47690   -33712   -26531   -32394   -20012    -8245 
   -9845    -3800    -1482    -4783    -2079    -2066     5229    17844 
    7015   -18200   -26504   -19516   -16355   -15763   -13991   -16823 
  -12733     1620     2249   -15907   -28188   -19106    -3123    -1607 
  -14320   -23147   -14143     1015     2284    -5348   -12741   -23484 
  -29558   -23580   -14570    -3207    15940    25305     -913   -37071 
