Origin Time       2021/02/13 23:08:00
Lat.              37.7
Long.             141.8
Depth. (km)       60
Mag.              7.1
Station Code      FKSH20
Station Lat.      37.4911
Station Long.     140.9871
Station Height(m) -97
Record Time       2021/02/13 23:08:03
Sampling Freq(Hz) 100Hz
Duration Time(s)  300
Dir.              2
Scale Factor      2940(gal)/6170270
Max. Acc. (gal)   159.150
Last Correction   2021/02/13 23:07:48
Memo.             
[...]
   21550    21550    21550    21551    21551    21551    21554    21555 
   21553    21555    21557    21555    21552    21551    21547    21545 
   21546    21545    21545    21548    21550    21548    21547    21549 
   21549    21549    21550    21552    21551    21550    21549    21548 
   21548    21549    21548    21547    21551    21555    21553    21551 
   21550    21548    21549    21552    21554    21554    21554    21554 
   21552    21548    21546    21545    21547    21548    21547    21548 
   21550    21551    21551    21552    21553    21553    21548    21541 
   21541    21545    21547    21553    21556    21550    21548    21553 
   21553    21548    21550    21557    21558    21555    21552    21551 
   21554    21558    21555    21551    21554    21559    21566    21571 
   21570    21563    21560    21563    21558    21544    21547    21560 
   21555    21546    21565    21606    21639    21618    21522    21446 
   21474    21533    21550    21576    21627    21695    21757    21711 
   21596    21569    21579    21478    21406    21536    21706    21828 
   21929    21862    21764    21757    21521    21172    21039    20990 
   21161    21664    22008    22017    21825    21491    21398    21629 
   21677    21347    21050    21267    21782    22044    22200    22610 
   22932    22737    22059    21052    20626    21354    21810    21536 
   21494    21485    21752    22481    22460    21999    21879    21378 
   21010    21426    21451    21393    22220    22604    22463    23025 
   23421    23356    23033    21723    20696    20644    20795    21939 
   22917    22295    22093    22587    22381    21841    21264    21091 
   22263    23791    23310    21022    19842    20792    22044    22283 
   21366    19596    19171    21500    23498    22698    20913    20577 
   21389    21024    19800    19783    20216    20648    21876    22463 
   22077    21715    20652    20233    21918    23178    22174    20389 
   19338    18765    19637    22073    22933    23100    24923    25757 
   24448    21642    16566    12744    15071    19525    20676    23016 
   28232    29912    27433    21210    11459     8292    14107    16909 
   15951    20290    26634    27975    27573    26742    22230    17824 
   17679    18471    18510    20597    23407    24635    26729    28197 
   25420    22478    21991    20329    18570    18585    18256    20079 
   23332    23089    24791    30024    30052    26457    23307    18230 
   15928    15989    11845    13341    22814    24148    20349    22713 
   23874    21455    23883    26105    21061    18202    22964    25928 
   23773    24133    27400    29081    30616    29421    23373    18704 
   18800    20817    19403    17753    23128    29253    29276    25145 
   19552    15759    16432    20856    23919    22222    18538    13898 
    8267     7557    14631    23749    29021    27297    23141    22781 
   19522    11879    12741    26022    42058    47178    35780    22004 
   17435    12777     7195    12478    22479    29090    37828    39450 
   22103     4491     6055    14550    16144    15152    11017     6253 
   13081    20370    14903    13168    20530    25771    28337    23530 
   14478    17956    28719    31775    26124    15844    12061    24321 
   35731    26646    17432    23572    20272    10111    16186    22630 
   18353    14906    10789     7890     7332      284     3080    26165 
   39781    32234    24478    19284     5855      222    19441    38340 
   38619    37755    36981    31927    29107    19414    10150    16091 
   21212    18104    12251    12720    30254    40741    29633    22625 
   21862    13092     5910     6729     9679    20110    34053    28835 
    6432    -7026    -1974    10561    24840    42154    51205    44114 
   28402    20509    30432    30867    14747    19804    33983    30771 
   34901    43769    29997    10515     3278     3932    14394    23056 
   22650    28954    33228    22413    17963    26426    26654    15697 
    6982     7810    16288    23365    22828    17955    21446    36518 
   45904    47490    52346    48673    25862     5297     7310    16619 
   18204    22595    28351    21109     7869     7428    18244    17835 
     887    -3334    17916    30877    20764    24692    51680    61078 
   48311    33504     6323   -20948   -19688    -1969    15961    24752 
   19442    26197    49065    55060    46762    33493     4547    -8801 
    9974    20963    21890    25486    10562    -8390     6280    39989 
   54069    43594    21629    -2671   -12833    -3490    10732    25400 
   40932    43659    33459    33109    37336    25252    14059    15071 
    9722    -4300   -11895    -4769    15154    41002    55574    52085 
   45745    32412    12205     5094    -4965   -27485   -28456    -1094 
   30676    54017    60229    41040     7242    -4797    18259    43045 
   40001    11724    -1537    27104    51327    43743    42807    44818 
   21688     8412    18383     1427   -27310   -11636    19917    29052 
   27903    24077    26647    26909     9443     1595     1953    -4080 
   18292    55277    53380    26963    12912    11697    17347    25709 
   25927    22949    31078    42913    46530    43719    31572    10040 
   -3760    -5199    -8469   -10834     6226    43113    65393    45351 
   10952    -2617     5238    19994    23362    22873    30939    33756 
   33752    36625    24751    -3770   -15162     9019    29576    25891 
   23157    21360    15654    12343    11098    24837    46844    56643 
   67681    79552    63366    20702   -13646   -13159     7411     7885 
   -6620    -7796   -18316   -31861    -4096    26800    13999    -3934 
   18431    63448    91377   109121   112948    80877    40845      -66 
  -47673   -67784   -54466   -24261    15527    47278    47447    20010 
    2963    -3712   -17359    -1010    45730    69501    71084    80453 
   85609    56436    15299    12197    20388    -5059   -31330   -24699 
     -54    20340    30917    39962    47271    51278    63553    76816 
   59286    17977     6170    15558   -10017   -48874   -58070   -40133 
    5550    53979    60633    32442     5273     5390    25558    30156 
   34085    57122    63441    59900    67189    59946    36340    14510 
    2996     2047     5036     2017   -11234    -8969    20736    50679 
   55789    29066     3458    11718    26110    15265     -548     3158 
    8819     6274    16622    31016    22041     4435     3930    13254 
   18917    13030     7049    32489    69188    76359    63886    54785 
   54954    35268    -7593   -17389    -8489   -18571     4457    58571 
   61459    23466     2543    -6577    -3475    15958    25788    31726 
   32996     2244   -26121   -11375    10719    15359    21677    23715 
    8610    -8755   -16123    -1094    38130    62938    63970    64360 
   51222    29934    23387    16460      102   -14279    -3694    33469 
   39383    12427    23827    57405    52360    19652    -7607   -19063 
  -12539    15059    48812    68750    83001    74724    23071   -26478 
  -58386   -89164   -58395    35215    65888    25968    33972    73695 
   59509    36969    50254    43724    17422    21626    33985    26709 
   16233    -1421   -15557    -3968     2317     2721    29388    47583 
   32783    25972    35552    31693    30272    49612    47032    26689 
   46599    62457    21756   -13352   -16809   -18326   -13292     1304 
   12202     5368     2585    29077    43144    25541    21342    45674 
   49892    18814    12549    27086    28837    48349    52678    10601 
  -11106    -1751     8684    33484    53040    38175    16728    13737 
   19598    27863    30562    19768    10414    11612    15889    15112 
    2176      138    17967     9443   -15756    -9944     -740    -6247 
    7634    37322    49496    40019    42069    67636    74472    52466 
   35814    20390    -6032   -19012   -10290      -47    15766    36825 
   30564    11884    25932    45626    23226    -7602    -2521     5314 
  -11706   -19897     3898    33704    43380    41780    24484   -21090 
  -59024   -56876   -28315     8073    40095    56102    65148    83603 
   93566    80508    55466     7910   -42983   -41734   -12559   -10526 
   -7543    24237    48027    53967    57077    36782    -5662   -40456 
  -49800   -14690    34749    43481    36167    49638    56518    34824 
   16035    23176    33614    30736    12256     -306    10977     5226 
   -4814    24679    40402    27262    34922    51814    58611    50381 
   21566     3884    14139    34607    52166    52304    28580     3812 
    8897    19424    -5602   -29504   -22817    -6794    16551    30812 
   33577    57035    74677    61716    52022    39384     4788    -8110 
   11184    17810    25455    45232    34669    22385    39823    37233 
   21742    31261    37214    25221    22699    47156    70110    48605 
   13961     8012     4336   -14230   -25759   -13250     6341    19462 
   45211    64966    58135    55049    50101    37415    44415    40784 
    8027    -1749    20682    30798    19577     7000    -2234     -140 
   15122    23639    32373    49990    53305    39538    17119     -426 
   11817    29692    28976    29428    20919    -5998   -22995   -17251 
   -7574    -8200     2466    30379    41718    29700    18719    22180 
   35049    42769    34049    20639    27530    34123     5151   -22124 
  -11676     8177    25793    41212    39169    32456    32020    37317 
   51789    49869    17012   -13821   -12279    -3857   -20824   -17904 
   24023    45505    35016     8186   -24957   -28647   -18015   -17621 
   12825    64502    87718    93485    84254    47290    18946       10 
  -31701   -39196   -21880    -6221    23780    44697    42887    58341 
   59809    24375     6191   -11406   -40980   -32286    -9367     9274 
   43425    51494    29784    30062    33788     7269   -15531   -13324 
   -5390     1788    -3060    -4881    40177   100177   125005   124070 
  106092    79491    53451    20273    -6856   -10044    -6975    -4232 
   25514    61328    55493    39876    46330    26243   -22790   -29706 
    2968    21779    34471    53793    67646    75276    59493     9847 
  -42075   -65835   -51179    -6759    21287    10690     6937    27761 
   41045    35005    20652    18461    29869    24437     7296     7671 
   13779    28461    79982   121976    83755     7860   -21420   -15280 
  -21546   -31383   -25867   -18512   -15326     -752    27167    53588 
   78688    99215   108882   114993    84376    17644    -5219     2489 
  -21443   -35909    -9901     8506    -3574    -4404    32280    53098 
   20989     3545    31919    37894    15779    20887    57505    81790 
   65504    60255    98480   120915    99793    62550    32240    17379 
   18915    40852    70544    88241    94729    91404    80278    74928 
   82642   104912   118960    79718    14076   -14849   -27853   -38800 
   -9944    34670    61187    88789   100674    69476    39531    47853 
   65019    61258    40793    22458    14339    11033    11547    16649 
   13751   -17454   -61045   -77045   -62246   -38468   -17332     9847 
   47325    66650    33422   -32813   -60559   -34378     -340    24834 
   42983    39839    -8215   -69027   -74607   -48095   -43566   -49503 
  -38979   -15964    -2346     6880     9410   -17559   -44082   -34211 
   -9618    -1902    -7273    11570    57805    80881    58867     -859 
  -74875  -108049  -100555   -99468   -96403   -63827    -7746    38831 
   44175    19740    -2152     1414    34565    64602    75968   100585 
  112702    57718     3016     -944   -26224   -71442   -74932   -39093 
   17439    74240   100622    72354     6577   -41854   -66240   -82768 
  -81147   -71678   -60172   -41253   -38209   -55091   -64064   -57870 
  -58328   -77548   -89684   -67499   -20918    29766    69694    80940 
   81089    97657    96695    62345    36825    30683    31271    32982 
   41538    82673   134822   139386    98831    72047    93068   131872 
  161184   178981   166143   150645   164335   156908   131572   140885 
  159675   145440    96937    40309    -7426   -39916   -28567    26743 
   78079    92414    93327   102412    92117    83077   109160   117052 
   87784    54810     4070   -46632   -54760   -48751   -35744     7283 
   43591    54333    61451    52682    22611    11598    43429    83882 
   90102    77412    86305    98147    75334    45232    38978    27505 
  -15176   -58292   -80410  -127803  -199267  -220477  -190906  -151278 
  -94977   -22981    23705    17726   -20628   -66081  -101061  -115992 
 -121087  -103053   -52395   -14209    -4847    19412    51886    55226 
   60463    82849    79340    49113    29002    38790    67182    82220 
   80839    71825    43977     5064   -24981   -53213   -96856  -129374 
 -101109   -35860    -1872     -823    14376    48128    54695    23522 
   -6042   -19388   -19556    -6134    -4297   -27544   -56579   -73471 
  -54599     5586    66340    91926    85226    59137    23777    10509 
   25450    21324      648    18507    77612   121045    97272    29088 
   -7168     6392    24366    35265    61893   100256   135566   172228 
  213005   248318   271628   286021   289987   268997   219951   157664 
   93160    33966    -8239   -15113     9919    31481    44812    71590 
   98058    83229    14669   -59834   -93695   -97630   -98774  -108774 
 -125331  -139840  -134862   -91473   -31380    20754    77572   117000 
  101685    63739    48695    56341    76877   121906   210923   308142 
  352450   355565   337734   294700   257402   231379   207369   204519 
  188389   131142    79607    52439    41019    53820    81169    94162 
   81223    68733    65497    47272    28064    24994    12139   -40232 
 -132151  -197125  -186244  -162285  -150239   -98233   -43722   -37076 
  -26125    15210    53444    79423    92188    85663    74995    77988 
   80033    51041     6386    -2356    38507   105272   155630   135514 
   55372   -17614   -65696  -113702  -165367  -203936  -218920  -213907 
 -187507  -146368  -125696  -129381  -127101  -129973  -146236  -150157 
 -159995  -196165  -208694  -161232   -94084   -56670   -55536   -85431 
 -126645  -140149  -142291  -172321  -203819  -201671  -167678  -111375 
  -51244   -18818   -21902   -18030    35048   122131   188146   196036 
  145037    47976   -55336  -114220  -125095  -109060   -82234   -49203 
    3707    56963    84161   109476   137984   138212   102701    35845 
  -70105  -172670  -186822  -127784   -67180    -4509    57316   101372 
  148553   191615   211977   227090   227847   182819   110980    42898 
  -38599  -130001  -171163  -133749   -59472     9810    85391   158605 
  159031    77961    -2846   -27051   -19208   -36179   -74744   -78587 
  -18407    76628   149983   187072   204571   195412   162424   144349 
  152721   153513   136091   116160   100252    93318    91200    81462 
   44089   -21957   -63679   -59006   -39694    -4808    41245    52687 
   31515    24942    31522    52043   119068   183892   195268   203845 
  225679   209341   142204    73358    47660    30125     -178    23849 
  108489   175835   187602   140048    46747   -41329  -103914  -149855 
 -146792  -108749   -93274   -65489     5276    56952    52079    17630 
  -20589   -66656  -113239  -145175  -161167  -132271   -57535    16145 
   83280   144791   175158   164419   122209    69097    16601   -26028 
  -59052  -102254  -133555  -113743   -47826    28444    65708    65914 
   84873   136437   188518   212352   192270   120883    10946   -91445 
 -130852   -90355   -13444    48143    85023    96482    76575    42233 
   -2038   -73967  -156149  -208701  -210343  -173265  -128742   -79947 
  -16231    56019   101285    76010    17302     -796    14403    28229 
   36738    20617   -17910   -11176    57295   121006   151369   138346 
   62538   -29603   -83174  -110827  -135303  -147804  -136680  -101716 
  -49202    -2066    34695    78671   104884    98609    90180    65438 
   11803   -36072   -77100  -117933  -130375   -96095   -25643    46829 
   80599    63715    16913   -32760   -50645   -15238    42727    81630 
  102611   132583   168097   188935   216348   261998   290011   273379 
  218041   142134    57702   -16763   -69084  -100485   -91825   -34377 
   52195   141230   198137   208305   184234   141137    80187    -7555 
 -103550  -166542  -169073  -106427    -5877    77480   108146   100580 
   69047     5229   -63691  -101008  -116425  -102847   -23549   103087 
  206191   231399   199673   190347   208476   191787   143813    79560 
  -20629  -121408  -178194  -214724  -252011  -264551  -221656  -127031 
  -27812    43923   102697   159869   193361   172750   121565    90033 
   71458    60819    97037   181047   259233   281084   241081   158033 
   40731   -75894  -150181  -194230  -224966  -226819  -191730  -139498 
  -94099   -52986   -20851   -22272   -26476    12949    55579    50141 
   20001    -9010   -27795    -3318    35572    16439   -27058   -43480 
  -57037   -48059    10902    62849    81655    90520    79564    69634 
  102329   144705   158132   166102   174259   164450   170176   200192 
  202690   187023   179099   141632    80069    30167   -39058  -117794 
 -131430  -104850  -111239  -136598  -143061  -132660  -124835  -136677 
 -163299  -168975  -135252   -84891   -31195    16442    26932     1205 
  -12032     9605    44270    79348   110887   143824   198066   256797 
  289837   302483   284102   214795   123115    47789    -4426   -37056 
  -47339   -42322   -45112   -66304   -93158  -114552  -126050  -111600 
  -70353   -43424   -58848  -105886  -170034  -222509  -230920  -204544 
 -150345   -60391    13064    22648     4339     -196    28684    77696 
   90971    55157    -1051   -51446   -68897   -49982      306    67979 
  110259   114897    86711    11257   -77706  -120045  -108605   -75126 
  -49285   -34314   -29147   -42039   -53147   -36738    -7226    21206 
   58521    80353    47121   -20051   -67053   -63679    -7994    84814 
  186936   261337   285062   262428   199756   105678    15828   -46562 
  -87216   -90725   -58400   -35344   -25401     2632    38193    56273 
   58165    40376    -3495   -43881   -46655   -22501    -9977   -23271 
  -25675    10587    63042   109004   134592   128796   106407    92712 
   94723    93567    78039    63658    53053    32702     6944      467 
   21985    45747    73242   115912   123178    84673    54362    42191 
   40669    41725    35235    37064    42513    28599     9093    17295 
   32081     2015   -56253   -99711  -104479   -49600    39811   117595 
  161962   165575   157276   168607   182498   182990   183190   176673 
  136814    67652     -750   -49876   -77668   -79728   -58223   -51834 
  -72831   -70135   -36136   -11254    19010    90932   178459   237982 
  259045   233693   171780   100746    28897   -17400     -558    55294 
   79257    45376   -14524   -71602  -100730   -84928   -51176   -36926 
  -47332   -74927  -106595  -118799  -109643   -85123   -40261    14731 
   68486   106827   102684    58038     9063   -22206   -35567   -19279 
   21502    51119    58073    38864     2937     7776    58125    84398 
   80534    82206    63975    17592    -9370   -14859   -25045   -26947 
  -18952   -27863   -52926   -70402   -69213   -63493   -60881   -34687 
    2059     2121   -18829   -32491   -41367   -33306   -11178      982 
