Origin Time       2021/02/13 23:08:00
Lat.              37.7
Long.             141.8
Depth. (km)       60
Mag.              7.1
Station Code      FKSH19
Station Lat.      37.4703
Station Long.     140.7227
Station Height(m) 410
Record Time       2021/02/13 23:08:06
Sampling Freq(Hz) 100Hz
Duration Time(s)  219
Dir.              1
Scale Factor      2942(gal)/8224139
Max. Acc. (gal)   64.684
Last Correction   2021/02/13 23:08:06
Memo.             
[...]
    7261     5607     7036     6964     4534     4441     5996     6339 
    6446     6979     7098     7870     8313     5902     3948     5521 
    7327     7240     7754     9439     9697     8907     9589    12501 
   14941    13126     9256     6281     3018     1355     2420     3383 
    4776     7250     8730    10227    12097    10925     8409     8672 
    9225     8726     9494    10334     9985     9734    10677    12279 
   12059    10368     9675     7372     4337     6116     7074     4743 
    6466     8143     7812    10044    11777    12258     9146     4064 
    3577     3361     5413     8151     2814      973     6123     8483 
   11203    12064     6843     5350     9540     7897     3164     6907 
   13347    13186     6870     3991    11299    12143     4641     8035 
   11458     7140     8707    10601     8699     8378     4363      -55 
    2974     6083     6318     9270     8991     3751     4823     8321 
    4118     3129    11340    14197    10292     8260     7512    10833 
   15753    12241     5221     5325     8735     7635     5096     4182 
    1425    -1038      176     2685     5221     5965     3597     1173 
    1570     4699     5811     5861     8870     8301     6745    10219 
   11445    10500    10480     9718     9418     9663     8110     5539 
    9755    15654    10076     6191    13547    14550    10428    11456 
    5508     -700     6667    10827     6230     6447     9643     6770 
    5146    10493     8777      730     1854    10413    17122    17092 
   11574     6297     4699     6079     5825     6068     7947     1714 
   -5309     3046    14939    10258    -4105    -5220     9047    17973 
   12879     4105     4175    10891    10935     8737     8980     9950 
   17918    16465     3450     3400     4575      -91     4499     9624 
    4797    -1551     3767    10571     9269    13406     9836      -24 
   10041    17929    11923     9108     6419     7669    12625    11794 
    9888    12035    20487    22153     4456    -6507     6471    17544 
   11751     5028     6489     7210     2149      436     6558     8533 
    6089     9896     9987     3727     5015    10859    15643     8942 
   -6111     2242    19492    18640    13689     6470      793     5683 
    9004     5505     1949     2767     5589     5684     7607    12432 
   10453     4149     6339    12318     7032     5491    21066    16976 
   -4618     2789    10467    -6012    -3365     9027     2802      116 
    3276     -575    -3666      899     9297     7994    -4374    -2216 
   15784    14675      429      623     6181    11915    17194    11835 
    6353    14432    24210    14507     -588     4430     7056     3002 
   13400    14550     1668    -3435     1931    17028    18261       82 
    -318    15340    17884    16590    22558    15228    -1297     1113 
   13740    17352    13809     2359    -2847    13825    20254     4179 
    1371     9887    11529     9344     2347     1688     5316     2259 
    5634     5416     2953    16220    19252     7830     5514     4036 
   -2633     -584     5636     2664     4144    10114     5517     6249 
   10543     3839     3285     8001     8857    12843     8689     -167 
    3850     8723    10365    14223    10439     6982    12372    12401 
    8668     9359     5541    -1131     3385    16322    21506    17447 
    7704     -799    12341    24177     7020    -1522     8862    13227 
   10287    -2158    -4891    15117    21478     7026     1895      842 
   -1993     8899     9836    -5233    -1004    12985    16575    11804 
    4560     9575    19318    14515     2516     4379    16644     6475 
   -9759     8796    19936      137     4270    23071    13694     2259 
    1683     -583     8171    12405    -6604   -12182    12000    21201 
    5481     2077    10281    12070    11850     8016    -4523    -5346 
   11456    12569     -984    -2080     9606    19291     8581    -3515 
    5625    10656     7353    10679    17127    18640     4654    -3088 
   14064    16321     2471    17059    27164     3442    -1270     8434 
    -981     -823     5266      886     5790    11362     8471    15006 
   24730    16970     2550     5208    11796    -1124   -13259     -140 
   10349     1517     5104    13991     9331    14125    25674    21173 
    2448    -6567     8162    19921    14671    16312    16163    -4510 
  -13250     4441    17373    11210     4270    11496    11917    -2516 
   -6574     4696    18875    18543     7487    11298    13263     6143 
   12445     7161    -5864     8598    12711    -6959    -6069     4411 
    -760     2155    16675    10527    -1193     9817    19026    19273 
   22203    12066    -1225     9587    22176    10018      160    12143 
   15016    -2911      186    17983     6251     1980    18612    12590 
    3781     2346    -1957     6141    11269     8170    10195    10247 
    8456     6096     5256    11925    18951    17552     6690    -2207 
   -2785     4928    19161    14559    -3622    -4500      302     5925 
   18449    16838     3850     6008     6870    -9963    -5644    14413 
    7963     -553     7998    10504     8262     9535    12229    19163 
   19903    16546    15159      743    -6189     8829    22482    17867 
     537     6427    16066    -1899    -1328     9910    -2450    -3792 
    8679    10868     8100     5687    12124    15676    -2636   -10909 
    6743    14266     7231     3622    -3061     2178    20401    12916 
    1880     8521     2354    -2111     4870     8468    13859    14480 
   11240    13965    20198    20178    13324    12968    10810     9440 
   17374    11047      -98      -27     6408    18073     8085      467 
   22248    25470    18220    13514     3291    13085     6183   -19580 
   -7742    10284     7086     9001    10677     6347    10835    12843 
    9976    16109    11172     1409     4078    -1760     2227    22665 
   19002     3206    -3554    -3879    13571    20245    -2822   -14184 
   -6454     2425    10042     8568     2002     2620    14619    30237 
   18882   -16546   -15827    17236    18833     4672     9512     6498 
   -1575     7194     8079    -4336    -1262    10589    11155     5400 
    2542    12469    22268    14493     7303     9266    11943     6004 
   -8248    -9745     1240     4911     1973    13350    38242    28188 
  -12183    -4391    32054    30420    11500   -10559   -20339     6062 
   18522    -6002   -12487    12640    22893    12768    10173    10905 
    4696    -4045    -5648     2932    12665    16391    10993     5557 
   16811    23149    11784    16513    20309     6493     9545     9101 
  -13635   -14520    11685    20194     2158    -2666    16772    15866 
   -1116     8856    16212     3755    12768    28485    10505    -9463 
    5175    20575     3580   -18875    -5035    18682     8438    -3242 
   -2258    -9543    -6212    17077    29058     5699   -14447      804 
   11711    10056    14262     9877    17591    31013     1348   -15805 
   24791    46651    20123     -679    10405    21141     6759      279 
    9132     4075      189     8037     5232     2759    20746    27530 
    7381    -2566     4472     5219    -3404   -11848    -7746    11329 
   25023    21186     8972    -6320   -11416     8513    27646    10829 
   -8264    14382    29520    10377     6435     6937    -8779   -11415 
    1849    16114     9991    -6338     5613    20556    12584     2315 
   -6072    -9744    11192    36289    17780   -12533    -4086    15256 
   22933    23484     4202   -20895    -9636    18181    13574      985 
   14345    26882    21994    14338       37    -4120    17955    18999 
    -182     8321    12266    -7215    -5475     7751    11510    14570 
    9207     4696     2030     -693    17154    24386    -1026    -1092 
   26890    10755   -20482    -3612    13676    13433    14192   -14685 
  -31788     6060    26149     7430      175     3750    14193    22349 
    9826     3712     7975     9779    17135     7804    -8518     6081 
   16502     5830    10650     9112   -10855    -1490    28560    31168 
    7326   -12330    -5121    19899    26574     6461   -10878    -7171 
   10925    17293    -1476    -5574    15376    16140    12663    30364 
   20896    -3896     1918     5798    11018    20872    -2315   -21617 
   -5360    20376    17915     2902    24366    24559    -6551    -1838 
     699    -1512    16544    15013     9109    18517    28696    29196 
    5069     2392    30010    12615   -20769    -7645    10779    -2619 
  -17074     1059    14427    -6054   -14045    -6883     2438    26019 
   31565    20896    19805     9756    -2783     6146    22535    20316 
    4920     1109    11566    17973     9639     3096    10940     3959 
  -12383    -1532    -3773   -16047    16367    28948    -8397   -10285 
   19487     5499   -18705     9888    35680    19165     6910    18058 
   31851    17956    -6380     5404    13817    -8656    -2218    14256 
   -8363   -11905    13182     8911    10025    34765    12441   -23701 
    2995    24007      660    -9913    -5825     6396    27190    23851 
    3179    14686    36067    18368    14010    30252    19612    18620 
   14315    -5406     8176    14951    -3898    -4789    13338    22077 
    3038     4266    26419     5548   -10509    14956    20281    -2536 
  -16939   -14283    -2778     5022    -1804    -7542    12573    27795 
    7813    -1506    20652    14770   -15419    -3557    31580    33643 
    3295    -2849    31318    32728     2164      818     3673    -6318 
    -380     8164    11483    12690    -2951    -5385    13510    17448 
   11018     -710      287    20675    12222    -7318    -7361    -7754 
    6540    24445    15770     1313     2631    18999    20151    -4405 
   -9734     2389     7222    15804    17712    18165    19084     8251 
   18800    26751     7742     7150    -4455   -22464     8247    20513 
  -10180    -3013    32184    22465      101    24649    26634   -11747 
   -1803    22239     1825   -12287     2844    14692     2604   -16497 
  -15093    -6794    -4981    -3578    -8356   -12968   -13932   -24592 
  -27907    -4989    10548       17     3349    22520    20332    15421 
   21671    19897    27190    39263    39656    49527    56866    46314 
   33497    32239    41584    32989    18874    19518    -2519   -26291 
  -10941   -14728   -57105   -64655   -25543    10771    22218    20020 
   33291    49000    27498    19909    52412    42915    -2995   -29764 
  -39816   -31594   -18805   -11122    -6320   -11632    -5926    10314 
   12679    27376    58487    39341     7506    43710    61497    30591 
   23367    24200    20507     8496     3650    30257    37268    27584 
   27588    17483    15322     6172   -21082   -17536   -12802   -24522 
   -1094     3676   -36262   -34632    -5624    -6832   -25146   -45449 
  -51290   -34815   -21278   -14658     -278    -1850   -18577    -6404 
    5173    -5120     4792     2516    -7398    14388      977   -24773 
   -7481   -18698   -50259   -46854   -35841   -15012     8463     -830 
    7591    36278    12870   -19406    -7164    -3766   -21321   -12942 
    3149   -11099   -30235   -23706     2683    29816    39268    37062 
   52435    77955    78718    71986    72937    50953    29851    31059 
   17458    -6783   -23803   -15399    27174    44369    23190    18654 
   25637    19707    32682    67693    67192    29612    -2204   -23271 
  -28327   -18611    -6602    21240    55312    54155    12044   -29116 
  -36220    -8892    18316     9941     1772    21250    42969    68874 
   82575    53883    38635    70972    56250   -10396   -17842   -12671 
  -47952   -44640   -34403   -55117   -35827    -1707     -726     4718 
   23881    37638    35500    16514    -4920   -24297   -25652    -3708 
    -670   -24879   -45177   -40999    -4788    28479    25323    12370 
   14785     7277   -22682   -43317   -25552    14396    13926   -19264 
  -10446    27359    38988    31203    19303    -2452   -10505    -5089 
  -15782   -20775   -18326   -24583   -16140   -14737   -35502   -38855 
  -46287   -61678   -32764    -6170   -30746   -31345    22071    57094 
   74806    93615    77573    75226    93066    70110    49823    50098 
   40625    31887    23922    17149    -4278   -48352   -50564     1382 
   20439   -10385   -22678   -10439    -6296     3461    11803    13730 
   47183    69897    43858    38605    65719    62563    24179    10268 
   19831    -9980   -43202   -43799   -64416   -79745   -60502   -56774 
  -43366    -1680     5028     -129    17362    14283    25185    76503 
   91812    70575    50730    16605   -11992   -13294   -11049   -28896 
  -42747   -19701     2809    22599    64951    71486    28987   -10203 
   -6166    36801    37192     -288     8240    18392   -21415   -45758 
  -31031   -35938   -52465   -34596   -27508   -43074   -11948    46311 
   54282    21411    24815    57501    56104    49026    51287    42534 
   33988    -8463   -53597   -44801   -48624   -74879   -87281   -93852 
  -66189   -28804   -31510   -18851    27537    43636    35386    40211 
   36494    -8309   -53109   -39172   -16829   -21126   -17118   -21865 
  -43229   -60654   -54445   -25180   -25452   -17443    59445    98664 
   42296    -5328     3256    33035    49744    44246    64397   103535 
   89375    53245    47351    52424    63136    44739    11651    57159 
  102348    66052    63290    96385    80427    57140    41280     1044 
  -29593   -46197   -88257  -116982  -105507  -106227  -103391   -81754 
  -97437  -136332  -163501  -173230  -139743  -105798  -124286  -117170 
  -53060   -29432   -55904   -58657    -3146    85249   137397   154001 
  170220   139903    68108    48023    81831   111295   124953   124781 
  126220   122624    86946    67398    79744    39901   -36988   -58985 
  -26114    29451    87166   113443    91997    52126    27762    11821 
    2157      881    -3450   -16067   -38059   -29768    28804    65641 
   50881    44830    63963    56941    18320   -21940   -75933   -90795 
  -17856    45796    64039    71388    63346    58623    29947   -16181 
   -9990     9753    13147    33656    30562   -16279   -22315    38774 
  108059   146919   103133    19674    -2570   -29035   -71883   -74401 
  -94906   -93139   -38557   -35509   -71324   -85364   -64751      467 
   47640    36710    19728    25645    51954    76596    62814    46126 
   61249    65904    58646    54483    33874    25149    35326    31407 
   49711    88834    71498    42587    74781    75324    22400    11449 
   27311    52398    71622    32090   -22342   -67566   -88269   -32840 
    3627   -50531  -107109  -103682   -26743    37535   -11938   -55919 
  -12669    14014     8865     1944   -25007   -50191   -55701   -50306 
  -49453   -68523   -58530     8569    42955    31210    47355    40325 
   -3223    25436    96319   106710    87004    88740    91906    65632 
  -11659   -97808  -110292   -57098    -8100      -54   -23368   -49188 
  -30960    17275    19430    31868    83319    60451    13676    30150 
   49968    57496    46834    35819    54450    13725   -39048    20467 
   85047    79438    89009    97372    27730   -62581   -94458   -93846 
 -104287  -129324  -143317  -136348  -122804   -91274   -13347    67404 
   51776     1868    29679    52513    34690    54738    79142    38199 
  -19653     -726    49403    21589   -38904   -62050   -62251   -23315 
   26036    28568    14607    -1008   -17366     -108    43895    63802 
   60794    89519   113020    59813      788    33189    84462    49044 
   -9489    -5895    17288    21128    49265    88654    59366     -357 
   -3028    29739    42615    14592    -5964    29980    39559   -11992 
  -49982   -72864   -70198   -40409   -46383   -37879    45262    93946 
   45030     4072     2544   -11902   -28732   -41400   -36969    -2041 
   29791    37166    27940    49279    93105    77687    42715    42769 
   54603    88704    75955   -11007   -47148   -26438   -33816   -66060 
  -84233  -102068  -122746   -82031   -16310   -28860   -67864   -38010 
   14314    26719    42800    61258    42641    41526    43519    -4214 
  -39704   -68794  -128164  -142396   -81877     4228    85322   115331 
   75544    60633    78834    19530   -48401   -26963   -17135   -47750 
  -50521   -58255   -38824    54905    67525    -6771    24092    97746 
  104566   104901   106587   110803   118763    95770    58877    20171 
  -22279   -53138   -67489   -46554    22666    99713   130148    93249 
   42508    37061    32444    -2346   -14696    33794    89179    60561 
   -4282   -10903     9163     8082      376    19795    47196    48757 
   73010    88322     8905   -71946   -74036   -64331   -79810   -96176 
  -93347   -74160   -42774   -48039  -101794   -87453   -35546   -52056 
  -46730     8708    24811    21972    50060    61257    16819   -26865 
  -36894   -57152   -99401   -78914    17770    31641   -55456   -75442 
  -12768    19175   -11080   -33276    -9884    20189    50117    57869 
   25023    23087    51688    69257   102006   107477    80850    84956 
   77723    64477    75165    48633   -14931   -62773   -49368    15319 
   45578    19989    27537   113262   135333    27109   -26530    11637 
   31336    27816   -34218   -86601   -19491    31249    17772    34657 
   35413    -4375    -2878    53489    51206   -37274   -69553   -53478 
 -103307  -156606  -139877   -92705   -65361   -34140    47823    75343 
    5659   -13240     7915    -8159     3831    46157    44413    21327 
   26374    17008     3441    20391     4014   -16281     5763    17604 
   41678    50129     6829    21855    68254    47887    17618     -972 
  -18470       47    19726    14646     8506     5050    -3824   -28155 
  -15218    24529     1089    -8395    34036    -9717   -71749    23210 
  119696    36791   -45027      364    37937    36316    35797    -2536 
  -23653     6315   -17046   -53385    12803    65107    13447    -5822 
   14960    -3774    10477    42156    42568    92975   132844    57578 
   -3337    23392    18697   -12166     7230     4600   -50471   -60049 
  -18260     -916   -16669   -20193    17606    42363    16868    19322 
   37795    -5973   -35590    -6704     6431      149    13285    29018 
    5451    -6457    45719    69950    45735    34485     4217   -15639 
    7631   -32292   -84469   -29014    -6014   -53304   -31758      148 
  -10288    -9324    -7923     4742    14270   -12270   -27715   -16299 
   -4428   -19870   -43191    -9518     9775   -39216   -25675    47016 
   54685    36285    41899    30800    18130    28559    20104    -2174 
    1713   -11411   -34476     9728    39181      807    33219    85102 
   30673     8473    37956    20968    47201    50522   -72532  -115447 
  -18814    39069    25351   -13844   -36570     1231    49134    42381 
    5378    -4525    12926     9882   -14762   -41696   -51753     2782 
   72044    51159    -3893   -10189    10987    57369    75384    37450 
   40036    64224    50430    16788   -25335   -36247   -27372   -39249 
  -32880     9571    36833    20191     9000    11507   -29128   -39380 
   51035    92823    16880   -35841   -30493   -26454    -7630     5382 
  -15846   -10200    23328    32039    24147     8163   -10697      486 
   23410     7570   -12244      972    26357    64704    57780   -19156 
  -31151    20390    19823    32518    78259    38603   -34909   -28827 
