Origin Time       2021/02/13 23:08:00
Lat.              37.7
Long.             141.8
Depth. (km)       60
Mag.              7.1
Station Code      FKSH12
Station Lat.      37.2169
Station Long.     140.5703
Station Height(m) 470
Record Time       2021/02/13 23:08:09
Sampling Freq(Hz) 100Hz
Duration Time(s)  227
Dir.              4
Scale Factor      7845(gal)/8223790
Max. Acc. (gal)   344.480
Last Correction   2021/02/13 23:08:09
Memo.             
[...]
   31387    34379     6926     6224    14490      230    -7392     9967 
   17455    -3661   -16762    -9158   -17756   -35046   -17822    13103 
   11335    -2178     6801    17450    18382    30676    46010    42703 
   25836    11167     7877    14094    16051     7489     7674    16158 
    -190   -26777   -22905   -10139   -16978   -16887    -1217    -3034 
  -13324     3661    25882    21636    13092    17275    17209    11250 
   12966    16035    15859    22131    24214     9841   -12518   -31149 
  -28521   -13830   -18512   -20216    12622    40316    27850    19851 
   44919    44199    -4139   -30087   -11747    -5049   -23267   -19083 
   16206    34167    25546    18704     8938    -3218    -8576   -18447 
  -21298    -8784     4873    19993    27839    21967    14388     6658 
     596    -4649   -10840    -5597    10802    23152    22605    12947 
    9900    17388    15138      473     2768    21664    17177   -10629 
  -14154     5868     7823     5401    18269    17435     3771     4807 
   11475     3294   -10331   -10150   -10238   -25254   -29613   -13875 
    5043    29106    51140    47532    21924     6420    15456    16789 
   -4433    -9252    11412    23672    22690    23938    21957     8473 
   -5780   -16526   -40095   -69426   -64849   -28084    -2556    10694 
   32954    54193    58163    41373    21957    20665    20806     7271 
    -348     6443     9937     -646   -11549    -3581    11867    11133 
   -1518   -11308    -9845     1040     1840   -10816   -11233     4079 
    8878     4041    14396    35815    43594    33363    27001    35056 
   23588   -27691   -59705   -30592    -1208   -10790   -15049     3365 
   20595    28567    19753    -5798   -10901    11260     4974   -22266 
   -2654    28964     7904   -16691    -4399     5738     5277    15795 
   25254    21301    23151    39823    44774    17930   -19427   -33544 
  -22177   -13656   -22840   -19882    19144    55647    50248    25122 
   10397     2710    -7183   -17189   -14909     -160      866   -14639 
  -12943     6999    10851       51    -1885     3385    12460    19924 
   13775     7885    20916    35581    20919    -9786   -14324     6948 
   16567     4480    10625    42037    38973     6709     6581    16830 
   -2193   -23072   -30403   -39847   -39258   -18490    -3346      456 
   13879    32273    37960    28035    13009     8893    12544     5560 
   -7508    -3423    14265    21203    21057    27743    27768     8475 
  -14553   -18072    -9625   -18080   -33370   -22859       -2     2351 
   -6399     2533    21990    31599    39444    42315    20372    -4926 
   -2994     2988    -9027    -7480    18566    29875    14202      922 
   12268    30069    17251   -13637   -20052    -9818   -18199   -33111 
  -15229    20052    26427    16640    22709    23346     4791     1773 
   16002     7128    -5248    24942    52799    26635    -2346     5834 
   10667    -9008   -28309   -34119   -36166   -37611   -29829   -15406 
   -2430    12480    28035    29053    17163    18152    35137    40317 
   29701    32871    49315    44204    23346    18686    22501    12545 
  -14373   -44548   -52208   -38813   -37012   -44433   -27689     4684 
   11996    -5734    -1043    34998    46758    27565    29810    42720 
   22113    -5688     -101    12309      908   -13732    -7248    17532 
   33408    23977    20807    36454    29543    -2547   -19836   -27317 
  -46253   -55414   -41234   -25494   -11940    15259    43823    53407 
   48772    34191    16092    12684    17027     2663   -23434   -20383 
   17771    42128    27950    14866    33470    42361     3411   -36242 
  -36553   -37813   -54545   -44676   -12799     3619     9197    20703 
   34701    44690    41482    21334    10457    26642    29906     1129 
   -8650     8704     3264   -21955   -28093   -16929    -9177    -6180 
   -5402    -4976    11994    36397    28495    11522    33836    52965 
   18264   -23360   -15946     3661   -10658   -14130    15988    25714 
   17879    20838     9726    -6968    -5054    -8100   -27349   -43178 
  -31459     2695    11853    -1744    24003    74965    74815    34690 
   17914    18454     3535   -22720   -34366   -12351    22955    35486 
   15761   -14628   -20605   -13109   -23882   -30041   -13603      685 
     751     3146    28678    58515    60442    50245    37777    10806 
  -15076   -30146   -30030    -6454     7298    -5891    -7021     4324 
   -9560   -29597   -15291    12187    18426    16911    21571    17902 
    3044     5370    37828    49208    17427     4140     9416   -20005 
  -47745   -26496     4081     9549    13034    20630     9004   -15341 
  -27691   -14690    20439    47741    48369    34373    12264   -14449 
  -35575   -49009   -52471   -37447    -5503    26115    49351    76030 
   96678    85288    54999    27888    -6662   -49172   -71059   -56068 
  -30330   -27523   -32379   -10805    22702    33241    24408     7191 
  -17689   -29621   -20098    -2405    14107    22968    44826    85419 
   95777    73059    64609    57797    10531   -52672   -73207   -55755 
  -47251   -48506   -27754     1996      734    -3589    30886    56623 
   34003     8363    11777     5736   -30584   -39039     5871    41847 
   45611    42735    24854     -367    -4835    -6237   -21396   -28196 
  -18358   -16700   -35494   -41960   -10959    21913    26613    29641 
   44167    39136    15427    21236    49360    35880    -4808     -479 
   29651    15053   -24726   -21319    16845    23402    -5165   -13386 
   -4260    -7717    -4345     5377     2353     6158    16290    -1073 
  -33832   -29556     6556    20663    17562    25050    24367    11092 
    5516     6465     7956    15903    27145    18582   -16860   -47754 
  -48084   -29452   -14924    -1620    21751    39830    43240    41088 
   31095    20977    17625     1301   -15431     -930    19863    17463 
    9756    10447    13355    10123   -14258   -43170   -24494    23565 
   27314     2786    11190    26838     8758    -9683    -2741     5591 
    7317    11627    12209     7345     6536    11916    16461     9657 
   -4880   -13782   -24216   -37739   -22674    30662    68963    61280 
   53507    48560     3315   -43232   -40836   -23284   -28568   -25936 
   10825    20972   -17167   -18067    30402    45782    14875    -1490 
   21205    41269    28826     8505    -1320    -9012   -15005   -24910 
  -41655   -33280     6485    30177    25196    26518    38003    30595 
    7095     3144    18175     8091   -17072     3065    38977    18015 
  -21816   -15465      444   -25033   -44590    -6131    29898    13726 
     244    10385     2821   -12482    -5367     9267    19176    29959 
   35669    33052    32483    41563    42606    18779    -2836    -6925 
  -14052   -25073   -38022   -53269   -53262   -32255     1210    25154 
   23951    25131    43445    45627    14096   -16586   -10531    13107 
   23944    23604    18216    14760    10035    -7410   -15946     7210 
   32512    21303    -6766   -17415   -24877   -30462    -7983    22399 
   31549    30114    28532    27502    23652    10000     -406     7766 
   16888      982   -27457   -30021   -11321   -10616   -22451   -19785 
  -10281    -9433   -16063   -11465    18184    51025    63744    60137 
   49351    36760    24883    14523    -3204   -27599   -23718     -459 
   -9288   -25058   -12438     1599    13729    19840     2589    -1632 
   20514    26168    10501     1320      -82    -6678   -14403   -12568 
   -5778     -754    12845    35295    41010    31774    32867    34203 
   20572     1440   -12263   -15642   -19840   -29538   -25359    -8679 
    -966    -6546    -7175    12565    22218    -7774   -31988    -3334 
   35353    22962    -4868    18589    61992    64115    37282    20205 
   22597    26261    15029    -2273   -21154   -42372   -49661   -46680 
  -48367   -34881    -2652    11905     5308    11788    32258    33169 
   17821    25043    54171    63324    43958    35031    44898    35171 
     216   -24389   -25490   -28278   -52307   -76908   -73430   -48213 
  -26860   -10158    16761    37331    36189    35930    43339    40895 
   30262    22481    16966    14023    16386    11473    -1501     8132 
   41154    54422    32385     1297   -18562   -27710   -36128   -47445 
  -40417    -9400     5992    -4148      228    26125    36455    21493 
   14611    24340     8452   -34047   -34642     1259    -7226   -40274 
  -32652   -16394   -21667   -11658    14894    24860    30249    48872 
   57368    43764    26898    15998    -1204   -38372   -77040   -68503 
  -14423    16611    16055    44112    83296    72364    32185    12846 
   24445    41288    27357    11362    42761    71020    45678    22881 
   33119    28537     3512    -6404   -19172   -58963   -79276   -63391 
  -67722   -86109   -60489   -10781    -1255   -19441     6423    67649 
   83166    60340    81051   130573   120032    65908    51900    52334 
   -7709   -90224  -111487   -77114   -47270   -51925   -61068   -38816 
  -27116   -62988   -95756   -90616   -69731   -54976   -45929   -22963 
   18488    56731    78753    95945   118778   125317    93067    48937 
   27268    11653   -16935   -29126   -15873   -19955   -49665   -57950 
  -20756    18173    22002    30275    65803    77307    44261    26173 
   52450    56901     9872   -27129   -37308   -57499   -95026  -126740 
 -109196   -39935    12313    26451    47827    69616    54907    20278 
    2435     9833    20337    15380    16800    46404    82379   101521 
  115063   134538   142867   113216    38994   -50958  -116533  -148968 
 -154562  -125108   -72215   -27950     4199    37845    66380    75716 
   78187    81010    61388    34271    27911    19522     3219    -5157 
  -12575   -14580   -17112   -36815   -44851   -15454    21690    24165 
   -1028   -19804   -36139   -58369   -71007   -57716   -15373    27718 
   57213    83457    94096    84790    65136    42681    36036    35203 
   19753    11087    14296     -338   -35047   -66676   -78345   -66919 
  -44208   -24189   -20567   -31808   -19967    19718    33817    14474 
   -5116   -22226   -37238   -43471   -32903      345    28501    42326 
   69279    88487    68904    38865    21335    -3202   -51688   -97783 
  -90933   -44331   -21216    -9628    36902    84840    96658    88322 
   61933    18202   -20761   -51493   -79173   -87664   -68049   -41231 
  -20479    -1452    14450    23514    23157    15962    12035    17451 
   27118    38753    59275    71417    63186    72076    96630    87836 
   63231    64817    65468    22261   -46627   -85959   -88312   -98699 
 -123641  -119998   -77580   -40520   -44884   -64868   -48288    -2489 
   20479    25155    64486   128490   162429   176832   199903   201985 
  162364    97904    29380   -26146   -64673   -78202   -59148   -29987 
  -13886   -19957   -45148   -66101   -79921  -104541  -129011  -127523 
  -96379   -52637   -12141    18125    27878    22049    35224    72937 
   94213    84925    61037    28333    -2249   -21984   -21280    19527 
   70252    84836    87423    98535    86320    42772    -4742   -33399 
  -44980   -55846   -56462   -38853   -41617   -87185  -134145  -142150 
 -116978   -85463   -61770   -22461    38985    72825    71116    75459 
   90011    99866    93568    73672    70768    76916    54162    20455 
    6786     4533     8212    19876    32401    40348    36440    25263 
   20722     6498   -33932   -74115   -83690   -62868   -36975   -22877 
    4384    48967    63391    42803    17105   -14195   -54102  -108743 
 -167235  -174303  -112506   -21335    54324    89850   110169   129694 
  128850   127480   123441    72328      749   -42498   -84948  -151623 
 -202001  -199600  -141828   -57231    -3568    14319    25282     8959 
  -24061   -26909   -10157    15723    64214   106853   118093   113265 
  105769    98321    84392    60396    44027    37767    20775   -14166 
  -61740  -114674  -164949  -209736  -243631  -243155  -180781   -75932 
   16329    90013   174160   249498   277587   275563   285577   306236 
  312504   298837   265226   206968   127699    44613   -27881   -99477 
 -182302  -252570  -273902  -267376  -283944  -306085  -286718  -229194 
 -153993   -68759    23884   113680   169322   182726   184975   184246 
  168643   134005    83897    55363    64332    54476    12555    -2146 
    2315   -33162   -92678  -127017  -142069  -160539  -165345  -129251 
  -58406    20058    88393   148594   200908   235903   259352   267464 
  232812   161435    88111    23927   -39194  -106377  -174224  -223735 
 -223071  -172565  -127269  -121246  -121284   -96495   -61102   -27356 
   18129    74031   117859   142562   144289   108919    48772     1663 
  -11977    -2748    15074    50814   105719   135268    94185      270 
  -88843  -151762  -209175  -267501  -292534  -236505  -105737    21101 
   95521   159520   223888   238941   227734   218552   177398   128341 
   97582    45488   -23697   -61454   -63396   -76931  -113362  -115260 
  -83852   -79720   -97891  -112374  -110347   -68289   -16848    -1645 
    -261    17564    54862   107798   151796   174129   195488   214656 
  203716   158022   109969    87848    72689    31399   -23832   -53694 
  -63609   -97017  -154911  -209351  -254379  -280261  -275721  -241874 
 -175859   -93463   -18789    45540    91740   119496   143506   154483 
  148558   144859   144574   142569   151275   171082   173169   152803 
  142474   137174   113663    92232    80163    42583   -33250  -120916 
 -204785  -284075  -339893  -355607  -329184  -263814  -180522  -103354 
  -46211   -16973    -4602     8650    24309    41278    63437    86165 
  112014   154117   199188   225417   237973   242890   234137   209413 
  172376   125933    71706    23830    -3437   -26137   -69066  -128613 
 -182698  -216905  -230041  -219692  -181109  -131116   -91489   -57415 
  -32960   -30430   -20505    14335    42823    65566   107129   145744 
  155067   146547   140952   146272   153021   147793   121312    69068 
   12742   -22098   -52903   -98911  -136444  -153373  -166714  -170534 
 -149943  -117354   -94053   -79606   -47390    14053    74850   110917 
  136544   161750   169356   152470   124009    98131    84154    79116 
   71173    46314     2848   -41844   -90706  -154498  -202450  -205270 
 -175171  -138235  -101899   -49114    12505    45084    46795    48423 
   64596    80007    71348    55351    59902    58834    46958    76584 
  128290   134110   118261   118558    88084     6423   -74474  -128224 
 -158602  -158722  -146267  -151737  -160259  -149089  -126252   -87781 
  -35303    -3006    14862    53383    79972    62387    58926    98440 
  122044   108263    98648   115480   142776   162942   168015   136232 
   63537    -2687   -36193   -68266  -117186  -165846  -188770  -159228 
  -95455   -62262   -73684   -93768  -101700   -73710   -12394    23078 
   26577    61936   129339   172046   189278   214411   244169   255073 
  230959   176844   115680    65365    37126    29628    37265    49600 
   35253    -6590   -50450  -108766  -187039  -258763  -315497  -350786 
 -338467  -266018  -167873  -106050   -82279   -46333      -60    41269 
   93714   140995   169962   202917   233124   236606   219611   205264 
  201202   192391   162170   108070    42261   -23598   -91393  -163188 
 -231724  -288486  -318760  -293988  -212808  -128143   -75644   -34164 
    7573    27494    29019    48114    91326   137120   175740   203600 
  226405   247828   246392   207727   142676    73845    20775   -26229 
  -80140  -125513  -161258  -201649  -222601  -188751  -125308   -91621 
  -83331   -52258    -4815    29430    48779    57875    80655   129929 
  171522   191172   210686   231418   233207   206003   156011    95119 
   30218   -41782  -123429  -201274  -261229  -308079  -339055  -323518 
 -247581  -163896  -118524   -62310    27334    82312   100134   123493 
  126283    98533    72851    52951    39951    46371    67639    91741 
  105572   102258    91180    78394    57981    32309    17173    12378 
    2115    -7642   -11086   -24227   -44442   -57119   -73399  -109063 
 -145214  -136175   -77434   -33975   -26387     7821    64222    80578 
   71365    75845    83651    70823    40932    19552    17944    36255 
   71147    98448    88407    44064     6114    -9057   -26929   -38281 
  -17660    10994    30402    40466    23002    -2296      338    14694 
    8316   -31526   -69261   -51692   -15700   -22885   -48525   -54747 
  -37230   -13979   -12321    -4124    43401    87069    96449    90624 
   66961    20779   -19314   -39996   -59853   -79903   -77778   -46197 
     585    35842    47432    50102    36367    -3388   -29357   -22904 
  -18682   -28183   -31112   -27395   -33421   -34252    -2189    30743 
   20213    -2436    10015    52239    86009    90383    96549   117549 
  118322   106474   105773    89471    46471    -4202   -66174  -135297 
 -191641  -232132  -242808  -195748  -100691   -19572    11862    32333 
   59154    73986    90468   102435    93800    98177   124880   135479 
  123807   109323    90107    59306    16166   -30580   -60960   -81510 
 -119573  -167918  -188534  -168231  -121455   -54768    11643    55807 
   96110   129159   125386   102311    80090    45382     3788   -15928 
   -7967     3994    12690    28363    34987    17855     -436    -8664 
  -19967   -29192   -31406   -29214    -9501    15480    10957    -8544 
   -5854     8804     9714     2737     2515     9518    17204    16564 
    2654   -11850    -8672    11330    33932    52475    72364    88632 
   81279    52002    18657   -19724   -67861  -113911  -141862  -142865 
 -105672   -27880    52398    94743   105414    97870    75747    63239 
   64108    36271   -22860   -55818   -48555   -45705   -58463   -55470 
  -29708    -9537   -13585   -27355   -23780     7118    48963    75930 
   84875    94311   103125    97934    83808    62968    29597   -11928 
  -58800  -111092  -152379  -159351  -123222   -54874     9305    36398 
   36576    23033    -5201   -14885    12941    38087    43475    53406 
   69962    76585    77112    88128   108639   123402   116627    83770 
   41993     2916   -43664   -99727  -140147  -140566  -116440   -99033 
  -85626   -59290   -32479   -25797   -26790   -22909   -32259   -53380 
  -61069   -53700   -41597   -26809    -2197    46172   109557   162418 
  198760   210020   187465   158380   142843   125232    86314    23801 
  -34732   -66993   -90672  -117273  -131558  -124866  -101059   -74368 
  -69682   -87833   -85661   -45087   -16407   -22612   -16626    19604 
   52524    66064    68750    73912    90094   101069    91878    83204 
   90373    92352    72782    40182    11932     3724     6378    -3445 
  -18362   -17082   -14527   -34797   -53612   -44469   -34796   -48469 
  -68967   -85209   -98415   -91328   -57765   -27996   -14008     1617 
   21725    43328    60934    58668    40724    28039    30874    46967 
   60346    60554    60349    63521    61306    58895    51475    28537 
    2720   -23296   -54572   -73903   -68870   -45274   -19664   -11098 
  -14328    -3037    25200    38060    21806    -2209   -21208   -34684 
  -42599   -54113   -72451   -80052   -58005   -18864     9562    36100 
   76040   106776   115138   110875    90207    52556    12560   -17984 
  -32656   -40450   -52103   -51308   -27261     3083    26674    51349 
