Origin Time       2021/02/13 23:08:00
Lat.              37.7
Long.             141.8
Depth. (km)       60
Mag.              7.1
Station Code      FKSH19
Station Lat.      37.4703
Station Long.     140.7227
Station Height(m) 410
Record Time       2021/02/13 23:08:06
Sampling Freq(Hz) 100Hz
Duration Time(s)  219
Dir.              3
Scale Factor      2942(gal)/8224139
Max. Acc. (gal)   61.551
Last Correction   2021/02/13 23:08:06
Memo.             
[...]
  -97541   -92619   -91451   -95737   -98598   -99883  -103731  -108106 
 -107408  -104457  -105453  -105061   -98335   -94074   -96126   -96774 
  -96500   -98632   -99270  -101282  -105734  -103862   -98257   -98278 
 -102330  -106361  -110972  -114205  -113134  -113020  -117402  -118455 
 -113818  -111203  -108885   -99604   -89055   -84699   -83230   -82609 
  -88460  -103156  -116337  -119518  -120478  -122166  -117147  -109682 
 -106116  -104085  -103005  -103000  -104800  -108000  -108121  -108139 
 -114490  -119356  -113545  -105057  -102312  -100546   -93985   -90243 
  -99979  -112055  -114889  -117779  -122343  -119674  -109872  -102933 
 -101653   -95269   -92688  -104645  -107669   -98901   -99773  -103432 
 -104299  -107450  -106286  -105825  -112213  -113427  -109941  -113341 
 -119091  -117274  -106239   -98309  -106088  -108054   -91822   -95241 
 -117859  -115496  -102351  -105615  -108255  -103054   -94728   -85735 
  -84412   -87107   -90431   -99908  -105753  -102860  -104920  -108864 
 -102521   -96562  -104147  -114359  -114315  -112448  -113379  -114646 
 -119908  -117271  -106829  -108261  -105505   -86236   -78148   -80028 
  -73263   -80167   -99513   -96565   -92836  -108425  -102613   -77148 
  -77805   -93819   -92812   -91184  -109676  -121300  -105925   -98396 
 -115604  -116418   -91839   -90568  -113463  -110968   -91952   -99786 
 -118673  -115825  -110967  -119458  -121927  -116916  -109483  -100531 
  -99581  -102352  -105031  -109649  -104646   -94435   -97699  -100093 
  -89193   -90022  -101217  -101183  -105394  -124665  -136182  -129541 
 -123268  -123141  -116505  -105328   -95650   -93028   -99357   -96476 
  -84242   -90653  -111079  -108792   -91681   -97590  -114771  -115106 
 -106752  -101217  -100434  -106847  -111812  -111958  -113368  -113641 
 -115198  -111889   -95760   -93711  -103968   -90076   -77592   -93958 
 -101949   -95862  -107503  -121011  -113165  -106929  -107192   -99121 
 -103084  -120712  -124448  -120060  -116688  -107661  -104341  -105775 
  -97502  -103686  -135201  -142873  -105462   -79026  -101663  -119878 
 -102234   -98791  -108990   -96483   -83273   -86117   -91829  -103539 
 -127527  -143445  -124324   -91833   -86886   -97123  -105286  -112372 
  -97276   -81710  -105610  -119739   -94011   -86647  -105344  -110265 
 -104865  -100674  -100315  -101035   -88021   -83920  -108847  -114733 
  -96246  -108294  -127989  -115148  -105891  -116802  -118107   -98643 
  -81592   -94787  -102687   -73249   -69851  -100349   -96174   -79795 
  -92399   -98091   -81711   -76782   -90784   -96515   -82888   -78240 
 -102369  -118724  -104031   -96545  -116021  -140728  -144059  -110527 
  -80966  -104438  -131971  -108792   -93318  -114183  -105132   -98991 
 -143872  -145204   -98243   -95567  -116010  -120623  -109993   -92342 
 -101429  -115503  -101626  -105625  -131976  -123321   -89657   -85918 
 -104788  -101398   -91179  -101298  -106597  -109107  -108368   -87821 
  -99270  -129694  -112818  -103744  -128279  -126436  -101946   -98444 
 -119751  -115855   -92342  -114953  -133436   -94879   -84175  -106135 
  -83910   -68775   -91170   -87544   -84248  -102666   -97777   -97005 
 -111746   -99790   -89795  -100866   -98763   -95083  -100905   -96412 
  -96762  -117711  -128193  -117876  -119745  -124443  -107680   -98181 
 -112729  -123827  -116854  -106714   -96994   -90958  -104689  -116456 
 -111125  -120533  -137681  -124672   -97163   -86582   -80353   -75864 
  -89768   -98535   -92053   -99555  -107774   -86161   -66588   -77140 
  -87951   -93789   -94023   -87062  -116487  -143302  -117093  -107090 
 -132197  -139699  -122395  -112635  -122787  -126423  -125547  -114022 
  -81405   -91365  -123641   -95688   -73950  -107964  -130048  -121356 
  -89993   -65489   -96265  -118713   -82934   -71103  -105290  -109668 
  -85229   -82837   -88993  -100120  -121914  -106982   -64848   -54506 
  -70981   -77697   -67806   -77001  -127124  -162692  -143885  -134860 
 -163132  -158534  -132151  -140977  -143082  -113154   -96912  -110820 
 -118697   -89626   -64215   -94090  -126161  -104187   -97860  -136684 
 -134557   -89726   -79662   -94462   -93322   -97370  -109960  -115194 
 -125614  -120417   -86445   -80940  -109136   -96704   -53150   -52752 
  -84021  -103177  -115206  -120174  -119762  -128368  -123496  -104026 
 -107406  -119473  -114438  -111240  -118492  -125950  -125292  -105300 
  -80875   -84214  -104172  -100016   -76331   -84686  -118030  -104361 
  -64562   -77298  -116036  -126473  -114245  -102932  -106614  -113325 
 -111069   -94551   -75201   -85417  -107140  -109205   -96172   -72725 
  -64392   -93050  -123345  -116718  -105094  -122415  -126129  -107886 
 -122844  -152124  -142558  -125863  -129987  -111711   -76817   -86896 
 -111886   -82964   -73048  -133381  -142781  -101842  -120120  -142045 
 -121069  -106861   -93472   -79714   -82335   -83128   -85218   -93692 
  -99526  -103673   -94922   -90833  -121698  -146269  -129069  -122737 
 -145750  -135184  -103295  -107705  -110412   -83659   -80473  -113957 
 -131761  -113957  -103910  -115005  -104697   -71410   -65287   -88113 
  -94740   -99092  -112357  -103923  -102945  -104514   -84233   -92746 
 -100014   -79833   -94458  -107678   -91828  -111121  -143357  -122442 
  -84597   -86169   -86112   -67670   -82507   -94521   -78244  -109120 
 -152409  -119248   -80557  -107157  -135862  -114852   -75536   -70546 
  -90081   -85333   -79196   -96757   -96730   -84429   -90265  -101587 
 -117971  -125027  -112359  -123201  -136575  -112719  -104080  -117178 
 -104386   -94181  -118465  -132090  -120748  -116897   -97043   -69954 
  -85896   -87147   -56681   -88225  -142940  -119618   -85309  -124798 
 -150441  -112788  -108969  -133679  -126906  -122582  -114318   -84605 
  -77664   -83949   -76114   -97407  -130334  -120860  -121959  -140670 
 -121462  -100290  -113062  -131780  -116079   -74560   -81302  -120560 
 -106292   -82556   -99967  -103257   -86876   -76030   -68527   -79663 
  -96557  -102573  -119021  -137524  -123921   -86719   -87762  -134707 
 -136541   -88905   -93761  -137205  -124294   -86196  -101317  -117421 
  -91525   -85970   -84268   -56257   -59066   -69408   -60706   -84383 
 -110072  -108082  -125622  -146053  -134256  -122107  -113062   -74159 
  -38013   -59755  -101572  -104633   -98629  -117594  -151305  -172341 
 -141535  -113057  -152550  -164655   -96909   -52771   -70735   -86661 
  -71982   -55156   -66197  -102967  -137567  -132983   -95551   -95887 
 -127931  -114519   -96642  -130856  -142477   -91974   -53543   -65969 
  -92163  -105703  -115200  -134271  -147056  -133606  -121012  -113736 
  -77927   -57264   -94709  -123792  -109420  -108558  -141967  -157086 
 -132486   -99180   -80019   -86433   -99516   -95185   -79893   -60323 
  -60235   -91844  -107113   -79552   -72808  -115075  -124285   -92927 
  -86131   -85446   -86292  -124212  -156601  -135502  -113281  -127165 
 -125882  -107176  -117941  -130040  -111481  -103557  -119998  -133174 
 -155686  -168759  -126890   -93576  -106285   -98849   -83374   -96114 
  -95010   -80376  -104766  -128721   -98641   -94838  -143554  -140224 
  -91567  -101121  -127091   -69514   -21941   -70418   -96472   -84002 
 -127608  -145520   -90686   -75271   -86630   -74513   -98653  -132228 
 -121926  -129922  -150387  -115434   -89403  -114084  -116591   -95883 
  -96036  -113486  -110876   -88587  -101696  -117155   -97692   -87457 
  -70035   -49756   -69330   -93591  -110243  -125439  -119399  -115159 
 -109840   -83678   -59147   -50210   -80308  -123519  -110879   -84875 
 -103921  -129936  -123288   -94481   -82719   -95989  -104874  -105934 
 -105771  -102956  -105621  -120992  -142526  -131853   -94687  -106955 
 -140825  -124814  -115055  -136377  -141393  -130045  -100429   -95488 
 -135410  -114608   -72169  -100777  -101861   -76854   -98852   -92809 
  -73246  -114489  -131561   -88333   -74549   -99250  -111154   -92746 
  -73399   -91859  -111839  -102992   -99094   -99462   -96708  -106199 
 -109568  -104240  -111273  -107180   -86524   -99349  -127194  -111643 
  -94998  -105205  -106857  -121841  -134435   -96820   -74993   -99011 
 -103192  -100485  -110602  -102239   -94333   -95092   -98085  -124146 
 -129859   -92340   -94284  -126414  -116950  -104130   -92695   -64370 
  -81494  -115137   -90290   -67872  -102007  -114725   -85476   -95211 
 -121363  -110816  -114561  -147087  -144085  -104610  -100356  -129554 
 -122702   -99210  -115867  -127886  -110955  -110978  -109765   -89087 
  -84997  -113189  -131888   -96013   -76974  -107499  -102340   -98579 
 -136995  -145250  -140409  -151001  -140968  -130157  -132316  -115771 
  -98834   -93306   -57411   -32283   -71563  -104642  -104282  -120776 
 -135384  -117174   -97964  -104322  -115249  -106720   -94755  -102541 
  -99351   -64297   -51532   -89969  -139564  -151757  -127793  -120249 
 -137740  -148076  -126235   -85664  -104311  -136918   -83725   -49123 
  -86431   -98539   -83219   -77450   -97594  -139221  -125196   -61291 
  -62052  -101494   -88809   -74443   -82098   -77534   -92527  -112549 
  -99887   -86656   -91104  -102982  -115591  -121859  -130366  -147757 
 -143768  -110543   -93897  -105880  -127057  -136308  -109123   -85556 
 -113351  -144865  -120117   -70025   -59576   -81751   -99948   -86314 
  -41189   -45146   -98589   -95675   -52097   -74321  -146450  -157383 
 -120783  -130129  -154437  -121359   -84505  -101852  -107636   -97013 
 -126871  -143640  -123105  -105742   -84416   -70193   -68269   -56949 
  -66364   -99885  -113575  -112727  -106890  -104140  -129968  -132213 
  -83727   -73826  -106699   -99650   -76384  -101028  -120753   -90504 
  -90448  -118200  -115144  -127214  -134281  -101085   -87346   -84087 
  -70638   -80173   -93827   -86256   -90286  -132475  -145894   -81264 
  -57254  -124889  -149963  -116348  -114226  -120152  -109121  -117987 
 -133967  -122868   -98072   -98859  -105194   -76065   -60507   -78567 
  -82561   -66764   -46786   -43318   -54365   -58845   -71859   -94653 
  -97578  -104777  -146728  -150030   -98185  -104727  -161245  -161747 
 -136097  -159108  -180311  -150207  -142290  -166375  -130994   -90780 
 -125300  -128698   -77745   -64797   -71378   -75150   -63495   -33359 
  -56824   -88761   -68341   -76993   -99797   -85087   -95408  -130827 
 -152374  -169550  -168470  -158429  -158703  -144880  -120852   -97128 
  -74684   -83006   -93561   -60600   -42068   -71622   -86601   -62703 
  -54085   -91620  -113906   -81788   -76167  -137187  -167622  -150466 
 -169560  -169955  -127691  -136753  -135190   -78247   -69475  -103218 
 -107246   -98818  -105736   -94300   -59481   -56033   -70379   -75313 
 -103071  -110843   -78688   -76642   -97326  -106791   -92885   -58267 
  -59940   -93078   -87091   -61730   -58711   -45419   -38128   -54282 
  -43938   -36632   -76825  -107109   -82472   -61069   -90454  -115680 
 -106731   -99835  -102124   -99652  -126117  -181570  -166814  -111869 
 -139680  -175554  -130435  -101247  -133294  -131076   -97675  -121657 
 -152487  -108267   -35201   -24316   -83515  -114538  -105260  -132217 
 -171077  -191849  -185688  -143607  -148983  -188663  -146075   -98115 
 -138940  -158832  -112037   -89218  -113512  -137427  -127292   -98637 
  -99107  -116757   -93918   -69743  -111487  -142252  -108893  -109495 
 -158693  -159266   -91546   -31021   -36377   -45172   -15483   -30983 
  -93742  -106956   -76750   -82426  -100677   -74525   -62680  -107981 
 -130396  -103666  -115341  -152899  -125263   -89414  -121082  -146101 
 -126123  -114770  -120268  -140255  -153914  -110686   -71892   -92130 
  -96828   -84770  -114238  -153979  -167686  -168384  -163771  -136512 
 -105436  -125147  -141864   -90864   -65726   -94890  -105854  -120434 
 -137015  -124938  -127313  -139226  -129938  -125034  -120206  -102840 
  -70329   -21188   -27067   -74507   -62374   -43968   -80406  -100071 
  -67946   -34523   -26412   -24507   -29444   -30798    -3296    12789 
  -22443   -56031   -41951   -24158   -50616  -102431  -112781   -80599 
  -90093  -121987  -121971  -153565  -188542  -156991  -153015  -174684 
 -132329   -96997  -108175  -120645  -129601  -128785  -123803  -125463 
 -137270  -150823  -140115  -135074  -166395  -189602  -187309  -195168 
 -203035  -181219  -149650  -135688  -141272  -148563  -124017   -70672 
  -64912  -112561   -99222   -40009   -52168  -100796  -109046  -103902 
 -107539   -95515   -81837  -100406  -125721  -124659  -109755  -117487 
 -139660  -110531   -74474  -114100  -138146   -89364   -70654   -87956 
  -49461    -2012   -30383   -62927   -48890   -64058  -108826  -113443 
  -93386   -93965  -107553  -119705  -120208  -102664  -110249  -134156 
 -104004   -75585  -107543  -128131  -129622  -130162  -100647   -95589 
 -132155  -139930  -121377  -106783   -90178   -85129  -109865  -123222 
  -92773   -69205   -70776   -51013   -20451   -23800   -43613   -47092 
  -43991   -40512   -30231   -17821   -10266   -18126   -54400  -112885 
 -149816  -139191  -111955   -94570   -90171   -95162   -96986   -98088 
 -129525  -182687  -176369  -121790  -126702  -156552  -133342  -114353 
 -131237  -141088  -137700  -135649  -132430  -149185  -192620  -194042 
 -165145  -182093  -179250  -128308  -132732  -165699  -149311  -126908 
 -121598  -114986   -94572   -46279   -27403   -74542   -94911   -65712 
  -84901  -119888   -77654   -18570     4828    30419    44637    45292 
   66807    67701    29909     1196   -23665   -58905   -78553   -80298 
  -80046   -68600   -47872   -48921   -74069  -110328  -157821  -172050 
 -144535  -149848  -158269  -113035   -69893   -49685   -51479   -83519 
 -108865  -120201  -126207  -130696  -147178  -145463  -124951  -132071 
 -154642  -176794  -175319  -133942  -142082  -205966  -238032  -246507 
 -253651  -262923  -265771  -251676  -230733  -176677  -126153  -127538 
 -111519   -83438  -118894  -171826  -180176  -167975  -154055  -137959 
 -123881   -93074   -41114    -8241   -18156   -42271   -59782   -90369 
 -118295  -100421   -71516   -68351   -62117   -56150   -51479   -56727 
 -114413  -146888   -92325   -71797  -113066   -93415   -53539   -88038 
  -98157   -59113   -79643  -119962  -105177   -86583  -106096  -130415 
 -131533  -124194  -119631  -122210  -137918  -139615  -125550  -133523 
 -155434  -159651  -145471  -131885  -112893   -80900   -80778  -116590 
 -118752   -85194   -79944  -105956  -118466  -107896   -88916   -65267 
  -61485   -95301  -129482  -147154  -164362  -171999  -168380  -163297 
 -133132   -82760   -61241   -68621   -87953  -100296   -77291   -65406 
  -91412   -95369   -79794   -88561   -89467   -69680   -88878  -119169 
  -89715   -59703   -80326   -80897   -21070     5138   -57284   -97915 
  -90298  -105641  -111994  -106253  -118126  -117026  -110894   -98864 
  -61319   -60079  -102066   -94292   -54037   -47988   -40239   -26881 
  -38619   -59436   -91120  -122150  -120025   -89880   -74287  -106855 
 -136848  -114637   -84252   -83808  -108400  -132865  -109686   -47692 
  -34277   -62969   -39586   -23571   -80840  -109611  -108581  -146323 
 -154537  -108866   -91540  -117139  -124376  -100033  -108371  -151883 
 -164859  -177928  -226125  -243187  -225506  -212433  -178328  -139522 
 -128174  -111123   -90100   -95343  -117863  -157465  -185467  -153836 
 -118497  -105173   -48384     4125   -23318   -78765   -94979   -78466 
  -82682  -115697  -108808   -46687   -16895   -53148   -74348   -61453 
  -92391  -150516  -152531  -120853  -120957  -139317  -131765  -117679 
 -128989  -120619   -83274   -73773   -74568   -69344  -101341  -151501 
 -161157  -146967  -156355  -160546  -143581  -132003  -109841   -94516 
  -97760   -86152   -78383   -79809   -73538   -70719   -71061   -87349 
 -126353  -158693  -174420  -184518  -191679  -186424  -166463  -156096 
 -160452  -157599  -146199  -140066  -142641  -129760  -112298  -125764 
 -113246   -67000   -69322   -92222   -87750   -75980   -58449   -39113 
  -46155   -88681  -119203   -91571   -32373    -8946   -46195   -74370 
  -41243    -3346    -7227   -21876   -12279     2359   -30265   -90953 
 -112206  -122399  -160983  -183475  -171327  -143641  -106006   -78109 
  -62473   -33670   -25983   -49680   -46866   -63609  -122382  -140163 
 -149173  -167822  -146056  -152324  -179065  -131596   -83520   -94585 
 -106920  -127577  -141748  -117468  -124113  -151654  -127751   -90987 
  -96985  -129554  -134877  -124900  -153400  -192329  -206460  -195151 
 -154940  -117051  -113479  -109466   -72511   -60019   -97221  -110462 
  -74569   -44999   -53554   -59846   -38186   -42091   -82086  -100989 
  -96903   -98855  -111755  -124984  -108648   -78819   -78507   -84530 
  -71274   -56810   -70000  -116638  -141224  -116614   -99292  -105169 
  -94327   -70652   -77650  -116752  -125444  -102559  -112333  -132476 
 -125913  -125173  -133864  -123198  -124221  -177870  -211887  -177560 
 -153238  -155556  -146461  -154372  -185274  -175252  -123664  -124854 
 -161099  -141814  -109221  -107622  -112360  -120058  -123306  -120280 
 -111007   -84774   -68165   -88192  -119433  -111518   -65313   -42253 
  -55914   -73643   -79888   -64638   -64732  -107376  -118045   -71498 
  -45121   -55725   -65094   -65632   -55779   -46283   -69179  -114261 
 -140562  -147806  -149084  -142951  -145339  -150511  -139365  -140486 
 -167186  -189094  -171907  -133560  -142574  -149192   -88188   -59196 
  -72162   -42643   -23881   -54018   -78780   -88265  -113258  -145949 
 -136965   -93202   -75694   -88589   -96925   -95505  -114120  -160497 
 -190189  -204012  -206737  -144100   -65199   -53788   -65111   -54236 
  -43826   -60069   -98049  -126875  -129375  -115854  -113958  -114336 
  -90867   -77647   -93434  -111681  -121547  -121404  -107411   -82155 
  -89692  -122189   -89861   -45589   -78684  -104376   -79901   -74707 
 -100669  -127614  -151897  -167256  -157254  -136237  -112384   -81309 
  -80682  -102686   -94702   -74356   -68763   -58126   -40954   -48911 
  -73923   -78916   -55467   -13973    -7701   -42082   -39553   -29258 
  -65503   -88395   -81391   -89152  -109166  -114089  -102941  -113543 
 -148408  -153608  -139059  -157025  -181334  -169599  -152577  -160261 
 -164489  -155899  -157330  -150611  -130098  -131527  -130736   -98740 
  -87187  -104823  -108047  -119179  -145955  -142096  -114224   -98597 
 -110408  -139195  -145596  -142038  -165348  -168100  -129627   -97598 
  -66793   -34951   -37129   -58807   -63061   -64525   -90024  -107426 
  -94612   -76993   -61796   -69542   -97310   -82773   -56268   -82614 
  -99430   -71450   -68048   -91936   -90023   -67320   -50747   -52061 
  -61804   -65021   -75197   -91374  -100561  -115356  -134218  -130218 
 -106446  -109907  -137215  -131394  -110249  -118278  -120567   -88888 
  -62803   -61426   -61141   -64212   -71000   -68616   -73665   -97189 
 -133205  -155522  -142215  -117531  -109821  -132548  -157144  -140223 
 -112889  -110068  -109231  -105632  -112205  -101850   -77321   -92684 
 -110636   -85033   -82682   -96009   -86215  -111790  -136926  -109277 
  -92415   -81411   -65684  -104647  -152714  -142619  -127225  -139838 
 -139899  -126666  -125653  -111715   -80874   -83131  -104322  -103925 
  -92951   -76627   -79628  -107952  -113680  -114489  -125124  -109856 
