Origin Time       2021/02/13 23:08:00
Lat.              37.7
Long.             141.8
Depth. (km)       60
Mag.              7.1
Station Code      FKSH10
Station Lat.      37.1616
Station Long.     140.0930
Station Height(m) 564.9
Record Time       2021/02/13 23:08:15
Sampling Freq(Hz) 100Hz
Duration Time(s)  293
Dir.              4
Scale Factor      3920(gal)/6170801
Max. Acc. (gal)   272.010
Last Correction   2021/02/13 23:08:00
Memo.             
[...]
   77944    68781    46180    14991   -19929   -45962   -54809   -44553 
  -16731    18069    48563    70258    81143    79212    65307    43963 
   17339   -12134   -37347   -52904   -55966   -45952   -25593     3386 
   36112    58818    62913    57612    50309    32652     5122   -13908 
  -13289     -758     9213    12787    18229    28821    35562    29243 
   13422     1702     2011     7611    10002    14162    26070    36803 
   34468    21473    11212    10319    11947    10505    11606    17939 
   21648    22518    27776    32773    30136    23230    15824     7532 
    -272    -4519      -21    15836    35632    52645    64844    64873 
   48796    23463    -5863   -33210   -42501   -27735    -3673    17483 
   32804    39142    39394    42239    45408    37950    17985    -3739 
  -13918   -13772   -12402    -6160     5299    13073    21246    37105 
   51801    52545    40744    25089    12439     9685    12448    11064 
    8929     9569     9451    10321    18992    34715    47769    53682 
   53992    46165    26528     -291   -24667   -44135   -57102   -54403 
  -36254   -14442    11314    46787    81084    99440   101074    90373 
   63361    17150   -32818   -65202   -72600   -58991   -31635     6018 
   52255    94417   116854   118263   107545    91507    65064    20500 
  -28400   -58660   -68667   -68416   -56260   -29711     1231    26669 
   44996    62706    82332    87993    71032    42088     5525   -33296 
  -60494   -71593   -68461   -53175   -26502    13964    59419    90740 
   98959    86363    56596    18165   -14010   -33620   -45858   -52627 
  -50278   -38387   -20859     4438    41864    77230    89948    82528 
   68946    50740    23947    -8391   -38156   -55692   -52675   -26604 
   12699    46151    66140    75833    72901    62693    57802    52284 
   32336     2223   -21799   -28205   -18263    -3627    11465    31647 
   50296    58602    61183    60718    54574    42503    22700      485 
  -13409   -22327   -32300   -35289   -25258    -9180     6963    24429 
   39722    47093    51165    56238    54650    38685    13146   -13019 
  -38307   -58501   -62301   -45910   -14768    22808    57315    84482 
  103237   105141    83975    46913     4824   -31894   -53510   -57159 
  -46802   -27229      775    30359    47260    53686    62267    68512 
   60962    41102    17388    -3000   -16678   -23943   -22283   -13234 
   -6518    -5064    -6136    -4622     7306    24009    35405    46936 
   63696    78144    80419    65643    38360    10514    -9417   -19207 
  -19311   -12094     -863    12732    27381    37798    41804    42551 
   38316    28230    16773     7258     1591    -2340    -6104    -5093 
    2627    14101    24068    29598    35474    40639    37582    29870 
   19713      197   -20482   -25206   -19885   -20647   -20867    -4416 
   26318    56414    78770    94428    96156    73718    33686    -7574 
  -41121   -62263   -64523   -48137   -18755    22667    69607   105272 
  119120   111593    87151    51307     9936   -29408   -55807   -63324 
  -59912   -52441   -37202   -13718    11846    31523    43710    53343 
   56267    47942    37535    32145    25112     9219    -7033   -10688 
   -5395      598    12329    30738    39397    28485     9128    -5789 
  -15497   -19930   -12410     6389    28149    52261    76575    88571 
   84340    69111    44562    16479    -8259   -28463   -41069   -41814 
  -30518   -14896    -2649    12226    36074    60973    74691    72008 
   58749    41008    15736   -12363   -29518   -33638   -30979   -25169 
  -17233    -7086     2593    10661    21854    37850    54040    65659 
   69850    66990    61414    54670    43264    25580     2135   -26497 
  -53289   -64046   -52232   -23589    18547    67264   102959   117863 
  117882    98661    58476    15003   -15406   -36516   -58119   -75000 
  -74058   -51714   -12550    35257    79537   107659   112619    96709 
   65169    22918   -17387   -41191   -48494   -47646   -37665   -15132 
   14056    42556    65845    81384    87574    79152    54800    22663 
   -7937   -30474   -43612   -51012   -52516   -43738   -25126      131 
   31371    63834    87754    96056    86882    62261    25762   -14381 
  -44546   -57375   -56768   -49843   -37737   -15219    16222    44599 
   64560    80155    86139    69154    30833    -5062   -18286   -17735 
  -21140   -22781    -7661    18092    37274    48071    56077    58359 
   50710    34308    12753   -10506   -30626   -39712   -34550   -22874 
   -9778    12016    41595    63015    72921    79620    78333    62295 
   38666    15718    -3283   -14310   -17084   -16437   -13947   -10290 
   -8927    -6169     6434    28596    55145    76852    78468    58839 
   33336     9290   -15919   -37774   -46776   -43927   -36215   -24137 
   -4386    22106    46037    61061    71537    78326    78218    73187 
   61646    37925     8994   -11166   -22384   -29398   -28881   -20906 
  -12156    -5761     3337    22154    44784    54775    49295    41212 
   35627    26462    13796     5681     2050    -5646   -15696   -16626 
   -4599    16991    44879    70793    82126    71290    40427     3347 
  -24378   -39204   -41882   -31056   -12254     9889    39029    68739 
   81643    74406    59710    41418    10739   -27193   -52578   -57937 
  -48637   -28867     -742    30635    56595    72956    77011    63015 
   38855    22143    13145     2006    -7541    -6048     3256    10989 
   17594    27807    37225    38870    38267    44964    51801    47177 
   33553    16858     1263   -12500   -27362   -36776   -32109   -15170 
    9149    35278    57673    71584    69739    51036    24384    -5222 
  -36179   -55100   -48467   -23886     4586    32641    55765    69002 
   72772    67443    54081    38199    23188     5256   -18197   -39215 
  -44984   -31507    -6117    23388    53925    81491    97663    92632 
   66268    31430    -1605   -30904   -55793   -72553   -72927   -53624 
  -19788    20831    57667    86029   105037   102992    73226    30079 
  -11705   -50789   -83960   -99308   -90184   -61944   -23408    21182 
   71107   119971   151911   156159   134520    90422    33317   -16847 
  -47875   -61415   -62064   -52029   -34863   -17024     1949    27057 
   52770    69126    74916    73068    67812    64674    57051    33480 
    3810   -16922   -32701   -45462   -40608    -7223    40566    73406 
   81183    72699    51709    21459   -12975   -46760   -67034   -67302 
  -56411   -36978       43    53184    99394   115395   102265    77026 
   47253    10297   -26484   -49162   -57735   -61999   -60104   -37322 
    6187    50302    82958   100015    95756    72180    35076    -6144 
  -36036   -47986   -44663   -28725    -2851    28839    56800    69905 
   67679    56733    36501     6242   -18216   -21587   -11505     1101 
   15458    25480    24095    17157    15947    24919    40460    55236 
   62341    56332    35231     6344   -21411   -44587   -56701   -54619 
  -43241   -21654    14627    60829   101429   121120   118194    96085 
   53244      242   -38827   -55759   -62319   -64906   -57476   -32387 
    8649    48590    72596    83779    87656    82847    67351    40284 
    6898   -22506   -44715   -62125   -68082   -47419     -142    48721 
   80984   102139   111292    98254    67314    28535   -10188   -38986 
  -57979   -72829   -73803   -51616   -18056    14823    47063    80007 
  108317   118796   105387    75395    40876    10963   -16256   -40233 
  -49166   -42589   -34105   -26114    -9786    10823    26607    43082 
   62142    74443    77271    69194    44131     4472   -37383   -68167 
  -78493   -65952   -35806     5355    49857    85460   107394   117740 
  111912    87508    50360     7148   -36480   -72468   -89613   -84931 
  -66806   -44541   -21780     7486    46344    80348    95907    97535 
   92585    77984    50029    13636   -19986   -40445   -48745   -51392 
  -45745   -29785    -7245    20892    50569    75972    93585    96191 
   80546    49909    10277   -21099   -28233   -15460     4520    26434 
   49837    65256    57477    30738     7798     3002     9998    13459 
   10257     6951     2667    -2705      294    16974    38194    44814 
   30487    14525    10685     6845    -6137   -14556    -7333     2395 
    3838     7680    18285    23862    19690    13332    11723    11810 
    3750   -14258   -29746   -29329   -13283     8728    30180    50216 
   66141    68303    52483    31965    18944     7931    -5882   -19852 
  -35990   -47952   -40613   -16149    14736    51529    88029   106721 
   99477    74575    45162    20236     2001   -12338   -23944   -30055 
  -27463   -15721      720    18421    39444    63204    81264    84138 
   71537    51714    32347    18330    11448     5577    -7872   -27334 
  -42603   -41574   -20173     9061    34410    54389    65188    64580 
   57620    48455    35258    13455   -15543   -42023   -56124   -53217 
  -35607   -12258    10741    33258    49000    50730    46637    46347 
   45159    38620    29808    20544    10865     3531     4479    11217 
    8225    -9744   -29050   -38609   -38291   -31059   -19755    -6573 
    7335    20612    33429    47408    60963    68524    62266    40062 
   13699    -4931   -19359   -33896   -37823   -20578    13052    48893 
   72696    80977    81602    79708    73472    57364    29972      -15 
  -25940   -50194   -72950   -82271   -64617   -26324    14439    51714 
   84062    99945    92297    71216    49905    30552     9420   -13831 
  -36454   -55065   -59698   -39709    -5234    26328    53439    71504 
   71045    57675    44813    42518    53120    70427    82446    78712 
   65266    52952    36031     8294   -21042   -44695   -63648   -67687 
  -45080    -7477    27324    55513    78694    98166   111792   109875 
   84015    36803   -20525   -71551   -98093   -93675   -67596   -26844 
   25675    76301   110868   126825   126602   115059    95221    67050 
   33587    -6962   -58422  -106598  -131302  -130338  -110073   -73128 
  -27161    12527    38306    56771    73993    85766    86526    76395 
   57811    32942     4692   -21287   -40841   -55552   -63691   -55443 
  -23607    22626    62100    86683   100360    93742    52620   -12078 
  -67566   -92653   -94706   -90480   -81458   -57610   -21270    12841 
   44245    85212   131389   157394   144335   101891    57143    24594 
   -4939   -38259   -59138   -57009   -48652   -47725   -40158    -5797 
   50851   104949   137736   146053   132560    96685    40837   -19694 
  -68181   -96628   -98791   -75791   -39860      -16    41047    77575 
   98487    95638    68803    21741   -36132   -85846  -108259   -95661 
  -50885    14183    80459   133168   167797   182671   172088   136659 
   90568    38341   -25620   -84838  -112928  -105324   -76292   -36029 
   20858    85326   127551   140201   139343   137528   134196   119217 
   89948    48725    -3135   -55197   -93412  -109859  -104595   -80427 
  -40016    -1228    12038     3823    -4426    -4753     1875    11138 
   13457     7272    -2293   -10480    -6541    15367    46616    76914 
   95899    90106    57736    13139   -31219   -71153  -102647  -122121 
 -124853  -103305   -56332     6021    68786   123930   169773   196418 
  193755   167352   123271    58166   -27022  -117422  -183403  -203323 
 -186273  -147382   -83287    -1483    64643   101472   120612   120394 
   99956    69379    32318    -6430   -41469   -66886   -68477   -42675 
   -2696    40200    76775    95288    96515    95968   102529   109860 
  110200   105661    93898    56273   -10413   -74468  -105249   -97899 
  -64795   -20956    28193    70877    82478    61741    32209     3897 
  -30400   -69701   -99794  -106742   -79940   -20826    55546   142926 
  234088   303883   333212   316281   246255   128182    -9637  -140714 
 -256702  -343928  -378887  -360579  -302780  -199629   -53170   100342 
  239749   363992   436905   419396   328308   206646    84180   -24456 
 -118822  -206707  -278542  -302426  -268236  -197627  -107983    -5680 
  100430   188586   231737   217188   154937    80670    30093     4471 
  -16280   -41304   -61290   -63875   -44603    -7266    29252    46719 
   51346    49740    38635    27828    23030    18332    24363    53968 
   97490   136373   154387   135948    77553     5569   -44651   -66445 
  -72976   -74292   -74189   -69137   -55769   -36469    -9831    28423 
   80896   145589   201318   225180   216924   178109   113504    42783 
  -23158   -82945  -132371  -169007  -194575  -207186  -192055  -145401 
  -85787   -18643    61774   146231   219538   268830   282459   261947 
  215513   136030    23678   -96189  -202706  -283475  -327193  -327936 
 -275172  -172739   -56175    48637   140398   209003   245211   257558 
  246559   210858   165862   116051    50664   -25265   -92609  -141389 
 -178698  -212537  -225137  -189435  -111733   -17384    81105   172140 
  236825   264515   259523   223791   153695    65583   -21756  -114631 
 -207785  -266236  -269816  -233971  -173263   -86218    26862   166271 
  307522   395620   410699   363659   260792   127612    -8905  -141516 
 -249504  -304340  -301682  -251505  -163935   -54893    58695   167685 
  255075   289260   259327   181951    77584   -21887   -87799  -118266 
 -119317   -97492   -55542     8411    73563   106079    95083    52481 
   -4484   -61114  -102075  -114981  -105584   -86713   -52603     1872 
   58767   109285   166459   235563   303853   341421   322390   253655 
  147547     2166  -165053  -311718  -397674  -411271  -378184  -317912 
 -227883  -123993   -22347    85116   194700   284104   336800   350512 
  322442   243142   124172   -10437  -145492  -250860  -296527  -287842 
 -236432  -134859     8669   159758   294338   388337   409256   362427 
  276355   158500    17021  -128346  -261674  -353329  -362237  -284597 
 -162168   -31456    95965   206789   279104   297858   266614   199637 
  108376    15281   -51695   -85000   -89873   -77880   -59608   -28387 
   12713    35300    27477    11258    11641    31695    63105   108030 
  165588   213285   231093   216903   167907    82308   -22949  -118665 
 -182076  -208286  -206473  -183684  -148091  -113370   -77149   -33361 
    4566    28302    40761    44858    51160    66176    81967    86186 
   72840    47812    19727    -7454   -40327   -93794  -158267  -197874 
 -193616  -153794   -91094   -12808    73033   157031   228049   265904 
  255746   208142   142480    63870   -22541   -94781  -137206  -157300 
 -162511  -138906   -67645    32754   116300   170486   203273   197115 
  146705    84966    36910    -2517   -47919   -97309  -132454  -150488 
 -156611  -138034   -83069     5887   113344   206965   263105   283031 
  269477   218877   135640    33898   -66118  -144768  -194472  -214307 
 -201080  -155467   -86631   -15249    38122    81909   140944   204365 
  221110   167217    85855    27651    -9336   -42908   -60856   -45819 
    -786    54318    92614   112131   128340   134755   120869    86026 
   32568   -28010   -92566  -158761  -201394  -195214  -133720   -32200 
   74609   158041   207498   220703   201868   157999    90025     2374 
  -83389  -146397  -185524  -205274  -206315  -187207  -138717   -58894 
   33119   115331   171790   193063   183963   155047   105831    21924 
  -94667  -199290  -245396  -230474  -180047  -114024   -38595    40101 
  105477   141116   148266   141924   134072   125049   102961    60251 
    1860   -66581  -126776  -147303  -122547   -73253    -7828    69631 
  135437   176758   201926   211819   206508   187170   148658    97418 
   42983   -17206   -78652  -125116  -144950  -139167  -119342   -87575 
  -36723    18890    62492   103141   142900   169468   183163   185388 
  171086   143678   102724    39547   -38673  -114741  -176128  -207539 
 -198338  -153763   -92237   -30948    35768   122756   221193   299023 
  326298   301126   239960   146628    24874  -106225  -228454  -312866 
 -321458  -261826  -179623   -93129    -6188    61883   110554   149160 
  164404   144648    88095     6824   -66366  -116035  -135672  -109095 
  -57356   -12262    40775   105313   143863   144180   128942   113757 
   96351    61826     6731   -51231  -104686  -158318  -198264  -195466 
 -144136   -71647     1536    81093   171457   253773   294970   273960 
  200745   104667     1151  -104926  -190770  -230114  -216683  -158808 
  -67395    48702   163307   236270   250699   209980   132244    52431 
  -16402   -77424  -109591   -97140   -56611    -3076    64998   145728 
  219118   254258   241503   195342   116280     2810  -112951  -188017 
 -199389  -156084   -93842   -31509    38170   103385   138673   149299 
  152231   138565   102183    61669    30739     7964   -10357   -21798 
  -27851   -50138   -93282  -124317  -125047  -106399   -86234   -75839 
  -56591    -6459    58918   112032   139981   142284   121628    71994 
   -9313  -101903  -168291  -189681  -181518  -153902   -99312   -21862 
   64598   150111   224350   273202   282552   239736   138920    -2586 
 -150383  -274654  -349370  -365634  -340242  -277893  -177948   -63035 
   54869   175085   278310   343257   357226   315578   224759    99838 
  -32894  -148418  -226663  -249828  -230822  -199464  -153182   -78556 
   18595   135984   260467   345703   363497   328246   252230   141000 
   19264   -85700  -162249  -202616  -201451  -170124  -125834   -62676 
   32346   139926   221284   253973   237553   181027    93595    -9438 
 -104275  -175017  -217239  -228422  -208251  -158014   -78608    20746 
  120942   207014   267608   296693   299081   264424   184050    89980 
   13290   -41601   -76103   -98201  -111820  -118462  -123765  -115620 
  -80668   -31059    15887    58015    96468   119274   115220    92361 
   70930    65054    70362    75772    76663    68137    42854    -3052 
  -53614   -72561   -43589    15775    82799   140102   170729   162059 
  114620    46467   -15264   -51893   -65154   -64584   -52832   -34888 
  -11239    25428    62922    85138    95269    86030    42276   -30755 
 -116404  -190235  -223225  -205426  -145131   -53436    52462   149487 
  213378   220741   173739   107785    46746   -14063   -77313  -136176 
 -180506  -196877  -183323  -147736   -89296   -11363    72218   154163 
  221808   255909   253373   220155   165910   103256    33049   -45000 
 -123580  -197438  -256182  -283360  -266244  -198912   -94834    16884 
  118715   201629   250587   259486   238551   196470   137809    75421 
   14920   -53196  -119672  -152776  -133777   -67677    25994   122016 
  197723   234261   219460   157963    72758   -11196   -77701  -111737 
 -103669   -63604   -13947    32360    76073   114190   132557   117396 
   68994     4749   -56516  -101491  -115116   -92733   -50466    -7431 
   28974    54444    63917    63973    67397    70648    57023    23190 
  -19866   -65926  -107512  -131199  -126551   -85047   -14553    56684 
  107188   129039   122747    95626    55201    11246   -31341   -76259 
 -113820  -128716  -122753   -98670   -55547      -81    60420   113047 
  139634   138296   117110    77142    25513   -24805   -73060  -114549 
 -130841  -117070   -79826   -17536    65504   153019   227668   266998 
  254445   198373   115185    16774   -76621  -144275  -177321  -173715 
 -139544   -82481    -8775    60858   107557   134311   144369   136470 
