Origin Time       2021/02/13 23:08:00
Lat.              37.7
Long.             141.8
Depth. (km)       60
Mag.              7.1
Station Code      FKSH11
Station Lat.      37.2006
Station Long.     140.3386
Station Height(m) 170.5
Record Time       2021/02/13 23:08:12
Sampling Freq(Hz) 100Hz
Duration Time(s)  300
Dir.              1
Scale Factor      2942(gal)/8224139
Max. Acc. (gal)   75.751
Last Correction   2021/02/13 23:08:12
Memo.             
[...]
  156763   168723   172747   150639   115395   104560   113224   115541 
  119333   132285   137890   126835   118071   130360   148571   150298 
  138223   131342   136212   138888   134435   128808   123113   117953 
  116383   123367   129999   118345    96643    92080   112118   138457 
  150699   144629   132827   128794   130310   127800   122764   120777 
  122354   128271   133238   128443   118552   115566   122000   130855 
  133219   130343   133806   139445   135963   132167   135824   138570 
  130666   121267   123498   116581    93249    85071    92512    98537 
  111086   126636   130751   130350   135430   137195   128900   118993 
  110592   103185   106228   122057   138674   144448   137266   130388 
  132738   130626   122281   121686   128835   140895   141883   118084 
  105916   124622   137320   132445   124588   115514   111441   112969 
  113182   115056   114724   110948   112668   117463   123448   122438 
  109381   106361   110617   105206    99952    98477   105503   127325 
  145362   143349   130813   129833   140000   133805   116235   120363 
  139136   145613   144994   155700   166155   149979   118810   102249 
  104649   120391   137709   139644   131337   129905   135793   141949 
  149095   153677   144555   130189   129747   134769   133173   134239 
  139266   139831   137261   137272   137583   131353   117456   105705 
  118168   143494   136803   116779   131591   157403   156841   141693 
  130616   125633   127017   124754   115735   123034   131796   116434 
  112993   131336   138019   131422   124957   131005   150404   162166 
  152836   131008   120623   133708   147626   142369   132387   127279 
  115684   101835    99262   108274   124413   134352   131080   133346 
  137232   117940   101565   120792   139473   127908   118476   127803 
  136547   137123   129559   121490   127248   132968   122754   120152 
  130901   122116   102173   111146   141867   150554   125658   106004 
  110609   114215   107401    99015    98454   110405   115148   104017 
   98923   106508   114546   126184   144267   146826   128934   116955 
  119695   129095   139044   137309   121987   111462   120776   137538 
  140202   126989   109413   106137   121917   137423   140341   134811 
  124579   112880   113121   124181   124147   119792   130925   142905 
  144667   142623   134470   128085   128332   123461   118818   123250 
  127982   130897   134500   135913   136289   135453   139417   149742 
  138928   102774    91525   124259   150292   144556   138458   142234 
  140147   133273   131033   130427   124345   116417   116789   128727 
  136895   128178   117294   120750   133122   139429   132381   123861 
  132717   152752   153787   129886   115203   123269   127707   125215 
  135610   150608   148949   131588   119113   121589   130655   147025 
  161176   148252   116521    97837   106492   122823   125613   127433 
  131971   121011   103809   112792   142241   142758   108770    88933 
   96057   112484   138873   163777   156212   117682    92290   102012 
  113651   109366   110195   114060   108538   108106   119287   124595 
  121212   120677   125875   142923   159020   145633   116878   105112 
  115931   135611   139928   127569   127224   136922   129215   113350 
  110312   109432   100888   104155   126916   141701   138798   130678 
  118786   119578   144922   158893   140020   120067   117432   117676 
  116286   112963   101754    96471   110970   133462   151012   156743 
  146092   132044   131967   139326   140879   139607   140910   142311 
  139984   139899   143951   136552   120537   109332   101838   108176 
  121988   121032   118530   128154   137057   129417   109082   109809 
  137916   150574   139355   136314   139776   135888   139367   150730 
  150572   143488   139441   130374   121016   120984   124889   132757 
  137127   131310   129046   124714   116842   124367   130438   125239 
  135540   153168   153104   147118   148844   149732   146006   145089 
  142796   128220   110872   114269   136711   146368   137276   132193 
  137203   142416   131476   114417   119591   126430   108850    98151 
  114837   123309   111913   109078   111489   111696   117228   117933 
  117495   122019   119628   120330   131924   130859   115550   113742 
  123141   123799   123880   131600   130087   118705   122663   133216 
  123518   115800   124642   121181   109183   117428   138140   140001 
  120671   110822   123626   141390   142333   129828   126416   131730 
  133743   132015   122208   105759    99111   104596   108742   113892 
  125766   129801   121371   122200   134079   139178   143432   141582 
  125554   123129   127210   117340   120738   130343   121227   123283 
  146727   156060   139742   122851   121366   121578   122586   137366 
  146084   132921   126549   133870   129112   123329   127857   122895 
  112299   108508   102999    97147   102267   112870   121643   132251 
  141423   144283   141966   134295   130127   145589   174191   179925 
  144864   110376   115206   129956   128362   128826   131171   119107 
   98838    91242   106636   126387   134536   137529   131141   120108 
  129714   146935   142866   129625   124821   131106   144728   150998 
  143144   122608    99023    98032   120164   130671   123704   124089 
  126054   117563   114708   118648   118386   124236   134026   127741 
  114025   116546   130640   140171   146654   142416   125533   122354 
  125747   115879   113745   124173   127654   132082   147816   156624 
  145593   131399   130639   129743   117381   110128   112823   115333 
  119110   125475   133158   140393   140269   134943   128706   118211 
  108448   106542   112152   117525   123186   141187   154441   146246 
  134308   124663   114750   109941   108787   109999   114732   121143 
  126160   130631   134237   128177   117618   119291   123903   115735 
  102695    96765   104249   122218   129320   112413    89802    76821 
   75982    92742   112091   120290   132171   144545   135765   121716 
  129562   144544   143356   127377   116856   133045   165782   186476 
  183675   167945   157920   153489   144509   134693   127178   118058 
  105266    89835    77155    74879    85824    98122    99921   100043 
  106794   116934   130256   146703   160057   169913   183203   195124 
  195097   182821   171012   165761   154477   143271   142813   133084 
  116070   118261   126897   126717   127078   115893    96167    92772 
   92398    78228    63560    61591    74009    93015   106709   115333 
  130588   146292   141714   123765   114156   111130   112225   128949 
  149034   145930   125682   113260   119070   128999   119890    98348 
   88705    88210    80847    74884    82248    84304    78123    94157 
  120604   125247   119635   119971   134628   166669   190387   193243 
  197530   203891   193463   180639   180785   179076   167385   149069 
  131078   122361   118288   109368    97646    92430    93040    93329 
   98469   102115    93517    88522    99029   115284   130276   142848 
  143779   127749   108488    97360    93675    98663   111879   126114 
  135696   139072   136239   134100   144792   162946   170691   172520 
  176972   168934   140661   110269   101690   123187   160105   190198 
  201085   194325   172054   132059    94266    82946    93312   117774 
  144683   148888   132372   123013   133110   151636   157995   151183 
  159997   187601   199428   184635   156128   124406   110319   120268 
  128977   123133   114118   106124    91686    75533    60689    38450 
   21909    31180    55387    66675    61460    68423    92834   109329 
  126168   153944   167478   167105   158148   119947    68538    44062 
   55333    82104   102126   116622   133018   138724   128717   120557 
  118297   104897    80507    78069   116087   165987   199162   211212 
  203986   193966   197390   201118   191065   175890   160806   149871 
  161692   189218   197017   191362   205688   227677   229352   224787 
  232276   232424   219368   218705   224266   212152   189357   166116 
  139536   115510   101079    83701    51229    17242    -7612   -26569 
  -37881   -52019   -64856   -45592    -3555    31644    59640    84912 
  105610   116106   115426   120552   139723   159561   174031   183448 
  181201   171308   163783   153345   138001   125324   114196   110732 
  118937   108483    64717    29465    32933    55171    78849   108819 
  138497   155416   164481   168274   158687   150697   170058   196720 
  194009   165346   132660   109858   102278   108094   123583   152824 
  191544   210725   200229   190665   200773   205069   183000   150633 
  114571    71620    42763    36081    37282    55375    94946   126952 
  131369   109559    78869    65381    64805    54638    38658    26588 
   16378    19024    39279    66075   111235   175479   217742   219470 
  203817   182166   146048   113383   111721   124488   129988   130258 
  120842   108774   107812   111211   119357   138508   161356   180581 
  182089   156741   132757   128583   122554   107690   100930   110621 
  129848   149401   164937   168818   161632   160797   172187   184559 
  192881   183995   145822   110754   110130   124256   132020   134967 
  128873   116910   111396    95967    59610    32260    24727    17599 
   12968    20050    27409    39430    79953   137781   179487   198127 
  204749   209220   222157   236494   226889   194406   158697   125956 
   99871    89873   103916   127136   128547   104959    82949    80014 
   95670   128351   158556   153963   115500    66939    31194    31279 
   66704   107095   134708   158091   169414   150606   114014    81710 
   60598    58328    85089   127997   161589   181008   190313   199606 
  229347   269708   284971   274486   268944   266394   240135   201835 
  174360   146219   112549    90053    84589    94961   118546   146153 
  179919   224556   264288   283297   283109   263942   217755   155891 
  101082    52624    11808    -7099    -8008      264    18393    46288 
   84172   129393   166872   174486   143243    79936     5215   -48767 
  -65183   -43486    13174    88233   155054   198799   226458   240421 
  234750   216735   196771   193986   217188   226706   200618   180038 
  185890   184631   161882   160520   208923   255271   253061   230569 
  201252   146627    87228    50746    34750    30743    30348    26577 
   15762     6770    20849    51980    83309   122021   168482   209074 
  223743   213021   207160   193702   151799   110867    84665    69957 
   77683   107489   136335   137165   118287   108515   109190   106051 
   87554    51726    17948     8097    31064    76882   116469   144096 
  177149   209821   234339   249076   236916   212143   209166   208364 
  178571   133373    92588    63337    51306    64642   107543   152712 
  167337   157648   144247   138605   142597   153304   176731   213258 
  238972   229637   191863   155996   144151   147496   148554   151675 
  159895   166341   164963   140555    96954    72177    77996    83717 
   78337    66991    46565    36310    56293    89391   106459   105505 
   98821    87060    77043    72067    61735    53630    49604    17753 
  -38107   -57865   -23561    22686    56762    78204    80307    68265 
   54850    42369    46263    74775    94131    85068    86702   127538 
  161365   146701   121583   128587   164031   205235   226951   211069 
  153573    80910    39251    48832    91563   143494   191874   217802 
  216704   205559   188173   180403   204167   236605   251473   244541 
  213815   184686   176948   171312   172521   212121   278159   306528 
  258996   182772   136853   114875    98497    99640   116931   125213 
  124522   127464   110169    63972    20605    -9636   -18447     5476 
   27718    26049    24305    23670    14860    31907    87883   128866 
  129706   122413   113162    90404    69427    59965    50058    36709 
   27924    31966    59562    93722   110031   147586   231626   293818 
  290688   263575   240937   211688   182129   166729   149018   119880 
  102440   102568   100678    85193    58916    42934    63207   110975 
  150695   157289   130238    88229    57157    65488   107198   144034 
  168752   180644   165515   151124   170329   200275   220900   238185 
  236754   215484   202020   183471   128316    60177    31905    51371 
   74545    77745    84080   107411   145080   192258   227133   245625 
  262854   256667   199849   129487   106482   132900   171049   196179 
  202036   195744   176134   139650   109301   106343   115564   111789 
  102145   105783   119659   140544   172480   208037   231772   236297 
  223943   198493   186244   208103   217929   181481   145565   135958 
  116892    83918    73003    80261    78642    73171    73480    78744 
   72720    43553    34699    70976    96942    77126    52193    58973 
   79223    92281   109629   141281   177003   200541   200306   186221 
  184833   195732   194605   163310    95045    14389   -27965   -15897 
   16390    45408    83448   141520   194670   202544   168228   122285 
   76509    40352    27035    33794    59934   114309   175319   217648 
  255820   287637   292794   281308   241812   149069    47457     1011 
    3406     7163    16861    74409   143422   160803   139351   101821 
   69842    79037   108460   128745   154298   168475   151957   144173 
  157141   154217   126254    85733    54155    60956   105767   150961 
  160763   155463   184662   227226   221151   172995   116434    47007 
  -21624   -51962   -53090   -64701   -84681   -76824   -24020    61689 
  146377   187239   177909   143541    92052    56801    76609   114282 
  140728   169373   194583   214324   226889   223234   213124   201031 
  180160   165874   161742   128083    60805     4244   -29520   -45030 
  -25212    36844   116425   183258   216409   197108   146931   113792 
  101761   105835   132417   148915   120623    70830    49697    75061 
  120352   152876   177940   220270   256425   233423   158847    91785 
   71844   102716   151931   174113   166348   158881   168126   187184 
  206620   237404   280068   302502   287366   258417   240381   215050 
  164016   118490   109528   128345   145763   150736   164188   175371 
  144540    90502    56547    40473    30072    27417    27251    33914 
   60947    93490   112288   118935   117088   112495   112185   111447 
   95095    61713    29727    18131    33828    64681   103260   142928 
  160421   158637   158946   165869   176517   178545   172891   184900 
  200448   177676   140844   131872   124409    94522    61808    47290 
   64646   100097   128956   161508   198671   200188   154399   111977 
   99592    94678    99554   112774   117227   138715   189265   229192 
  227156   189560   151935   143056   149266   144938   139170   139185 
  130208   124148   138847   162278   178517   188923   199662   195031 
  162125   121363    95218    80115    69091    83596   136811   198436 
  235429   235292   205052   177115   173082   175856   170256   164371 
  154013   124517    83412    46214    24837    24705    28958    28888 
   35340    47298    58905    71185    79763    82096    89229   105486 
  117960   117405   114829   120430   125408   128769   133461   133016 
  128152   119794   108761    99291    98494   120677   153804   155619 
  118728    88190    87284    87804    84149    99400   125135   143148 
  152932   159277   167707   171745   162513   161646   184308   189652 
  156028   126962   115642    86655    42280    16255     7315     3141 
   27004    84518   136278   162286   168504   156564   139637   131310 
  116482    98656   122856   184346   215646   196388   165180   138724 
  119198   118948   134966   166259   198124   188798   146510   124634 
  128432   119442   105511   128649   173240   193951   190495   185379 
  176739   153007   130346   130272   147862   165770   165300   137107 
   89270    47490    45013    72796    88753    94716   116363   135237 
  121574    93375    80480    83693    98922   119119   139266   160751 
  160276   129712   109848   117620   125716   129064   142179   152834 
  143444   117857    94304    90359   104221   127637   154820   169192 
  159567   132601    99175    72480    65001    71091    81430   111281 
  166240   203216   186017   142977   114610   106158   113672   127731 
  128941   111002    88160    74343    68791    74700    93555   102285 
   91543    78228    60475    43633    63661   118678   158589   162282 
  144705   113547    87014    92522   127450   160235   161874   144622 
  134433   132313   140463   148109   132202   109725   108209   120640 
  139032   158789   158587   141080   138210   162128   201364   232835 
  229819   199303   177379   169389   156155   146745   160967   186563 
  201744   203520   188063   152906   117108    97132    91713   106130 
  142022   173040   171340   140204   112469   111474   121059   128297 
  139295   134487   106257    88416    81330    66826    65450    75550 
   69550    60799    69765    89495   117404   151950   182749   211681 
  232384   228168   219709   227557   231950   217706   184963   142682 
  107950    83216    74113    93584   123727   143125   146570   125419 
   96692    82981    66243    40608    37112    56533    74488    99636 
  137732   157889   148764   144620   159571   162517   146249   133529 
  128148   118357    95185    69147    64882    85243   108345   114828 
  102000    81272    67292    66355    73523    83602   104206   134950 
  148414   136637   128005   133267   138798   137693   128904   113081 
   96919    91633   100066   104885   100631   103750   111599   114928 
  113834    97006    66865    54249    71491   101740   127103   128470 
  106085    90320    95929   116753   144823   156762   129722    90339 
   90032   125977   164377   200568   233512   243228   217421   177199 
  154691   150684   146935   135099   121535   119969   132077   147631 
  155420   151625   147991   146047   131418   109790   102528   111682 
  117119   113634   120417   137735   143714   132705   115048   103877 
  114172   138356   148914   150269   156747   145644   117065   104778 
  110907   121454   129818   132706   132786   128725   116361    97679 
   90502   106150   121929   126963   144000   165249   150608   109648 
   95721   119240   142426   145157   139156   129296   107472    84724 
   84310   105544   130061   146765   155823   157874   145049   115381 
   90467    93970   118142   137768   144188   144990   148221   158602 
  168789   162841   148026   149581   163595   158610   137330   136237 
  154481   162976   159545   156190   151785   140915   122755    98836 
   86049   101968   125301   133932   135812   118269    76293    58434 
   86837   123259   146376   167842   176403   154801   126400   115303 
  119739   139823   166527   174538   164124   154064   137775   113526 
   98285    88932    86957   107461   130195   126962   114245   108487 
   95851    82364    91077   112785   118461   100549    83164    90734 
  110976   118658   107333    86946    82167    98860   110486   105895 
  100404   107924   130863   156523   161758   145652   139429   151598 
  158276   157858   162654   169153   168605   157096   142943   142422 
  158757   176427   179764   172195   166558   154327   125833   103026 
  100558   107472   114747   121494   137313   162541   171244   154750 
