Origin Time       2021/02/13 23:08:00
Lat.              37.7
Long.             141.8
Depth. (km)       60
Mag.              7.1
Station Code      FKSH10
Station Lat.      37.1616
Station Long.     140.0930
Station Height(m) 364.4
Record Time       2021/02/13 23:08:15
Sampling Freq(Hz) 100Hz
Duration Time(s)  293
Dir.              1
Scale Factor      2940(gal)/6170270
Max. Acc. (gal)   49.707
Last Correction   2021/02/13 23:08:00
Memo.             
[...]
  -22160   -21893   -17383    -8703    -3338    -3684    -6838   -13701 
  -21242   -23036   -19794   -15155   -10918   -11043   -16672   -22580 
  -25968   -26913   -26067   -24292   -18905   -11873    -9876   -12710 
  -19007   -25586   -24433   -19447   -19445   -21202   -23092   -26387 
  -25237   -19970   -18109   -17846   -13854    -9235    -9333   -13552 
  -16420   -15870   -13927   -11860   -14030   -19770   -21491   -23351 
  -27331   -22447   -12419   -10483   -16103   -20386   -19405   -20324 
  -25380   -25512   -22312   -22040   -21654   -20510   -19536   -17666 
  -17306   -18516   -17716   -14203   -11537   -13371   -16928   -19970 
  -24351   -25942   -23442   -22591   -22710   -21362   -20824   -23645 
  -27744   -25455   -15293    -5414    -2259    -5095    -8768   -11217 
  -13504   -14827   -15765   -18106   -21369   -22286   -15141    -1845 
    5731     2719    -6949   -18371   -23567   -20692   -16652   -13829 
  -13090   -14988   -15989   -17213   -18910   -17203   -15140   -13836 
   -9573    -6010    -6906    -9295   -10315   -11396   -16551   -24073 
  -27814   -28293   -29289   -28720   -23698   -19739   -21292   -23254 
  -25377   -29150   -26623   -18172   -14113   -15662   -17150   -16600 
  -18000   -22081   -22649   -20496   -19435   -18468   -21454   -27764 
  -26118   -15693    -8406    -8836   -12037   -16084   -20456   -19363 
  -12757    -9243   -10488   -13379   -17032   -18052   -15664   -13268 
  -11735   -12935   -19405   -24916   -23105   -21518   -25330   -28283 
  -30749   -33874   -28613   -15998   -10520   -14221   -16436   -16228 
  -19472   -23598   -24514   -23472   -20409   -17425   -18763   -22786 
  -27276   -29179   -24934   -19674   -17647   -16714   -17047   -16934 
  -13582   -10998   -11457   -11056   -10856   -13621   -15298   -15964 
  -18340   -18317   -16460   -16080   -15449   -17829   -22895   -20495 
  -12636   -10377   -11583    -9021    -5664    -8394   -14397   -14743 
  -12176   -15592   -20237   -17438   -14695   -22652   -32207   -31786 
  -29704   -31183   -26798   -19533   -19115   -19540   -15816   -12609 
  -13982   -20156   -23504   -21675   -20867   -21750   -23909   -22071 
  -13232   -10049   -15226   -18564   -18626   -16644   -12879   -11379 
  -14427   -17333   -16291   -16591   -21012   -23948   -23095   -19998 
  -14306    -8377    -8579   -15748   -22185   -22910   -22125   -22157 
  -18573   -12093    -8578    -7989    -7801   -10769   -18480   -24853 
  -22002   -11738    -6031    -7153    -8096   -10821   -15173   -16838 
  -18667   -21653   -23612   -20193    -9268    -2891   -11078   -24028 
  -29363   -29165   -27349   -21789   -15875   -14290   -14332   -15263 
  -19590   -23823   -23531   -20173   -18034   -20645   -24147   -23038 
  -20294   -17362   -15428   -20144   -25494   -20760   -12469   -11004 
  -12045   -11102   -11814   -12698   -12757   -16760   -20652   -16606 
   -8614    -6915   -11659   -13292   -11825   -16173   -26905   -35851 
  -35146   -26146   -17761   -12572    -8441    -9871   -20024   -30909 
  -33324   -27207   -20317   -19776   -23076   -23755   -21968   -20555 
  -21483   -24764   -25569   -22805   -18329    -9412    -1648    -4346 
  -11252   -12909   -11820   -14792   -19675   -17886   -10646    -6379 
   -7290    -8537    -6654    -7003   -12591   -18001   -22458   -25890 
  -23955   -18557   -16148   -19220   -24686   -26061   -20250   -15228 
  -19447   -23299   -18867   -18613   -23566   -19125   -11299   -16326 
  -26936   -26458   -18671   -12265    -2974     3467    -5487   -21708 
  -29701   -26642   -18981   -13854   -12939   -14776   -16355   -16250 
  -18003   -20966   -23069   -26301   -25813   -17149    -9346    -9983 
  -12431   -11241   -11954   -17219   -22327   -23893   -23600   -26038 
  -28875   -25772   -22002   -24166   -26574   -25034   -23499   -25158 
  -26496   -19915    -7798    -2858    -7164   -10732   -10241   -11158 
  -16516   -21154   -20285   -20466   -26268   -29580   -27801   -27961 
  -30484   -30260   -24828   -15587    -8092    -6405    -8445   -13483 
  -23055   -28274   -23670   -22411   -27538   -28636   -24579   -14800 
   -3112    -1449    -7019   -10522   -13606   -17517   -19464   -19641 
  -19715   -17501   -13322   -16834   -27857   -31438   -24401   -16618 
  -11933   -10958   -16554   -21841   -18304   -15869   -21769   -22796 
  -13597    -5929    -5924   -11402   -18085   -21929   -25167   -28307 
  -25630   -17942   -11785    -9337   -10125   -13142   -16666   -22237 
  -28936   -31076   -30131   -26667   -16831   -10375   -13392   -13694 
   -9583   -11255   -17350   -20925   -22915   -24760   -21609   -15930 
  -17177   -19681   -14718   -10265    -8258    -3041    -2249    -7637 
   -9782    -8766    -5494    -4070   -15632   -28745   -26788   -20856 
  -18629   -16925   -22064   -30463   -30965   -26923   -22326   -16437 
  -12082    -9660   -10433   -15158   -19495   -25846   -34181   -34681 
  -28782   -24858   -22742   -23250   -28553   -32198   -28476   -22010 
  -17484   -14330   -10096    -3276    -2299   -12062   -18934   -17783 
  -17027   -16183   -13267   -10751   -10992   -16032   -21604   -21811 
  -18970   -17693   -16552   -15436   -17983   -20433   -19230   -15962 
  -10783    -8616   -10385    -8628    -3529    -1816    -7937   -18487 
  -25385   -27049   -26970   -26763   -24528   -23714   -29641   -34414 
  -33799   -32363   -27055   -19100   -13365    -9410   -10501   -15619 
  -18939   -21348   -22694   -21814   -21419   -21789   -22915   -25659 
  -27989   -28024   -25903   -23530   -21565   -19771   -21113   -23469 
  -21052   -17910   -19000   -19611   -14460    -6126    -2211    -3724 
   -4455    -4732    -9609   -16655   -19670   -20282   -23175   -23169 
  -16030    -8443    -4853    -7526   -16755   -21249   -14602    -7358 
   -6642    -7720    -8453   -10357   -13079   -18389   -25323   -28838 
  -27975   -23921   -19752   -20381   -23973   -25329   -26679   -29435 
  -27557   -21529   -18003   -17416   -18095   -19590   -19107   -17716 
  -20104   -19892    -8793     1655    -2200   -14057   -21772   -21063 
  -18303   -21600   -24795   -24131   -27323   -31420   -32188   -35072 
  -37303   -32599   -24902   -20900   -20214   -16578    -8956    -4939 
   -7991   -13671   -21629   -31924   -33857   -24944   -19833   -21144 
  -20563   -22962   -29550   -28199   -20181   -18008   -19418   -15246 
   -9554   -11057   -17972   -22652   -25781   -29713   -27033   -22353 
  -24883   -19807    -5627    -3115    -9986   -16672   -26424   -34247 
  -33492   -28527   -22885   -16296   -11112    -9852   -12053   -17375 
  -23740   -22532   -12024    -2554     2972     8632    14469    14828 
    2337   -14154   -20401   -21994   -24967   -25816   -26906   -27431 
  -21092   -10132    -2332    -1136     -489     4413     5104    -2259 
   -8816   -11662   -15300   -19990   -20557   -15501   -11968   -13211 
  -13964   -13444   -14452   -14423   -12597   -14757   -22267   -28681 
  -27943   -23471   -27123   -37391   -38585   -31706   -29500   -29064 
  -23041   -15870   -13529   -16342   -19460   -19068   -20214   -22091 
  -17254   -14846   -23282   -30723   -29605   -24427   -19159   -14413 
   -8372    -5457   -10065   -11958    -5792    -4084   -12181   -19921 
  -21814   -19782   -15017   -14064   -20852   -26440   -30417   -40354 
  -46698   -41671   -34491   -25163   -10498    -3798   -11366   -21023 
  -24958   -25022   -21798   -13928    -3776      -67    -6406   -11068 
   -5334     1775      385    -8403   -18486   -23583   -21241   -17358 
  -24364   -42725   -55300   -56422   -55456   -51962   -43371   -37423 
  -40214   -51037   -61559   -60864   -51366   -38622   -19221      -90 
    5835     4684     7526     8640      191   -10633   -12467    -5232 
    4353    10874    10598     2088   -11877   -22939   -26701   -24926 
  -14327     3274    17226    23699    22633    15889    10604     7999 
     927   -11142   -18369   -18021   -16919   -17415   -18631   -21065 
  -26831   -36179   -42184   -40306   -33995   -27013   -22323   -19799 
  -15065    -8323    -2738     2185     4922     2007    -5402   -13165 
  -17356   -20694   -31284   -44930   -52825   -58197   -59668   -53699 
  -45720   -35076   -23257   -14502    -1501    12422    17217    22018 
   27889    17447    -4382   -18120   -27030   -36658   -35174   -20836 
   -9915   -13307   -30350   -54791   -71663   -68515   -53854   -42975 
  -35088   -24460   -17295   -16929   -16875   -16440   -13027     -772 
   10097     9584     5283     3766     2182    -4796   -16081   -21389 
  -19252   -17858   -14599    -5366      298    -4484   -11841   -14174 
  -14655   -17531   -22359   -28134   -36408   -48706   -58702   -61014 
  -61732   -60641   -50118   -34358   -18681    -3418     6625    12883 
   20816    26882    25308    14469     -933   -13627   -25560   -45116 
  -67553   -72399   -53570   -29075   -10604     3741    12655    14527 
   12013     6604      681     -753     1410    -1462    -8888   -13683 
  -23364   -40994   -50411   -46566   -37436   -25079   -12643    -5607 
   -4743    -9449   -17896   -27783   -35379   -31166   -18992   -17115 
  -21812   -18253    -8581     2426     6150    -7779   -28624   -39712 
  -40570   -38633   -35410   -25340    -7073    10389    15679     8653 
    -422    -4274    -2696     1201     6283    12537    13334     2220 
  -13411   -20345   -14078     -962     7213     9448    15795    24168 
   24144    18222    12644     -292   -26233   -51508   -62478   -58916 
  -43754   -22387    -7226    -7449   -19427   -35046   -43911   -35477 
  -18061    -5255     6544    18004    24956    29672    27068    10911 
  -15337   -46816   -70641   -69719   -54508   -52805   -64641   -68346 
  -58558   -46330   -35107   -22274    -9666     4169    20991    33889 
   36626    28582     9339   -17538   -41472   -54546   -57365   -56532 
  -63594   -82803   -96051   -85441   -62635   -44253   -24538    -1260 
    9353     2193    -4242     5816    23499    30858    26906    16703 
   -2683   -24414   -33615   -28032   -18211   -15412   -17687   -16003 
   -8094     4243    13757    14599     7914    -7350   -20941   -15547 
   -1652     3333     6485     6036   -12505   -37149   -47916   -47002 
  -43795   -46849   -59445   -69202   -65497   -52933   -38061   -25344 
  -21117   -23651   -22098   -17308   -16530   -14191    -9068    -8595 
  -12077   -19389   -30458   -37116   -36155   -29475   -19244    -8710 
    8195    36050    59143    63526    57048    47553    33125    16900 
    -288   -18753   -23071    -9106    -1089   -11340   -28839   -49135 
  -73322   -90395   -87391   -66025   -41166   -25757   -20883   -22236 
  -28519   -43588   -65207   -80766   -85588   -81840   -68888   -47290 
  -17085    16603    41452    47871    33998    12569     2267     7851 
   20430    30064    34074    31803    21689     6683    -9952   -23742 
  -29749   -37135   -58710   -83469   -85329   -57123   -24435   -19364 
  -37008   -44863   -32492   -11370     8125    14191     5562     -495 
    2155     2734     3151    12256    21472    20039    15437    15612 
   14693    12124    12135     5640    -6714    -3496    15196    24532 
   17951     4513   -10250   -17271   -14308   -13007   -23094   -42854 
  -54947   -46787   -33811   -33484   -35811   -25952   -17297   -29339 
  -52093   -64854   -62234   -50091   -38331   -32997   -36348   -52060 
  -67419   -58315   -33588   -19051    -6282    15955    26581    17153 
    6892     1901    -5119   -12737   -17469   -17958   -11095    -1958 
    -615    -4633    -8715   -15075   -21956   -28402   -39039   -51638 
  -58327   -57915   -60427   -70685   -74663   -65583   -60305   -67446 
  -67527   -48708   -30922   -24720   -16792   -11158   -20436   -30730 
  -26968   -14498     3113    22952    35392    37130    26163     2703 
  -17648   -22781   -21927   -26476   -32997   -30122   -14902     1514 
    8901     5194    -7516   -19872   -21308   -11221      202     3425 
    2335     2536     2069     1933     4851     9488     8611    -1501 
   -9275    -8735    -8703    -7372     7247    31799    45315    39922 
   31837    22924    -3437   -40539   -63284   -60476   -41218   -24316 
  -20211   -24628   -30704   -39494   -53353   -64056   -62494   -53047 
  -40447   -21242    -3238     -750   -10959   -25210   -44299   -66256 
  -79013   -78853   -74942   -66462   -55853   -60864   -73539   -68260 
  -48984   -29694   -12903    -4884    -6245   -11238   -18944   -21889 
  -18029   -17122   -15275    -5416     4085     7685    13395    25046 
   30230    18539    -5173   -30617   -42964   -29583    -2593    14306 
   19076    20147    15857     6333    -2244    -9870   -19939   -27708 
  -24595   -12767    -4072    -1930    -2181    -7872   -15684   -13028 
   -6623   -17464   -45968   -64111   -53603   -36490   -36775   -40995 
  -27061    -4617     2102    -5182   -11893   -15995   -15096    -2380 
   18429    29728    24593    21093    28401    33214    24114     1413 
  -20775   -30244   -34646   -41410   -46917   -54809   -75107  -103482 
 -116292   -95317   -55206   -24116   -10132   -13303   -29390   -36328 
  -20570     6672    24226    16879    -1527    -6761    -3259    -3180 
   -3161    -1136    -3781   -14234   -27378   -36433   -33276   -19067 
  -11282   -16608   -21888   -16310    -4447      -26    -3284    -3011 
   -5139   -22075   -43071   -46847   -29227    -7864    -4241   -16828 
  -26950   -33016   -45522   -59620   -65007   -56764   -35842   -16635 
   -3421    15926    37863    54777    71583    85897    86527    68069 
   35158    -1852   -33809   -52489   -51967   -39302   -28781   -21291 
  -10229    -1705    -3846    -9872   -11370   -10086   -14213   -31975 
  -56298   -67809   -57561   -34905   -19534   -14155    -3862     5707 
    1732    -6003    -8373    -9336   -12472   -21589   -38461   -50951 
  -43093   -21210   -11796   -29177   -55656   -63574   -52837   -43217 
  -40304   -38304   -31649   -16127    -2916    -5488   -13798   -13481 
   -7157    -5190   -10054   -13893   -18111   -34691   -58273   -66200 
  -47583   -18451    -4993   -12265   -22619   -25337   -28623   -37738 
  -46045   -50065   -46116   -32274   -21853   -21391   -22527   -26403 
  -35924   -43784   -43277   -32699   -19182   -11420    -6776    -2746 
    -986     2690     6555     1854    -2967     5318    18066    22669 
   17577     4194   -13943   -34725   -56737   -70007   -64172   -45362 
  -31376   -31238   -37257   -36725   -38116   -60393   -83623   -79317 
  -63133   -50941   -37462   -27382   -25372   -26641   -30517   -37236 
  -39727   -32842   -18197     4439    27844    37144    30213    11508 
  -11569   -23422   -22135   -16915    -8101    -2363    -8538   -15088 
   -8253     5308    11538     9796     4462    -2889    -1434     8743 
    6266    -9585   -16563   -10865    -7131   -11524   -16830   -16304 
  -14112   -13588    -6009     9364    17711    14441    10288    11729 
   15076    15418    13530    13402    15340    16111    17319    22810 
   26832    21995    12737     5075    -3081   -13294   -24829   -38249 
  -45965   -36500   -17666    -9732   -16847   -25681   -22940   -10043 
   -4018   -15002   -31802   -40505   -42329   -42937   -42773   -47354 
  -59885   -64116   -47842   -28909   -26675   -30767   -24141   -11947 
   -9289   -18868   -28500   -28389   -24405   -21576   -12879     2784 
   13665    10564    -2822   -18711   -35043   -49996   -57383   -53624 
  -42315   -25877    -7198     1818    -5313   -22445   -39592   -43863 
  -32315   -20043   -18059   -19174   -12915    -4297    -8975   -26546 
  -34768   -23126   -10124   -12991   -26750   -37467   -34196   -18017 
   -1527     7800     8242     -118    -9058   -12420   -15719   -22567 
  -31940   -44325   -49790   -40974   -32002   -27660   -18120    -7108 
   -1703     -859    -1103     2485    10523    16528    13789     4460 
   -3407    -6708    -7280    -8097    -6457     2807     8740      373 
  -11137   -21012   -33593   -35984   -23886   -13201   -10248   -12315 
  -18837   -30673   -45627   -52901   -46616   -33078   -17177    -5863 
  -10754   -27463   -38209   -38696   -36636   -33269   -27804   -27183 
  -33819   -38006   -36161   -34638   -33847   -32067   -29793   -26114 
  -24616   -24799   -19842   -16274   -22485   -30452   -34831   -38932 
  -37945   -26813   -17026   -22354   -33089   -29395   -18175   -20472 
  -29310   -22984    -3851    10645    13096     6241      368     5238 
   12710    14369    18007    18222     3540   -10679   -10022    -7273 
  -15078   -23840   -18519    -3001     5401       38    -7945    -9634 
  -10627   -13093   -10506    -5079    -5507   -11129   -14449   -16084 
  -22547   -29606   -29522   -28932   -35568   -41191   -39061   -37868 
  -43203   -48246   -46526   -41163   -35295   -23980   -13284   -15677 
  -21842   -17568   -10081    -9192    -7880    -2744    -3192   -10042 
  -18194   -27007   -28898   -16536    -2668    -7204   -27101   -39193 
  -34750   -26723   -25913   -32761   -42412   -50639   -52435   -40328 
  -21846   -13064   -12816   -15726   -23202   -29724   -28725   -23383 
  -18502   -12120    -4622    -4554    -8970    -6364    -1938     -579 
    4523     9834     8596     4341     2606     2087    -3253   -11735 
  -20803   -31219   -31504   -16704    -5812   -11101   -23525   -29714 
  -24926   -16776   -12387   -11604   -14188   -15114   -10606    -8272 
  -10122   -10257   -13071   -19340   -16076    -5718    -1435      226 
    2911     2023    -1474    -4554    -4735    -1319       95    -4450 
  -12374   -20669   -26301   -26698   -24426   -24751   -28366   -30868 
  -33420   -38186   -36826   -28436   -21901   -16010    -8637    -5821 
   -9486   -12924   -12613   -16040   -26156   -31148   -25919   -22759 
  -26312   -29440   -34004   -39059   -33617   -20365   -12744   -13544 
  -16057   -18753   -28419   -42149   -44313   -33698   -22227   -10646 
     329      844    -8944   -20188   -28472   -28450   -17890    -8587 
   -5509     3296    16012    18595    12964     6075    -4362   -18068 
  -28593   -31303   -27643   -22287   -16726   -12557   -14201   -20360 
  -23937   -19777   -11850   -11093   -15852   -13250    -6325    -9241 
  -17952   -19890   -19724   -23637   -26000   -26047   -25803   -21484 
  -15738   -17911   -27602   -32046   -25589   -23021   -35275   -47549 
  -45617   -38002   -35091   -32873   -25160   -15692   -11394   -10599 
  -12184   -23216   -37867   -37168   -21753   -12472   -17816   -24048 
  -22150   -22768   -28016   -23130   -10203    -7409   -14611   -15056 
   -5738     -363    -5872   -15921   -20879   -17200   -14503   -23977 
  -39217   -47062   -50115   -53729   -48653   -32229   -17266    -8537 
   -2074      402     1265     8175    15182    14226     9472     -889 
  -16869   -22503   -16712   -15750   -16053    -7211    -2476   -12068 
  -22150   -24335   -25502   -27922   -31322   -37798   -41146   -36733 
  -31153   -25670   -19583   -18089   -17714   -13486    -9567    -6095 
    1023     9322    11850     5112    -6443   -13948   -13936    -9560 
   -5683    -7720   -12500   -10827    -8004   -12188   -16923   -19653 
  -25494   -33055   -35547   -28128   -19731   -23283   -30713   -31007 
  -29873   -29321   -24509   -18952   -18692   -22461   -27109   -32185 
  -33242   -28587   -27617   -30943   -29648   -26242   -24521   -21570 
