Origin Time       2021/02/13 23:08:00
Lat.              37.7
Long.             141.8
Depth. (km)       60
Mag.              7.1
Station Code      FKSH19
Station Lat.      37.4703
Station Long.     140.7227
Station Height(m) 510
Record Time       2021/02/13 23:08:06
Sampling Freq(Hz) 100Hz
Duration Time(s)  219
Dir.              6
Scale Factor      7845(gal)/8223790
Max. Acc. (gal)   367.508
Last Correction   2021/02/13 23:08:06
Memo.             
[...]
  -40510   -41918   -17151    -9474   -13856   -17649   -62136   -89471 
  -46271    -3248    10419     9873   -14569   -55590   -71570   -26616 
   14408   -15222   -33740    -3025    -6142   -17500    24097    39896 
    -735   -27314   -40390   -53374   -45705   -42704   -50041   -36302 
  -17849   -12459    -9024    -9105   -10188   -10287   -26142   -60345 
  -70043   -31113     -689    -3395    -1881   -14577   -54689   -68569 
  -37767     8109    38800    13690   -61697   -97576   -55740    -6756 
    9354    15113    10836    -6022   -13173   -20493   -43448   -44392 
  -17018    -9643   -13027    11195    24483   -12059   -52502   -51791 
  -17247     -324   -47491   -97603   -83416   -47506   -30014   -28059 
  -25363    -6160     6258    -9317   -31330   -15253    28544    15655 
  -32709   -20285     4183   -24621   -58500   -54139    -2686    35392 
  -16735   -79176   -55745   -10986    -8212    -9737    -4347   -17062 
  -24201   -23830   -37131   -13070    55657    66474    -9410   -71325 
  -63757   -48169   -62926   -66506   -53920   -65784   -86769   -72385 
  -37451   -14412    11242    40805    29376   -27338   -55902    -8159 
   46762    27757   -16789   -23757   -37308   -62418   -34615     6976 
  -10478   -45746   -59443   -72794   -70926   -47321   -33359   -15871 
   14989    18126     3699    34327    88280    81556     3206   -95762 
 -154789  -125128   -41266     8083      -43   -27957   -54588   -73012 
  -57399   -11283    12125    -2847   -19689   -13350     7851    10150 
  -15272   -17698    22141    26238   -27157   -35743     2918   -14137 
  -75578  -110236   -95195   -40068     8229    12333   -16208   -30240 
   -9151    -2640   -23553   -22149    14257    54432    49513   -20534 
  -92182   -88033   -34388    -8838   -16016   -46593  -107451  -127603 
  -63683       36    20135    40684    41916   -22387   -68709    -6691 
   44933   -11136   -45315   -23452   -47970   -75865   -44675     1443 
   29270    27993    -7033   -57902   -78807   -43263    -5206     2335 
    1162   -35168   -96369   -94612   -27908    19507    15714    -6655 
  -32580   -58685   -38655    20996    28038   -27070   -58287   -40144 
  -18756      294    38097    50807    -1757   -67695   -94068   -89665 
  -53763    -4908    -3393   -22346   -16830   -17104     -820    39649 
   39698    12445   -14675   -72859  -123063   -82822     4278    33563 
   13716   -17092   -52798   -37407    15838     1809   -46116   -31769 
  -10995   -39035   -56751   -29371    13031    27816    14420    -7300 
  -47518   -71512   -40213    -2072     1922   -19248   -42718   -39842 
  -19430   -17123   -28063   -31652   -43530   -61634   -45600   -22711 
  -42330   -43731     3493    32499    39137    31006    -8014   -15670 
   11763   -20494   -81112   -68644   -34653   -61736   -75308   -38543 
  -40057   -55644   -27662    -5606     9691    38703    38862     5482 
  -25523   -55425   -76329   -53858   -20929   -13262      294     3724 
  -43804   -86834   -42364    33925    19749   -43125   -56590   -49134 
  -32125    19965    59799    52485    11689   -37633   -65851   -72121 
  -59078   -34437   -22194   -17662   -42314   -94316   -70875    21693 
   49432     5435   -25436   -34811   -37725    -6224    27862      143 
  -25323     3809    15743     8842    13300   -17416   -64359   -83258 
  -99366   -95222   -49268    -6173    31769    87907   102485    -2471 
 -146250  -159317   -64377    -1863    -9367   -54746   -69466   -39465 
  -26877    -2023    72014   115153    64654   -42689  -108237   -70167 
    7554    18871   -43371   -85271   -47715    -3088   -17649   -37145 
  -41276   -65211   -53288    22257    56898     4407   -63526   -94743 
  -78887   -17918    44107    46959    -3485   -36293   -12588     4870 
  -40320   -83342   -71875   -54939   -62106   -65489   -49484    -7169 
   53962    70657    28553    -2327     7824    43776    47123   -34751 
 -109729   -86740   -41791   -33002   -19758    -6729   -11973   -16617 
  -42201   -96685  -109174   -39744    33399    24484   -33073   -74931 
  -91573   -58064    29178    80554    41370   -49017  -139954  -144918 
  -20298    99677    99515    25645   -54002   -85392   -39352     9410 
  -14943   -53712   -42126   -44095   -85345   -57177    35845    41233 
   -6934    27284    47980   -16212   -41489   -48573  -107617   -95593 
    8779    52219    14027   -30110   -67112   -75158   -33173    -5491 
  -32602   -49908   -44717   -56546   -40736    24166    70094    50507 
    3893   -26982   -58899   -53708    10346    44828    28456    -5647 
  -55502   -95890  -105368   -74587   -16386    12455     -357    -8681 
   14146    31706   -18218   -81739   -57442     4738    18966   -14372 
  -63747   -69418   -14574    29907    17412   -26353   -50653   -37547 
  -17491   -27168   -61431   -58671   -15434   -23260   -68636   -55926 
  -12568    -2405    -8838    -6390    -2133   -29508   -70780   -49084 
    5219    33933    57289    23980   -58772   -62363   -25884   -46496 
  -50612    -1755     9437   -39676   -71767   -42179     6087    26094 
   13967   -25035   -44609   -18441    -8363   -22225   -12185    -7969 
  -35911   -40659   -14041   -30132   -75196   -62028   -16483    -5184 
  -17982   -46685   -55576     9940    68879    32000   -41127   -77252 
  -53457     5494    31837     2188   -65797  -117931   -80388    10542 
   45912     4700   -53904   -69807   -12692    59900    46581   -22812 
  -43364   -30392   -32925   -16911     5339   -24036   -59661   -51957 
  -59533   -93722   -70954     -684    13710   -25618   -41027   -41953 
  -49102   -13220    42195    32436    -3419     6718     7298   -47046 
  -73812   -26923     9670     1233   -20345   -79467  -135754  -108722 
  -49107   -11115     7129   -10181   -37844   -35415    -4507    48940 
  104218    89803   -21361  -118270  -106670   -34603    20850    29335 
  -11561   -78410  -124151   -90784    11776    66306    31148   -10517 
  -45063   -97627  -115051   -47679    53298    77662    -1343  -104384 
 -123778   -29721    45825    36389    35721    27974   -39892   -91504 
  -69996   -12343    10060    -2941    12654    30194    -4947   -45303 
  -52546   -49152   -22297    12218   -19619   -79963   -70387   -12195 
   23522    16861   -18966   -54558   -64331   -47043   -19128      800 
    1738   -38237  -108741  -109102    -6666    68848    32875   -39263 
  -41636    24853    73113    49107   -24278   -58692     4698    56717 
  -19765  -110650   -86984   -53426   -87350   -81035   -28206   -29076 
  -39282     6983    24757   -16401   -19075    -8683   -55117   -71824 
  -23454    17123    37130    41503    36337    31860     3291   -33982 
  -55171   -67633   -57418   -56829   -93052   -75933    17396    57451 
    4333   -42670   -55954   -64955   -28819    34605    31992   -10825 
  -37039   -67077   -67917    -9012    45519    57773    28320   -41724 
  -91230   -66044   -23974   -40636   -63015   -20077      811   -54683 
  -72431   -21265    12706    14787     1340   -50969  -114012   -85888 
   30879    91231    54099     9250   -21259   -44888   -19032    51737 
   85870    44523   -18632   -76110  -119466   -92770   -26747   -24267 
  -73462   -69363    -5576      766   -58041   -69898   -44477   -51416 
  -51522   -27031   -48649   -76060   -12366    42704    -3399   -30956 
    4908    26487    27706    20965    20166    20622   -17416   -45750 
  -26126   -14746   -16956    -9722   -17601   -61549  -119812  -131815 
  -80449   -30130   -14527    -9479   -17381   -21799     8293    11703 
  -14824    15888    46936    12085    -8541    17523    33357      517 
  -44768   -35171   -21000   -77657  -130129  -135615  -143289   -94163 
    7445    21041   -14450      491    12378    -7213   -10567    18797 
   35792    25154    32074    27999   -16796   -43098   -43004   -25259 
   25917    54033     2670   -87315   -98504   -10404    28418   -24800 
  -70762   -85911   -60280    23784    82926    72013    50155    19118 
  -41280   -70798   -20173    47100    25232   -62760  -113679  -112781 
  -64243    20852    16162   -84312   -89523   -16935   -21348   -44215 
   -9541    15155    -7824   -21250    -7605   -46769   -95743   -19145 
   97141    80950   -34412  -108307  -108978   -78664   -31727   -12596 
  -22067   -15574   -59614  -143106  -129986   -49493   -20286   -29685 
   -3175    39970    26712    -7659     1441    21028    17347    21126 
   48433    22200   -89244  -158434  -116178   -55196   -52051   -64597 
   -5256    95562   116594    78236    60258    11280   -67425   -79475 
  -53898   -77572  -103338   -50485     9895    -7327   -31533   -20781 
  -38348   -65786   -33552    14331    -7551   -59582   -44959    11172 
    6205   -77133  -119861     2979   160308   118787   -10925   -44755 
  -84829  -145476  -127307  -103422  -106975   -57385    30053    32925 
  -44875   -29026    42688    13802   -38877   -54653   -59911   -26526 
   10816    13076    -4039   -40016   -65311   -53080    -6269    64640 
   75240    -6543   -59763   -46315   -37004   -20686    29366    72280 
   75844    50546    28332    29508    52934    60112    -3659   -77143 
  -60430    -3704     6431   -25698   -53816   -65615   -96496  -118820 
  -87936   -69430   -69672   -25123   -12194   -61238   -52650     9741 
   33400    19310     7769     6783      436    -5745   -15039   -49391 
  -78532   -86973  -104955  -114871   -94809   -76847   -75640   -56727 
   -1305    39546     8951   -45110   -29963    33463    35392   -28324 
  -36154    18424    24965    -2123    -8505   -24806   -35426    -6984 
   23067     7064   -59748  -108108   -76270   -32719   -39039   -32000 
  -19471   -76033  -108924   -25402    54006    53615    62145    83697 
   47285    -6205   -21388   -33496   -52393   -39027     1113    24143 
    1443   -55543  -106354  -112972   -82850   -68654   -69010   -43995 
   -8698    -3183   -35676   -32497    37399    67479    43965    23619 
  -24046   -59381    -4368    54078    -5859   -99856  -100502   -68037 
  -54120   -17984    18885    11755   -35540   -54175     5475    74525 
  109162   128313   105883    45731    -8216   -50419   -72427   -59576 
  -29331   -13490   -42541  -101787  -127030  -104612   -81132   -68538 
  -31144    22631    28988     1595     -342      -98    -9988    -5324 
  -10065   -28178   -32528   -47973  -104885  -144876  -107072   -62727 
  -62833   -51740   -62564  -127381  -137952   -58996    27236    61119 
   54766    76881   100140    38894   -26048     6601    60048    57785 
   43795    43592    27895     8545    -2031   -15919   -14485     3168 
   20954    26739     5940    -8422    -1744    -6848   -15681   -14146 
  -14607   -22293   -36967   -57384   -86533   -99528   -63097   -22036 
  -15952    -6230    14416    10504   -32613   -97675  -137448  -128255 
  -80650   -12820    35788    54626    63683    44169   -11383   -69076 
  -80296   -18173    34654     2700   -72148  -175090  -274634  -245516 
  -86063    12556   -21741   -16930    53501    47225    15635   -18354 
 -150221  -260284  -191286     3802   159462   127465     8104    33978 
   88350    11263   -32235   -39411   -76033   -35561    17833    17497 
   -5205   -53333   -66428   -45245   -22256    12779     7511   -30805 
  -35807    -7241    27233    53986    56258     8415   -34480    -7133 
   13817   -48139  -146286  -175220   -73016    47244    22964   -76647 
  -91624   -46901   -28352    -8052    23572   -17774  -118575  -170460 
 -145014   -67616    34365   113591   109021    16904   -45883    -6201 
   40350    31136      -83   -37118   -38728    17285    57609    21274 
  -58661  -120144  -135195   -90350   -19618     9012    -5998   -13379 
   27090    75902    36402   -54261   -67917   -26149   -10566    -9717 
  -29390   -89151  -124792   -88267   -40123   -22793    17298    69380 
   53929     6579    11354    50525    47700   -15812   -74848   -85106 
  -68369   -53585   -38646   -12764     7265    29215    65222    55617 
  -12189   -56979   -47815    -6488    57672   107608   103492    60227 
   -7813   -93910  -146762  -125806   -61515   -22512   -43213   -74025 
  -64687   -52860   -67311   -93363  -122723   -87768    27272    75112 
   42504    62352    62241   -11307   -26057   -26748   -65017   -30090 
   42871    63761    29513   -17486   -29196   -52216   -90381   -90744 
  -97956  -122365  -120415   -90108   -24826    42816    56192    12479 
  -88850  -198784  -194732   -97831   -25047    87038   214809   144100 
    9483    38159    52185   -10045   -20235   -88885  -231664  -252288 
 -108294   108525   240012   124119   -77734   -88145   -55796  -102829 
  -55289    25605    54808    67143    14805   -28881   -12722     4869 
   24840    26353    13074    18756    -6142   -91450  -188852  -248464 
 -229702  -120847     2879    35264   -13579   -38213    -7578    30605 
   46626    28161   -24817   -80736   -89957   -52085   -31257   -30820 
    -654    46292    74247    53511   -12895   -64951   -99960  -138511 
 -146578  -134485  -108186    -8091   128611   158102    34572  -107285 
  -85041    63069    92989     2357    14611    94579    78371   -11746 
 -128170  -221431  -163482    25698   120310    32493   -56300   -46113 
  -30828   -14935    47227    99685    97147    48778     7106     9892 
    2066   -41250   -82247  -117726  -144667  -149935  -117401   -23789 
   58145    33536   -26389   -39656   -27395    37800   120679    94062 
   10146   -53171  -137655  -137887    19791   156959   113977  -139456 
 -407733  -397413  -192950    15174   233162   284947    98811       27 
    7137   -85531  -111504   -42969   -66405  -106527  -137961  -165045 
  -83778      452    31658   111859   146365    64690     4378    13718 
   33693    35263     4869   -29605   -54696  -121852  -211326  -196358 
  -40127   102886    93460     1659   -33168   -11890    18873    55783 
   29319   -67582  -108263   -72307   -21616    15206     3044   -30052 
  -33200   -30947   -22558     1529    -8557   -34784   -27159   -14208 
    1973    13825   -32979   -96327  -102313   -70869   -52841   -51073 
  -32197   -20370   -68029  -130191  -115121   -19691    34639   -26076 
  -66198   -19126   -18064   -50854   -41763   -48163   -35253    57819 
  131762    95130    13086   -25841   -33505    -6886    44010    40153 
  -14085   -64208   -93429   -98142   -80350   -27483    33401    42481 
   25533    31348    29646    -2818   -43401   -74883   -73630   -49532 
  -64409  -116201  -133259   -82880     2540    66255    49518   -41979 
  -74815   -16764     2370     -378    27765    12928   -47929   -84329 
  -61236   -23523   -35916   -55634   -25930    19597    54477    81612 
   67601     1524   -69894  -108899   -95782   -39594   -13629  -102273 
 -259364  -261837    -6041   256898   255002    56316   -87261  -101753 
  -63300    16988    64585     3092   -69510   -74827   -36045    -9493 
  -11762   -27639   -71041   -80044     7557    88886    36190   -83184 
  -95762   -27753    -8614    -9531     1895   -28085   -91003  -103667 
  -23012    63024    55085    12939    20034    37135    24938    -7831 
  -54163   -83308   -77913   -43308    19556    58800    17262   -60967 
  -73576     -157    63815    61744    34538    -8117   -69935   -95824 
  -60355    -4725     9764   -44570   -94375   -62313   -12559   -14852 
  -18847   -23581   -80838  -117555   -75321   -30680   -27922   -45065 
  -59127   -51031   -28277    -2720    15137    18908    49692    90757 
   48713   -28158   -42954   -50166   -69246   -55634   -37636   -46236 
  -88580  -135363  -138877   -92611    -8930    56670    71038    67505 
   32267   -26109   -29722     4878      546   -34476   -48824   -13952 
   53682    71844    16028    -5705    20750    -6027   -47331   -38923 
  -37885   -61935   -71419   -37008    18258    20245   -12364   -27257 
  -54348   -71718   -43892   -15381     9634    40548    41924     7325 
  -43128   -73028   -59035   -41057   -51224   -57732   -21548    34229 
   43164     8002    -6642   -11237   -34979   -36317   -49963  -122357 
 -127238    -7454    90463    53885   -84091  -180584  -120984    31675 
   99565    42041    12509    39580    26793     2511    -7264   -32540 
  -74830  -123871  -123822   -57863    -3041     9568    15272     6724 
  -34894   -59574   -38873   -26638   -56689   -58398    12544    57042 
   20317   -46623   -93729   -83424   -40841    -5931    20051    27002 
   30235    33809    -5498   -75945  -104584   -46980    42361    49350 
  -31538   -95636   -91656   -58552   -42946   -35144   -10623     5023 
   -1366     -969   -13277   -54807   -47883    23035    41381   -18252 
  -48004    -8833    21400   -17436   -61713   -35093    12394    15287 
  -21281   -58291   -44780    -1806     5116   -11650   -30331   -71074 
  -87953   -28921    23063    -3256   -47372   -66784   -73982   -57859 
  -16232    17157    12029   -23985   -56498   -67520   -48683    -4261 
   14794   -11476   -27676    -5602    14454    -1101   -33805   -54259 
  -33934    17749    32873    20220    15682   -15569   -38415    -4186 
   22374    -2199   -33917   -44659   -55609   -63666   -38433   -17381 
  -53855   -77587   -21057    28949    17338     6280     7801    -3136 
  -21015   -49991   -87284  -110957   -85858     7028    83185    54616 
    5670    10323   -16992   -74349   -71373   -50255   -69911  -111645 
 -139834  -115622   -58307    -3453    49260    89688   106575    78354 
   24764    15414    28293     5988   -31974   -76167  -139673  -166251 
  -99071     -822    36485     -688   -50253   -38780    -8783    -7690 
    6994     8974   -19876   -21948     7140    32996    40647    35280 
   10517   -32351   -56824   -58730   -61300   -61744   -60528   -65009 
  -59246   -44518   -44253   -46889   -31810    -4828    21948    29305 
    1566   -27901   -25953   -25249   -30640   -21080   -28345   -39229 
  -15456     9900    19751    19754    -7726   -44718   -59773   -51135 
  -23174    -2486   -14937   -35903   -42827   -48080   -51718   -40058 
  -14872     9783    17545     1243   -27595   -51991   -61890   -56002 
  -48008   -51445   -60106   -57712   -37908   -22368   -20960     -183 
   27479    16197    -2887     1674    -2644   -32470   -73095   -96986 
  -70440    -6170    32705    20011   -14180   -39760   -40995   -20970 
   -8171   -28539   -59730   -65128   -45840      -66    52764    61784 
   27584   -11736   -31311   -39059   -58982   -79421   -78463   -64590 
  -43353    -7643    23255    20896    -6953   -26685   -17230    -1193 
   -5620   -14886   -22874   -35176   -30231    -9794     5003     6046 
  -30208   -81346   -71201   -13883    17717    18912      368   -39143 
  -63737   -55987   -42741   -32644   -19812    -7902    -3526   -12480 
  -15217    -2050   -16425   -49189   -36832   -18640   -44705   -50031 
  -19099   -18238   -28737     2799    23468   -16561   -58644   -66584 
  -48932      135    24606   -28313   -88268   -75010   -11361    28702 
   24945    16024     1624   -19087   -14851   -17609   -45740   -54691 
  -47606   -46326   -43062   -38695   -35133   -31194   -26207    -4499 
   15858    -7553   -39253   -31469   -16379   -14134   -13983   -31450 
  -56319   -42769    20370    84711    76285    -3069   -63983   -65202 
  -32660    -1599   -10476   -57186  -100342  -109359   -74301   -19630 
    7672    -2613   -14796   -11406    -2694    13224    24831     8900 
