Origin Time       2021/02/13 23:08:00
Lat.              37.7
Long.             141.8
Depth. (km)       60
Mag.              7.1
Station Code      FKSH09
Station Lat.      37.3530
Station Long.     140.4264
Station Height(m) 260
Record Time       2021/02/13 23:08:10
Sampling Freq(Hz) 100Hz
Duration Time(s)  219
Dir.              4
Scale Factor      7845(gal)/8223790
Max. Acc. (gal)   264.846
Last Correction   2021/02/13 23:08:10
Memo.             
[...]
   -2444     -765    -6156   -20214   -26057   -15912    -6454   -12155 
  -18847   -12241    -4338    -4847    -5748   -13505   -32556   -29354 
    1626    16534     8147    -3646   -20569   -37324   -36444   -14435 
    9580    13784      421   -17570   -32520   -36744   -20082    12218 
   27055     6701   -24660   -40096   -36078   -16379    10066    16309 
   -1462   -16849   -30720   -36765   -11117    10214    -3357   -12779 
  -12205   -24286   -26322    -8699     1375    -6690    -8480     4264 
   -6961   -33212   -33054   -26438   -15430    10261    11507   -11770 
  -27473   -29342   -16025     3933    15546     7011   -19348   -40174 
  -46624   -35105    -1894    24042    25294    12287   -13414   -33150 
  -29608   -21379   -14288    -3851    -2857    -9705   -14806   -18729 
  -17055    -6509     6442    11782     2411   -24345   -54518   -56652 
  -27160     9408    36350    34530    -3896   -51814   -71725   -44072 
   11425    46789    39314     3341   -41705   -70039   -51565     -789 
   24606     9528    -4708   -11550   -31239   -40849   -27635   -13339 
    -827    11342    18767    14303   -13301   -42808   -42736   -20131 
   -1844       12    -5900   -13926   -17532    -4808     2207   -12970 
  -24979   -29884   -30719   -11963    11207    12118   -13485   -41166 
  -26771     8807     5389   -11599   -11325   -26442   -37481    -9229 
   16133     6103   -19587   -30952   -16152    -5489   -10555    -7796 
  -16144   -39109   -23982    19566    31689     8788   -24757   -55248 
  -61946   -25695    32188    56420    34512    -5541   -48389   -65388 
  -32923    14305    28331     5923   -23318   -39727   -39100   -20520 
   -3939    -2293    -1879    -3161    -5451    -1260    -7462   -29978 
  -44707   -37613   -18368     -125     8429     5935     -970   -17113 
  -35738   -27328    -4855      916     4772     6899   -14704   -32775 
  -23788   -18759   -19980    -4954    -1264   -18666   -23176   -20177 
  -18697    -3557     6436    -4681   -13011    -9755   -12788   -16283 
   -3516     6795     4129     -461   -16507   -34601   -31660   -17456 
   -2084     5258    -6277   -20661   -27321   -36090   -43491   -36567 
  -15028    15304    44342    46164    12665   -24575   -45322   -50082 
  -26385    11002    14791    -8154   -26971   -49142   -52834   -17994 
    9975    15562    14808    -3434   -20968   -19373   -24664   -29062 
  -10282     3032    -3250    -3258     7468    10476    -6165   -36254 
  -52105   -34789    -1174    17118     7335   -15265   -30420   -29925 
  -12325     1356   -15661   -40231   -35127   -10635    14029    35950 
   32232    -9348   -47007   -50292   -37076   -13054    23595    35984 
    3588   -30825   -37762   -34149   -16594    14601    16970    -9999 
  -23772   -25424   -23220     -584    17004    -5930   -44520   -68820 
  -75127   -47262    19315    74390    69086    30782    -6257   -58806 
  -91535   -45063    17606    20827     6682     2228   -26443   -57303 
  -38179     5825    14724     -515   -10185   -26640   -34830   -21351 
   -8249     6802    11106   -10809   -21699   -11418   -13616   -24796 
  -12089     8032    -4654   -19722    -4931    -3534   -23083   -13760 
    8428    -7658   -35235   -30597   -20652   -23888    -7601    19957 
   16757    -3338    -6903    -3082   -13194   -28243   -24729   -18743 
  -23535    -8947     6177   -18488   -45609   -37859   -16845     5282 
   30865    33620     3817   -28310   -46475   -48095   -33305   -10817 
   15361    26437     6933   -17393   -27024   -29513   -23899   -12754 
  -11155   -18003   -19843   -10054      492    -9274   -24659   -16845 
   -2502     8374    25663    16212   -23344   -39244   -38635   -45385 
  -32479   -10644    -9890   -10829     5930    17543      222   -19745 
  -16109   -13051   -22485   -26088   -29605   -37835   -20399    16240 
   21674    -2504   -22978   -35117   -32065      319    34084    15437 
  -25621   -19487    -7337   -23341    -8067    15290   -17875   -54913 
  -41196    -9529     9769    18787    12839   -19240   -51466   -43140 
   -9697    10025    10562     1613   -11873   -20969   -11180    12870 
   25888    11848   -22550   -49227   -55861   -57495   -37181    15800 
   41933    17683    -8452   -29292   -53634   -50962   -22955     3701 
   30530    47795    29909   -13451   -50402   -67687   -59445   -22319 
   18758    33031    15754   -23355   -54205   -48350   -24077    -1148 
   20592    19930    -7516   -22986   -13562    -9672   -11134     2529 
    4716   -14465   -24358   -32929   -38978    -7986    32049    28544 
   -6014   -43719   -69506   -58012   -15827    21635    31587     4032 
  -34470   -41354   -12480    23414    28057    -3073   -31752   -37714 
  -30666   -12865    10555    12649    -6347   -12415   -12097   -29064 
  -38311   -25922   -19332    -9328    19872    20301   -18532   -35664 
  -26914   -20904      989    32028    25543   -24011   -71847   -72287 
  -28232    19732    45002    35008    -6974   -45910   -50292   -27762 
   -1536    22086    24027   -13119   -46093   -42341   -31272   -28578 
  -24084   -21343   -20595    -6569    11843    12884     7696     6228 
    8267    15916     3969   -25350   -33331   -31777   -36262   -25933 
   -8924        1     9240    11300    -8035   -38426   -49572   -28867 
   -7074     2759    20513    17489   -26123   -49842   -34965   -23706 
   -7156    29477    45817    14080   -35426   -54629   -42183   -26638 
   -8175     9332     2324   -16314   -19272   -12376    -4365     4731 
    5768    -8241   -26747   -29934   -20474   -13927   -11268   -20493 
  -38080   -31050     6546    44948    51232     8861   -49154   -68513 
  -42350     -845    23573     9575   -24371   -46904   -56690   -47243 
  -13992    19994    39533    40798    31013    12178   -24408   -47607 
  -44034   -39542   -26256   -11709   -15672   -22778   -31257   -33592 
   -7196    24160    26192    19275    14786   -21774   -64777   -55429 
  -21471    -1142    21384    36401     8019   -42890   -56932   -35932 
  -16329     8135    28421     9518   -22790   -23526   -14831   -22603 
  -21733   -11449   -14985   -15111    -3126     1350     4633     9034 
   -2135   -14550   -21834   -48776   -66941   -34453     3850    17232 
   40933    46288   -14519   -82260   -94988   -70345   -18478    53955 
   92030    54058   -29825   -83737   -72604   -28945    16017    32275 
     176   -38114   -46433   -22523    28468    53090    18168   -28703 
  -55667   -59103   -26894    19458    35808     9786   -28480   -45701 
  -40510   -18459    13497    31741    13818   -30125   -49210   -28908 
   -6909     5436     1593   -23714   -38651   -25880     9062    42903 
   29905   -13744   -37422   -53133   -58249   -20937    19849    17113 
   -3539   -11758   -15229   -21834   -18783     -314    12050     3281 
  -13119   -20719   -23384   -33525   -42160   -31291    -9153     6808 
   15982    14843    -5312   -28958   -30215   -11291     8793    19008 
    8641   -21807   -47495   -49167   -26914     8912    28657     8344 
  -24595   -39818   -47964   -30658    26443    48735     4229   -34754 
  -48109   -54742   -21027    35066    41538    10976   -18470   -52504 
  -61614   -26422     5131     3743    -8947    -5483     -688   -13655 
  -11820    -3952   -23893   -23749    13929    25627    -7792   -45735 
  -61948   -65611   -48614     8295    55448    38007    -7668   -34905 
  -50895   -59071   -40198     5194    43366    42479     9620   -29085 
  -62955   -68126   -18324    39625    45127    16553   -22369   -70776 
  -81989   -27118    30993    42340    31155     6103   -35124   -48695 
  -21930     1719     3959    -8190   -22361   -25601   -30631   -33929 
  -18700   -14293   -26341   -20579    -9649   -11622   -11056    -6658 
   -7911   -15426   -15608    -6253   -14507   -23834    -4476     4523 
      -6    19256    22935   -14623   -38022   -29639   -22790   -16578 
    1435     6327   -18507   -38452   -33088   -33124   -36086   -14158 
    6327    10350    24267    27471    -7557   -43298   -49266   -33207 
     360    37588    51366    26541   -18781   -39198   -19392    16675 
   37150    15930   -27626   -55188   -62044   -36393    19596    45181 
   10669   -35596   -57015   -58234   -24902    34360    51883    18558 
  -14129   -41033   -64131   -53434   -11929    11523      949    -6054 
   -7591   -24948   -24509     1544     4942    -7167    -8592   -28858 
  -60485   -46307    -1278    13162     1074   -16823   -56334   -88700 
  -67413   -21566     6099     7362   -18697   -44585   -37686    -8889 
   16023    25890    21247     4761   -18750   -32686   -36111   -50627 
  -62753   -40289     2486    37027    54585    39629   -10100   -52332 
  -56694   -39170   -11522    11587    -1321   -35938   -49260   -38064 
  -15894    19097    50377    41956     5769   -20304   -48949   -79064 
  -61003    -9991    14403    26196    47061    37535    -5073   -26812 
  -15592    -3862      633     8580    12083     5198    -3493    -7905 
     571    14291    11229     8455    17637     4302   -25589   -39375 
  -47579   -46340   -19097    10551    24165    24089     8799   -12783 
  -21065   -13792    -9458   -18010   -32217   -41299   -46329   -48803 
  -23344    28703    57238    47019    13814   -33768   -74822   -93105 
  -72088    -7911    41571    34658     2317   -22162   -27070   -11457 
   10072     8041   -33482   -74983   -78877   -58870   -21101    27580 
   40437    -4665   -55269   -56990   -25652      938     6443   -25702 
  -79758   -96865   -63142   -15763    19045    13660   -34223   -73612 
  -82784   -72470   -38916    -3588     9393     7314    -3518    -4954 
   16758    34862    32273    21416     3080   -18023   -14982    13527 
   38512    46529    39355    23946    10567    -2158   -11735    -7819 
   -8829   -37794   -64786   -48049    -1065    46602    91177   113540 
   87345    29228   -25344   -51945   -43464   -15055    20055    47324 
   41350    -2083   -60065  -100415  -101158   -68253   -32965   -30384 
  -52416   -58440   -44581   -19460    24590    48502    10648   -41391 
  -63263   -75174   -65060   -13154    31037    38574    49204    72216 
   58399     8376   -13269    -8962   -24113   -39127   -36487   -45792 
  -74528   -97957   -91436   -55830   -19438    14773    49601    44432 
   -5007   -51757   -77064   -80032   -69299   -56986   -35950   -19658 
  -19720   -12852    -1047      959     -318   -13302   -35718   -34327 
   -7483    16221    31845    35914     9570   -31484   -55877   -59283 
  -37351     -402    28491    58139    91735   109008    99655    65736 
   21563   -15180   -31554   -29940   -31365   -35253   -27330   -11870 
    7867    21837     8986   -28946   -70244   -86606   -57689    -1366 
   50502    77523    51216   -20414   -74347   -85117   -71845   -32821 
   22199    47542    34202    25439    39328    54745    47403     3156 
  -58676   -99423  -102262   -74387   -40325   -27916   -47861   -87490 
 -108751   -75949   -12812    18540    10223   -12610   -64068  -133961 
 -160519  -132565   -88438   -32281    39869    91048    83126    25424 
  -38323   -72859   -63861   -18748    29359    45692    19545   -19696 
  -20590    22181    64422    78210    53569    -7231   -60716   -71864 
  -52762   -23286    -7339   -17130   -27585   -25594   -21728    -8680 
   17552    35356    32050    20228    12681     4106    -5536     6439 
   44145    71327    64613    39928     3721   -47549   -76546   -49515 
    6415    56628    84249    64960     4224   -57676   -95431  -100045 
  -75687   -34655    18659    64077    74561    60347    49214    40813 
   22075     7350    15187    32323    41019    37697    16043   -29670 
  -86871  -123749  -115931   -65727     2019    54708    80889    75860 
   27305   -33613   -67799   -93492  -113937  -102874   -79226   -69763 
  -65688   -60322   -52555   -32567     3059    41246    55586    27238 
  -31309   -85279  -109038  -107210   -97939   -76268   -28331    27376 
   68469   101372   121702   112600    76599    23608   -31143   -75124 
 -105135  -104818   -73120   -41804   -21941    -2448     9977    20553 
   59204   105358   104884    68742    36680    18598     7761   -18715 
  -62390  -100827  -140274  -179730  -178056  -119952   -41463    28723 
   86351   125756   134299    92122      230   -95107  -146631  -143488 
  -87042    15350   109857   125404    67093    -7223   -62683   -68075 
   -4349    91956   156636   148151    76779   -19641   -97557  -103986 
  -39479    39507    90894    81373    16189   -30572   -21347     3357 
   16920    14702   -18554   -67062   -94954   -91601   -63922   -30979 
  -20560   -47160   -89275  -108615   -93083   -50542    15080    94026 
  138406    97555      657   -91604  -162915  -188373  -124926     5451 
  125065   181878   145014    12864  -120232  -163676  -144682   -94279 
  -12212    33106   -14887   -96318  -125047   -79613    15168   123795 
  206046   200504    73498   -91899  -188068  -209464  -157821   -21756 
  109719   147078   108961    25597   -63445   -83033   -42950   -14412 
   -6542    -4135    -4450     5813    28023    42084    24794   -33332 
 -109482  -160232  -164110  -125000   -53700    21990    81276   129010 
  149578   123950    84667    61796    37505    -6358   -63694  -110030 
 -120621   -99690   -62010    -7114    48105    67165    55773    43668 
   21928   -21135   -62845   -92307  -126513  -151339  -126287   -57387 
   22021    98683   158777   189145   190551   156762    81966   -22194 
 -140841  -246360  -289365  -239981  -120861    19159   139970   193777 
  140586    19661   -71690   -90670   -75427   -67000   -73101   -85479 
  -84618   -52355      584    39197    39946     3886   -41661   -57627 
  -47310   -45084   -52405   -63175   -79967   -70733   -15369    50980 
   97780   122161   118574    90101    61558    42080    28453    31885 
   37500    19750    -3647   -19008   -40082   -65253   -75902   -58828 
  -28084   -15547   -28235   -52915   -78198   -84146   -52442    14692 
   88908   125211   116035    82470    22999   -36699   -51977   -35885 
  -22438   -24112   -42157   -63443   -74868   -71780   -37115    28701 
   72947    58537     -157   -83451  -157759  -187937  -180609  -132116 
  -23448    94628   152177   150507   103342    22373   -38092   -53408 
  -50120   -33702    -4324    13111     6037    -9647   -21082   -30445 
  -36528   -32703   -14299     5260    -8974   -60354  -105790  -118304 
  -96172   -39343    30426    84597   109572    81102    -6181   -96192 
 -125489   -88678   -25227    36336    82217    81616    18698   -70083 
 -122979  -115500   -89478   -82013   -79473   -68350   -44516    12798 
  110161   202888   229092   173844    80659    -3839   -70490  -105471 
  -80940   -14625    36051    40938    19770   -14840   -69990  -107254 
  -85889   -30257    28298    70019    72304    44292      765   -55161 
  -97430  -110242  -106024   -78599   -20251    44397    97696   131220 
  115796    54279    -7700   -62112  -119504  -146308  -122890   -81048 
  -41443    -3429    23596    36699    48440    55556    30770   -28061 
  -72667   -71652   -48481    -9594    59197   121324   135059   105479 
   39267   -55556  -147063  -207247  -218285  -173214   -96101   -14251 
   61055   101591    88861    60006    42822    12047   -31729   -62742 
 -100846  -139972  -117508   -37665    44783   113382   136973    79030 
  -18015   -86938  -117301  -113004   -51239    42639    81229    46727 
    6597    -6529   -13423   -19870   -11296    -6326   -26437   -32687 
     625    30346    27214      708   -44242   -85387   -81760   -21880 
   65227   117212    89182    11731   -61973  -106736   -97394   -25000 
   66596   116149    91297     1178   -98571  -149416  -145810  -105089 
  -42624     6805    19402     8121    -2857     1038    20318    51065 
   71404    46660    -1367   -22543   -35067   -61551   -50307    14393 
   60119    56034    39826    21448   -14442   -61835   -99844   -99994 
  -55266   -14384   -12231   -14536   -12880   -44255   -77882   -56643 
   -1435    48496    82019    82904    40042   -32382   -95026  -109711 
  -79165   -36440   -12906   -19812   -40752   -55772   -52613   -20201 
   19477    24800     4278    -3811     7268    26503    45778    42456 
      10   -47617   -50885    -4090    59161    91444    57959   -37307 
 -141953  -182980  -139841   -46052    72176   179424   214978   131039 
  -44732  -187150  -215250  -161091   -47151   107950   225863   235634 
  123799   -39116  -139182  -154183  -124636   -66001   -20640   -21955 
  -21975    13358    52748    72075    67558    38746    -2223   -39542 
  -49804   -12042    41828    48111    -3167   -65959  -106857  -123965 
 -112255   -55659    27194    80905    78653    27153   -49966  -110824 
 -142439  -140294   -67841    49816   114573    95008    36618   -25624 
  -67436   -76531   -57888    -9408    40736    44483    15268     -533 
   -7261   -44149  -100161  -112563   -67258    -8999    40379    74709 
   71918    33488   -10667   -39637   -48331   -42691   -26003     7092 
   36479    32320     9406   -15745   -55081   -92017   -92200   -54232 
  -10696    12687    29855    36749     4332   -39039   -48552   -30021 
   -6808      742   -12991   -34824   -58255   -61223    -8163    70727 
  106537    87355    29520   -48496  -100259  -103134   -65252    14821 
   95663   107573    46057   -41709  -102166  -104176   -60536     7816 
   66096    62738     1741   -67101  -101187   -79000   -22075    25591 
   46768    49545    30835     -946     6313    51314    49612   -15547 
  -75822  -107886  -127905  -115439   -44435    50269   102393    96950 
   55159   -16405   -94327  -137943  -130351   -75590     2644    67105 
   81703    33347   -26946   -45430   -44046   -35047     7798    49162 
   32736   -20534   -61473   -78609   -75683   -49396    -8792    27967 
   59035    83471    87605    67980    29127   -22491   -60357   -61670 
  -35036    -2258    17151    19649    11155    -6033   -15599   -13055 
  -20908   -35037   -33384   -22661   -10162    18162    50105    42282 
  -14800   -78154  -104737   -98678   -76820   -28536    28220    50317 
   34969    -8241   -58143   -77490   -74289   -59117   -19334    16501 
   21122     4999   -12887    -4158    23099    26287     3018   -35251 
  -84237  -116845  -119867  -100249   -55526     1810    47775    67900 
   44965    -8847   -39440   -26636     5659    40763    60212    49551 
   18027   -23822   -60601   -71038   -55075   -24233     8667    26611 
   33196    44297    53871    52771    39425     8317   -31283   -69446 
 -109715  -129805   -96731   -18918    65673   125425   139236    87123 
  -16688  -102683  -126311  -103303   -40832    50899   113125   102917 
   42361   -22499   -59445   -72247   -79918   -73839   -56205   -50236 
  -40143     7049    74630   102968    66051     1247   -53299   -90575 
 -108855   -89815   -24255    45675    78437    68976     7707   -74494 
 -105462   -83025   -49218    -6592    41656    54823     9838   -40446 
  -34647     -692    14567    17176     7130   -28244   -71676   -82856 
  -36412    36876    86142    94714    53455   -25497   -86063  -103731 
  -94914   -58625   -12996     1232   -10185   -17882   -12834     4156 
   22832    24879    -3045   -49912   -80612   -76697   -42545    10763 
   48610    35140   -17674   -63578   -68099   -29560    33328    91104 
