Origin Time       2021/02/13 23:08:00
Lat.              37.7
Long.             141.8
Depth. (km)       60
Mag.              7.1
Station Code      FKSH09
Station Lat.      37.3530
Station Long.     140.4264
Station Height(m) 60
Record Time       2021/02/13 23:08:10
Sampling Freq(Hz) 100Hz
Duration Time(s)  219
Dir.              2
Scale Factor      2942(gal)/8224139
Max. Acc. (gal)   59.251
Last Correction   2021/02/13 23:08:10
Memo.             
[...]
   27453    20501     5701    -1054     5421    11273     5348     3677 
    8822     7237     7676    13817    15265    14316    14693    13012 
   10694    12129    11088     5628     9717    13711     3395     4533 
   17186    11688     6307    17073    14295    -1717     -116     6613 
   -1224    -5802    -2255     8293    26736    30520    19410    12086 
    7662       -8    -7238    -3132     6724    15213    22975    18813 
   11331    14528    14459     5265     -513     2987    10604    17120 
   10498    -5389     1069    14384    11236    19649    25239     8951 
    3878     7226     5692    10419    16028    18227    17444    13259 
    7616     2342     5790     7184      390     8202    17771     6357 
    5236    24825    26851    11222     -839   -10482    -4332    13394 
    8702    -2236    12108    21898     8419     3387    12314    14450 
    5864    -6416   -10054     3905    18524    12367     6400    13710 
    7592    -1991     6999    10289      999     9042    27194    20146 
   -1962    -7848     3153    16565    18380     9181    10423    20507 
   12259    -5233     -414    14218     6943    -2300    17181    33640 
   23018     9942     1401     1552    13517    12847     5451    12541 
   18981    15114     9169     5212     4098     2128     -576    -1761 
    3330    15942    15951     6521    14187    23627    17108     9998 
    6697     5390     3410    -5080    -2138    14270    16455    13104 
   18434    14439     6751     6872     6470    10793    16548    13216 
    5813     1375     9366    20838    24228    24912    12839    -2550 
    -837     7410    15626    14104     7088    15284    16478      789 
   -2150     5859     6793    10795    20294    14346     1723     4333 
   13402    15268     6704     6898    26158    23217    -3230    -5805 
    2651      618     3033     4477     4255    10710    11338    12403 
   25679    28100    10750    -5652   -11547    -9981    -8336     -309 
   18517    21701    13046    19165    23116    18438    19422    16330 
   10026     7560      980    -7692    -7041     6347    19311    25240 
   30514    27082    11209    -4941   -12052    -5833     6750    12904 
   11361    12062    17861    19377    11167    -3970    -6478     9289 
    7284    -8374    -1417     8824    12043    28013    35359    18085 
     642    -4387    -5197    -2076     9309    16748    14554    16629 
   21315    16168     5972     4995    13270    15714     7622     2560 
    6793     4145   -10354   -17292    -5763    17814    32058    21247 
    3707     1355    10035    15277     6609    -8932   -11697    -1443 
    4255    -2006    -3935    15304    32389    18419    -3127     -430 
   10098     7832     3858      -94    -7530    -3596    12027    24398 
   26711    18655     4355    -2968     8136    15782     7881    11803 
   14616     5994    18836    22882    -3426    -1359    27247    28896 
   11375     7331    15898    16382     5482      222     8086    20245 
   19219    10555    16038    13678    -1285     7074    13490    -2330 
   -2108     5422     1939     5313     8469    13281    21501    13555 
   10188    13293      665    -3531     3400     5694    11770    15130 
   12792    12317    10897     7198      -55    -4999    -2234    -2258 
    1553    19731    27901    16470    10550    14651    12834     2945 
   -8698   -12108     6102    31534    30943    12429     7098     8267 
    1181    -1077     -190    -7722     2658    30194    31170    24499 
   31650    14929   -13551   -16610    -5917     8309    24656    26635 
   11673     -919    -8004   -17186   -13794     9786    31622    35901 
   26485    13536     8449    12525    10102    -7203    -6693    27480 
   35989     2772    -9340      324    -3036     3561    20916    17817 
   22910    45036    29787    -6701   -17990   -16607    -1044    20745 
   17082    10350    13936      180   -12584     1595     3890   -13755 
   -1686    21865    25583    28482    17745     5381    15115     8267 
   -5532     2111     9624    24259    29712     5256     7793    31012 
   20344     5174     4496    -3123   -13046   -10860     3952    10459 
     332    -1880    13014    23970    21531    15228    11032    17523 
   28620    17563    -8272   -20011   -13930     2558     9408     4082 
   18400    35468    23743    10928    11723     9232     1696    -5216 
   -3415     9679    19656    23373    25828    17942       -6   -11078 
   -1189    11762     7986    15489    28937    16125    11878    24933 
   11287   -17459   -18185    11709    26558     9202     7242    23233 
   23850    21092    15781     -700    -3678    10069    10845    -2157 
   -1977    12047    18424    10523     1053     7319    20846    14272 
    4951    14840     7996   -13247    -8372     5985     6547      275 
    3474    17767    19498    14048     8930    -3245     2797    16036 
    5213       93    10154    12241    19396    28495    15400     5120 
   13165     8500    -2091     1518     1768    -3580     -483    10516 
   21961    17888    -6419    -9903    19642    20283    -4347      668 
   12252    12927    20741    22507    12714     -542   -15589   -17336 
    1794    17961    12793     9221    18497    10250    -4122     7889 
   22891    21216     9529     3645    16411    11916   -13292    -6295 
   14999    15707    14442     9564     2737    12251    19203    10912 
    6569     8378     8718    13506    15529     9967     9138     2829 
  -16252   -19361     9821    35229    24575     8241     7819     8270 
   10943    10536     4125     8105    23213    35793    26407    10832 
   14912     7372    -5466     7751     9894    -4625    -8278    -3789 
   10566    15037     4900    10185    13591     3820     6305    16611 
   22153    26578    32246    24781    -1598   -17055   -15304   -12468 
   -5013     7398    24201    31537    20761    15673    13220     9589 
   15835     6762    -9769    -2187     7724     6822     2263    -1209 
   13883    30488    23785    10835     3110     1360     8716    18798 
   26985    29533    20167    -3917   -25404   -13042    12843    13772 
    8785    14435    25232    25766    -5359   -19117    13741    21949 
    4681    14443    18720     6531     8598     3430     -912    26329 
   39926    14203    -1424     7045     2674    -8483     5350    18702 
   14689    19305    18015     7060     4494    -9513   -21381   -17807 
  -23569   -16476    14052    35425    39962    31081    21990    15954 
   -3977   -11260    12414    18299    -1999    -3875     1949      427 
   13217    22172    14971    16731    20174     9178       33     8576 
   20090    12123     -325      195    -1362     5323    32067    33793 
    3076   -11265   -16807   -25667    -7435    21068    22713     5443 
   -1980     4568     6042     8386    17501    17477    16615    29790 
   35109    18198    14007    16320    -9701    -9490    21720     5609 
  -15511    11626    28239    18932    20389    26462    19329    12999 
   14836     5953     1857     5529   -19020   -28255     7728    22962 
   15070    20997    32969    42286    26649     1420     9792     8554 
  -17400   -16563    -7435    -2045    11206     8908    15377    34568 
   25385    14596    14512     -661    -6428    10930    19614    13093 
   11183     8136      812     2675     6436    10565     9934    -4785 
    2602    36046    39483    14133     2154    -1823    -9275    -3615 
    9247    10740    12399    19064    18218    13053     6006    -3919 
   -8661     5310    30639    27901    14322    28845    25307    -1908 
   -7884   -19610   -33729    -9477    27652    44447    30676     -708 
   -8294    14500    32823    16765   -17801   -27915   -20429    -6959 
   20785    23862     6690    23927    41557    21452     4541     7767 
    9853     4180    -8306   -23376   -24656     2192    36583    38180 
   22454    33281    41088    11111   -15496   -11121     7298    11388 
   -7674    -3848    22997    16372     8136    37488    44770    13828 
   -4822   -11641   -10058     9425    12924     5667    23533    28787 
    3283    -1642    12159    15649    16119    13969     9221     4615 
    2365     9886    14331     2640    -6389    10671    25482     2602 
  -11522    14871    32205    27722    24795    13621    -2223    -2540 
    6424     9657     3927     6003    23874    23576     6411    11777 
   14805    -1765    -2867     6920    19774    32535    21146    12035 
   18828     7496    -3052      750    -4963     1513    18947    13053 
   20425    45245    14056   -37498   -20707    12094     4743    10559 
   31430    28837    19003     4484    -7464    -1026    -8194   -25895 
  -15076     9911    18164    10227     4606     9841     7974    -1421 
    -797    -9985   -19769     6862    26032    12081    13142    23097 
   18022    13701    -4799   -32915   -21830     6228    17949    32736 
   27820     2743     6903    22407    19731    12779     6103     1406 
    6369    24309    31272     4017    -8257    17082    16929   -11896 
  -19367   -18709   -27234    -5713    34568    31352     8445    12777 
   17813     1034   -14623   -18968   -23955    -5815    30360    31221 
   16761    13582     6731    11453    17269     5130    -5975   -11773 
   -5927    11970    11669     -400     5370    10948     6708    24930 
   47907    29621      164     5256    22999    23139    13275     7140 
    6232     6848    11267    17447    16359    19479    24937    17055 
   11881     5522    -3743     9305    16591     7977    25267    41854 
   23611    21840    46735    43367    23602    17847    16295    18252 
   14787     5185     2035     4872    17022    15476    -6286    -1233 
   25149    17481   -11562    -5274    11169    -8387   -22420   -10709 
   -8228    -8035      525     -298    -9710   -19098   -17571   -12328 
  -25821   -27202    -2586    10786    16823    19341     4818    -3142 
    4437     -791   -19417   -25897   -24120   -24482   -17659    -4078 
    8694    12013     1404    -5668     3084     9763     -351   -19614 
  -36347   -37160   -25108   -16271    -3755    15965    35189    47763 
   35546    15217    15800     6097   -16343    -7190    10423     5101 
   13976    46565    52743    31862    29601    30267     7630    -7790 
    1746    11173      105    -3699    26946    56702    47791    20592 
   23496    53831    59807    33871    10570    10906    24808    25435 
   26758    53551    71567    58164    44331    43684    44039    45701 
   46118    21211   -13622   -13838    -4275    -6910     4683    20800 
   35127    35715     1493   -10984    10828    12386    13837    31340 
   32927    17043     2671    -7345   -17833   -19857   -20110   -29643 
  -31720   -34649   -46603   -31089     2525     5282    -5071    15215 
   50074    49842    21490     8700    -8407   -32850   -15142     7422 
  -12374   -23708   -15344   -28445   -40903   -34295   -39437   -49685 
  -46210   -39644   -25523   -15971   -29837   -38028   -36030   -35694 
  -14991     2477    -8095    -3079    20502    23145    16186    28796 
   49665    43727    21573    20758    25357    13861    -1162    -9113 
   -1715    20208    46712    73294    94671   106297   114162   114108 
   84597    56196    76756   101526    86927    59408    25421    -6188 
   -6038     -207   -15321   -30655   -46992   -49044   -15572     6991 
    7622     8986    -3168   -13270    -9045    -3508    -2666   -18485 
  -15098    26927    45773    40790    42483    22572     1524     6093 
    4031    -1277    -6804   -16804      822    15619    -9938   -33174 
  -35530   -19407    19360    45040    37497    24363    25949    19800 
   -6377    -8074    10355    -1630   -10860    11259     7749   -35189 
  -61267   -49617   -33744   -44740   -67743   -58753   -18640    -4428 
  -35564   -66536   -65458   -45042   -31553   -24880    -1165    40710 
   69234    62456    51580    58368    53226    44729    56733    69942 
   74953    67938    42516    29979    52324    62892    30056    -1351 
  -11920   -21712   -11168    24823    44555    44485    48244    40231 
   20109     8401    -3726    -8368     3669    17194    21874    12684 
   16082    36494    27268    -8698   -32809   -27854      575    26686 
   48050    58170    22534   -31368   -44028   -29697   -22630   -17820 
  -10810     8318    38847    26082   -36729   -78225   -81607   -63250 
  -23472    -5036   -28521   -50242   -56879   -67340   -76994   -73662 
  -63728   -62503   -67639   -60843   -43580   -30721   -22133   -17643 
   -9680    18235    51439    65607    54893    23966    -1372    -5918 
  -18760   -46163   -40095      607    19361    18370    39321    70663 
   81164    63709    34017    27891    49562    72137    89997    96951 
   83814    59536    37741    35079    43021    30627    10203     9066 
    6521    -5238    -2262     -657     2949    39781    64488    51289 
   43443    45358    61516    93583    95318    78019    83457    86980 
   82622    93121    97386    82787    51467     7420     4884    55258 
   80017    60496    53582    73068    87642    76067    49088    35293 
   28887    17119    21340    14262   -44122   -89586   -76241   -61065 
  -66775   -61894   -42230   -35703   -62395   -88531   -75182   -41183 
  -32940   -72906  -106602   -84310   -50060   -24241    10678    22368 
   -2461   -24862   -27326   -12777    15693    30735    21640    24545 
   42734    38034    23075    25527    27098    41859    87459   110783 
  103503   117664   135967   112988    58900    -1606   -45382   -50992 
  -49432   -86069  -136860  -156660  -130149   -56737    21898    50854 
   30505    -5795   -16347    13483    29245    -1683   -29664   -23375 
   -4816     9479     4990    -7337    16170    52076    63320    75614 
   79174    60021    51128    56766    66052    76226    72762    62333 
   73695    95592    96789    84716    64692    44028    55332    70980 
   39155     -986     4320    30793    38060    24741     2859    -8814 
    3793     7963    -8001     5794    47370    64413    46743    13080 
  -19823   -38502   -37257   -25509   -15699     -815     -365   -52806 
 -102824   -88636   -72328   -80283   -52509    -6520    -3156   -32937 
  -43671   -20609     5482    31062    57013    52218    30855    24123 
    -899   -54157   -66174   -16957    19016     8156   -12394   -23209 
  -15488     6520     1048   -39147   -79478   -83133   -23773    52643 
   79845    71041    35417   -27488   -44555   -10276    -9983   -21123 
    2145    -1849   -36918   -22496    34149    71910    83407    81048 
   68602    52560    42576    33181    19885    33411    64936    48243 
  -10714   -40707   -21617    27081    67686    53959    15500    12388 
   29438    27060    14871    18017    24395    38213    81359   115992 
  126451   138265   121601    67153     8733   -45436   -75982   -74996 
  -61993   -46620   -50436   -69758   -60600   -14404    22820    10991 
  -15877    -9863      -49   -12075   -16139    -6759    -1032     2331 
   -8544   -36896   -51061   -46049   -47439   -65961   -83808   -74402 
  -49439   -34650   -32275   -32273   -14686    11043    28667    58225 
   75895    56398    41277    30422    15898    35208    53505    20340 
  -12380    11315    52844    52987    33948    36279    39197    25570 
   10227     3466    14993    44525    71177    85729    82773    49389 
   17844    30888    45955    23338    21409    47834    37278     4384 
  -16814   -35796   -32454    19523    75776    65940    14855     -808 
    8667    -8426   -22646    -3091     3001     7090    39475    45293 
   29393    26910    10721   -16140   -39746   -47333   -18833    -5026 
  -27236   -18179    -4787   -50120   -65376   -12280    -3366   -31097 
   -9560    22943    23294    16146     9139     4922     5609    -8176 
  -15614    13161    34978    16626   -22577   -56006   -47305   -10993 
    9147    29682    38614     7230    -1543    26234    11045   -27731 
  -32321   -41818   -64929   -44307    14778    43491    36367    56339 
   91289    87415    63775    44140    19340    -6184   -14212     4707 
   15971   -10185   -24115    -5624   -10469   -25124     3381    45743 
   56592    52967    68895    86898    69994    33885    15822    22833 
   39962    45009    26163     -170    -4645    10465    12429     4059 
    5956     3434   -11233   -38531   -65587   -45434     7576    36616 
   37920    24586    14538    20266    28260    33311    15198   -11276 
   33674   102486    82452    43231    54579    33408   -37080   -93214 
 -116237   -92695   -33764    11217    32967    41971    34936    38103 
   68874    78489    44000     7009   -17783   -33669   -32224   -36202 
  -46079   -12245    40672    49729    32135     4743   -34925   -62467 
  -58479   -19448     9181    -5872   -21562   -27689   -31131   -11091 
   -2975   -28158   -41094   -25400    15977    64505    58167   -12766 
  -75062   -74969   -26123    28956    58193    59319    43561     9644 
  -23267   -29556   -19071     9286    40598    35475    33605    65178 
   69616    38271    18198    23777    38098    21857    -2420    24570 
   46152     3180   -25660    17192    67049    63333    24559    -2042 
    5259     9151   -16680   -16636    27750    53431    40590    23980 
   14998    -4160   -27140   -32676   -34800   -24904    20116    39056 
  -13582   -56124   -16899    46691    64407    62575    73603    66278 
   32363     8492    -8645   -30311   -17733    20506     2860   -62181 
  -74128   -45133   -46749   -33219    26508    53885    19904    -6723 
   18257    65034    77511    31325   -24950   -34985   -14215    -9076 
  -26414   -30427   -15830    -7843   -13809   -25812   -11746    32721 
   65099    74355    79563    72459    30470    -6735    -3134    -3527 
     865    43212    67753    43891    11826     9963    30827    36078 
   22550    13338     9489    -7881   -35482   -24366    44806    90913 
   56882    26924    53284    74988    83760    95181    80287    48618 
   10454   -42633   -66436   -42113   -22442   -28393   -37291   -22979 
   25083    52685    13174   -45350   -75115   -78333   -43159    27679 
   57183    13031    -8402    19360     8025   -23247    -7659    -2781 
  -34820   -21693    19792    13560      884     -540   -29046   -43748 
  -30150   -10169    26685    41281    20347    19893    33049    24686 
   19549    39988    47673    11036   -18250     8402    39845    14783 
  -33038   -35634   -16659   -31521   -36065    -4480     6639     6357 
   21470    17745      955     4912    28937    37775    -2174   -31851 
   -6033    -5663   -32109     6210    60509    50869    28494    14482 
  -13050   -10328     7480    -5775    -8074     1259    -1441      537 
  -17768   -28186    14048    37160    26221    37766    50515    41782 
   27484    20455    23155    12383    -5039     7130    25313    27745 
   48043    68960    52243    28328     9817   -18959   -32155   -22416 
  -18152   -18846    -8091     7115    11075     6303     2901     8282 
   23071    24343     6647    14953    58695    56816   -18808   -56538 
  -12106    15198      388    13360    50957    56373    34321    14189 
  -13325   -38896   -39943   -39974   -42720    -6660    49273    64215 
   50553    40321    17567    -6143    -2627     4149     3156    21120 
   45766    45253    25910    21070    39695    45790    35714    33772 
   28329    34605    59518    50423    17648     -920   -13571     3951 
