Origin Time       2021/02/13 23:08:00
Lat.              37.7
Long.             141.8
Depth. (km)       60
Mag.              7.1
Station Code      FKSH09
Station Lat.      37.3530
Station Long.     140.4264
Station Height(m) 260
Record Time       2021/02/13 23:08:10
Sampling Freq(Hz) 100Hz
Duration Time(s)  219
Dir.              6
Scale Factor      7845(gal)/8223790
Max. Acc. (gal)   99.049
Last Correction   2021/02/13 23:08:10
Memo.             
[...]
   10123   -36252   -47220    -5910   -12579   -39798   -16127   -13547 
  -41077   -39333   -20119   -11982   -24448   -25523    -1174     -459 
  -19406   -19321   -17672   -20660    -4190     2161   -33778   -47380 
   -4371     3770   -45719   -54344   -15510   -12560   -41146   -37338 
  -10929   -16610   -25234     6833    10166   -31652   -23950     3145 
  -37704   -65377   -13016    26491     9748   -19165   -37694   -43266 
  -54058   -50004    -7395      355   -35433   -28433     -359    -3897 
  -12795   -22956   -37939   -36269   -23040    -1281     3173   -34778 
  -43171    -8039    -8525   -24331   -34510   -60361   -29045    30735 
  -15269   -74231   -30063     3391   -26703   -35186     -716     6331 
  -41729   -46543     8519      260   -54573   -46404   -13319   -16532 
  -19796   -20767   -29077   -17767   -13450   -28425   -24993    -8059 
     228    -7107   -19234   -34951   -60579   -31126    45576    30690 
  -59080   -70114    -2640    25174   -17073   -51135   -28711    -2797 
   -8185   -18885   -33142   -35500    -9580    -5702   -36354   -51293 
  -34828    -2088    13514   -12433   -39421   -38497   -44204   -49441 
  -21833    -1764   -11951    -9768      464   -13961   -31009   -36794 
  -47120   -36332    -2442    -5320   -30869   -21870   -15093   -46145 
  -69515   -46986     4552    22015   -20156   -44946   -10080     5621 
  -23963   -21709     -139   -21928   -36702    -7402    -2540   -41207 
  -41978     5521    10902   -18767   -24730   -38407   -51374   -23102 
    -747    -4125     2296    -6802   -48062   -66633   -43159    -8710 
    -318   -32491   -54033   -37343   -19892   -15414   -20194   -21945 
   -9130   -12529   -35860   -30126      148     6251    -3458    -2505 
  -10326   -36832   -46971   -29304   -13868      382     7188   -28398 
  -60192   -40456   -26941   -33280    -8959    18343    -9157   -63674 
  -63436   -12839   -10488   -45841   -16968    24937   -10179   -40289 
   -2641    23248    -8970   -51078   -64956   -45975     1711    22941 
  -18038   -50553   -26937     3280   -12846   -57026   -53635     4546 
   19035   -23762   -28329   -10839   -25054   -13567     2062   -39914 
  -50013     1121     6042   -43519   -64015   -33309    -2003     -284 
     681    -9952   -49366   -30084    41400    15560   -61130   -44911 
   -2674    -3375    -4496   -19849   -59791   -66401   -17535    13996 
  -42502  -102666   -48613    37138    23504   -33340   -43933   -34403 
  -19804     3522    -6565   -46697   -49937    -6045      373   -43465 
  -41149    -7728   -17269   -33003   -28517   -35276   -45958   -24092 
   15930     7655   -34747   -34221   -11624   -11612   -13474   -12181 
   -3272    15907      -48   -35203   -34057   -22212   -14457   -19711 
  -55132   -57866   -23384     3924    17918   -22114   -63271   -35897 
  -10952   -12950   -22856   -43052   -33739     9775    20858   -24317 
  -44953   -16946   -18562   -41770   -34446   -12604    -7312   -12383 
   -1246    -2598   -33077   -44054   -40956   -36219    -1946    16048 
  -26539   -49384    -6369     8619   -36818   -63985   -44467    -4888 
   10415   -16848   -24232    10228     7578   -48686   -73473   -45270 
  -32657   -32293     5051    18910   -23099   -36524   -23603   -39556 
  -47849   -27599    -4006    10492    -3199   -28039   -30898   -17482 
   -2400    -9613   -16839     3022    -8075   -38871   -36286   -36597 
  -29914    -3150   -16093   -45904   -42111   -23923      234    11292 
  -10234   -27467   -26761   -27021   -21617   -10794   -23614   -41534 
  -10266    16663   -10878   -26165   -22295   -33208   -49653   -58193 
  -29662    -6349   -33879   -27040     5738   -25112   -44165   -17842 
  -30284   -41585    -7759     7384   -13031   -34534   -28067    -5950 
  -20983   -37563     4895    28856   -27714   -78237   -54521    -3639 
    4523   -30385   -40767   -13805   -13034   -42236   -51398   -29640 
    -469     5759   -12999   -15673     1561    -8745   -32945   -22958 
   -5769   -15971   -29991   -36805   -40204   -21874   -10339   -40394 
  -43842    -1633    -4380   -40365   -36707   -12699     4853     1313 
  -41364   -56165    -9495     7481   -14754   -11616    -3788   -11429 
  -18708   -16424   -11666   -38473   -48207     6982    26647   -24360 
  -60273   -44999    -5980    -1617   -23719   -19163   -25469   -45627 
  -24705    -5231   -22423   -32807   -17223     4827    -3393   -37173 
  -31865     1325    -9950   -33002   -26858   -37663   -33816     7932 
   -9998   -53481   -24097   -10347   -59360   -58187     1890    22979 
     201   -24165   -39901   -25316     -646   -13629   -28414   -22711 
  -29110   -29708   -22492   -15747    21431    23679   -52779   -79710 
  -22594    -3454   -36448   -32275    15939    20245   -42592   -66106 
  -22561   -10004   -20318    -2289    -4803   -31831   -33713   -25636 
  -23511   -10978    -8490   -30604   -34890   -11539   -17809   -44007 
  -19148    10939   -27949   -64801   -29836    14130     1000   -32719 
  -37667   -29670   -24552   -13811    -4943    -9934   -19506   -19959 
  -28660   -51896   -46072    -4361    16403   -13366   -44336   -25847 
   -8675   -29350   -31822   -16700   -24430   -35384   -28086   -23010 
  -32949   -22188     5778    -5709   -33898   -20312      994   -22790 
  -31997    19535    18330   -63822   -66143    12175    20029   -16521 
  -20954   -29978   -29821    -2381   -13629   -48130   -34769    -9859 
  -20698   -29145   -14563     2502    -1084   -40477   -62043   -31901 
  -22075   -40863   -26001     6370    13662    -7013   -24285   -10411 
   -5219   -32957   -41129   -23422   -16781   -12783   -13057   -31789 
  -39185   -17051    -6768   -24507   -23637    -4062     1969     2690 
  -11842   -49011   -59643   -22350    -5208   -43980   -57657   -19896 
   -6639   -19407   -25654   -49492   -60512   -17946      631   -33679 
  -30700      -27   -11643   -29748   -19838   -12552   -17737   -24651 
  -25373   -13567   -13903   -42012   -45416    -2994    12973   -20601 
  -39879   -28806   -19761   -21064   -29717   -30557   -22727   -33416 
  -37897   -11450    -8191   -43825   -55093   -25575    -8976   -18029 
  -20572   -24853   -36855   -35264   -28559   -18706     6674    20679 
   -2126   -22925     1869    10369   -45941   -65387    -9235    22279 
   -4133   -42932   -56015   -45746   -39037   -37054   -45262   -55934 
  -30838     9131    -1819   -47120   -36486    10303    -2751   -36819 
  -16471    14613    -1688   -35730   -32456    -5196     3364    -5175 
  -12055   -15411   -11411     4166     1854   -16595     5834    27461 
  -18863   -52486   -21004     2702    -8788   -15842   -13859   -25633 
  -42453   -32784     7040    22762   -22181   -56515   -33455   -24663 
  -43055   -36715   -33120   -31812     6524     7152   -66051   -92460 
  -39973   -11430   -13543     -945     1332     -426    -3404   -32406 
  -28679     5675   -11665   -42345   -30920    -4145    14301      793 
  -54947   -92880   -56847   -11931   -21774   -36818   -41750   -52987 
  -38130   -14382   -26052   -28938     8461     2628   -57539   -62352 
  -29890   -55036   -82001   -17744    59217    17066   -68094   -49905 
    8087    -4564   -43255   -38507    -9776    -8549   -22121     6778 
   39262     8947   -30210   -34690   -20717    -4708   -22547   -31113 
    9405    19336     1575     5729    -1233    -4637     8086     -298 
   -6799    -9645   -41666   -56114   -25080    -6234   -20353   -34419 
  -37315   -20553     8959    -5242   -42437   -30150   -10389   -18303 
  -10829     5026    -9823   -45465   -45196    -3838    12997   -14107 
  -46758   -48277   -25115    -2694    23483    21289   -35117   -67964 
  -43295   -27672   -25253   -13987   -25871   -32027    -4202    -9169 
  -49545   -54810   -25034   -17919   -46379   -51652   -18566   -13180 
  -56624   -78034   -30061     8895   -28740   -68010   -37021    14017 
   11786   -17710   -11290    11504    -6396   -49291   -54342   -27691 
    -739    24355     5884   -48978   -43692    24221    46743    -6181 
  -45450   -22554    11577    15884    -2984   -28948   -42672   -34693 
  -16726    -2011     6085    -4068   -33397   -45206   -31548   -17080 
  -12449   -29462   -39175   -17585   -12506   -23151   -18755   -35260 
  -59914   -42923   -28741   -49273   -56497   -37867   -20399   -13950 
   -9211    -1553    -5383   -14293    -6458     7393     3726    -6894 
   -5570    -7380   -19160   -33787   -52015   -55161   -45416   -47461 
  -37818   -19953   -46981   -75038   -45962   -24636   -42842   -54271 
  -49284   -38911   -42940   -65118   -68466   -56974   -55908   -42784 
  -11931   -10755   -50787   -63822   -19665    16803    12970     7890 
   12897     -395   -19025     -723    35216    47988    42780    14368 
  -35073   -47831   -14547     5775    -5842   -31230   -32697     2686 
   -1478   -58217   -66663   -15183    15354     2705   -19479   -27853 
  -29570   -37863   -28487   -10002   -43252   -88786   -60984    12063 
   37100   -20700   -69692   -40876   -17097   -44730   -49709   -10801 
   11969    28007    60266    30843   -34037    -5556    56651    38153 
  -14388   -20942    28448    56860     9332   -33613   -27143   -21903 
  -38061   -75444   -86385   -33744   -17069   -69846   -82225   -50681 
  -34177   -23332   -39017   -70803   -48929     -827     4363   -30996 
  -47798   -24968   -38870   -86611   -64524    11970    45785     5999 
  -55251   -63622   -26433     -176    -2305   -20120   -15597     9117 
   -9119   -37102   -11600    -3642   -25041    -7275     3496   -12877 
   -7992    -8203   -30861   -20671    23733    18107   -28070   -28026 
    9614    37359    10343   -51495   -38313    15753     6592   -17100 
  -16569   -28285   -28848     1470    16505     5934   -21104   -64783 
  -64496   -14349    -4819   -44019   -57314   -17176     6023   -47609 
  -94162   -51003    12532    15619    -8521   -12224    -8270    11171 
   24102   -30805   -66934    -1925    44556     3538   -31764    -9055 
   16486   -14223   -78661   -94196   -34157     4853   -37868   -75736 
  -57711   -30576   -23188   -40099   -65666   -69554   -56951   -43648 
  -28132   -25469   -44084   -57190   -45184   -25894   -28175   -44702 
  -37112    -8572   -16433   -53708   -41944    24456    68574    35830 
  -36984   -76076   -71311   -42044    -6662   -10481   -53643   -50360 
   20177    48101    -7632   -49736   -26499    14030    23410     3118 
   -5949     7557    18366    36537    48525     6925   -32971     1312 
   33010    -9026   -37905    -5393     7654   -16947   -33362   -45099 
  -57458   -40221     6420    10342   -49036   -72519   -36305   -13288 
   -5236   -10840   -42240   -40406    -6150    -7600   -28008   -28098 
  -18320   -10021   -10812   -23372   -33501   -26902   -20443   -36504 
  -44506   -34395   -45428   -54315   -37899   -46066   -69369   -51113 
  -18080   -25531   -47981   -25860     9408    -7543   -33010   -20495 
  -20695   -52685   -76177   -61317   -16731    -4415   -31506   -35361 
  -18523    -9013   -16376   -42534   -35170    18770    42815     4272 
  -46646   -51849   -19245   -11526   -30052   -16799     8324   -20561 
  -68229   -52274     -842     2218    -8931    25385    39999    -5481 
  -47314   -38507    -3125     1586   -25905   -36397   -25393   -27634 
  -40960   -34439   -27886   -42947   -31916     9062    20259    -1505 
  -27769   -36497   -12224    -9155   -46742   -30238    26037    -3384 
  -82393   -78653   -13452   -13911   -82981   -83128      734    22631 
  -30516   -35980     5701    -6637   -67905   -71053      367    36301 
   -7398   -40799   -26919   -27584   -36656   -12785     4765   -12037 
  -12330    11186   -21975   -91235   -70806    16610    31729   -34595 
  -73851   -63715   -65318   -68108   -46440   -29859    -7045    22674 
   -3763   -56749   -43731    10767    23650   -12958   -41156   -28875 
  -17078   -41731   -62405   -44867   -33457   -51210   -50010    -7960 
   39043    54835    37239    -2930   -31622     9558    65576    25035 
  -44155   -36586    -4464    -8991   -28382   -38655   -53438   -62132 
  -26245    18543    19907     2906    -3774     8542    33230    12305 
  -58592   -82337   -48312   -27336    -9315     1356   -34082   -56772 
  -25166    -9151   -31229   -28117     7099    28510    18812   -22099 
  -57238   -27862    27465    19629   -22819   -23337   -11603   -32533 
  -34271    -1840   -17864   -72137   -69723   -21685    -1989   -16625 
   -9332    22867     5971   -41037   -25026    17647    -3997   -55084 
  -60760   -39140   -37997   -45554   -25612     -437   -13456   -35922 
  -35684   -39611   -66182   -88275   -56003    20741    38182   -39297 
  -83735   -33323     8958     3967    -7670   -23922   -35372   -15364 
   30183    48586    10030   -22783     -162    19614    -7935   -35432 
  -36065   -28428   -15287   -10068   -23577   -20614     3227    -8734 
  -39530   -22877   -14180   -63661   -71633   -18175   -13828   -43870 
  -41791   -40667   -32923    -5459   -20781   -55580   -37359     -523 
     422   -21064   -33762   -29408   -21533   -28105   -39883   -21043 
   17182    11591   -33562   -33752    17444    19943   -46834   -81360 
  -35772    16966    12183   -26827   -52185   -46503   -31945   -21763 
   -2759   -10030   -46867   -40278   -15040   -42614   -73279   -35179 
   33930    47391      -28   -31544    -7130    13601   -36227   -91905 
  -46137    45625    40667   -52986   -85695      862    66307   -17509 
 -120812   -54866    82782    76648   -41349   -79764     1212    68492 
   21571   -70845   -74241    -6971    12417   -22751   -39538   -19386 
    6192    -1834   -46276   -64897   -29751    10390    11518   -36347 
  -64135   -17772    10384   -28582   -60646   -55937   -43266   -41570 
  -40358   -27542   -12758    -5938   -15310   -38088   -49793   -28367 
   13228    17732   -29011   -60505   -55005   -39101   -11844     7118 
   -8031   -40085   -54248   -22850    28233    30530   -16031   -40194 
  -22478    -5869   -13738   -39650   -53333   -33547   -16264   -22905 
  -21635    -9513   -17968   -47494   -68058   -58135   -15138    31097 
   32732    -5896   -40653   -45150    -9410    23776     3739   -12237 
    8630    -7381   -45441   -28482    18183    34063    -2355   -60127 
  -66243   -26221   -13189   -24594   -22369   -13123    -9351   -14219 
  -24382   -35402   -51439   -53308   -28358   -16934   -26716   -13795 
     526   -21238   -32904   -19581   -23106   -24393    -9553   -17813 
  -36751   -28536   -12749   -15080   -26179   -38452   -41774   -38580 
  -54265   -57888   -24484   -10347   -30242   -38723   -23464   -15749 
  -35978   -60153   -61531   -29821     -116   -23739   -43266   -12549 
   -5769   -34230   -38699   -15192    12303    19657    -2246   -30153 
  -29199     1586     9072   -17517   -34472   -34168   -17096       45 
  -15499   -35982   -28012   -14179   -17226   -13564     4703    -1717 
  -26331   -33238   -31648   -32710   -22249   -11992   -27166   -36740 
  -19816   -12228   -24551   -32682   -19957   -14254   -38740   -45549 
  -16438     4588    -3110   -25371   -33755   -32671   -44038   -46629 
  -32364   -14740    11576    24282    -2980   -39070   -32216    15138 
   29772   -12819   -34696   -15144   -12490   -24246   -18084     -815 
    5252   -22789   -58899   -43135     2006     4135   -34831   -64756 
  -62127   -32319   -10756   -18427   -20839   -10536   -16501   -19772 
   -5255   -13201   -43465   -47197   -26171   -10455    -8321   -19673 
  -30082   -31418   -34194   -37571   -27629    -8978   -16004   -36266 
  -21832    -8510   -23826   -18264    -9508   -29004   -30897   -15426 
  -19724   -22041    -1300     9788   -11796   -35656   -35214   -24543 
  -15029    -7681   -20590   -37697   -20876    -8471   -18450     5273 
   31387    -7103   -64027   -70293   -31437     5181    -3649   -40184 
  -35077    -2739   -19013   -61323   -64135   -28891     -445   -10802 
  -20760     8861    13986   -40050   -64196   -19583    11005   -16798 
  -46818   -31549    -4631   -15603   -40620   -34132   -15095   -14330 
  -23068   -28984   -24547   -13848   -19129   -39187   -47683   -28838 
    2941     8955   -19357   -42808   -38727   -22364    -8437   -11537 
  -30200   -27365    -8779   -14273   -22405   -11512   -14719   -38857 
  -45453   -27845   -17302   -19114   -20831   -17898   -19492   -37940 
  -43502   -18905     6421    12939    -9116   -32530   -23431    -8341 
  -13207   -36652   -52671   -31695    -4630   -13246   -37646   -34703 
  -12222    -3708   -12827   -31155   -30794    -8279    -5109   -16768 
  -21871   -29519   -36043   -25674    -2751     6372   -10390   -33690 
  -37694   -31349   -29182   -13555     -606    -5391    -6062   -21946 
  -46153   -33141    -5476     2020    -3716   -11071   -17166   -26636 
  -39633   -52434   -45179    -1784    27796     2178   -33100   -30303 
   -5535    -6837   -31245   -29635    -9675   -11092   -32686   -52604 
  -48366   -15453     6936    -2964   -11788   -28318   -60367   -36263 
   20898    13780   -28011   -43336   -38375   -29853   -29501   -31024 
  -25794   -14995    -2536   -17388   -51275   -46822   -15786    -4976 
  -10168   -15084    -2898    14341    -8827   -45744   -45104   -38743 
  -34705      905    10818   -34167   -48679   -28933   -29776   -28547 
  -15846   -20952   -36676   -34597   -14519    -1668     2002     4159 
  -12453   -28692    -4172    14110   -26802   -54195   -17469    -2439 
  -37995   -52443   -33654   -12175    -8554   -28752   -44389   -39456 
  -27526   -23002   -28132   -24457   -10450   -11781   -28653   -34429 
  -21039   -14775   -35370   -52454   -31145     1914     6011    -7418 
  -15106   -19314   -30916   -46434   -38507    -3024    14042   -17251 
  -49927   -34180   -13424   -29377   -39575   -15735     3688   -16271 
  -43517   -29587     6928     9570   -35464   -51694     8715    37172 
  -20700   -55163   -29331   -10632   -25074   -49500   -41366     1868 
   16575   -13053   -31287   -26624   -31467   -37415   -23515    -9495 
   -3566     2767    -6809   -22248   -20379   -21185   -28553   -21895 
  -10390   -10991   -19280   -25720   -32529   -32811   -22453   -22843 
  -28034   -24935   -28121   -31256   -28435   -26643   -24279   -25346 
  -27982   -29755   -31838   -26140   -11970    -1838   -14462   -40180 
  -33739    -5165   -14701   -49752   -46988    -5961    15005   -12777 
  -40992   -23661    -6733   -29215   -34912    -4953    -1179   -25501 
  -33488   -26428   -15295   -11620   -26188   -31573   -24159   -30227 
  -35347   -26582   -14130    -5216   -11801   -27670   -25411     -321 
    8831   -22678   -46534   -19822     7430   -15296   -38215   -23210 
  -11300   -10403    -6979   -19399   -32335   -20013   -11237   -27738 
  -39816   -24429    -7605   -21114   -33968   -13348    -1811   -22280 
  -41397   -42024   -23107    -4014   -11858   -22928    -7102     4725 
  -18585   -52910   -66677   -45412     1032    16734   -19172   -43097 
  -30026   -24151   -34649   -42349   -31372     4448    12829   -28636 
  -43632   -15967    -6535   -22188   -39854   -39672   -17186    -8145 
  -20927   -27418   -21810   -12012    -9283   -20869   -32780   -28729 
   -9393     1420   -17204   -31479   -17284   -14358   -25455   -23180 
  -22774   -24984   -14260   -11884   -27411   -29995   -11847     -309 
