Origin Time       2021/02/13 23:08:00
Lat.              37.7
Long.             141.8
Depth. (km)       60
Mag.              7.1
Station Code      FKSH19
Station Lat.      37.4703
Station Long.     140.7227
Station Height(m) 510
Record Time       2021/02/13 23:08:06
Sampling Freq(Hz) 100Hz
Duration Time(s)  219
Dir.              4
Scale Factor      7845(gal)/8223790
Max. Acc. (gal)   449.686
Last Correction   2021/02/13 23:08:06
Memo.             
[...]
  -18393    -5123    -4611   -14786   -18947   -25215   -12658    12414 
   12973    -7304   -21770   -28448   -36061   -32356   -21262   -23853 
  -16303     4492     7939     9895     2189   -17820    -2682     8795 
  -22639   -35337   -21328   -25841   -30541    -8546     9823     8318 
   22843    53473    42122   -15236   -54201   -63931   -65677   -37380 
     626     8725    20893    37921    17801    -7769   -12289   -23971 
  -33188   -24391   -20819   -22098   -18191   -27433   -29571     7516 
   30392    12306     9676    11962   -17666   -43856   -48996   -46348 
  -22524    17658    37258    35590    30708     8756   -13794    -4761 
    1399   -11136   -10951   -16522   -38805   -41785   -33168   -32960 
  -22567     -369    10539    -5123   -33054   -40540   -25096    -8390 
   -5925    -6669    13055    35491    32142     5192   -20034   -14131 
   -3102   -20976   -39228   -34422    -9726     8422    -3731     3493 
   37466    30554    -6502   -36058   -44957   -26005   -24633   -43152 
  -25995     2155    -4615    -8221    13408     8719   -10343     2378 
   -1443   -26622   -16555   -17057   -57319   -63988   -31151   -12102 
    5501    36119    46356    33291    21460     8834   -19738   -57096 
  -53476        5    20835    -6010    -5404    16592    11873    -3916 
   -9333    -3408     9666     4371   -32857   -66561   -69041   -55885 
  -38576   -18828    10480    49353    58793    32017     8340   -14507 
  -49222   -58295   -36730   -33647   -39532   -19537     4349    24264 
   44408    32499     4325     7356     2316   -49740   -85920   -71562 
  -45945   -17865    22410    68080    95226    70086    21766     1128 
  -12822   -40733   -61446   -54232   -28013   -31504   -59753   -57192 
  -31241    -2029    25942    25216     1634    -9391    -8684   -18774 
  -31614   -27684   -10717    21710    51302    29749   -18909   -25682 
   -3577    -8208   -28914   -26430   -17467   -25348   -32293   -36643 
  -31054    14110    55120    32672    -5285     8175    36720    14715 
  -16812    -1934    10284    -1745    -8262   -35460   -74787   -77746 
  -70081   -70272   -46832    -6488    18377    27245    39906    46167 
   30503    23932    28235    -3380   -50141   -55891   -37440   -34473 
  -36486   -22974    -7570      283    12116    23431    19221     1242 
  -18022   -28088   -26358   -20393   -11821     -819    10030    27480 
   24595    -9359   -14681    -4517   -26141   -35168   -26649   -31394 
  -26593   -18858   -22685    -2795    37156    47034    30234     7692 
  -26200   -42499   -44189   -84578  -110849   -41901    41142    46233 
   27576    22346     1059   -18401   -24255   -35807   -37422   -15017 
   20228    45480    34331     7830     2689     1873   -17080   -38271 
  -41413   -30331   -14123    -3102   -10287   -12463     6081    10837 
   -5606   -14130    -6305    -2184   -21173   -27120     1594     2485 
  -19784     4537    37326    15101   -12143    -3634   -13566   -35347 
  -26902   -39555   -68818   -51922   -27344   -32949   -25775     4272 
   26325    55363    82007    53531     7389   -15003   -52208   -92927 
  -92595   -54000   -12491     7333    32001    54768    36590    15574 
    7628   -12282   -13116    -5273   -26541   -45216   -45488   -40799 
  -19796    15695    29238     5400   -10478   -10555   -48431   -95747 
  -82368   -24915    22300    47337    64066    54704    20297     4009 
  -14505   -52267   -47294    -7766    -2328   -12750    -8074   -12231 
  -18667   -15255   -19587   -14505     7680     -761   -36300   -30568 
    7352    17605    22231    38264    32355    19076     -353   -43843 
  -67548   -65452   -80578   -97066   -80867   -20811    53400    71099 
   48136    60855    91844    75409     5161   -64729   -90292   -87435 
  -74839   -39847     1572    13437     8398    14115     9185   -13126 
  -13899    -1294    -6322   -17481   -26092   -42727   -59925   -48065 
  -11504    22037    62112   101281    86869    20178   -29955   -52135 
  -84936   -89360   -29814    18752    13975     1277    -1058     5836 
   16081    -2751   -36337   -45076   -43109   -47047   -58093   -78632 
  -67591    -4278    41430    38767    34647    34631    19796    -5543 
  -25046    -8310    31564    39657    19110    16209    33015    28888 
    1409   -14463   -29616   -48740   -33930   -14769   -43540   -65156 
  -25643    10531     6043    15755    27592   -14936   -62741   -59764 
  -58511   -87438   -90560   -52247   -22428    -1027    63599   121818 
   90121    19545   -20001   -33334   -33234   -29231   -23209    13126 
   64552    57712    11782   -17612   -52039   -69525   -37295    -4591 
    3323    11956    13972   -15507   -49030   -54642   -48436   -30281 
   -5113   -10027   -29425   -27178    -2805    28903    40738    31237 
    1962   -43808   -42028     1776    11130    18725    49847    51895 
   33970     2478   -61609  -110381  -103952   -66036   -37126   -24229 
   -2280    24806    43768    47764    22346     3526     8517   -15244 
  -44807   -33519   -18162    -4938    11099     4698    -5506   -12779 
  -31635   -44658   -37960   -16864    -9641   -27237   -14835    35505 
   42831     6025      796    19693    13961    -5746   -22925   -52722 
  -70553   -40783   -13752   -25705   -27122    -9740     1583    17464 
   20844    -6291   -24235    -6129    13535     -611   -27213   -35124 
  -21404    12912    28799    -1532    -8529    25173    28162    10201 
   11371    15099     6230   -11122   -24599   -29856   -41764   -64052 
  -69781   -48558   -30666   -27633   -34614   -44729   -22639    22870 
   38816    37493    42417    22801    -9683   -19843   -39005   -61468 
  -24031    42610    66016    66357    64814    29131   -18736   -38188 
  -62413  -102714   -87088   -20468    -3411   -28996   -27265    -7474 
     473    -6658    -8262    -4040   -15018   -11759     5975    -4479 
  -25054   -28998   -15357     9069    15466     2316    13481    50229 
   57021    30785    17732    11223   -24090   -64570   -72334   -63720 
  -49350   -27168   -16518   -26065   -42599   -37621   -14485    -4950 
   -5451    -1308    17959    41605    40802    26399    10493     4783 
   -3075   -56536   -80136   -28723    -8095   -19330     4131    34506 
   33855    10089     2752    10550    -7060   -29880   -32532   -46799 
  -67084   -39768     7518    16887    21261    22624      930     4210 
    8224   -16669   -12438     4382    -1927     1998    15959     9105 
  -31372   -68972   -43688    13875    23418   -12370   -31372   -17517 
  -14494   -39367   -68671   -74042   -32252     4662   -13969   -18507 
   31642    61142    29536    11273    44217    48564     2533   -33353 
  -60334   -86917   -57892    18075    31718   -10755    11492    56181 
   27795   -13913   -38242   -68989   -65299   -30844   -18701   -16966 
    2336    20453    16849    10751    23936    22562   -11384   -27803 
  -24660   -45751   -71010   -64756   -49032   -41747    -4255    59015 
   67806    26775    14469    11006   -37716   -83539   -66792   -17878 
   13938    21551    27476    63720   100032    71194    13204   -20718 
  -59406   -89668   -75597   -52029   -34838    -6588    18355    25046 
   12258   -11786   -27284   -37430   -61618   -85942   -74677   -32425 
    8660    24273    11620    15095    42566    38095    -2845   -32863 
  -20961      147   -17701   -42543   -55412   -69763   -43052    17655 
   42731    34743    43989    52358       74   -56852   -40089   -15581 
  -10650    17984    39271    50359    66274    51135    23148    15927 
   14428    15287    13316   -15002   -61740   -93661  -102698   -98790 
  -92966   -87616   -56658    -1066    43309    57753    23607   -33259 
  -46703   -40348   -65327   -83737   -74744   -61090   -31588     4727 
   38248    86019   111360   100874    94894    95654    98286    83600 
   30059   -18148   -32856   -39795   -47694   -52924   -54658   -51147 
  -38522    -3801    28460    23924     1293   -20074   -33223   -39299 
  -63162  -106629  -128101   -98323   -48636   -17766     2371    19831 
   21401    13258    -7678   -66337  -120352  -116086   -92627   -71618 
  -14003    58742    89842    86324    69967    41426    27267    53505 
   74482    36934     -834     5256    -7825   -42684   -67177  -101642 
 -119556   -86643   -28328    13343    25189    45513    68521    41759 
  -34291  -122116  -163229  -157608  -157320  -119758   -20722    59913 
   95670   110740   115982   130535   134333   101988    85865   104375 
   87736    33058    -7873   -57937  -121234  -136899  -107653   -81656 
  -64654   -26611    47135    89411    45405    -7754   -17093   -21512 
  -17336     5231    -2994   -69072  -137748  -147947  -131566  -119793 
  -52238    88326   204287   219235   154434    44991   -90217  -192339 
 -193153   -87184    41740    98938   135252   229986   276872   188844 
   61257   -34857  -116626  -174357  -180048  -158488  -142137  -117263 
 -107065  -133462  -126566   -62183    10912    73813    96786    76329 
   55840    10928   -82460  -161806  -181106  -137905   -48377    25019 
   68094   130974   178524   165438   127197    91778    63890     9397 
  -80257  -118852   -86690   -55375   -40305    -2678    76311   137980 
  107298    20467   -48517   -90868  -138770  -198315  -193405  -113397 
  -71883   -83567   -82783   -65848   -39684   -16838    -9128     1634 
   12594    15993    11786    11607    62904   146101   195378   217656 
  216390   175549   113709    43044   -19913   -63586  -100917  -109836 
  -78930   -62864   -83135   -94231   -85754   -92132   -92362   -50695 
  -19880   -39010   -58102   -51464   -43992   -54290   -76331   -64912 
   -2517    55922    66572    30765   -12382   -14126     -572   -29685 
  -68459   -50909    -3778    23920    49553    89961   133979   155578 
  136047   110327    80519     7638   -49015   -33683   -17890   -49103 
  -92977  -144508  -197877  -205071  -172818  -132124   -64790     8166 
   43976    91876   192311   233478   124907    -4914   -34392   -36433 
  -64809   -66305   -28599      292    -9294   -37847   -64912   -98593 
 -112515   -83281   -48207   -11246    52080   114643   133948   106080 
   65484    27837    -9829   -26499   -22225   -14401    -8806   -24073 
  -45042   -41176   -51148  -102555  -149827  -152230  -104841   -26454 
   40421    75065   100391    93424    19608   -58446  -113979  -173678 
 -189430  -154252  -111572   -52971     7626    49000    71116    56965 
   37335    46608    51385    60505   119997   184744   172640   105860 
   56577     9698   -62202  -106548   -84569   -26144    18987    41702 
   69265    81198    32637   -44802   -89351   -87652   -51205    -1251 
   49860   113012   150975    97001   -13517  -101852  -172157  -230233 
 -247853  -232946  -197546  -144544   -87617   -32748    -2177   -16403 
  -63327  -131310  -188748  -207264  -198070  -148905   -58183    26385 
   78756   115425   168558   229266   252165   252440   275185   309680 
  315504   241533    93312     5244    38561    75213    82008   130442 
  177992   166907   136680    64297  -124114  -341377  -440815  -422797 
 -315075  -131558    10538    -2682  -112904  -155297  -113436  -132772 
 -235070  -320248  -345253  -253639   -43730   114103   158584   212863 
  302973   346662   302518   193278    67505   -36796   -82243   -25867 
  107111   218710   265256   278667   254383   150157    -2863  -131194 
 -216205  -239305  -180543  -120000  -127885  -120698   -20038   103302 
  136537    60671   -60207  -181534  -280612  -342299  -382191  -383013 
 -296640  -137180     9506    85029   130385   203092   280597   291628 
  228262   169442   146214   113377    55711     6986    10010    57042 
   76547    40859    12430    39671    90859   120884   135533   133594 
   73145   -10870   -27661   -30690  -119473  -208512  -199338  -164550 
 -166881  -175440  -179926  -198424  -226260  -226983  -181946  -136965 
 -138130  -150570   -94008    24085    91621    78532    73678   100079 
  107674   108900   133003   134212    86278    46882    45806    57454 
   77861   110597   143900   168947   175879   158410   110767    29862 
  -40292   -51282   -38784   -42719   -49388   -81457  -160211  -243735 
 -314971  -367656  -329753  -164388    19737    71012    17502    32054 
  103180    87605    28223     -299   -32212   -45414    -4988    63235 
  111051   105463    82066    56724    13729    24795   114836   188152 
  225948   258171   218272    55763  -150965  -286738  -346774  -397599 
 -410826  -339299  -232237  -117074    28699   172844   233109   215423 
  193153   108284   -84202  -235599  -262674  -222336  -137596   -38133 
   31351    45650     8203    25443   131901   186822   152250   140406 
  192190   226949   178499   102895    90362   115109    83844    13942 
  -21567   -61785  -141380  -177014  -133664  -107422  -139934  -143856 
  -91982   -54032   -33666    10918    32695   -35162  -130929  -157871 
 -135841  -110928   -71730   -14054    47980    93309    96110    67410 
   42583    23976   -12502   -45322   -15919    63366   118193   110562 
   41449   -63945  -141216  -140239   -92118   -53802    -8033    73134 
  141525   160230   154009   154318   143559    72119    -8348   -17431 
  -15267   -52597   -97723  -146411  -173693  -142821   -96982   -90571 
  -97395   -72235   -37241   -37297   -56182   -33504    19357    17180 
  -26815   -34897   -30331   -50573   -73429  -100407  -143360  -177661 
 -183404  -165530  -104674    40421   238978   366569   378561   398055 
  462257   408045   165478  -104944  -258892  -334952  -364062  -298609 
 -195663   -73530   115418   229000   201276   158214   135625   123223 
   60145   -74779  -161871  -226142  -304306  -266708  -171340  -186930 
 -221103  -132043    10258   124162   205212   251514   296118   312059 
  231326   114093    26939   -44698   -97436  -127066  -115885   -50284 
   -5424    -3006    41318   104878    86057    19953    -1815   -18030 
  -88491  -181018  -254302  -289931  -301626  -291575  -215260   -96988 
    1077    59404    58625    55186   118890   155925    95264    35212 
   39062    76486   126100   143429    86722    10646   -33087   -76696 
 -135805  -166244  -129073   -58329   -23352   -28092   -10714    59572 
   90412     4255   -81160   -61273   -11079    10636    34344    66006 
   85591    99571   115410   112139    79022    26242   -26295   -31275 
    5728   -16044  -124858  -203862  -168794   -78726   -16702    14590 
   63424   160305   228457   166499    29234   -78717  -137141  -166839 
 -200331  -203316  -119075   -13741    34404    63261   127705   187474 
  176512   102717   -10177  -140069  -234504  -267759  -258618  -248445 
 -248275  -205787   -98984    48278   199899   282841   281622   246931 
  161551    17057   -95341  -132837  -139650  -109914   -18181    98517 
  194713   226129   156763    31943   -44601   -31706   -19527   -81545 
 -107653     5593   132737   116197    -6489  -123531  -189390  -208117 
 -194290  -148833   -89928   -51941   -39916   -19768    52987   121085 
   84195     5938   -15229   -28228   -59873   -37288    28194    43781 
    5482    -9829    44343   112305   100846    49530    48388    51031 
  -10608   -68933   -36587    22302    19419     3044     1194   -22958 
  -39266   -22106    14530    76921   105657    16943  -109250  -154005 
 -152890  -154880  -138156   -97725   -57626   -55320   -57685    21038 
  125590   149816   133737   129505    96457    30971   -13074   -57755 
 -156567  -229547  -184789   -87095    -4322    62016    68868    31706 
   59962   139048   152693    96159    33308   -20653   -74965  -135040 
 -176401  -148869   -70788    -7627    34623    68706    77016    48543 
   -1526   -56045  -109973  -143625  -143109  -111904   -67788   -67203 
 -104201   -92253   -33689    14013    82634   191863   251441   230589 
  196638   148865    76032    13531   -50041  -107115  -109686   -83903 
  -69148   -24794    57164    97884    68897    14604   -42773   -92866 
 -120540  -122099   -97764   -86852  -125729  -157071  -134428   -86938 
  -28308    -1949   -39244   -17390   128177   240790   212511   116617 
   23515   -77818  -185985  -225188  -140746   -23140    33421    82279 
  162068   213902   200704   136709    51417   -32420   -89634   -80107 
  -16038     7464   -42391   -87895  -124344  -184804  -186923   -82637 
   49180   120742   103161    56242    47803    44479     9478   -40597 
 -122704  -216418  -236649  -184793   -89523    38215   107964   108039 
  129204   148822   119246    74868    28615   -15742   -17143    21902 
   27459   -24227   -50913      785    50795    22792    -8534    11554 
   12055   -13328   -29317   -73527  -133810  -153800  -134497   -77687 
   -6265    10008   -10501    11709    44683    17028   -14854    30657 
  105223   116905    67018    18738     1791    16098    35063     7261 
  -44491   -56103   -44721   -53190   -72103   -69750   -50469   -39641 
   -5142    67356    86155    13649   -58827   -76277   -65300   -65017 
 -103555  -146788  -140454   -94131   -28719    21581    26995    54225 
  134987   175404   145967   119510   112824    93140    56452      -22 
  -72495  -111541   -90873   -70249   -93019  -110766   -91049   -56809 
  -10893    41596    67524    59444    35750    -4658   -79643  -178244 
 -230480  -183585   -89415   -13508    25699    10019   -22080     7962 
   86374   127557   106586    78578    60064     7056   -65757   -91700 
  -84820  -104826  -103168   -19083    66972   100330   136047   167101 
  139423    61469   -31071  -106795  -136405  -113606   -74154   -50581 
  -22210    18450    41512    57007    92473   102307    32663   -37218 
  -17921    22738     6866   -48907   -98807  -102474   -88435  -103535 
 -112441  -100645   -96466   -65105    13443    61803    32657    -5838 
    2173     8325   -20950   -22837    43525   116927   134306   113132 
   90261    53671    -9655   -57663   -67657   -64829   -45779   -22721 
  -29446   -20659    42755    94231    77885    38678    31043    30589 
   -4055   -63613  -122006  -166108  -182116  -157584  -103265   -48662 
   -8424    36059    94867   124386    90786    25428   -43683  -108380 
 -113637   -35865    21953    11276    26705    87475   115114    85459 
   38593    17552    -8457   -75834  -110678   -66494   -18554   -17261 
  -18191    12438    32694    18682     3635   -13111   -41121   -49751 
  -38685   -25510    -6370    -1602    -4330    23664    37567      764 
  -28771   -37750   -59568   -68766   -43904   -17980    -5663    16533 
   46688    38475    -8005   -23463     3676    25083    33616    38956 
   38981    26653   -24578   -95775  -122894  -120695  -132051  -118061 
  -43600    56442   129528   147332   126102   104052    73985     1246 
  -85217  -122588  -108730   -79786   -46615    -1732    41640    53233 
   31301     4743    -7754   -13193   -36066   -78691   -99596   -91686 
  -94806   -73352    21123    96473    82189    55807    47109    -3276 
  -84321  -124379   -96955   -40462   -14967   -20595     6550    76169 
  123935    95300    19710    -7254     8635    -6624   -26264   -33073 
  -71439  -108592   -94981   -74444   -87759   -92295   -53576    -2407 
   46543   101389   127707   101313    54426    15018   -15735   -27935 
  -18681   -22414   -47780   -42597    13605    76075   102319    93619 
   82001    66384    17459   -49716  -106415  -147553  -170945  -182162 
