Origin Time       2021/02/13 23:08:00
Lat.              37.7
Long.             141.8
Depth. (km)       60
Mag.              7.1
Station Code      FKSH12
Station Lat.      37.2169
Station Long.     140.5703
Station Height(m) 365
Record Time       2021/02/13 23:08:09
Sampling Freq(Hz) 100Hz
Duration Time(s)  227
Dir.              1
Scale Factor      3923(gal)/8224838
Max. Acc. (gal)   44.930
Last Correction   2021/02/13 23:08:09
Memo.             
[...]
    8305    12194     2810    -5146      -24     3910     3384    10000 
   16017     8410     -815      -37     1302     3442    13452    15543 
    1923    -4634     4314    10363     8010     7318     8012     2816 
   -4756    -2157     9602    12402     4644     3612     6293      121 
   -2724     5337     7236     1753     4340    10158     8510     3916 
   -2022    -8417    -3051    10143    10039     1854     2439     -110 
   -9871    -2821    14007     8526    -9124   -12398    -7618    -1648 
   10161    13753      994    -6968    -3045     -321     7330    20505 
   12879    -9242    -6979    13379    17462     8665     4170     1773 
    2088     6551     4309      175     7117    10284      481    -2608 
    3622     4692     5216     5424    -5880    -9239    10940    19616 
     896    -7824     3990     7411     1661     2916     1543    -4194 
    1267     7819     4533     7561    14033     3778   -10434    -6160 
    5035     6043     3832     3577      980     2007     7834     6959 
     812    -1417    -2385    -1773     6161    11781     7167     4552 
    6168     1154    -1395     7851    11616     3834     2041     4820 
     222    -1918     3705     7684    13329    18671     6758   -10153 
   -4958    10058    13505     9890     1590    -6184     1413    11539 
    4654    -2450     4239     7568     1070    -1850     -363     2207 
   10747    14258     -594   -13570    -3179    12525    11458     4390 
    5949     6697     -244     -328     8194     9417     8630    13648 
    9898     -850    -4023    -4045     2496    19103    15689   -13505 
  -18820     6577     6450   -14486    -2570    18978     6625    -7742 
    -746    -3225   -11414     5841    21579     3943   -11460    -1043 
    8831    12264    16042     9205      965     6674     7560     -255 
    9948    22023     7294    -3843     5813     6547     1287     9969 
   12814    -1856    -4494    11836    14489     3113     4448     7250 
   -5279   -11016     2528    12023     6855     1988      893    -1944 
    -433     8172     9764    -3117    -9587     3983    13369     1968 
   -6419     6916    17610     3327    -9738       76     7450     2199 
    4286     3049   -12606   -10022    14466    17363     -257    -2143 
    2050    -5169     -226    17473    12372   -10937   -16617    -4722 
    4283     9995    14133     9718     3173     3959     4449     1181 
    2959     7843     8010     7371     9478     7052     1181     4941 
   14315    16968    15344     5235   -11075    -7103    13054    15307 
    3607     3669     9304     5109      940     7025     9444    -1432 
   -8534    -1027     4174    -1807       44    16015    21770    11045 
    4386     2246    -2909      -55     7875     3472    -4881     1306 
   10937     6768     1416     4936     3577      311     6606     6909 
   -4044    -5132     2975     3002     -402     1409      996    -1494 
    6297    16985     8052   -10629    -6114    14955    17748     2941 
   -4099     -986      454     4143    17073    23203    10179      -72 
    4374     1044    -5602    10242    18906    -7096   -18110     5586 
   13435     3179     6814     5987    -6579      502    15228     7188 
   -2536     5057     7383    -1044    -2635    -5225   -13432    -5999 
   10666    10802    -1757   -12411   -10535     7246    15381    -1135 
  -11735     -633     5603      -58     3056     7722     1607     4487 
   14202     4496    -5907     9458    22343    12206     2781     2836 
    2886     8899    16951     6421   -10399    -4155     8943     4432 
    -851     4093     3186    -6600    -6706     8228    14553     2446 
   -6643    -4203      267     6785    15920    14338      561    -2779 
    8978    15446    10547     3991      703     2359    11014    17146 
    7580    -6142    -4149     5144     7132     7734     8191     1842 
   -3414     -314     2120    -1107     -899     4715     8167     7677 
     411   -11090    -6129    16630    21031    -1030   -11772    -4938 
   -5105    -2369    15642    19678     -313    -5895     7028      275 
  -12895     1354    13313    -2261   -11281    -1850     -255     -753 
   12780    19541     6324    -6336    -5641     2808    13433    18142 
    8024    -7400    -5127    13814    23562    16822     7229    -1529 
   -7780      -51    14607    12366    -2898    -4630     9343    16996 
   10805     1617    -4021    -3449     7009    17327    11713     -124 
   -1440    -2020    -8051    -3362     8662     4488    -9115    -7747 
    2550     5887     5946     3569    -1251     2813     7758      986 
   -1255     5873     8617    11763    16208     8162    -4212      661 
   16380    19114    10075     4707     1656     -234     3973     6359 
    3596     4322     1104   -10358    -6758    10519     7591    -8580 
   -4041     7963     1985      -52    14401    15839      282    -5348 
    1236     6031     9823    12247     2089   -13379    -9216    15161 
   29466    15765    -6446   -13807    -9594    -1413     9919    11773 
    -993    -3782    13536    18941    -3099   -17983    -2689    17209 
   18033     9151     1279    -4669     -769     8197     7337    10102 
   22314    16444    -3893    -7535     -954    -3443    -2818    10353 
   18189    13023     6863    -3750   -23554   -26851      317    23876 
   16594    -1144    -8141   -10897   -13474    -7103    10669    24833 
   22586    13178     1695   -14906   -20938    -7014    12195    22022 
   16814     4870     1213      928    -7403    -9036     7011    16907 
    8712     2610     -328   -12838   -12953    12889    27866    16514 
    8077     6484    -3368    -5232    11967    17845     1038    -6696 
    3626     9829     6355     6597    13745    13373     -822   -12780 
   -6130     8997    10744     6359     9491    10214    12260    18114 
    2231   -23136   -13913    13711    14454     4515    12193     7306 
  -14311    -1551    24046     3894   -17104     6589    16451    -6056 
   -1570    19226     6045   -11326    -2589    -4306   -14922     3631 
   25420    17343     3289    -1154    -8764   -15346    -9643    -3114 
     260    14038    22825     7479    -7022    -3970      225     3507 
    9621     7244    -2836    -9034   -11358   -10908    -2978     7140 
    9732    11947    19973    18288     2587    -7175    -5783    -5088 
    -595    15311    22686     6839    -6288     2616    10555     5142 
    6012    12453     4064   -11244   -16359   -17757    -9333    20093 
   36153    15691    -3138     -843    -4469   -10338     7487    26723 
   15377    -5475    -9968    -4020    11041    26933    21184     3496 
    -560     9294    20224    21027     9950     -494    -2903    -1921 
    2134     9423    10164     -877    -9104     1404    17099    13354 
   -1189    -3986    -2239    -6234    -5574    -2994    -7163    -2623 
   12954     9873   -11094   -11811     6064     8253    -1798    -2197 
    3982     4730    -4747   -15523    -6168    21579    35607    23205 
     864   -16518   -15047     8266    25779    21096    15466    18813 
   18002     8471    -3056    -6752    -2147     2115     4302     4654 
    4395     9162    10531    -2103   -12545    -3495     8684     1961 
   -8077    -1175     4494    -3318    -7823    -6519    -6147     1231 
    9208    -1792   -15529    -6075     4639    -5574   -11249     8576 
   31193    26364      255   -15510    -6492    13567    22539    12897 
    3464     8868    14129     7672    -3352    -8761     -753    15178 
   24104    16744     -403    -1953    13743    15334     7398    10682 
    1611   -22118   -17157    15403    26742     7734    -2110     3850 
   -3731   -11763     5472    22407    21744    19143     1938   -30013 
  -22248    28464    46357     9926   -18943   -10162     5753     7296 
     573     -743     7608    10220     2263     -521     1926     -182 
   -4218    -3461     6525    17605    11269    -8271   -14760    -3524 
    6041     8328    12123    13516     1001   -14908    -9090    13362 
   21853    11288     -484    -8290    -9902      846    10234     5738 
    1143    -1603   -11469    -4577    26723    28273   -13582   -30838 
   -4006    16170    16563    17388    13325    -2425    -6431    11978 
   20021     4360    -5441     -589     6228    12672    11429     2120 
   -2309    -3693     -913    12683    16910      108    -9193     2250 
    6469    -4314    -4128     1282    -7923    -3410    24447    22909 
  -12703   -19048     7512     8769    -8783     2479    18512     3631 
  -10500      -18    13698    17914    16457     7246    -2849      722 
    6687     2513     3854    12595    15265    16789    13408    -6235 
  -16985     2025    18686     8891    -3554    -1948      183     -679 
    6289    10716    -2574   -16831   -12388     3014    11426     4646 
   -5070    -3194     2095     5972    16078    18025     1736    -3049 
   14121    17790     4114     6435    16899     9360     -299     4834 
    8160    -1271    -7422     5595    23764    18878    -1540    -4733 
    3028    -3485    -4865    15607    24756    11200     3208    -1123 
  -15601   -16194     7456    20738    16090    18310    10274   -21212 
  -26499     8552    27400    10542    -5678    -3824      530    -2783 
   -7040    -3883     7751    15916     5853   -15184   -20040     4768 
   30726    25286     5443    -3167    -5826    -1529    15098    19773 
     626    -7726     7415    10592    -5818   -10782     1306    12133 
   14885     9525     2012     2457     6903     5958     -741    -7627 
   -4363    10524    18162     9409     -815    -7665   -13632    -6872 
   10261    17699    11107    -5115   -22581   -19294     5324    19485 
   11707      918    -5637   -11881    -4761    20541    30100     6259 
  -12117      243    13952     9416     7557    15666    12197    -3449 
   -8309     3979    18593    16390     -332    -6085     2725     3204 
  -11034   -20610   -12637    -1495     1649     6744     8949    -5404 
  -20999   -19090    -9405    -5196    -2454    -1804   -11121   -18430 
  -12017    -8820   -17740   -15959     8171    29455    19402   -15446 
  -34240   -12043    20969    27873    19145    17474    20263    24868 
   32131    30998    25702    28873    31006    31257    38986    33111 
    7257    -1275     8881    12946    23553    31530     6868   -16384 
     256    24892    24544    14314    12241    10570     1929    -1946 
    3823      488   -15230   -13234     8567     7388   -17992   -22566 
   -6107     2517     -540   -12945   -26161   -26061   -24381   -35710 
  -37432   -14251     1142   -10887   -27904   -40385   -49441   -37077 
   -9968    -5154   -21664   -31893   -34015   -27487    -8010     7254 
   11628    13347     6064    -4587     6995    35374    44933    32674 
   27162    31207    28977    20830     9074    -6359   -15383   -14416 
   -6863     4491     5495    -5147    -6597     2462    10997    21119 
   25710    11349   -10547   -19174   -14897    -4878    11992    25587 
   22940    14764    12930    16471    26276    32356    22046     9213 
   11245    17432    14243    16048    30608    34786    24506    22123 
   30874    37956    30631    10536     6219    24792    29439     9424 
    1942    17452    17741    -3495     -198    28636    27294      202 
    3599    22485     9751   -10617    -6597    -2374   -11686    -6000 
   15300     8166   -25554   -31985   -10882    -5016    -6945     5138 
    9699     2455     9157    23134    23522    14359     7890     6006 
    -168   -10416    -7524     5732     1341   -16117    -9882    15064 
   18380      943    -3391     9994    20322    18104     8364    -2091 
  -12251   -19919   -18257   -12937   -12995   -14570   -21244   -36397 
  -39706   -23226   -12591   -18044   -14912     8854    32683    42017 
   42213    37885    26623     2762   -22404   -23658    -6361    -1464 
  -22894   -52050   -58873   -46025   -34211   -20399    -5784    -8171 
  -21119   -24679   -22329   -17284    -2015     9116     1948    -5274 
    3348    15678    14650    -1463   -18318   -18134     -286    14794 
   11372     2709     8623    21976    29801    34808    30599    10809 
    1310    22221    47135    46130    34126    39684    52960    49779 
   37629    32030    27259    17662    12563    20684    35097    36367 
   21181    16559    29502    28934     9123     -707    13439    27465 
   10249   -15005    -9672     2975    -2566    -6488     2258    17162 
   27612    16298    -4527    -7337    -8590   -25312   -30005    -9217 
   12147    14855     6833     3825     6392     6943     1433   -11603 
  -19307    -6528     5968   -10829   -38726   -44610   -37550   -36975 
  -29100   -10616   -11472   -38503   -58043   -41569    -1424    23610 
   15704    -4351   -10628    -4641    -4471   -19494   -37192   -35823 
  -20899   -12186    -3013    19808    46017    58098    55923    51152 
   44987    31209    18118    17405    16976     8954     8213    14407 
   22917    39317    46496    30045    12731    12692     9910   -11198 
  -28667   -29304   -27993   -25509    -5979    28965    53125    51047 
   43171    51332    60802    44433     9148   -19954   -40690   -56708 
  -66907   -77305   -82607   -77314   -72003   -65044   -48122   -33809 
  -35201   -38124   -25377    -5078    10054    16542     9938    -9772 
  -32440   -45874   -45732   -36327   -27171   -29594   -42045   -51529 
  -55337   -55818   -51906   -46700   -39366   -25103    -8592     1314 
    4841    12852    27413    35372    38365    49262    62370    67030 
   66559    68632    69275    60365    54672    67848    88202    97783 
   92057    72557    46450    23768    12896    24043    53960    72365 
   64057    59757    79332    90234    67948    47229    56430    62853 
   38519     -909   -30300   -31282   -15668   -26161   -63421   -70534 
  -34080   -12591   -34889   -60027   -52033   -35397   -41841   -46365 
  -25686    -4023     9594    29042    51929    73090    86142    78813 
   53146    23279     3349     7020    32112    43383    12853   -27854 
  -34096   -17167   -12405   -22820   -26527   -13116     9301    34218 
   53882    59185    57775    54070    39445    18121     5242     9278 
   15566     2277   -16082   -16792    -7642    -2859   -13747   -39996 
  -59633   -65504   -73704   -83081   -78779   -68619   -65898   -54090 
  -17504    23292    41621    36664    30191    38786    50427    47737 
   26673    -5275   -25604   -28101   -28831   -22411      203    16910 
    8922   -11654   -25423   -24823    -9463    13062    32012    46603 
   53643    49810    50562    57202    47011    25496    19070    26212 
   22971     3138    -4283    17527    38665    42649    50426    62712 
   59096    33629    -4409   -29878   -23448    -1809    10114     8110 
   -2386   -10669    -6933    -1228    -9725   -20333   -11990     2420 
    3423     -876    -2569     1282    14619    22338    17182    14378 
   18555    28752    39700    35938    27861    36219    37297     4170 
  -36104   -51019   -45127   -37840   -43224   -49913   -39904   -29079 
  -32501   -34497   -22701   -11485   -22669   -45073   -50305   -39205 
  -28082   -23288   -18808   -10993   -12881   -22497   -12721    17001 
   35005    34901    39533    52641    59702    52641    29895     4990 
     700    16645    33161    38929    34709    28219    21913     8158 
   -4164     3501    17126    11087    -2151     1786    10983     9629 
    7677     4062     -958    15219    44375    51711    34237     9328 
   -7267       48    22748    30003     6266   -33177   -57217   -54086 
  -39106   -27203   -24605   -28960   -28163   -14600     8044    26835 
   26874    17610    24244    39074    34966    15107     3465     8830 
   19556    22767    14254    -5668   -27419   -34067   -25042   -16560 
   -9121     2998     3233   -11461   -13154     9385    30127    14331 
  -25759   -32425     -649    10800   -13142   -27527    -8883    17215 
   28552    37065    45010    37409    21713     6984    -8371   -11117 
    4409    20572    21022      981   -29828   -55522   -73276   -83920 
  -79074   -60033   -43282   -35081   -30559   -29485   -28509   -19107 
   -2918     1831   -13635   -19873     3542    27896    31226    20472 
    7173     9213    25359    30572    18588    -1339   -18651   -18131 
   -4800    -2297   -11144   -16352   -20418   -23382    -9085    16860 
   26793    26319    45540    66804    51726    30006    48844    79963 
   78314    59217    47541    35081    30346    56116    89951    95154 
   80075    69786    62509    46040    28378    21361    16294     8465 
    5211     1736    -9729   -27396   -38492   -30642   -23371   -35629 
  -42128   -26007   -13464   -27731   -52324   -50720   -25323   -13945 
  -15257    -2034    12914     5229   -19467   -45844   -55699   -33778 
   -4662   -10299   -37011   -38869   -16902     4560    24930    40969 
   40159    15796   -19441   -21690    13828    24096    -4384   -13880 
    9193    25208    24571    29170    32239    12780    -6486     5729 
   25091    12541   -15688   -17182     7939    26273    24233    16565 
   13446    10347    11487    17948    12256    -1559    -2235     5455 
   15380    34284    52617    64362    77315    82934    72647    53246 
   29398    11454    10362    16202    13020    -5278   -34075   -55067 
  -51688   -31450   -19935   -23109   -17598    -3665    -7803   -23760 
  -29683   -29254   -30503   -30343   -28142   -29176   -32157   -30300 
  -27279   -28714   -28741   -25578   -26415   -29069   -19178    10346 
   39762    39533    17841    11090    21964    25681    19182    13406 
    8974    -1821   -18931   -22891    -4087    10939    -1236   -19500 
   -9606    17826    23476     3808    -8384     7975    30052    21189 
    2687     9891    14731     1096    -2930    -3699   -16668   -18527 
    4774    36606    56416    58482    54981    49666    37080    34168 
   51993    63687    55242    49677    51908    33763   -13653   -48267 
  -32197    -8919   -27769   -40219    -8627    17999    12429    -1474 
     423    15398    14278     5830    16314    10575   -28875   -48274 
  -30057   -15279   -10895     1841     1148   -25937   -38526   -19184 
   -2890    -5232    -6394      777     4650     1858     1647     5680 
     494   -13165   -14341    -1653     1872   -12825   -21772    -2556 
   17990     4212   -19234    -7454    32848    52053    20331   -28472 
  -41497   -18134    11276    28934    27756    15689     4155    -7987 
  -15043    -7894     1537    -6087   -21589   -11468    26323    47059 
   31356    15878    22334    30655    28628    22339    11770    -7304 
  -27756   -34123   -22945    -8954    -5310   -11122   -16610    -8239 
   15681    34975    34585    22869    12442    10050    15693    16159 
    6286     1848     3010    -5765   -16461   -12891    -1555      -16 
   -8757   -12559   -13356   -18944   -15076     2089    15807    23677 
   30781    32232    25027    14278    10087    15800    19753    14914 
   11196    11854     4369    -8637    -5691    12031    17914     8962 
    9470    15383     -502   -26804   -31752   -16378    -3051    -4654 
   -5949    12744    31475    26311    11848      438   -16008   -28597 
  -19057     1787     9729     8266    13641    11186   -19014   -47198 
  -28691    16081    24679    -3017   -16567   -12205    -7504    11537 
   38265    36911    13815     8344    19487    18106     5713     -324 
