Origin Time       2021/02/13 23:08:00
Lat.              37.7
Long.             141.8
Depth. (km)       60
Mag.              7.1
Station Code      FKSH20
Station Lat.      37.4911
Station Long.     140.9871
Station Height(m) 12
Record Time       2021/02/13 23:08:03
Sampling Freq(Hz) 100Hz
Duration Time(s)  300
Dir.              5
Scale Factor      3920(gal)/6170801
Max. Acc. (gal)   366.668
Last Correction   2021/02/13 23:07:48
Memo.             
[...]
  -39256   -39260   -39260   -39263   -39271   -39281   -39288   -39296 
  -39302   -39305   -39303   -39296   -39291   -39287   -39282   -39275 
  -39271   -39267   -39264   -39261   -39259   -39256   -39251   -39247 
  -39247   -39251   -39257   -39262   -39262   -39262   -39263   -39263 
  -39261   -39262   -39264   -39265   -39263   -39262   -39261   -39260 
  -39258   -39258   -39263   -39269   -39273   -39278   -39285   -39291 
  -39292   -39289   -39288   -39290   -39285   -39277   -39271   -39267 
  -39266   -39260   -39254   -39252   -39252   -39251   -39249   -39240 
  -39226   -39217   -39228   -39261   -39295   -39297   -39273   -39261 
  -39263   -39252   -39240   -39234   -39201   -39128   -39084   -39175 
  -39418   -39639   -39600   -39315   -39045   -38964   -38990   -38971 
  -38929   -39056   -39436   -39806   -39834   -39552   -39200   -38899 
  -38742   -38853   -39158   -39321   -39117   -38786   -38910   -39719 
  -40572   -40638   -39735   -38367   -37502   -37674   -38492   -39460 
  -40041   -39815   -39477   -39776   -40230   -40113   -39129   -37933 
  -37929   -38967   -39603   -39473   -39150   -39199   -39507   -39473 
  -39486   -39863   -39600   -38473   -37245   -36353   -36584   -38091 
  -39359   -39544   -39098   -38178   -37316   -37239   -37390   -37606 
  -38541   -39765   -40408   -39789   -38314   -38187   -39868   -41442 
  -41825   -40723   -39190   -39247   -40418   -41336   -41998   -42080 
  -41985   -42210   -40810   -37052   -33993   -35079   -39969   -43935 
  -43672   -40641   -37267   -35045   -34322   -34278   -35520   -38641 
  -40819   -39532   -36175   -33675   -33749   -35589   -37295   -38455 
  -38889   -38112   -36594   -34899   -34361   -36558   -39347   -40627 
  -43395   -48772   -52156   -50129   -44216   -37820   -34096   -36003 
  -42455   -47779   -49408   -50043   -52095   -54222   -52499   -45581 
  -36566   -28423   -23954   -26762   -36540   -48925   -57146   -54068 
  -41671   -30433   -25885   -25865   -26442   -25404   -24464   -27397 
  -34682   -43085   -48755   -47697   -40699   -36036   -35989   -33237 
  -27354   -25154   -29860   -41685   -57114   -69272   -70777   -56819 
  -35866   -24596   -27488   -36316   -44788   -53127   -59586   -57562 
  -46223   -32126   -20863   -18277   -28174   -43175   -51739   -51464 
  -43948   -28903   -14067   -11597   -22926   -38695   -46744   -43517 
  -35192   -25722   -17310   -15818   -24629   -38262   -48067   -50117 
  -46523   -41546   -33135   -22694   -27186   -51489   -72188   -71012 
  -54778   -35729   -18578   -12100   -28021   -57540   -73097   -65323 
  -50110   -35835   -20174    -5035     1906   -11877   -42377   -67998 
  -79918   -77983   -59045   -29262    -9114   -13784   -30435   -41548 
  -52716   -66406   -69056   -54462   -32317   -19727   -25207   -40268 
  -50047   -50969   -52444   -54024   -45148   -29862   -19025   -17625 
  -31700   -52367   -55663   -37929   -14738     -529    -6002   -27466 
  -51377   -72532   -80424   -60807   -26335    -1956     3693   -14314 
  -57504   -97376   -99470   -75084   -53132   -38398   -32597   -37900 
  -49334   -60349   -58113   -45655   -44866   -52792   -47824   -29050 
  -12590    -8244   -10910   -13363   -18797   -36479   -63710   -75750 
  -62151   -40403   -20377    -8100   -13887   -32022   -49438   -65443 
  -79196   -79304   -60460   -30597    -9771   -16416   -36506   -45400 
  -47641   -50349   -44593   -35720   -35052   -32472   -21318    -8795 
    3471     7864    -7174   -34357   -55274   -60184   -54889   -52034 
  -54259   -51387   -39204   -27148   -24027   -31760   -45423   -57556 
  -65288   -66460   -56310   -35371   -16478    -9484   -13914   -32717 
  -61287   -79135   -74453   -57234   -39260   -20082      375    13540 
    9598    -8601   -29839   -50437   -63025   -57341   -38907   -17677 
   -2857    -3224   -18249   -46620   -73815   -79358   -75853   -76896 
  -72230   -61802   -44913   -16621     4324     5423    -6710   -34209 
  -66204   -80711   -84029   -83317   -66148   -35807    -2538    32157 
   46813    16579   -38354   -75268   -86191   -85005   -66066   -35250 
  -23635   -31846   -42840   -53350   -52648   -40988   -33699   -38178 
  -60639   -85112   -79951   -52381   -21492    17331    41243    17828 
  -26211   -48926   -54052   -59380   -55998   -44671   -51237   -67103 
  -67317   -61950   -61470   -55368   -36099   -14843   -14594   -38419 
  -67379   -90939  -100738   -81409   -41501   -10031     8164    22350 
   18503   -15448   -50173   -55894   -52325   -57405   -55595   -47549 
  -44881   -40448   -26196    -1059    24974    28429     2730   -38191 
  -83544  -113526  -108760   -84847   -64926   -46077   -18955     3729 
   -5063   -38078   -62496   -74720   -79586   -76624   -75685   -66366 
  -36498    -2616    18971     9574   -33829   -70226   -78236   -76637 
  -66009   -33159    17413    64654    76473    43085    -6470   -56687 
 -105589  -121222   -89270   -46382   -21744   -15904   -25714   -46245 
  -65585   -70800   -62358   -57072   -67396   -77280   -61865   -34595 
  -18054    -6139    -5107   -23614   -39222   -43940   -47705   -47584 
  -47675   -47120   -30399    -3187    10374    -5558   -44428   -86878 
 -118649  -124162   -96729   -52024   -11180    15130    26296    18250 
   -9650   -42416   -69896   -91317   -95775   -69283   -28890    -5090 
   14071    46116    64891    40321   -23055   -88656  -128613  -142860 
 -129546   -88088   -35319     1657    11775     8893    -9635   -43054 
  -58411   -56326   -58946   -52529   -27333    11187    61268    89154 
   50855   -34574  -109799  -149855  -159923  -145026  -110216   -65292 
  -27783   -13609    -2167    25964    34378    13014     1754    -6677 
  -37123   -76073  -112638  -129759  -100669   -46551   -17847   -34832 
  -80672  -119401  -136096  -136273  -108732   -53839     6040    59883 
  102642   123264   105112    47670   -15242   -55857   -79004   -89183 
  -76062   -42287    -6327    21657    31277    14166   -12841   -36704 
  -67376   -99424  -111629  -105140   -95140   -85221   -74361   -64066 
  -56973   -55197   -50932   -39139   -34774   -47219   -63471   -67516 
  -53609   -27445    10535    64995   104629    86688    22151   -50592 
  -99546  -102986   -74006   -30712    14321    20100   -29567   -94676 
 -135592  -144460  -127323   -77432    -4744    37180    17822   -27852 
  -53959   -54744   -45290   -29220   -23369   -54278   -93382   -93477 
  -72550   -55795   -34645   -24031   -36363   -50651   -53449   -48220 
  -41064   -35725   -35560   -38873   -45724   -64172   -78042   -64873 
  -28413    15533    25031   -20079   -72137  -101705  -117843  -110005 
  -63994      413    40927    36201      609   -32889   -40164   -34268 
  -33835   -36286   -42456   -44643   -28271     5984    38041    32833 
  -11821   -68781  -117003  -130354  -106830   -73987   -42869   -15395 
   -6723   -18097   -21405   -15445   -35115   -73396   -90893   -78654 
  -40939    21340    83989   108738    93201    55996   -10224   -94633 
 -154010  -175705  -170339  -136609   -78235   -23380    -1053   -11729 
  -48495   -95794  -109480   -77473   -36835     -913    29564    33221 
    9284   -27955   -69171   -91633   -82958   -52465   -13441     7309 
   -9089   -37890   -44258   -26200    -1815     7604   -10561   -40459 
  -56841   -57496   -45931   -20556     -353    -4579   -21754   -40454 
  -69407  -109769  -141985  -148877  -128495   -85770   -36982    -9306 
   -8718   -14956   -26969   -47661   -43356    -3838    31684    37927 
   16446   -20970   -55041   -74869   -80934   -71936   -50944   -29983 
  -11408     2452    -7058   -40087   -74878   -97081   -93140   -64627 
  -25380    10764     8734   -35479   -83538  -116551  -114485   -77835 
  -55465   -60768   -66374   -59228   -34208     8315    51430    63862 
   43725     8782   -54018  -117004  -137370  -138799  -121642   -67602 
    7608    78473    92296    29073   -55706  -116912  -149753  -151248 
 -118912   -69515   -23273     8061    14943     7414     -403   -25686 
  -72976  -108694  -118472  -105800   -65671   -19913    -3331    -6588 
   -3974   -10368   -40314   -71200   -93888  -104692   -82120   -29396 
   33038    78533    75861    36834    -5169   -52308  -111271  -154860 
 -162435  -143968  -104007   -50817    -2590    40923    68077    59639 
   22973   -24393   -51372   -40151   -12427    15663    35911    36209 
   18332   -16716   -56144   -68049   -54440   -31849     5748    34698 
   11881   -45822   -87672  -108712  -114157   -80516   -28102     1483 
   15178     8065   -30239   -68155   -88244   -92724   -81292   -60571 
  -24215    15164     9767   -36243   -76402  -101618  -104161   -69394 
  -25553    -3718    -8409   -37951   -71899   -86382   -79909   -55886 
  -25276    -3713    10106     7457   -22348   -43372   -27182      -62 
   18961    30742    22660   -13739   -70897  -122768  -132210   -95020 
  -40696     4034    17849      298   -12641    -9311   -20895   -41808 
  -42508   -36401   -46968   -67870   -85211  -100791  -111531  -103648 
  -85375   -76452   -81574   -88595   -78667   -63505   -64486   -54006 
  -17297     2520   -17333   -51054   -56950   -25947    -1676   -10339 
  -36267   -65805   -96308  -123852  -131407  -108677   -74816   -47528 
  -20259    19630    67994    97476    85973    43442   -10470   -73695 
 -127992  -125352   -68686     3911    96026   175973   174351   102478 
   11866   -84148  -165257  -195137  -179725  -151257  -119760   -75436 
  -18496    19586    21154     2407   -36107   -98160  -170306  -224840 
 -221794  -164517   -92654    -7399    87406   141352   125473    54396 
  -44659  -133575  -185755  -202398  -175263   -96759    -6499    54726 
   88487    98414    65518   -26417  -128317  -164587  -155475  -138133 
  -71698    41564   125776   136041    80277    -4316   -77477  -120394 
 -129397  -111496   -75688   -23714    35504    95887   145594   150263 
  121061    97036    57270   -12745   -85716  -148076  -170937  -130672 
  -55359    30482   103288   123547    95084    49772    -4878   -60284 
  -87077   -80623   -74089   -81276   -87655   -81119   -48924    -5845 
   -3367   -52975  -103940  -123935  -143952  -191315  -231628  -227933 
 -201065  -186892  -174859  -142814  -106139   -78932   -55650   -29958 
   -3969     7294     6977     9659     6267   -16102   -53278   -83297 
  -88053   -82370   -84624   -83068   -69639   -64127   -75961   -84182 
  -68583   -29151    20267    68124   113638   147820   160062   151554 
  116832    68987    35208     9055    -9889    -6111     8723    16928 
    4932   -29702   -66812   -99592  -128241  -137156  -117038   -69573 
   -1525    73160   136433   174352   184879   172441   142447   103526 
   66807    41174    33123    48961    89558   145509   185501   171408 
  115150    64968    42418    40225    35940    12965   -29483   -94663 
 -143764  -129808   -96225   -77018   -46027   -14610   -12708   -55479 
 -115455  -134168  -135049  -151969  -144123  -118617  -121627  -147656 
 -175472  -190954  -196734  -214889  -242630  -265133  -285675  -304390 
 -314252  -306761  -278903  -249229  -236659  -240679  -254562  -270823 
 -281478  -276676  -250998  -215177  -184483  -170603  -177813  -190333 
 -186583  -164283  -135326  -109328   -92773   -84610   -76688   -68830 
  -63130   -58525   -53393   -42312   -23985     3313    42566    86125 
  126420   159396   174313   158712   115507    63383    18993      204 
   16144    45057    67004    88584   114314   139948   163439   174232 
  167144   158716   160228   168991   179337   186004   187779   173962 
  135464    90921    67643    74159    91590    93433    73793    34546 
  -23626   -87866  -145057  -192701  -227318  -245682  -252188  -251967 
 -247929  -244653  -247927  -261588  -283980  -307998  -323334  -321784 
 -303558  -273951  -240729  -206927  -167469  -130226  -106729   -89685 
  -71057   -42972     6069    69669   136164   200991   245986   262654 
  270832   270119   247158   226365   229962   244421   267163   298759 
  315647   314481   312626   312174   309504   296034   261213   211067 
  159167   116844    90212    72158    54211    37359    25524    25974 
   36733    37576    21763    -2279   -43200  -103625  -156881  -188174 
 -212790  -241352  -268583  -294986  -327140  -362747  -396009  -422365 
 -436994  -437993  -422434  -395107  -368765  -336747  -290352  -244289 
 -206547  -178421  -162099  -141602  -119318  -114581  -120306  -135847 
 -160306  -172853  -181225  -203412  -236503  -271601  -287976  -283768 
 -286730  -298016  -301657  -298402  -292438  -282801  -250287  -187185 
 -125983   -74339   -16102    31908    57640    77499   102185   132529 
  169965   209798   240922   252500   241534   222852   209632   195748 
  173394   143924   113229    81410    44694    15295     9904    19748 
   30252    44724    60055    66456    63977    49123    25637     7618 
   -9953   -38818   -75311  -105595  -109237   -76951   -27768    15242 
   53843    89965   102369    86487    67535    61573    69212    86667 
  108874   134101   157659   167885   154163   118774    81221    64847 
   80214   117990   153877   173193   184712   198363   211128   218207 
  220672   223620   228897   232521   234678   243829   261786   280179 
  290197   281829   257029   227514   187239   132709    75411    13152 
  -54440  -117922  -178811  -233311  -276724  -316251  -349704  -375669 
 -402254  -427108  -448776  -477200  -513829  -551287  -584185  -605791 
 -615009  -616351  -607116  -577453  -510084  -396221  -265294  -162294 
  -85524    -1488    79698   133532   179216   230602   274904   309210 
  336956   357267   372251   385134   392617   391261   384620   373996 
  357971   340052   318458   283872   236324   178982   104338    12311 
  -79855  -162645  -238314  -298641  -337911  -365483  -379701  -373268 
 -355156  -329294  -292396  -263707  -261541  -267210  -263808  -264002 
 -269763  -268039  -258736  -242655  -220383  -208032  -214059  -228109 
 -248131  -278395  -309307  -326977  -331589  -335307  -347501  -366873 
 -380702  -385294  -394835  -406361  -408478  -402686  -383560  -356096 
 -332678  -305297  -271463  -236584  -197376  -162652  -145502  -131082 
  -95862   -41478    11105    40465    48970    60089    76374    83929 
   85096    92436   112182   137186   162606   195630   231276   258103 
  279038   298070   313514   321167   313767   292180   266409   240169 
  212774   191250   179079   167387   153740   137439   105384    59566 
   19302    -8708   -23336   -24382   -19660    -6378    19513    46116 
   75028   111658   141903   166512   188846   186274   146278    81893 
   22276    -6731   -10552     -483    18533    31940    37332    33575 
    9476   -25436   -54741   -75065   -87639   -93958   -87632   -60068 
  -11942    42441    81890   109484   142885   174053   193760   216081 
  247803   278807   296056   289124   246833   163610    69426     -747 
  -65294  -140381  -195035  -216844  -225722  -230854  -233225  -235146 
 -235492  -234229  -235330  -239237  -242575  -245026  -242916  -228545 
 -209106  -199350  -185877  -148171  -104908   -77732   -55308   -30663 
  -16265   -17453   -30388   -60092  -108319  -157245  -195191  -231050 
 -272671  -315245  -347892  -364465  -366510  -358474  -348643  -345040 
 -345969  -346807  -347406  -346084  -332331  -288787  -215017  -139989 
  -87632   -47809    -6129    29759    54724    62308    41621    17583 
   17836    29524    39774    49950    61560    80441   102771   117568 
  134841   160020   172348   175754   190864   206626   215948   224980 
  223043   208883   192569   176341   163890   151457   133541   109687 
   70168    25626     3800    -6639   -26479   -42058   -51527   -72400 
  -95059  -107586  -121890  -135645  -133448  -116956   -94667   -68769 
  -37743    -6392    14604    25712    26225     7642   -24336   -62742 
 -106044  -139890  -158259  -175423  -195165  -209327  -217929  -220896 
 -209987  -182924  -155664  -143922  -139685  -133495  -132716  -140419 
 -146952  -141039  -121528  -100308   -90642   -93502  -100148  -108531 
 -118883  -118207   -91596   -45268     -264    37433    72448   102800 
  132065   163921   194638   229142   267514   293692   305543   312346 
  309209   296008   280769   255322   214513   177216   162852   168735 
  179839   183263   165291   118821    51450   -23444   -90162  -139843 
 -170749  -172771  -147089  -122356  -119444  -131555  -149021  -173139 
 -200599  -221886  -236649  -248168  -252773  -238900  -197035  -141805 
 -102709   -84509   -67518   -55191   -66723   -91611  -117899  -152306 
 -188881  -213842  -228523  -243220  -258770  -270489  -276754  -281104 
 -290167  -294384  -283190  -257479  -205310  -134306   -86530   -65818 
  -28915    30094    79654   127234   191786   256379   307984   348712 
  377908   394007   392165   367209   312190   216686   103871    21348 
  -43989  -127383  -202851  -253507  -289529  -295206  -271790  -248414 
 -237696  -237770  -254979  -297102  -336780  -332846  -295956  -253008 
 -196570  -134401   -83945   -33698    13025    39346    52392    63579 
   73666    83935    97307   112376   132313   165484   209238   255401 
  298418   328963   338233   326402   302047   270183   226114   170600 
  111601    52790    -1274   -45784   -86150  -130657  -177624  -222417 
 -267558  -312457  -345275  -356400  -346813  -323739  -300229  -283342 
 -260868  -219017  -155781   -76570    -1194    55692   107849   159524 
  193613   209322   214789   214412   214700   209805   189742   151967 
   89449     9746   -63895  -135480  -213232  -275050  -314337  -344611 
 -363322  -367285  -362887  -359918  -365129  -374987  -392704  -423157 
 -454498  -473866  -470811  -432694  -361645  -281097  -214099  -157323 
 -101280   -57897   -29929    -4465    16842    33713    58420    91243 
  117652   128898   127427   113906    88782    56148    16080   -26063 
  -54441   -63859   -67504   -74662   -80141   -80199   -79205   -81991 
  -85159   -76420   -51670   -19557    15331    55999    99798   136267 
  165837   199167   235837   274650   323116   374539   412566   433027 
  429231   387596   316746   239208   158407    79145    21387   -21583 
  -70333  -117014  -154584  -189586  -219623  -241576  -253684  -255053 
 -246932  -222277  -178161  -122252   -63562   -13544    25513    59031 
   77697    73832    64314    59628    47580    28071    14126     8291 
   10861    21474    34916    49906    61532    59536    42639    16365 
   -8682   -20862   -23018   -21848   -19311   -22109   -30692   -42215 
  -63542   -98021  -141910  -184361  -204369  -188885  -144422   -89611 
  -33182    34463   104050   150500   180886   205400   197131   134573 
   41674   -35991   -84004  -119463  -140622  -141182  -143612  -159993 
 -180794  -200480  -212292  -211116  -198967  -177978  -150313  -123905 
 -112041  -113687  -111146   -96818   -80153   -67305   -53398   -39182 
  -26178   -10051    -5342   -25428   -51318   -69799   -90580  -116403 
 -142534  -168669  -194462  -213866  -215158  -195497  -171696  -160922 
 -162765  -164777  -156760  -142796  -125778   -92758   -45501    -5006 
   22438    38964    47267    54950    56065    46288    39145    38978 
   40005    39261    32347    14040   -18545   -60022   -98239  -125758 
 -141062  -142938  -130595  -109910   -93830   -90178   -94844   -99638 
