Origin Time       2021/02/13 23:08:00
Lat.              37.7
Long.             141.8
Depth. (km)       60
Mag.              7.1
Station Code      FKSH20
Station Lat.      37.4911
Station Long.     140.9871
Station Height(m) 12
Record Time       2021/02/13 23:08:03
Sampling Freq(Hz) 100Hz
Duration Time(s)  300
Dir.              6
Scale Factor      3920(gal)/6170801
Max. Acc. (gal)   327.535
Last Correction   2021/02/13 23:07:48
Memo.             
[...]
   22521    22519    22522    22529    22532    22533    22533    22531 
   22528    22526    22525    22525    22526    22527    22528    22527 
   22523    22524    22524    22524    22525    22527    22527    22525 
   22526    22528    22525    22527    22527    22527    22530    22527 
   22524    22526    22526    22526    22524    22524    22528    22529 
   22529    22527    22525    22524    22524    22523    22518    22517 
   22524    22523    22517    22520    22525    22526    22528    22530 
   22530    22527    22526    22528    22526    22527    22529    22528 
   22528    22529    22529    22528    22529    22530    22525    22521 
   22521    22520    22519    22519    22523    22524    22523    22526 
   22527    22525    22526    22528    22525    22520    22518    22516 
   22516    22521    22526    22530    22535    22537    22533    22531 
   22535    22534    22529    22528    22525    22520    22519    22520 
   22518    22517    22521    22523    22520    22524    22530    22527 
   22527    22532    22530    22530    22533    22530    22527    22526 
   22524    22518    22519    22525    22527    22528    22534    22536 
   22533    22530    22528    22521    22516    22516    22514    22511 
   22513    22518    22520    22523    22529    22533    22536    22539 
   22537    22535    22535    22537    22535    22529    22528    22526 
   22519    22515    22516    22514    22511    22511    22516    22524 
   22528    22528    22528    22529    22532    22532    22531    22536 
   22538    22535    22530    22530    22527    22522    22523    22524 
   22524    22525    22529    22529    22525    22524    22523    22522 
   22525    22525    22525    22527    22533    22532    22524    22522 
   22525    22523    22520    22521    22524    22523    22524    22529 
   22529    22526    22526    22530    22531    22529    22525    22519 
   22517    22518    22518    22519    22523    22526    22526    22526 
   22528    22528    22529    22531    22528    22526    22525    22522 
   22518    22520    22522    22520    22520    22525    22529    22529 
   22528    22526    22523    22518    22518    22521    22522    22523 
   22525    22525    22526    22530    22529    22527    22530    22529 
   22523    22522    22523    22521    22522    22524    22522    22519 
   22523    22528    22528    22529    22533    22532    22530    22528 
   22525    22523    22521    22519    22522    22527    22527    22527 
   22528    22528    22526    22525    22527    22527    22524    22521 
   22522    22525    22524    22523    22525    22524    22522    22521 
   22521    22521    22523    22526    22530    22530    22531    22533 
   22531    22530    22527    22524    22525    22526    22521    22519 
   22520    22518    22520    22523    22525    22526    22529    22531 
   22532    22532    22533    22533    22534    22534    22528    22523 
   22523    22524    22521    22518    22521    22522    22521    22524 
   22527    22526    22528    22532    22531    22527    22526    22526 
   22521    22521    22525    22524    22524    22529    22531    22531 
   22532    22531    22530    22531    22529    22524    22523    22523 
   22522    22519    22517    22518    22517    22516    22518    22519 
   22521    22523    22526    22528    22533    22539    22541    22543 
   22545    22540    22533    22530    22528    22522    22516    22517 
   22519    22515    22513    22517    22518    22519    22527    22530 
   22533    22538    22540    22538    22536    22539    22541    22534 
   22526    22521    22514    22510    22512    22514    22513    22518 
   22525    22530    22533    22531    22528    22528    22531    22532 
   22528    22530    22532    22530    22530    22531    22529    22525 
   22526    22526    22522    22519    22518    22517    22517    22520 
   22525    22526    22529    22533    22533    22531    22530    22526 
   22522    22521    22524    22524    22527    22528    22525    22522 
   22525    22526    22520    22519    22525    22524    22522    22526 
   22529    22529    22527    22529    22527    22522    22521    22523 
   22526    22531    22535    22537    22537    22537    22534    22530 
   22525    22517    22514    22516    22521    22522    22523    22527 
   22528    22524    22518    22509    22492    22480    22485    22493 
   22485    22462    22452    22488    22526    22445    22235    22081 
   22108    22241    22366    22415    22444    22573    22693    22682 
   22720    22735    22277    21375    20749    21171    22814    24616 
   24918    23746    22724    22347    21755    20575    19588    19802 
   21148    22660    23440    23573    23520    22799    22031    22541 
   23222    22706    20556    17626    18128    23655    29713    32559 
   30919    25561    20970    20203    22363    25300    25345    21151 
   17459    18898    23261    24729    22722    21195    20356    18574 
   17730    17705    15596    13841    13549    10669    10465    18644 
   25743    25528    21801    15655    11451    15152    22307    25721 
   23690    19240    16079    12832    11230    19036    34027    44385 
   42506    29375    18169    22593    36776    47778    48926    35884 
   19703    19347    30934    38250    42003    50920    55569    43737 
   25309    10693     3347    11875    29321    35077    27368    19077 
   14611    11336     9350     8552     9613    16684    23713    17032 
    2677      759     7482     2873    -1557    16265    36670    37629 
   31253    22110     4422    -6515     -856     3900    10703    42095 
   75491    74573    46438    14050     -409    10819    19013     5953 
   -5668     2727    28828    66292    90603    70734    22708   -18163 
  -47557   -45727     6653    61692    75144    57421    21655    -8234 
     403    30633    38714    15478   -13348   -18105     4817    27771 
   30973    34358    51510    48669    20373    10754    12793    -4100 
   -4451    39967    79284    67722    27928    -4422   -22761   -29882 
  -21376     7420    35549    48386    71373    84349    35784   -28446 
  -44048   -33215   -12142    38675   100247   119053    78355    18515 
  -15994    -7842    28128    63426    86917    82259    34274   -27870 
  -52651   -24001    19889    42377    58372    82049    74590    10374 
  -56371   -59367    -8581    48261    96934   109109    27357  -101465 
 -140800   -59881    40366    82368    96700   130804   145676    93456 
   13625   -41098   -76682   -76476    19358   157959   187392    88958 
  -12852   -38779   -14086     6021     9660    10414    29631    77146 
   70715   -33150   -99137   -68517   -39852   -10754    35665    29136 
   22964    79505    92938    26976   -11874    10867    52072    93500 
   93152    22504   -46373   -70375   -56089    34245   148305   175259 
  135655    50077  -110405  -222721  -134640    52531   133153    95352 
   45205     3733   -55292   -92783   -45872    54929    96206    42465 
   -8844     8955    64167   122743   144164   106648    51559   -19561 
 -104461  -118046   -34486    69914   136757   144156    80993    -9965 
  -43817   -19885   -28957   -65006   -16612   103749   157478   101207 
   11147   -59387  -103692   -98120   -39552     6986    17317    50437 
   90532    72610    54449    79267    54613   -37932   -81608   -21072 
   63155    90731    69581    27614     1104    18776    38113    32327 
   30472    28962    17440    24086    44927    44021    40694    47263 
   21207   -23628   -53413   -82450   -68398    20295    69722    40930 
   68301   148491   144969    64730    -1790   -32968   -51008   -20595 
   99272   172331   109596    62325    44252   -53943  -122777   -77232 
  -25832   -26494   -51382   -46218    31158   126243   185003   214056 
  173706    31607  -101441   -98102   -46558   -60969   -22509    89137 
  104151   106511   197103   147309   -67416  -173397  -129566   -44114 
   57717   144361   140455   -18515  -208753  -205479   -32022   138519 
  227271   179076   -21274  -188021  -127081    57166   183953   231513 
  161390   -53008  -245751  -234006   -53934   131118   204696   133150 
  -20681  -120690   -84110    16977    66127    79571   114649   133742 
  106187    72083    38700   -40143  -119564   -84290    25660    86800 
  121313   159528    99533   -55265  -122569   -58164    -5496    -7846 
  -13079   -43362   -95671   -76761    35796   172506   275185   279284 
  162503     4441  -127836  -163913   -18818   169163   151263      388 
  -51975   -37878   -50792   -33480     -875   -24331   -45802    16743 
   90895    64219    37228   133877   177606    18974  -138761  -137295 
 -105221   -91844    24299   215507   330879   331397   228067    48619 
 -103500  -209653  -305569  -275307   -69149   123655   165860   106728 
   33661   -31957   -94144   -57293    96568   154994    74163    67839 
  147498   149292    87352    52891    19860   -33586   -51752   -18022 
   -2189   -39808   -73286   -55247    12993    68701    32703   -48541 
  -84305   -82152   -61058    36922   211778   319063   290749   200329 
   86952   -14274   -28541     6109   -85448  -294413  -339762  -173010 
  -41917     7113   102019   244041   305407   216989    90088    29783 
   -4565   -43391     5553   175023   257555   133863    -2117   -71836 
 -200879  -315690  -299697  -276364  -268867  -148292    28644   175144 
  286964   280779   126980   -60254  -143246   -79810     3233    29032 
  116512   256175   253782   127234    93699   154319   114649     1885 
   11954   109158   112945   -15949  -188764  -251572  -112772    88794 
  140274    43915   -45372   -69501   -56326   -18462    32382   100116 
  157062   145170   111800   109105    61279   -54363  -124882   -91950 
  -33078   -15286     6360    68778   128995   178377   195554   105179 
  -31609  -103365  -123755   -98645   -31730    10041    -4199   -53448 
  -51148    65314   171999   146166    64020    56874   115482   103841 
    2593   -87604  -145586  -119173    40348   193877   217151   115016 
  -73330  -228262  -205132   -10725   193582   282755   278306   189185 
  -16766  -215493  -283408  -263207  -110920   196546   396359   290671 
   14729  -181140  -161622    28531   217599   198254   -53775  -313079 
 -372193  -170182   163109   325762   175085   -78997  -171251   -69159 
  150412   343039   275685    -5406  -188395  -188278  -105191   -24622 
  -21800    11508   170922   244122   113920   -36068   -99668  -135585 
 -141570   -51375   104238   241808   313591   250724    59329  -104450 
 -116690   -54226   -79170  -129316   -56427    70537   149416   155983 
  109014    63515      604   -92341  -134659   -54900   110771   239318 
  265341   177208   -11391  -153662   -97097    48245    28632  -145366 
 -230805  -153059     5047   187571   276795   180310    57671    44137 
   -5763   -99432   -66102     9127    56701   177669   237619   116906 
   -3444   -53800  -109400  -108317   -21518    49472    63496    32605 
  -16316    -7027    36442    -1234   -90744  -137154  -128933   -24229 
  164216   253881   175665    71613    32661    48644    81028    53983 
  -33449   -84032   -94043   -96314    -3326   190221   296993   215572 
   70582   -10024   -47303   -77312  -100393  -132735  -113962    -4956 
   31603   -80880  -136857   -42003    41874    72951   170129   293211 
  292220   177988    68400    -4042   -65660   -88765   -64732   -65700 
  -77614   -22140    55769    98136    89956   -11033  -119020  -110141 
  -23256   110232   246309   269270   171770   -39484  -307144  -366975 
 -120039   165830   218305    50269   -88708   -24510   185029   389943 
  444372   309802    69094  -179202  -299038  -228375  -123644  -140788 
 -171686   -13312   262111   422047   397382   216233   -51035  -247730 
 -298744  -262858  -172945   -30039    90400    51107  -153810  -263303 
  -95514   127431   183398   147833   120338   164543   268019   265599 
  141334    -3401  -162448  -280207  -313756  -279930  -159318    10793 
  174138   290114   324435   278094   120061   -35734     6457   121677 
   97917   -42571  -201961  -290382  -234574   -43232   141456   194295 
  191399   154976    26838   -38878    37898   117293   158085   143955 
   38383   -60450   -80689   -77630  -102232  -149882  -152410     1004 
  257155   351936   214997    57942   -27873   -96647  -122922   -43542 
   94220   123932    -4549  -141011  -219596  -255889  -171379   -12315 
   55932    74237   142192   186826   137239     3542  -156477  -205922 
  -70906   147514   293910   290726   191021    82753   -21313   -60978 
   39199   152094   154353   140933   133803    -1487  -221917  -290328 
 -125930    92930   189561   169601   124437    69782   -44882  -147345 
  -74486   108381   182594   124403     8016  -100277   -47658   131928 
  157607     5504   -83761   -77826   -86195   -65358    15709    45276 
    8728    36648   122888    98803   -15290     3942   136258   122151 
  -31892   -47368   106441   139903   -27283  -115516    31893   241873 
  293293   160274   -11574  -148395  -299165  -380400  -290452  -159985 
  -43857   127646   277903   382337   444768   376361   238678    79887 
 -150295  -331461  -352267  -217191    74257   368396   453318   331781 
  101440  -156935  -346475  -427540  -385833  -210930   -39251   -11724 
    5250   157644   279326   246491   182711   138698    80913   -29174 
 -210590  -285079  -142288    55065   231666   377416   376527   247216 
  117882    61302    89109    55377  -129067  -243585  -114454   122357 
  226734   127595    25713   -21276  -241998  -493072  -422104  -159254 
   56577   235135   380512   421749   303904    97824  -117118  -337185 
 -420616  -310059  -181909   -69172    50241   142148   297599   465084 
  459139   293880    68883   -92326  -136699  -208028  -345993  -427139 
 -333748   -27304   281754   371676   308679   211891   169079   243240 
  277609   131926   -37272  -121623  -230377  -346260  -326569  -158936 
  125304   386422   322625    27361   -28046   154497   156286   -44180 
 -137875   -98285  -105962  -137777   -33841   139717   151075    57260 
   73343   148730   153267    84940    -2651   -64996  -130387  -174548 
  -92564    56011   106571    65279    58510   101937    90052   -20508 
 -125885   -99051    32660   123019   111471    34928   -65987  -134223 
 -117852   -20487    62640    57109    48897    73481    92324   186737 
  330159   365942   276841    91027  -162291  -324394  -278717  -169913 
 -159919  -161755   -76867    47874   153247   191035   175392   159732 
   68644  -119759  -198448  -102120   -10756    66138   221376   326660 
  251317    50853  -139993  -159485   -24776    85616   137762    85918 
 -134845  -281130   -98372   281876   479966   314465    80707   -24448 
 -191758  -326452  -202425   -19890    19155    29215   121894   177353 
   38815  -174739  -208122   -30829   150826   177161   109621    69615 
   51009    -2573   -65110   -54915    50594   172875   213673   142027 
   -4855  -144973  -210246  -204472  -139276   -10609   118852   156801 
  108434    69911    93225   149248   201820   188664    51959  -108035 
 -157894  -130887   -68413    20289    62607    57745    45088    22777 
   22933    38882    50575    74383    52798   -23854   -61293   -77000 
 -110023   -46885   131758   240774   174218     4050  -122647   -98436 
   29786   126760    88670   -52171  -136360  -144267  -164655  -128979 
   19388   132447    98812    32911    56729   118765   147000   109075 
    3828   -64367   -53541   -29429    18575    76098    80994    67520 
   52730    31607    87978   201606   222113   150117    76815     7993 
  -13278    41687    42004   -48022   -59068    34427    80160    54703 
   -4765  -132456  -231489  -142732    60779   211713   266004   223035 
   87543   -83572  -208780  -242567  -164167     9586   126803    95768 
   87221   168689   152519    39851    20019    59273    36090    25983 
   84143    93736    -6518   -93418   -33017    85604    79705   -13496 
  -64480   -64036   -18021    49972    73333    35777   -68956  -181909 
 -151427    38810   244939   327330   274956   197744   120004     7573 
 -103828  -216974  -310159  -256868   -48904   136953   197630   218701 
  238101   156711   -22619  -163860  -166244   -63165     -431   -23820 
  -75847  -113960   -22110   189701   275676   166496    24326   -43213 
   -7896   102750   200927   197362    62184  -131464  -253712  -232416 
  -96019    47007    98724   110174   135474    73606   -47244   -66802 
  -30065    -8129    84861   226840   277267   201392    77622     1283 
    2990    50464   120238   183754   198505   143799    28623   -97044 
 -179984  -210366  -180870   -68312    62869    60423   -60753  -105724 
  -40351    21470    43004    -9303  -118964  -125898   -16774    26730 
   -4713    34857   131161   147564    35597  -121681  -185409  -146373 
 -102526   -28749    99285   187277   208013   186815   104423   -27354 
  -77580    65185   257784   304716   219024    85573    14763    78984 
  126235    31946   -54940   -22092    25616     3300   -25993    30647 
  146868   187726    86029   -82547  -184543  -166236  -137624  -149061 
  -96863   -43590  -102475  -163660  -165978  -141264   -39180    99862 
  164414   155509   112837   105207   158317   133489   -12108  -135928 
 -162885  -129681   -86585   -23459    74594   148827   176617   189651 
  178328   139236   113086    85577    -6434  -121522  -167955  -164556 
 -121130    23183   175165   153758    36311    24740    70742    59436 
   43574    34212    10426    30696    61403    34328   -12541   -44223 
  -38217    45601   149698   138499    49774    63822   129468   104397 
   88571   115183    61468    -5447     3713    -6708   -43531     1121 
   74275    58659    33981    86630    86104   -35900  -151398  -193096 
 -178165  -127034   -88561   -65569    -8908   102056   203776   163749 
    9246   -49545     4864      187   -57425   -84712  -118306  -121266 
  -40109    42902   101665   144180   126291   111188   140872   108747 
   21422   -20020   -61577  -138195  -126991     8564    84394   -11637 
  -81760    51106   219605   257537   237312   188772   100713    34983 
  -37070  -142289  -180651  -132151   -77570   -28229    51245   145377 
  192986   169854   111064    33693   -58310  -101011   -44083    39332 
   59799    49923    50435     8167   -71482   -89605   -33039    19739 
   -1364   -91476  -138242  -121391  -148378  -156597   -39826    73391 
   98051   138610   192005   175308   114393    26550   -84303  -138673 
  -84761    31339    86826    43259    56212   179793   257919   239473 
  197485   155824   119925    95730    69029    28271   -33199  -110500 
 -166297  -144735   -36668    78647   107374    55325      666   -11341 
   38683   110002    77036   -58372  -119097   -26852    97391   123683 
   52537   -29772   -64899   -82112   -81882    20538   200869   307011 
  242161    33845  -136587  -111708    12393   105881   170535   183420 
  104116   -38325  -127926   -87955   -41609   -65581   -42938    31532 
   46932     4975   -41075   -91943  -171706  -258748  -265418  -161414 
  -45863    26770   104521   158731   149874   165045   231477   256083 
  211171   138023    42996   -60377   -94660   -52969   -41822   -53405 
   24622   165025   245835   218792   120192    29845   -12086   -31618 
  -25991    12651    23933   -34961   -99750   -77024   -23700   -70066 
