Origin Time       2021/02/13 23:08:00
Lat.              37.7
Long.             141.8
Depth. (km)       60
Mag.              7.1
Station Code      FKSH17
Station Lat.      37.6636
Station Long.     140.5974
Station Height(m) 205
Record Time       2021/02/13 23:08:07
Sampling Freq(Hz) 100Hz
Duration Time(s)  258
Dir.              4
Scale Factor      3920(gal)/6170801
Max. Acc. (gal)   259.676
Last Correction   2021/02/13 23:07:52
Memo.             
[...]
  -35513   -42943   -56382   -76623   -93463   -91292   -81226   -72881 
  -52159   -28234   -29537   -44228   -52530   -66828   -82034   -79278 
  -64919   -55962   -65134   -76409   -63359   -50807   -62248   -66241 
  -50556   -38142   -38522   -55149   -72062   -65753   -61752   -71163 
  -62961   -48338   -42702   -40406   -54331   -64531   -53180   -52109 
  -60597   -62824   -62514   -46528   -39519   -67825   -77448   -61133 
  -71008   -83345   -72740   -65963   -67538   -81176   -93589   -69108 
  -42605   -46336   -46804   -43958   -39776   -20116   -22006   -49868 
  -61626   -60238   -51233   -35854   -49283   -83025   -86901   -69153 
  -69673   -88124  -101517   -95649   -71922   -48061   -40101   -37775 
  -25269   -21183   -30214   -18391    -7439   -36103   -61769   -63705 
  -77462   -93845   -90782   -73971   -47561   -30314   -40963   -62281 
  -71370   -66557   -53050   -38923   -37554   -47177   -48929   -39653 
  -39253   -58404   -79722   -80205   -66215   -59912   -56040   -54874 
  -74160   -80926   -55096   -53720   -86205   -93806   -76720   -81220 
  -92650   -65414   -28572   -30255   -46193   -49164   -48451   -48360 
  -51254   -58892   -60729   -47589   -34688   -40744   -52876   -64725 
  -80945   -77695   -57870   -53612   -53240   -44862   -41256   -38927 
  -47462   -69319   -67908   -49061   -55423   -77192   -89305   -90438 
  -70661   -47983   -56119   -71364   -79378   -98950   -98601   -60534 
  -30008   -23573   -31998   -61218   -91375   -92420   -68348   -39108 
  -27930   -36488   -38151   -38945   -55388   -60588   -45763   -46768 
  -71343   -78640   -44197    -7821   -25642   -79979  -112157  -113433 
  -88992   -37450      442    -6699   -38260   -75183  -105092  -103217 
  -68847   -42159   -48756   -60797   -61622   -71324   -80506   -77631 
  -85864   -95134   -71894   -24203    14672    14379   -23431   -56161 
  -60558   -54231   -60316   -81895   -96287   -90850   -77747   -59499 
  -42063   -52998   -88217  -101475   -80113   -59178   -54077   -52782 
  -49400   -43404   -45537   -57430   -55845   -51237   -60815   -50850 
  -26013   -32695   -51682   -52668   -57308   -67471   -69427   -78298 
  -94742   -98064   -82782   -69505   -72749   -61997   -32016   -25521 
  -38593   -51665   -70535   -67085   -35697   -24676   -30005   -34993 
  -59502   -80981   -90297   -99990   -74115   -35212   -41285   -59747 
  -58505   -55438   -59155   -80943  -110999  -105459   -68552   -40215 
  -25912   -22348   -29414   -38204   -49470   -62491   -66061   -62195 
  -67226   -68205   -39011   -14648   -33136   -55119   -49875   -48827 
  -63350   -73137   -87508  -109667  -115221  -107871   -85664   -41153 
  -29725   -58984   -49039   -10683    -7250   -26934   -68018  -118493 
 -107591   -54989   -32748   -18467     2241    -8504   -42905   -76932 
 -104093  -110440   -98301   -82385   -70217   -72868   -79372   -70163 
  -63671   -62840   -55032   -63884   -72484   -50394   -38288   -41320 
  -29833   -29986   -36184   -14139    -7130   -46917   -82609   -93487 
  -95831   -74804   -50919   -60939   -63938   -35259   -19817   -35082 
  -61159   -83609   -94009   -82182   -54750   -38238   -35551   -43311 
  -70050   -91662   -87968   -80784   -79996   -76159   -71240   -66641 
  -59555   -54897   -54417   -59785   -74494   -76797   -54706   -33244 
  -24315   -36986   -62594   -57673   -53900   -87044   -83283   -38131 
  -21369   -14551    -9926   -33249   -51681   -67087  -111025  -131316 
  -86231   -35675   -30190   -42199   -48645   -65732   -85157   -89682 
  -92679   -84661   -49988   -19525   -11438    -8660   -16401   -42468 
  -59999   -67339   -83802   -85132   -62465   -44028   -31286   -30146 
  -58295   -89522   -97897   -96372   -91969   -82833   -70309   -56565 
  -50607   -41395   -21702   -28415   -61944   -72165   -54137   -29479 
   -6687    -6540   -33925   -60388   -72991   -81102   -82035   -79943 
  -88558   -91737   -87131   -90086   -71669   -31038   -15575   -23174 
  -38955   -74134  -107871  -107958   -78516   -43544   -22095   -25413 
  -53107   -74229   -58914   -37942   -59697  -101286  -101640   -67540 
  -57774   -72522   -60678   -33284   -42129   -70328   -85630   -94322 
  -75970   -32850   -19858   -24715    -3965     2744   -35082   -67666 
  -66870   -59829   -66518   -81656   -91401   -92630   -90837   -90438 
 -100639  -108386   -78854   -34841   -31496   -41020   -22887   -13368 
  -23936   -37993   -70837  -100912   -92796   -67739   -58357   -74678 
  -91567   -72854   -49622   -62288   -72790   -56653   -45787   -47431 
  -44781   -28995    -7198   -17554   -62013   -74113   -41185   -25864 
  -53513   -94892  -107016   -72069   -32609   -39337   -82299  -114494 
 -110370   -91423   -82536   -68267   -47686   -46126   -54112   -55225 
  -44731   -13042     9147   -12182   -50118   -71543   -71359   -65747 
  -72835   -65937   -33340   -36350   -81542   -84941   -47490   -48885 
  -79023   -90054   -91885   -79484   -41169   -19945   -27885   -24675 
  -28943   -68214   -88387   -59861   -34459   -53370   -85018   -76675 
  -50194   -44684   -34256   -23466   -43662   -59469   -55310   -61017 
  -65982   -62136   -78289  -110332  -107237   -62527   -28384   -21610 
  -34983   -71999  -101690   -92392   -63099   -35973   -24580   -43420 
  -63635   -57317   -49024   -59372   -77839   -84258   -73423   -50149 
  -17497     1220   -11522   -32638   -48216   -75144  -102182  -108887 
 -109347  -100540   -72849   -50525   -37644   -19095   -23584   -65417 
  -86606   -71094   -64735   -59840   -40896   -44050   -69198   -69938 
  -51437   -53824   -61442   -53264   -64893  -100609  -116258  -101344 
  -61647   -22351   -26233   -37803   -24356   -25403   -28934   -22071 
  -42595   -64465   -58960   -59657   -60348   -45745   -44496   -46927 
  -40336   -59921   -97005  -117212  -126668  -121944   -98229   -75711 
  -62400   -61086   -62483   -38394    -6051   -19559   -76208  -117391 
 -114215   -82233   -42479    -8393    19170    37346    26415   -22234 
  -76063   -95208   -95533  -100976   -84264   -51968   -52483   -75019 
  -90823  -100450   -86490   -59737   -65035   -84406   -74816   -47513 
  -30763   -29679   -33090   -31867   -42150   -71879   -86588   -84244 
  -95183  -102953   -94707   -82887   -62662   -49771   -59011   -51517 
  -20868   -10267    -4840    14321    13513    -4062   -17268   -38106 
  -62041   -68073   -77280  -104852  -104678   -76724   -74701   -89190 
  -84105   -64644   -53229   -47879   -24988    -3350   -21985   -52223 
  -64644   -83833   -86983   -49424   -38627   -73712   -89182   -83295 
  -82491   -69487   -48300   -48411   -75862   -90581   -63913   -46055 
  -50421   -22392    14724    11431    -3607     -725     7182     5144 
  -14076   -48372   -89863  -133537  -154346  -140240  -136196  -161515 
 -178825  -176263  -162095  -124708   -68918   -24161      162     7978 
   -2135   -19540   -36992   -45609   -32393   -27747   -40546   -29724 
  -20333   -46706   -64236   -58737   -63764   -78853   -85565   -78109 
  -58875   -38049   -36097   -65188  -103511  -122499  -125721  -115030 
  -76366   -35225   -25616   -27379   -20307   -20558   -36185   -61579 
  -88968   -99108   -93651   -89054   -72228   -46387   -40884   -50495 
  -55160   -56693   -65137   -80152   -86183   -82714   -92190  -104445 
  -86507   -54984   -44682   -49402   -58575   -67236   -53806   -23453 
   -1897    16109    25097     5561    -7957     9505     8867   -27746 
  -60474   -78992   -85103   -76383   -72721   -83959  -108679  -148144 
 -180502  -174933  -136772  -103148   -91031   -86206   -68494   -24053 
   30457    60738    60716    45657    39055    64989   103402   109291 
   87990    62883    20265   -41563  -102784  -163967  -221411  -264323 
 -299560  -323782  -321400  -291942  -254483  -229997  -207885  -171473 
 -138327  -116018   -82999   -26936    46049   101858   105051    85595 
   90799   103506    99657    85140    42280   -28827   -83936  -121582 
 -159664  -173578  -161733  -158447  -166823  -169510  -159408  -131915 
  -92994   -49995    -5661    26315    49450    72243    74420    52984 
   25635     9162    26436    56125    52046    24017       55   -17403 
  -19517     7569    42622    42485     1001   -52758  -103942  -150561 
 -167537  -137540   -94567   -62802   -30927   -12466   -25307   -56212 
  -92728  -126284  -141894  -139898  -133573  -118439   -85162   -51618 
  -37850   -45041   -71598  -104537  -122488  -122570  -114029   -99508 
  -75926   -46544   -14818    22197    43756    26144    -3917   -18727 
  -30252   -37384   -23956    -1609     7836    -1130   -30467   -69808 
  -92083   -92926   -85485   -73812   -69567   -84698  -107065  -116495 
 -112490  -108619  -112048  -127513  -156140  -180892  -180755  -150620 
  -93860   -21827    38553    68752    67857    40824     8701    -9380 
   -7367    11403     8029   -41135   -97817  -138587  -174347  -189896 
 -173991  -164373  -179155  -193722  -205702  -212533  -201166  -192747 
 -192046  -163953  -102183   -39987    -3639     7740     1735   -25768 
  -67618   -85450   -50411     7696    33566    11740   -37839   -88034 
 -121784  -152614  -184450  -191031  -179046  -174692  -174012  -170169 
 -157150  -122024   -66702    -3741    53719    98452   119937   103140 
   68121    49742    54121    81081   112024    92339     7925   -79839 
 -125083  -146727  -163104  -162415  -144800  -119891   -81567   -27008 
   29254    68509    84936    91929    98441    95120    82019    74375 
   76315    73392    49918    11678   -30939   -82598  -126210  -127973 
  -97105   -71939   -65301   -70846   -81918   -76171   -33408    19998 
   39152    23035    -1368   -21731   -29676   -21026   -12708   -14378 
  -25696   -65394  -127429  -169200  -196428  -235292  -254555  -242336 
 -225467  -184974  -106439   -22421    52554   108865   113254    63567 
    4472   -31115   -46837   -53896   -64952   -92565  -134498  -188549 
 -245566  -282673  -295071  -279988  -221840  -125677   -22364    54851 
   93030    98092    86390    87447   112125   140309   156956   158867 
  151021   140073   121153    94387    64072    24394   -27777   -89367 
 -151268  -194348  -207144  -199637  -196289  -211471  -227331  -226473 
 -215714  -188345  -132226   -65946   -20225   -15299   -44669   -79781 
 -106534  -122140  -122915  -115630  -111255  -116112  -127530  -139565 
 -153863  -165843  -166665  -160229  -146041  -118475   -86256   -48235 
    5841    51180    61272    55128    52203    47198    36325    13192 
  -32751   -90672  -133140  -158104  -183265  -190595  -153471  -105692 
  -89308   -89386   -87646   -86194   -66864   -15311    46529    90811 
  105059    77208     4782   -71781  -105121  -111428  -138493  -177844 
 -170841   -98182     3233    96503   150208   146947   108056    67822 
   60184    95172   126746   121949   106315    83742    23783   -51580 
  -94626  -129435  -193740  -256746  -287155  -288772  -272782  -258643 
 -254980  -256963  -253866  -219963  -144274   -52026    21880    64895 
   93493   126236   160857   190274   225028   267991   283915   250869 
  199821   150438    91835    24526   -57889  -160017  -252096  -310661 
 -335685  -332097  -316857  -296800  -260684  -219414  -187423  -151036 
 -108529   -83706   -83815   -82513   -50395     4284    40611    33051 
   -5234   -52092   -97356  -130858  -152544  -169498  -166583  -133367 
  -88868   -42742    14990    80967   135157   165823   170456   140227 
   81819    34164     9048   -25766   -59170   -63278   -77003  -118302 
 -154350  -193873  -249350  -294400  -315336  -313834  -289580  -247584 
 -204726  -176426  -147232  -101956   -58709   -24638    19970    84317 
  136565   123613    44022   -40327   -76476   -68379   -45455   -19567 
   -6645   -23905   -56996   -86707  -112076  -140515  -170063  -186981 
 -180064  -125623   -18837    81119   131182   152590   138754    54810 
  -48873   -83408   -53735   -15635     9762     2692   -51073  -108485 
 -128545  -124206  -127297  -159667  -197754  -204137  -190386  -162864 
 -110884   -59561   -22004    10884    22772    14544    20953    54125 
   92072   111788   119228   138865   170291   189234   183499   153543 
   96071     8821   -86595  -156770  -208009  -259887  -301715  -332603 
 -358111  -369987  -372115  -364922  -343939  -319307  -278256  -194159 
  -87693     8932    98601   181136   247774   294116   306171   282916 
  240944   189111   137691    83731     7741   -73166  -131799  -173046 
 -190991  -184728  -191263  -233355  -290140  -329300  -342638  -338372 
 -306897  -234648  -147711   -78616    -6627    77025   130110   151618 
  161056   138202    91977    58118    39793    21398   -19495   -93844 
 -179940  -249056  -286540  -287022  -253676  -208696  -184364  -178089 
 -150228   -82765    -1548    53660    70431    71405    73401    81667 
  111608   159935   194696   188355   117631   -14910  -139752  -202882 
 -246266  -305090  -352021  -379831  -395972  -385472  -335394  -241323 
 -117231     2404    96982   173498   234424   265726   271636   266186 
  250873   230659   214395   214017   219256   173504    55308   -60020 
 -111575  -145214  -191445  -202949  -180822  -160413  -139178  -138330 
 -182164  -235309  -252792  -237934  -218661  -197832  -175433  -160483 
 -145595  -137331  -141128  -136080  -129618  -140666  -151657  -143489 
 -121168   -95966   -71833   -53635   -47528   -50798   -67359   -98901 
 -113558   -81666   -20023    37804    80059   115629   156677   209857 
  271949   326175   350016   317559   217185    81453   -29574   -85730 
 -126589  -191657  -250934  -289160  -328337  -353132  -341638  -299437 
 -236678  -177630  -147250  -130564  -115413  -127526  -157854  -169638 
 -162509  -129507   -57518    20590    68887    83720    61850     9501 
  -37792   -58326   -54405   -20826    35084    78205    75289    23417 
  -44471   -90588  -101353   -82646   -50786   -20504     1954    13475 
   24881    51187    76401    72184    39122    -9062   -70745  -136767 
 -183950  -194522  -165942  -134029  -155915  -236063  -317865  -345658 
 -309723  -235815  -139528   -41475     2693   -16833   -37915   -33426 
  -22192    -4519    32645    86078   132775   157025   161647   147645 
   99375    19731   -33756   -41752   -53671   -68805   -70924   -96495 
 -139475  -146355  -115212   -90511   -93145   -92707   -54531    -6362 
    1705   -28658   -81327  -145979  -183733  -173118  -131529   -74771 
  -34482   -35176   -42305   -27759   -12457    -7866    -9395   -32406 
  -86268  -142564  -164571  -142792  -103795   -77523   -54945   -23481 
    2754    22558    38131    32217    12203     -512    -8579   -10489 
  -14635   -54669  -123929  -170274  -169832  -145042  -123506  -117352 
 -126795  -140364  -148937  -147113  -116025   -51851    14670    55651 
   65335    51623    27649    -3353   -54918  -130524  -195115  -208462 
 -183565  -170173  -178638  -171254  -135161   -89065   -25478    61917 
  130657   143948   116648    72035    12809   -51262   -99167  -121667 
 -119746   -98658   -74339   -71640   -95831  -122283  -138243  -145246 
 -128619   -78304    -8710    48123    62901    42055    10553   -20414 
  -40758   -45263   -39389   -22816    -7726   -18936   -50549   -83681 
 -116428  -139960  -151417  -155936  -141469  -117557  -103965   -85126 
  -59020   -53324   -71231   -76792   -47360   -20732   -26079   -28438 
   -7276     8289    -6198   -49152  -107740  -159391  -171793  -129195 
  -49891    28059    66379    57743    31226     5146   -17272   -34582 
  -69487  -125893  -157852  -148581  -130293  -121988  -125832  -134224 
 -127031  -112383  -122190  -146943  -141454  -100054   -56568   -24065 
   10582    60714   108966   113027    67840    12674   -17092   -20002 
  -19546   -28149   -43976   -62946   -80345   -98635  -118228  -132570 
 -138462  -125685   -88570   -61261   -69899   -77778   -52368   -14793 
    -235   -22900   -59928   -80724   -88140   -87126   -60413   -16157 
     311   -24694   -60821   -89733  -100925   -84989   -56953   -27734 
    6346    31869    22295   -25603   -70374   -75730   -62619   -52619 
  -26855     6570     4739   -35513   -80247  -104622  -109160  -105135 
  -79410   -34447   -20848   -56526  -106023  -137082  -137560  -115772 
  -85932   -57581   -44886   -49810   -54067   -52313   -59798   -74486 
  -75719   -61824   -40451   -13620     -613   -23190   -64806   -83048 
  -67234   -55811   -76193  -100606   -96603   -82059   -81978   -75989 
  -52440   -44301   -47970   -29866   -22719   -65784  -118400  -134925 
 -127946  -116351   -90979   -57371   -37101   -21294    -5773   -15545 
  -43602   -54337   -41981   -28803   -28604   -36764   -48156   -55882 
  -38863    -3004     7223    -4753     2583    14812     9573     4438 
   -7315   -39018   -59804   -60809   -76786   -98412   -95776   -95407 
 -117626  -137963  -147230  -149905  -131802   -86111   -40567   -20692 
  -15771   -22757   -56141   -94875  -108877  -101654   -84710   -74769 
  -81294   -79110   -53332   -24378    -5088     6524     1937   -21486 
  -35340   -17596     5402      416   -20679   -34491   -44652   -56808 
  -67762   -85505  -120495  -161289  -186087  -187039  -163821  -117231 
  -55375    -3467    -1494   -48443   -86506   -90423   -88860   -81573 
  -48741   -22076   -33251   -57610   -78991  -103765  -114363   -98955 
  -85835  -104166  -133556  -134592  -110813   -81252   -49510   -25777 
  -13260    -6921    -8751    -9396   -10461   -27468   -30923     6351 
   42315    55148    66852    52459     3068   -16166     3276     -765 
  -30445   -55271   -87127  -120284  -126052  -119175  -126403  -145946 
 -166949  -181877  -184624  -161976  -103844   -35992   -10938   -41119 
  -83444  -111141  -122969  -104784   -64713   -34003   -14614    -2127 
   -5794    -7341    14440    35785    26153   -16972   -66545   -86549 
  -88590   -97712   -90094   -65624   -62889   -68100   -52201   -35791 
  -27436    -5287    12692   -10851   -52362   -62458   -45345   -43831 
  -74518  -102054   -97940   -93378  -110077  -109344   -74575   -42437 
  -33663   -41481   -47115   -31637   -11963    -9497    -5795    12730 
   27535    26910    10642   -31910   -95611  -148025  -171053  -167885 
 -134924   -83083   -59410   -80717   -98283   -82373   -62060   -54011 
  -49790   -60301   -79187   -79460   -66179   -47773   -32311   -40873 
  -57453   -54665   -41702   -30197   -25218   -36347   -60240   -81646 
  -78856   -44170   -14211   -24024   -56654   -78597   -77557   -57292 
  -31316   -27177   -62368  -102259  -100186   -78234   -81395   -95302 
  -97997  -103996  -116598  -120212  -108067   -95730  -105521  -124487 
 -122409   -96991   -59834   -19888     6676     7326    -8093   -17456 
  -10203     1141    -1526   -17267   -38967   -63200   -73727   -65936 
  -61448   -62814   -61625   -69681   -88310   -99948   -94832   -85612 
  -91800   -96019   -68204   -27522    -4872     4464     3663   -12669 
  -19835      983    13794    -6159   -24502   -23372   -35015   -71688 
 -100410  -104562  -104863  -111467  -114674  -111938  -106081   -98975 
  -96532  -101678  -105141   -92296   -66492   -44730   -21311    15713 
   52734    70512    58333    19481   -30391   -82984  -121890  -119371 
  -86996   -67998   -72050   -80306   -94288  -123037  -144030  -128841 
  -87688   -48076   -23150   -16445   -20078   -20927   -15681   -10326 
