Origin Time       2021/02/13 23:08:00
Lat.              37.7
Long.             141.8
Depth. (km)       60
Mag.              7.1
Station Code      FKSH10
Station Lat.      37.1616
Station Long.     140.0930
Station Height(m) 564.9
Record Time       2021/02/13 23:08:15
Sampling Freq(Hz) 100Hz
Duration Time(s)  293
Dir.              6
Scale Factor      3920(gal)/6170801
Max. Acc. (gal)   209.760
Last Correction   2021/02/13 23:08:00
Memo.             
[...]
    1220   -18450   -47232   -59870   -45722   -39370   -56564   -74006 
  -68588   -34517     7716    27222    23898    16394     3086   -20819 
  -39459   -39936   -29733   -19334    -8414     -789    -8828   -28826 
  -46812   -59711   -57495   -26990    14237    35381    23999   -14075 
  -56334   -83687   -94586   -81664   -36129    23286    58612    45518 
   -5582   -61199   -93007   -85826   -43185     4260    26021    20043 
   -2032   -29888   -54033   -64907   -50715   -13932    19870    29483 
    9885   -34363   -78722   -88226   -51975     7510    52127    57715 
   29944   -11917   -49065   -64855   -52372   -21233     9170    22017 
   10068   -17077   -41786   -55294   -50418   -21586    17471    42305 
   40120     9904   -40310   -85142   -92844   -59217   -15045    12385 
   23600    22951     3696   -28425   -51138   -53741   -36815    -2307 
   26051    16793   -20017   -47615   -52169   -38454   -12239    14193 
   28070    27564    18126     2596   -18069   -38875   -57714   -72299 
  -70717   -46935   -12233    14467    21699     9314   -21894   -59978 
  -75988   -59652   -34628   -20390    -9120     2985     1091   -17376 
  -34965   -41111   -46090   -52711   -41036   -13603     2109     7050 
   12342      441   -34381   -60964   -54092   -18809    21433    40477 
   26968    -8444   -45474   -71585   -79521   -57840   -11921    26613 
   38100    22737   -19828   -72195   -99097   -82793   -34547    16151 
   39966    26539    -8483   -41096   -62615   -68871   -51871   -20447 
    5529    15021     1547   -34611   -77211   -97476   -74835   -25017 
   15452    29983    24857    14919     9587      734   -22905   -54893 
  -75638   -74566   -57695   -34463   -14011    -2837     3032     9111 
   13094     6517   -17011   -47747   -64083   -53848   -24456     7145 
   30424    38328    22368   -15703   -59556   -81716   -61399   -13506 
   30520    61713    74084    41056   -41822  -121295  -140913  -102727 
  -37497    34080    83542    80228    28512   -36966   -85066  -101152 
  -85661   -50081    -6476    31820    44659    23982   -11592   -41806 
  -65818   -79394   -65598   -24559    21782    50243    47522    14805 
  -35785   -85103  -108604   -90529   -42770     2256    23877    25803 
   15828    -3507   -20936   -23064   -12584    -2275    -2051   -11154 
  -24304   -43535   -64888   -71427   -53823   -19601    12115    20925 
    4811   -17173   -25442   -15978    -3450    -3905   -13291   -23054 
  -39599   -64104   -75876   -53721    -7275    29112    34706    10804 
  -31980   -69874   -81301   -68290   -44934   -23630   -11774   -13993 
  -30349   -48569   -58269   -59286   -45629   -10757    36017    70887 
   68492    25197   -36547   -89277  -106530   -71921    -6283    49587 
   75952    68510    32657   -13247   -57210   -86970   -80951   -41259 
   -1077    16854    18779    12364    -7745   -35115   -50738   -53025 
  -48348   -31311    -3010    19852    20946    -2943   -34735   -50650 
  -52404   -58167   -62086   -43229    -5653    26975    43849    39722 
    2562   -54932   -97614  -107152   -73335     4395    84686   113476 
   74106   -12958  -105415  -153598  -133093   -66320     9476    73421 
   96191    48715   -43679  -123747  -160159  -143624   -76563    12578 
   79044    95287    66809    15882   -41640   -88369   -93783   -51574 
    3886    40750    45937    16511   -34749   -79500   -87887   -57666 
  -15412    17918    31505    19218   -13534   -52869   -78076   -80580 
  -71703   -53254   -21271    13008    29680    16195   -13196   -30399 
  -29468   -22602   -18690   -17887   -16657   -19058   -29194   -38610 
  -35730   -15321    13136    28262    24745    16494     7480    -8348 
  -24160   -28494   -24660   -22194   -22648   -23166   -25773   -31406 
  -30465   -16817    -1756     1574    -5953   -18933   -33299   -41934 
  -45216   -52306   -61527   -61491   -48521   -28381   -13408   -15936 
  -27085   -23204    -4573     8283     7896    -1782   -16568   -34414 
  -56291   -73379   -69222   -42076    -4843    30480    52419    45081 
    5228   -44246   -76094   -78434   -51493    -9369    19631    17833 
   -3508   -30183   -59894   -75354   -53280    -4255    35717    41967 
   15260   -25260   -56033   -65600   -60766   -49308   -31334   -10343 
    8228    21424    22160    -1552   -45830   -80446   -82793   -59274 
  -27867    -3818     5283    -2326   -20421   -31739   -28406   -20526 
  -10086    13092    39826    41849    13833   -15646   -25157   -27628 
  -39809   -50588   -39628    -6486    24830    30813    18252     6999 
   -4128   -23504   -45482   -62828   -64116   -37652    -2067    18032 
   23092    13770    -9041   -30251   -40539   -41760   -33179   -14844 
    5591    19260    21976    11464    -8402   -23312   -33981   -64381 
 -110788  -130283  -102107   -46096    13204    56692    61387    19819 
  -41926   -91242  -109926   -88887   -37736    12599    38228    34997 
    3536   -47496   -91028   -97088   -56956     5785    47552    42367 
    1443   -51750   -96568  -109398   -76932   -12009    56304   103080 
  107974    60451   -12244   -67937   -96260   -94133   -53050     5842 
   42753    33493   -11826   -55650   -75841   -73090   -46340    -3626 
   30251    39183    24842    -6163   -40524   -63913   -72918   -64216 
  -35205     6483    43397    51790    20594   -37446   -93435  -117534 
 -101807   -59375   -10336    17984    11626   -11768   -33907   -53118 
  -63256   -53546   -25057     6737    21498     6768   -31866   -64200 
  -55339   -11649    23174    29334    22010    10518    -9095   -36476 
  -57522   -49290    -7864    37257    59223    55169    21413   -32358 
  -67611   -71294   -67417   -62188   -44672   -22784    -7064     3735 
   -1998   -29768   -53992   -59064   -52415   -34789    -8835     8334 
    9150     6994     5859   -10546   -41731   -63867   -62668   -38262 
     639    32032    36663    13854   -27351   -68486   -84094   -72044 
  -52917   -29095     7343    33044    21053    -8084   -24122   -33809 
  -36597    -7749    36258    41093    -5766   -62022   -84957   -65976 
  -19288    34757    67483    54866      444   -66209  -110944  -115289 
  -80730   -23650    29022    47578    21410   -24178   -55859   -62061 
  -38036    13939    59596    54401     -731   -57668   -79868   -66782 
  -27895    19351    41902    23160   -18527   -60934   -89144   -82527 
  -35302    29765    79703    79418    14272   -79124  -138509  -126036 
  -55014    21135    58346    43954   -10267   -63262   -75572   -52134 
  -20010     5157    11635    -8583   -43554   -66704   -60594   -24542 
   31127    73807    60623   -10422   -95557  -149120  -142074   -71059 
   19757    67815    56698    10606   -47762   -92236   -93439   -48751 
   15407    64007    71273    35621   -23499   -77925   -94166   -54927 
   13067    58684    49110    -7842   -66327   -82929   -57814   -17229 
   22068    48496    42853    -3525   -67389  -111767  -114779   -67858 
   13502    77201    84751    47840    -8158   -66937  -105994  -101525 
  -55454     1039    36423    38264     7472   -43829   -82886   -75916 
  -30240    17658    45893    47078    15795   -37307   -80203   -87593 
  -61447   -18652    18422    25102    -6306   -52139   -77047   -65272 
  -21502    35240    68074    50183    -5871   -69095  -113364  -118313 
  -82448   -23031    39908    75133    54013   -11107   -78731  -110421 
  -85113   -20814    31338    38401     3066   -61148  -125813  -147228 
 -111063   -43852    29219    95851   128755    96474    15424   -58970 
  -95783   -91489   -46951    14885    56245    59677    31582   -10649 
  -46347   -61609   -55126   -32129     -483    23499    21776    -3478 
  -29194   -40361   -42223   -39293   -28827   -14386    -1100    11602 
   20652    17066    -5522   -40226   -62192   -50860   -21124    -9715 
  -24414   -34593   -21611    -6552   -13519   -37407   -62065   -77071 
  -74360   -56106   -37801   -30045   -28665   -29109   -34983   -45935 
  -49325   -33029    -4446    17384    19098    -4138   -40421   -68321 
  -74795   -52686    -9558    30820    54707    60891    47406    14795 
  -24341   -50508   -55476   -42100   -16384    10877    28640    28608 
    7070   -28040   -55801   -57259   -38947   -18496     2267    15984 
    3535   -32087   -62285   -57846   -13930    41282    72265    59832 
    4216   -70791  -125402  -126068   -69857     7471    62231    68345 
   18135   -63760  -125952  -127654   -64607    19457    63902    53144 
   10720   -47453  -101842  -116139   -80715   -26115    17690    37721 
   25538   -19629   -71438   -90296   -72532   -45448   -23971   -11971 
   -8502    -3455     5437    10788    10330     4893    -3452   -11371 
  -25815   -50337   -64921   -55163   -31321    -7229     6559     2013 
  -16751   -28210   -12465    17127    28176    12860   -15990   -47404 
  -66070   -63702   -51814   -36457   -18295   -12715   -25103   -29381 
   -4943    31263    51187    42731     4381   -50941   -92808   -99469 
  -70032    -9931    61845   103832    86327    21495   -59168  -130036 
 -161034  -126104   -41978    38282    77334    73682    45432    11073 
  -22197   -48818   -54557   -29845     9198    23961    -4031   -50386 
  -82808   -87546   -63850   -25116     3974     9966      764   -14006 
  -38286   -71939   -93896   -83397   -47982   -10780    12869    10837 
  -16428   -42386   -43478   -29527   -25132   -26025   -17524   -19027 
  -46218   -77645   -87405   -67520   -25508    25423    61371    48191 
  -11096   -61481   -60841   -21450    26012    62757    63141     7210 
  -74970  -127184  -127232   -87562   -25382    36660    61970    28487 
  -38349   -93576  -113488   -86318   -18937    43975    64969    49451 
   17822    -9206   -17053   -17735   -30877   -51464   -60779   -57894 
  -57728   -56157   -41189   -28825   -34314   -44739   -43889   -24063 
   16359    71378   124233   143462   112098    46669   -31148   -94280 
 -105741   -62604    -1242    49674    76934    63925     5722   -70813 
 -118297   -97977   -15430    73772   115518    96329    27395   -63924 
 -131585  -144139  -108683   -46680    28565    95377   114303    69795 
   -9899   -91257  -146794  -150300  -106953   -56566   -33074   -32210 
  -22613    11610    59067    84880    45984   -46944  -130978  -166175 
 -150214   -97585   -32767    21471    50004    44794     2127   -65505 
 -114161  -101046   -28981    54437    90875    47870   -65611  -196929 
 -270957  -246334  -139627     9281   151625   217645   162941    23291 
 -121495  -208876  -211392  -130506     6659   139526   199006   152772 
   21301  -122782  -198925  -178620   -80101    48681   139893   154484 
   99822     2650   -94593  -147385  -135536   -62692    43534   138941 
  184529   156124    60512   -54581  -136909  -166708  -141692   -71130 
    5800    52386    66543    55695    17443   -42870   -91101   -92857 
  -55654    -5183    49928   100573   119300    89607    28855   -35418 
  -82012   -97005   -81788   -44655     3906    42795    52683    30408 
  -11438   -50920   -72367   -72978   -55918   -27447     7182    38959 
   44188    12084   -29341   -55112   -69879   -73017   -59745   -47110 
  -48806   -55337   -62136   -84184  -124373  -147271  -115848   -41602 
   26117    42227     4142   -47776   -85324  -108730  -113235   -88817 
  -39788     3615     7214   -27280   -71025   -93430   -75703   -22235 
   45783    91132    75584     3636   -81049  -135125  -125130   -40191 
   82836   183421   219609   177558    79496   -31798  -124703  -161845 
 -102099    38955   178915   235257   183075    52152  -111598  -247016 
 -277763  -179601     -974   179434   275285   244546   115821   -54074 
 -199576  -258701  -204101   -64328    82059   150490   103927   -20891 
 -145985  -209850  -182852   -71997    70533   173703   192466   127534 
    2415  -142128  -237234  -238815  -162753   -51153    48710    99090 
   82766     5410   -94576  -164644  -165216   -97828   -24105     6605 
   15760    21861    -1076   -52360   -86999   -85662   -61719   -22056 
   13851    19524     5090   -10587   -36061   -78398  -122220  -146067 
 -143162  -124378   -96147   -53831    -5025    27275    26809     -669 
  -31254   -49032   -54745   -38772     9967    70567   110782   112320 
   65528   -19642  -110224  -169708  -171283  -110105   -12356    77295 
  127556   124963    65328   -16470   -66951   -70894   -31329    43527 
  117270   143075    97831     1927   -94308  -146696  -132292   -56133 
   42560   111639   127834   101982    45717   -27920   -86350  -100475 
  -70356   -12219    52364    87262    63920    -1487   -64500   -96369 
  -90467   -48049     8954    37835    21371   -15584   -44790   -59925 
  -65231   -60334   -40838    -5906    36484    67868    66572    25591 
  -34200   -78692   -90938   -73244   -38239   -11841   -12825   -37687 
  -72627   -97089   -95546   -70962   -36837    -9618    -3665   -25195 
  -74314  -140634  -185310  -167034  -104057   -53332   -36159   -36518 
  -41183   -47634   -48059   -27808    12126    49798    62872    48041 
   23610     2903   -18081   -39251   -50613   -43904   -21803     6269 
   35957    60991    66911    50358    34221    37565    40395    12319 
  -41567   -92471  -129178  -152103  -141112   -76937    27935   135100 
  192460   167568    70569   -67101  -200038  -271119  -239332  -102367 
   85942   230201   256312   152643   -25520  -186807  -262442  -220927 
  -71825   107388   206835   171897    37064  -119512  -224327  -220963 
  -94041   102867   267889   309816   203127     3847  -189075  -293552 
 -275444  -149401    24799   160663   187569    92649   -61791  -177030 
 -189296   -97861    44253   156459   174249    82251   -70362  -197696 
 -241057  -186771   -53635    94294   173632   151630    53575   -69273 
 -147359  -129730   -33935    74394   136719   116819     8272  -143425 
 -259554  -276880  -182889   -21718   134270   218703   198774    83691 
  -85804  -241613  -313136  -267243  -121723    56744   180616   199409 
  120448   -20819  -169639  -248461  -212206   -92520    50668   166061 
  206056   156348    45721   -74162  -139302  -123713   -64026    -3871 
   30685    27243    -2836   -38142   -49958   -11533    56101   101512 
  101518    57244   -12897   -73650  -105798   -99692   -49103    21209 
   72832    81450    48638     6367   -18338   -30601   -43953   -52139 
  -37012    -2191    20853    13280   -10965   -32601   -42225   -36530 
  -23495   -15614   -19121   -28786   -26342   -15476   -25105   -58473 
 -103349  -146202  -151364  -103768   -34999    20302    45667    41524 
   15404   -32970   -94162  -134488  -126813   -78627   -13099    49446 
   76827    40927   -44517  -136091  -191922  -186797  -122226   -24284 
   67485   115189   102527    40205   -46742  -125485  -163600  -148240 
  -85037     7542    89926   120295    85052     5958   -68842   -93227 
  -53593    20703    72857    65472    15683   -34803   -64371   -58706 
   -7142    61196    99969    91969    40022   -37254  -100306  -115589 
  -82337   -29172    20984    65185    88721    73192    37807    16328 
   13561    13986     5347   -12671   -30353   -33929   -17023     2420 
   -1139   -22565   -32255   -15963    10933    32482    47877    49976 
   29859    -5850   -46925   -87530  -117425  -119398   -85210   -25415 
   35455    59610    24127   -42393   -91418  -110113  -113174  -108305 
  -95162   -71359   -35541      646    22365    29607    26267    10556 
  -18932   -61620  -104759  -123460  -108330   -68130   -17319    17948 
   17231   -11594   -48748   -76146   -79388   -61757   -38166   -18712 
  -15350   -36134   -65626   -75088   -52281   -14800     8628     1356 
  -40760  -104578  -155312  -159808  -102122    12092   136157   199651 
  165680    46364  -113724  -245348  -282194  -203096   -42728   129792 
  236653   222959    97733   -59106  -157039  -156246   -66513    65891 
  170429   196085   134225    12317  -104857  -149370  -101987     9306 
  125701   175225   127124    11659  -113313  -185874  -169225   -72525 
   59530   157390   159834    65715   -62620  -150490  -159848  -101584 
  -19296    40682    46098   -16388  -116680  -183844  -168468   -79318 
   38631   127755   141903    77793   -33788  -155046  -236371  -228884 
 -128586    12869   124934   165536   131019    40793   -57087  -105863 
  -91670   -43329     2051    20152    11055   -15099   -48134   -66031 
  -54647   -23354    17048    51947    55611    13554   -61447  -123082 
 -125271   -79844   -31336     -240    10183    -3425   -38166   -76782 
  -93567   -71686   -18313    30927    36646   -12492   -90835  -150526 
 -158632  -113467   -34938    41302    87400    95211    61738     6931 
  -25924   -24023    -6879    16646    43203    60047    53854    18291 
  -28630   -48543   -30182     -589    17592    21416    12346    -1631 
   -6925    -1533     4718     4064    -4166   -16910   -28269   -29988 
  -21842   -10402    -1046    -4985   -23930   -40806   -51356   -59679 
  -54491   -30796    -3130    12997    17557    22342    27337    23805 
   15296     1250   -29624   -70894   -97130   -92742   -68031   -43152 
  -25390   -13580   -10242   -22704   -50192   -74452   -83493   -82060 
  -72403   -55253   -36773   -25809   -29077   -38950   -37876   -24578 
  -15507   -16248   -22611   -36698   -50449   -48804   -34438   -19556 
   -8347     4468    18949    18034    -6556   -34084   -44718   -37935 
  -20604    -2618    11455    19312     8456   -23042   -55939   -74076 
  -70614   -41831     4106    46583    66731    56335    22884   -15842 
  -47883   -63949   -53984   -19822    26031    64750    76372    55142 
   10909   -36460   -65592   -70469   -60013   -49790   -55860   -75469 
  -85833   -72152   -41958   -11574    12513    30708    34494    11815 
  -31964   -69969   -77364   -53995   -19681    -3575   -24360   -60700 
  -72905   -50209   -10676    22804    36098    21873   -21567   -77609 
 -117911  -119253   -69445    13112    80904    99303    69424    21706 
  -10449   -21346   -16605     9148    45716    60350    37851    -5306 
  -48323   -81653   -91714   -58478     9109    69463    94769    82540 
   36470   -31076   -94461  -126407  -114162   -73014   -39719   -33548 
  -40246   -45868   -51062   -53612   -47832   -40040   -43944   -56043 
  -61436   -57218   -48374   -38331   -27852   -21427   -28085   -40851 
  -40546   -25366   -12031   -15927   -36134   -55567   -62748   -59157 
  -38836     1684    38479    44241    18235   -22124   -54824   -60995 
  -38468    -2347    31391    52220    53163    30525   -14802   -65951 
  -88391   -59022     8470    75040   104499    80982    12809   -66051 
 -113906  -120025   -94184   -34462    46470   107166   115948    74978 
   12898   -40380   -72654   -80825   -67195   -45888   -28381   -15743 
   -9376    -5849     3440    16503    19808      105   -36974   -67073 
  -75376   -60784   -25424    20176    55792    59190    23361   -35019 
  -93363  -136147  -146627  -109300   -33209    45810    91204    84001 
   28074   -51864  -125980  -170631  -163979   -97867    -1665    70379 
   85235    48789   -21139  -101297  -148011  -125006   -44521    44722 
   97901    91102    26543   -66235  -146388  -177977  -146039   -65897 
   28839    96806   104245    47349   -44892  -121412  -136817   -86663 
   -4537    70106   107595    92227    31703   -46262  -106415  -117035 
