Origin Time       2021/02/13 23:08:00
Lat.              37.7
Long.             141.8
Depth. (km)       60
Mag.              7.1
Station Code      FKSH11
Station Lat.      37.2006
Station Long.     140.3386
Station Height(m) 285.7
Record Time       2021/02/13 23:08:12
Sampling Freq(Hz) 100Hz
Duration Time(s)  300
Dir.              4
Scale Factor      7845(gal)/8223790
Max. Acc. (gal)   229.143
Last Correction   2021/02/13 23:08:12
Memo.             
[...]
    6843    19570    21795     6624    -9063   -15309   -18435   -18476 
  -17039   -19653   -18918    -7742     7951    16480     9933    -4704 
  -16818   -23751   -21571   -14260   -11650    -7381     4768    13973 
   12449     4804    -4788   -18482   -34106   -41480   -38861   -33772 
  -26846   -14260     3299    18462    19901     5501   -13686   -25057 
  -24277   -17579   -10867    -1954     7192     7160    -3333   -15053 
  -21450   -23442   -21774   -12879     1356    12349    17200    15283 
    4128   -11997   -24642   -28949   -26627   -23549   -20763   -13652 
   -1456     6860     1521   -15291   -32757   -37902   -24601    -7716 
   -3770    -2505     8235    13116    -1351   -22022   -39249   -56074 
  -60952   -42292   -13366     8110    18238    19626    13656     2979 
   -7804   -17238   -20652   -15399    -9890    -3754     6793    12375 
    9902     2370    -9702   -19823   -22765   -15988      -97    15201 
   25041    28628    22670    12973     4738    -4465   -14042   -25068 
  -34562   -32745   -26389   -29199   -33598   -27619   -16572    -7609 
    1333     7520     1296   -14516   -24268   -23595   -21432   -19662 
  -11958     1449    11500    14133    12810     5011   -11920   -30761 
  -42349   -38399   -18851     2806    17197    22837    19017    11800 
    5250    -3539    -9926    -8058    -1858     3873     9887    17280 
   20020    10733    -9013   -30955   -46186   -51840   -49291   -35147 
   -8364    19873    31896    19063    -4951   -19122   -20811   -20337 
  -24925   -30541   -22362      -48    14018     9146    -1405    -4160 
   -1047    -3242   -11431   -16054   -16276   -14677   -11307   -13848 
  -24618   -30747   -26009   -16946    -7631     -283      930    -1885 
   -4071    -6648    -8896    -9378    -9456    -5036     5508    13119 
    8935    -4833   -13690   -11256    -8676   -10327   -13417   -19747 
  -22572   -16065   -11404   -14814   -16443   -11874   -10251   -15448 
  -17209   -10948    -6215    -5973    -4005    -3969    -9055    -6311 
    6311    10058     2803     -584    -2934   -15183   -28971   -30207 
  -24255   -24533   -27178   -18889     -940    12464    14384     9640 
    2482    -3894    -5081    -3036      792     7356     9589     6390 
    6430     6926    -2531   -21581   -37149   -40504   -37816   -31220 
  -18459    -7797     1822    17159    23128     9162    -7707   -12366 
   -7076     -139       54    -6285    -8623    -7789   -15209   -24340 
  -22709   -18936   -21324   -20436   -12430    -5960    -4198    -4961 
   -8761   -15271   -22445   -27291   -24275   -11063     4110     9963 
    9886    14835    20692    18974    11944     2207    -6583    -7449 
   -3163    -2911    -6594    -6070      702     5972     3708    -2870 
   -6118    -5705   -10400   -20474   -26064   -24151   -14914     1470 
   14644    16128    11808     6760     -294    -7959   -15975   -27093 
  -39584   -46930   -44686   -35804   -26724   -20263   -16328   -14962 
  -17323   -22729   -27477   -28386   -19909    -1566    11280     8665 
    1498        6    -1109    -8218   -14258   -10581    -2419     2631 
    5255     2299    -9842   -21732   -27606   -32293   -33573   -26966 
  -14034     2632    18561    29366    31136    18446    -5092   -21930 
  -20884   -15232   -16776   -10783     7188    13759     2108   -12499 
  -23271   -28341   -25564   -21780   -24047   -23985   -11441      -70 
   -5412   -15169   -15456   -10908    -8718    -6970      957     7678 
    2358    -6156   -11901   -17975   -21811   -24750   -26065   -20216 
   -6829     8928    12699     2548    -5377   -14187   -32917   -46354 
  -43262   -32398   -19904    -6693     4037    12210    15275     8303 
   -5235   -19642   -27963   -22991   -11686    -4050     2209    10517 
   19454    20385     5979   -10072   -15971   -18373   -16366   -10377 
   -9617    -8977    -3414     1327     5659    10449    14026    21201 
   30846    30253    16444    -2126   -19101   -26103   -19786    -7307 
    5626    14458    20551    28526    29357    13517   -14203   -38029 
  -41602   -28768   -14812    -2126    12798    26271    28822    15481 
   -9155   -33648   -43297   -38846   -35672   -35220   -32279   -28904 
  -25996   -27525   -33127   -31700   -23923   -20584   -18958   -11487 
   -8023   -19184   -30805   -30262   -27506   -25328   -14817      799 
   13028    20073    19062     7103    -7352   -12982    -9567    -2803 
     832     2602    10490    18962    19791    13736     -506   -14692 
  -15739    -7053     1598     7029    11466    12075     2752    -9815 
  -21859   -39476   -50728   -41065   -24305   -16954   -14899   -11958 
  -10887   -14008   -16906   -14332    -9886   -10498   -15244   -20089 
  -24389   -30352   -39244   -43262   -33805   -16883    -6716    -9957 
  -16892   -15253   -10663   -12127   -12646    -2959    11707    20371 
   22901    24156    20899     8440    -8672   -17470   -10254     4652 
   17132    24165    22693    17874    16503     9994    -2675    -8621 
  -11674   -20879   -24686   -11516     9023    17805     7871    -6708 
  -11059   -10893   -14420   -16170   -14385   -11481    -2286    10866 
   14154     4280    -9732   -25000   -42982   -54302   -47683   -29957 
  -15803    -4468     6292     5776    -3493    -9498   -17398   -28395 
  -30735   -25620   -20208    -9533     7223    11772    -5840   -26196 
  -33471   -31930   -23282   -10334    -3161    -3543    -6775    -8455 
   -4210     3165     7811    13321    23176    28156    22937    14746 
    4716    -8052   -13590    -8986    -6901   -13225   -14769    -3977 
    1536   -10577   -26450   -33022   -30090   -17467     1124    10912 
    1632   -15510   -21091   -14916   -12009   -11963    -3678     4831 
    5790     8289     3975   -20626   -47672   -59111   -60081   -53269 
  -34285   -12501    -3977    -1777     9571    17806     7148   -11736 
  -26163   -32657   -26383   -11616    -4870   -14277   -24588   -18270 
   -7291    -9192   -12156    -2382     7317     1229   -12298   -15508 
   -8158      475     8488    14724    17748    19784    17243     4784 
   -8590   -10887   -11053   -21427   -28594   -18489     -378    18138 
   35191    41247    37130    33469    27446    10608   -14262   -35384 
  -46264   -51572   -49212   -29096      687    17161    16648    18295 
   25996    20135    -4306   -28679   -38655   -36634   -28668   -16584 
   -8006    -4414     4529     8306    -8357   -32768   -48933   -47911 
  -31799   -20012   -13981    -1742     9447    14393    16286    10237 
   -4448   -20347   -27364   -19839   -10096    -9975   -12000    -7392 
    1572     7472     8815     9444     7923     4509     2729     -267 
   -4422    -2575     3785     2396    -8500   -14524   -11134   -10243 
  -13980   -11610    -3599      479      994     -355    -6501   -13707 
  -20197   -25888   -20844    -6208      924    -2290    -7823   -18586 
  -35687   -49052   -56403   -62349   -60424   -43106   -17887     3393 
   14312    10088    -4194   -11881    -6735      741     -379    -7003 
   -6164      109    -2531   -13267   -22400   -26015   -23198   -15569 
   -7192    -3294      202    11897    19400    12822     8081     8911 
    6544     7202    11603    12858    13672     9890    -4205   -15461 
  -15952   -14769   -13655   -10966   -11988   -14747   -13907   -12274 
  -12494   -12694   -12571   -15314   -19749   -19546   -17679   -23350 
  -33211   -35275   -26921   -14307    -2273     4739     6203     7805 
    9431     7038      873    -6586    -7803      696     6814     1038 
   -8615    -9300    -2860    -3408   -10390   -12445   -12737   -14189 
  -13032   -15233   -19758   -14970    -2169     8514    10492     5890 
    2200    -3078   -14149   -23515   -24691   -19143   -11011    -4217 
   -3069   -11620   -22781   -24517   -20980   -20943   -22064   -22391 
  -22171   -14404     5136    22925    24754    18364    16915    17327 
    8889    -7994   -22361   -29577   -31332   -27333   -20298   -15854 
  -14407    -8078     4982     8225    -4760   -13471    -8148    -3842 
   -8098   -12206   -10995    -4985     4893     7226    -7979   -22407 
  -18169   -10061    -8264    -6585   -10764   -21555   -29501   -35792 
  -40039   -33706   -15735     -118     3283     6953    16005    16546 
    3735   -16603   -30073   -24039    -8494     4463    14835    21879 
   26619    28213    19329      567   -17851   -30067   -36049   -35081 
  -28826   -22076   -14446    -5582    -2836    -8583   -17527   -27174 
  -31209   -20881    -4098     3682     3819     3662     3453     4206 
    -691   -19026   -36097   -38469   -35703   -33995   -30551   -31240 
  -37430   -38065   -34601   -38523   -46029   -43729   -27473    -6586 
   10509    25704    35954    31918    14153    -7430   -24556   -35509 
  -36605   -19052    13304    41874    55196    55044    46180    33887 
   21959     7207   -11946   -26433   -26789   -14773    -3927    -4548 
   -6698     -953     2199    -2481    -8472   -11924    -6583     9066 
   25355    34661    33369    24387    19329    20790    19494    12083 
    3989    -2872   -13713   -26631   -32162   -29910   -21860    -8338 
   -1026    -8279   -21035   -31374   -40832   -52597   -67261   -76755 
  -73595   -63283   -49599   -33058   -23226   -22428   -22059   -24241 
  -35669   -47656   -45053   -31012   -22036   -18690   -12630    -8199 
   -8391    -8633   -10192   -16140   -23620   -29785   -38692   -52550 
  -61933   -60615   -53685   -42488   -25243    -6053    10451    22867 
   33277    43289    49731    51408    48610    44039    47979    56145 
   47966    24586     3977    -7800    -8058     2955    13618    21424 
   33007    40896    36871    28659    21162    10490     3326    11492 
   26580    33583    35401    32275    18667     3821    -8559   -24737 
  -38519   -43302   -42315   -40639   -41581   -42496   -38981   -28674 
  -11815     2373     5969     6330    12317    16870     5103   -19931 
  -34800   -31256   -20619    -3615    16795    26215    27603    27573 
   10702   -31569   -75135   -93374   -92402   -85240   -65686   -34990 
   -3869    25938    48169    50654    36302    23070    18161     9838 
   -5934   -18115   -21894   -23006   -26597   -32285   -39104   -46110 
  -49881   -54857   -66652   -75760   -76577   -79290   -89534   -99972 
 -101150   -93903   -82953   -63768   -34392    -1445    27102    39395 
   30570     8770   -20714   -51217   -69653   -75658   -73897   -53087 
   -9248    37073    66629    72500    54788    24005    -6856   -25767 
  -21983      286    35819    88339   141770   172640   184905   186651 
  167922   127597    83901    48568    22283     9123    12565    31742 
   63990   101200   129825   137785   126480   108514    87867    62262 
   39785    30103    29656    29581    26727    21249    10804    -9252 
  -38904   -72274  -102794  -126000  -144266  -162157  -175274  -177998 
 -175622  -175587  -174676  -165970  -150568  -134038  -120263  -110631 
 -104865  -105189  -114107  -128163  -141157  -146491  -139698  -125730 
 -111592   -96615   -79947   -65573   -58048   -57456   -58067   -55015 
  -49104   -44533   -42086   -34009   -16148     3770    21990    42153 
   63815    84272   100742   109420   107476    94925    78540    64065 
   48600    34155    29052    32791    41480    58510    85658   115468 
  141210   162861   173969   162986   135465   106431    75369    37336 
    6111    -1966     4405    11535    25065    45149    57754    56619 
   40772    12197   -19334   -48228   -70202   -76018   -66912   -51221 
  -30353    -7618     9599    21350    33307    44706    44466    26299 
   -1058   -32065   -70021  -107419  -128618  -128405  -111011   -78617 
  -33176    13236    44891    54907    39687    -2389   -55370   -94560 
 -118023  -135136  -138068  -121879  -100417   -86066   -81391   -86225 
  -97437  -106884  -109335  -103997   -89451   -68983   -47451   -24757 
   -5065     3693     3681     4175     8548    17030    31723    47973 
   53253    37273    -3006   -58391  -112257  -157766  -191951  -203214 
 -187520  -150677   -90620    -9802    72118   135858   177196   202952 
  210902   188667   143051    95694    52778    10012   -24718   -33018 
  -14924     6496    23454    44208    59859    59526    53704    52733 
   52654    50234    48617    53046    69052    92772   111065   119146 
  120973   116438   104282    84279    54766    19751   -16028   -52941 
  -83606   -96430   -90076   -68180   -31449    20000    79501   132183 
  165200   175012   165204   140084   101733    55071     8594   -30256 
  -58735   -78169   -85314   -79594   -74528   -73030   -59880   -37527 
  -22759   -15033    -5098     7776    17074    15080      247   -26482 
  -62078   -97179  -131377  -169173  -199372  -214204  -222517  -226293 
 -217063  -195296  -174876  -165468  -162935  -165692  -179942  -205139 
 -230841  -243546  -233926  -201723  -153254   -97267   -41847     5636 
   36024    43650    34422    23446    19927    20013    24187    43160 
   77868   114674   141921   159341   172301   184562   197610   210293 
  218798   222933   226604   227850   223222   215103   199095   166635 
  125396    92038    72620    64831    65352    72230    85581   104425 
  127583   150404   161523   154477   129087    86825    38670    -3929 
  -41002   -72458   -94460  -103364   -97092   -82683   -68733   -56386 
  -50994   -61330   -85371  -114069  -142875  -171606  -196155  -204330 
 -189102  -157450  -115164   -65653   -21851     3233     5525   -13123 
  -47715   -94516  -149557  -202015  -237104  -248444  -237289  -202911 
 -154044  -107261   -65813   -29351    -4599     2111    -8068   -19813 
  -25300   -33457   -39838   -34291   -23847   -19957   -24098   -26545 
  -20617   -10594     5155    32557    63424    89040   114308   138404 
  152049   150206   129913   100940    84123    78121    69194    66924 
   77755    76917    46981      318   -51078  -105926  -155673  -185692 
 -189460  -171721  -138308   -91635   -44217   -12850     2907     9192 
    4239    -8191   -18233   -21409   -18643    -9907    10262    39749 
   59796    62155    62532    71142    79809    84456    93688   107438 
  109817    97187    85025    75145    56943    37844    31892    39201 
   54837    74673    94981   112355   121670   120128   107843    84828 
   54874    28782    16537    12731     6188      560    -3794   -20291 
  -49435   -81598  -116433  -151183  -173466  -177410  -168887  -153177 
 -131506  -111060  -103192  -110450  -128752  -152259  -171499  -184819 
 -196566  -197766  -180758  -156023  -132318  -111451   -98729   -96205 
 -101968  -113386  -122195  -125509  -128798  -123974   -96853   -53356 
  -11466    20208    43837    60647    68796    70491    74124    87556 
  105922   119232   130067   142777   152248   154060   149756   146446 
  148724   147204   135149   124804   123585   119387   107383   102466 
  108022   105683    92975    86182    82748    69678    52677    41782 
   33404    23518    17649    20367    27430    34225    42488    50261 
   47779    34642    20251     -128   -36485   -76978  -104746  -122022 
 -137995  -148833  -139255  -110620   -83281   -56413   -15865    25658 
   49470    56080    47638    25821    -5212   -44744   -82004  -100082 
 -103341  -108082  -111084  -100221   -84634   -80134   -81222   -74922 
  -62899   -54110   -45836   -26526    -1090    12916    17799    27672 
   40821    50737    58224    61375    54575    34951     5628   -25786 
  -54530   -82038  -109108  -126970  -125767  -108294   -80048   -42547 
   -5167    19778    30921    33675    29899    14550   -14173   -43814 
  -61001   -62205   -44471   -12927    14405    31140    44721    56430 
   64193    66239    56565    33253     3199   -24849   -45168   -56475 
  -59433   -51270   -28210     7357    46927    80285   100076   102533 
   84167    47461     6997   -24877   -47409   -53923   -32235    12413 
   64102   113225   152547   171255   156548   103218    26200   -46565 
 -106196  -156404  -177627  -158966  -120241   -68827    -6497    46475 
   70908    61608    31961    -1938   -38171   -68697   -83879   -92070 
  -97152   -87944   -71226   -71487   -84960   -91764   -94370   -94036 
  -80628   -57528   -36849   -23125   -17377   -29246   -67744  -118625 
 -160205  -191496  -214764  -220689  -201465  -152544   -77282     4374 
   70417   113891   141436   156963   146562   103476    55980    24644 
     288    -9335    11105    45481    72403    92992   110639   110694 
   81051    36602      761   -20142   -32390   -37887   -28618    -1868 
   30947    63034    95813   122989   138578   143199   135757   119021 
   96063    61690    18036   -21185   -49775   -71425   -83953   -76937 
  -47850    -8680    29093    62158    80959    70891    37107    -1075 
  -35343   -60891   -68089   -58872   -45347   -28000    -3181    14858 
   10003   -13446   -39444   -57415   -68899   -76279   -76113   -70200 
  -62357   -49195   -31117   -16922   -10517   -10210   -15336   -22453 
  -29074   -36552   -44397   -57300   -81422  -110413  -134430  -145494 
 -133648   -97065   -46678     1972    38543    61330    67208    50143 
   11838   -35347   -71971   -87721   -82163   -46634    11400    59522 
   88663   108580   113347    97133    62178    21132    -4093   -15284 
  -16713     6798    38381    44474    30222    12505    -7099   -26445 
  -37999   -31872    -5621    28683    63489    94716   104562    84516 
   46651      603   -42480   -61892   -49094   -17848    17664    57446 
   93274   104237    89904    64251    32090     -988   -26663   -37091 
  -27915   -10056     6284    22800    36485    40151    25213    -9034 
  -41473   -59738   -74348   -84562   -81432   -71853   -63254   -51136 
  -36348   -30198   -36076   -44649   -49073   -52132   -60112   -73477 
  -85257   -89190   -87016   -86374   -90219   -95083   -96371   -89946 
  -77592   -64550   -50772   -35857   -22469   -11205    -2629     1798 
    2313    -4680   -20086   -32182   -34882   -32320   -21347    -3273 
   10412    20382    30063    29317    16410     4847     1163    -2890 
  -12428   -12795     5069    25243    40683    59147    76343    87405 
   95270    95324    82931    62124    38865    22314    17471    16534 
   14192    14486    17521    16552     9193     1289    -2625    -1433 
    7485    24468    45171    62482    68824    61630    42488    13695 
  -19109   -49485   -71270   -76208   -65157   -48033   -28539   -11664 
   -8067   -17829   -31102   -43090   -54803   -61468   -59358   -57040 
  -56705   -48982   -34847   -23498   -16417   -10995    -8106    -7915 
   -9454   -17185   -32605   -45166   -49133   -49225   -42763   -26144 
   -5559    15897    37139    49215    44544    27407     5516   -21840 
  -52038   -71301   -75829   -71973   -57499   -33154   -10463     3967 
    9913     7524    -1362   -12977   -21670   -26010   -31342   -33704 
  -21084      -58    10270     8074     2724    -4513   -16933   -39644 
  -71911   -94563   -91359   -68204   -35104     2677    37854    63983 
   78613    81352    69701    41978     9706   -10065   -15684   -16370 
  -16532   -15907   -14721   -12881   -11900   -15831   -26649   -43428 
  -57314   -56428   -44147   -27589    -4576    20974    44502    69330 
   89243    92281    78158    54280    27243      569   -19977   -25301 
  -17415    -6423     6967    22262    31077    32759    31930    25176 
