Origin Time       2021/02/13 23:08:00
Lat.              37.7
Long.             141.8
Depth. (km)       60
Mag.              7.1
Station Code      FKSH18
Station Lat.      37.4894
Station Long.     140.5380
Station Height(m) 310
Record Time       2021/02/13 23:08:08
Sampling Freq(Hz) 100Hz
Duration Time(s)  227
Dir.              2
Scale Factor      3923(gal)/8224838
Max. Acc. (gal)   107.652
Last Correction   2021/02/13 23:08:08
Memo.             
[...]
  -20001   -20574   -10196     -498      345    -1983    -6517   -16380 
  -24850   -26157   -22302   -16503    -9621       -1     7902     7962 
    3192    -2539    -6835    -7527    -3765     4116     6732    -1258 
   -9494   -10879    -7402    -4567    -7535   -12663   -13875   -12488 
  -12610   -14202   -13339   -11560   -15502   -21258   -20271   -15290 
   -9822    -4504    -3397    -3169     1502     5294     4475     3304 
    5340     6100    -1657   -11215   -11211    -6480    -5125    -4665 
   -1254      236    -9756   -22752   -19145    -4395     4822     8336 
    8488     2550    -7107   -12546    -9622    -3908    -2135    -4344 
   -5998    -3736    -1277      780     5505     6535     6817    15897 
   19700     7782    -4683    -8627    -7393    -2320     5814    10956 
    5452    -4943   -12627   -21319   -25736   -17598    -5205    -1541 
   -6382    -6914    -4437   -12575   -22195   -19618   -15712   -18122 
  -16394    -6235     3271      346   -16645   -31267   -30793   -23290 
  -14469     -641     7792     -137   -12403   -18065   -19467   -16044 
   -8785    -4896    -5525    -6228    -8127   -11858   -12445   -14064 
  -21409   -22203   -13070    -8992   -11562   -11294   -10408   -12382 
  -13918   -14698   -14959   -14254   -12015    -7260    -5629    -9389 
  -11173   -10594   -14627   -20746   -14135     7889    22291    13536 
   -6280   -21693   -28011   -25108   -15103    -1391    11333    12897 
   -1128   -16561   -19905   -13867    -6669    -3580    -5436    -8490 
   -6748    -2926    -6381   -11651    -6674     3172     2706    -8361 
  -12806    -7533   -10031   -17467   -10566     5348    15020    14878 
    5393    -3480    -3987    -6234   -13340   -11117     -703    -1155 
  -10187   -13348   -17834   -23755   -12264     4299    -1402   -12606 
   -4392     6832     2509    -3427    -1655   -10106   -27608   -27720 
  -11642     2606    13131    17625    10075    -3420   -11357   -10280 
   -1116    10370    11308     2855    -3181    -9342   -13501    -6804 
   -3881   -10125    -8972    -8797   -18117   -20615   -15637   -15795 
  -15222    -2245     8993     3134    -7256   -17818   -28883   -23101 
   -5078     3203     1921    -1703    -8414   -13861    -9713    -1213 
   -1220    -6939    -8116    -5811    -5501    -5814    -5267    -7227 
   -8020    -2775     -880    -8642   -15498   -14786   -14526   -15094 
   -6088     3053    -3159   -12498   -14808   -21200   -28549   -20542 
   -4099    -2115   -18415   -33149   -31514   -24524   -22697   -13232 
    3805     6478    -8522   -22800   -17382     5622    21470    22536 
   19203     7607    -9987   -12488    -1690     2442    -1765   -13003 
  -23830   -12899     9360     9774    -4749    -6444    -1799    -5057 
   -9745    -9015    -2215      692    -6191   -13153   -16244   -13597 
  -11296   -20120   -26044   -17643    -4823     4595     9166     9733 
     849   -16046   -22257   -18324   -14967    -6895     -850    -4892 
   -9605   -12636   -16247   -17529   -13147     3329    18855     7115 
  -11022    -8842   -12799   -26661   -17064     8318    14710     3743 
    -892    -3742   -13417   -16487   -11900    -6285     1665     5571 
   -2440   -17774   -22862    -9973     5902    15426    18562     7782 
  -12696   -26038   -25679   -11408     4999    11433    12985     5661 
   -9904   -15256   -11288   -12121   -12353      415    11531     5343 
   -3553   -10064   -18320   -19152   -11480     -253     3991    -7896 
  -19431   -14814     -403     9007     2184    -7659     -951     8567 
    3983     -878     3397      298   -12082   -10096     6968    13409 
    5308      384     -697    -4341    -5148    -7055   -15263   -22138 
  -21621   -11778     -932     2239     1444    -5312   -17023   -23498 
  -22073   -14974   -12407   -16964   -10142     8374    13223    -2879 
  -18026   -16708    -7936    -6303   -14130   -21867   -26299   -30516 
  -29594   -22540   -17872   -18328   -19400   -17832   -11136    -4108 
   -3460      756     7056    -2683   -17633   -19998   -16787   -13259 
  -10160    -9730   -12008   -22064   -33377   -26924    -6721     2965 
   -1351     1279    13500    18054    13039     1154   -17968   -29041 
  -21956   -10435    -2278     4529     -137   -13155   -17716   -16694 
  -13238    -8872   -12718   -16978   -12104    -3283      751    -6980 
  -16930   -14589    -4058     3110      201    -1387    11584    16638 
    -163    -9074      199    -1483   -21030   -24220     3636    24788 
   13477    -2612    -4043    -8052   -16762   -14458    -8183   -12048 
  -18523   -14585    -4338    -5782   -15946   -14636    -9784   -11041 
  -11697   -14540   -18198   -23288   -26685   -15140    -1220      274 
   -4336    -9790   -12657   -11256    -8294    -5670    -1100     3686 
    2141     -668    -5296   -20950   -30582   -20638    -9254    -5686 
   -5088   -10577   -24015   -29282    -8460    18166    21566    11847 
     365   -18748   -37162   -36170   -21871   -19831   -16054    10417 
   23064     5763    -6286    -7357   -11896   -12195    -2582     9144 
    9880    -8494   -23449   -12313     1912     -801    -1229     5266 
   -7337   -32668   -31950    -8552     3316     -665    -7338   -14308 
  -20575   -17672    -6951    -2689    -7658   -12696    -7149     6966 
    7595    -6023   -12796   -16758   -27149   -28321    -9528     7206 
    -124   -13034   -11782   -10793   -17840   -19595   -12563    -6393 
   -2268     4803     5557    -4433   -10131    -9116   -12105   -16490 
   -6097    17153    21826     6025    -5772   -11857    -6218     3836 
   -5640   -17508   -16983   -16695   -13965    -6292     3157    13707 
   15147     6201     3181    12933    19395     8311    -5448    -1082 
   14644    18755     -247   -22932   -23257   -11508    -3582     3233 
     989    -9649   -10940    -6586    -6772    -5881    -6642   -15456 
  -22131   -18010   -11757   -16568   -25744   -22173   -14700   -17269 
  -21397   -21334   -19669   -14050    -4298     2848     5228     3325 
   -5298    -7103     4479     4889    -6633    -9877   -14069   -21196 
  -10524    12044    13802   -12019   -30867   -25834   -15245    -4324 
    4419    -2020   -14798   -17599    -9836     1282      159   -15593 
  -21479    -9775    -4371   -17532   -26831   -14521     2768    11462 
   13173     5834    -7011   -14561   -13751   -11975   -12576   -14860 
  -22252   -30927   -30326   -18125     3541    23854    18931    -6886 
  -22225   -19510    -8827      481     5134     9356     3573   -16129 
  -26649   -17556    -1335     8052     3480    -1113     4214     1317 
  -11445   -17070   -21014   -25639   -23903   -30546   -39648   -17332 
   17367    20040     7933     4472    -7564   -24740   -30771   -27900 
  -15734    -1439     5945    15115    18150      706   -16853   -19807 
  -17423    -8984     8997    26356    22648    -6124   -30948   -32597 
  -29057   -29451   -17496     -827     -395    -9805   -15550   -13861 
   -7701    -3469    -5779   -15642   -18253    -3869     5521     1090 
   -1633    -3809   -11811   -19861   -16376    -5425    -4519    -1474 
   14127    23341    23614    17809      614   -14170   -14743   -11045 
   -5358      589    -4596   -11465   -12141   -12131    -3176    13884 
   21091     8984   -11954   -20490   -14723    -6061     5312    10084 
   -3186   -19464   -21822   -15741   -20403   -28680   -12440    13841 
   23256    19138     7256    -9526   -27193   -26910      -25    13998 
    1937    -5707   -12375   -24838   -20957    -2866     7402     7071 
   -1678   -23515   -44794   -36738    -5115     8352    -3304    -8275 
   -6070   -11826    -9471     5520    10361     -695   -15124   -22852 
  -22083   -12749     4885    17347    16741    16163    16320     1831 
  -19199   -22534   -13501   -13667   -19194   -21857   -27171   -34391 
  -42101   -43791   -23595     2315     2245    -6644       87      854 
   -8202    -3376     4889     1755      328     5710     6898     2747 
    2088     2713    -1768    -8515   -15731   -17745   -10785    -8525 
  -13140   -11565    -7327   -12606   -18497    -6529    10247    10675 
    -905   -15882   -22347   -15913   -11277    -5899     9039    15886 
    7037    -3959   -14588   -22620   -24011   -23021   -17149    -8580 
   -8075   -14224   -17899   -15188   -16363   -25336   -22393    -9664 
  -10897   -20012   -21308   -16634    -8658    -5308   -13865   -19494 
  -15974   -14459   -10827    -5711    -4872     1557     6143    -1726 
   -1837     6891     1763    -2948     8467    10793    -5734   -12285 
    1842     9229     7485    18299    28499    20132     -572   -16888 
  -15475    -6042    -2548    -4718    -4395      646    -1780    -8981 
   -6922      739     6050     5917     5410     6019    -5724   -22939 
  -21173    -3056    -2300   -26545   -26512     7929    19939     -607 
  -16248   -17787   -15164    -9039     4198    17334    15699     1428 
  -11615   -21806   -28852   -29521   -28857   -26974   -15385     1514 
    2133   -13809   -21091   -19176   -20987   -19269    -5683    10201 
    8043    -6268    -7431    -9111   -25813   -28468   -13005    -4676 
   -4212   -10878   -24324   -26905   -17356    -6426     5100     6895 
   -6291   -13666    -8901    -9794   -11940     2430    17591     5452 
  -18253   -19724    -7117      805     8168     9398      330    -2172 
    4515     8185     4657    -3256    -9887   -15711   -12671     -392 
   -5228   -16208   -10436   -10103   -16893    -6659    10820     9124 
   -5497   -10439    -8945   -12455   -20156   -23423   -21458   -22862 
  -16244     1668    11388    13933    10230    -4183   -12579   -13360 
  -20250   -25663   -26311   -30642   -26304    -7663     4186     -837 
  -14813   -18108    -3168     4249    -2929    -3919      893     -342 
   -2547    -5772   -18661   -22141    -5651     5864     7222    10565 
    9277    -3545   -12694    -4382     6905     4556    -3059     1586 
   15650    13506    -5981    -9378    11545    28645    24443    12050 
    7437     1637   -16896   -32201   -24632    -6909    -2177   -11067 
  -22758   -32163   -36018   -28783   -25324   -34985   -29681    -6507 
    8698     7454    -8880   -31619   -48339   -46664   -28817   -15068 
  -16065   -28721   -33561   -19261    -5494      770     6947    10764 
   13300    11772     3708    -3402    -7134   -12467   -22751   -24217 
  -13649   -21687   -43359   -40451   -21276   -11773    -9223    -8514 
  -13649   -18746    -9216    10849    16283     1509   -10407   -11866 
  -12648   -18882   -30969   -27465      109    19113    12244     1001 
   -1578   -13784   -31725   -24506    -2196     2581    -8849   -13308 
  -10239   -16742   -24960   -19784    -6963     2270     6197    12845 
   19367    14920     5594     5829    19369    28906    14682    -8213 
  -13967   -12046   -22608   -36768   -37270   -31064   -23294    -2766 
   17760    21906    23480    26229    23116    25431    33937    31556 
   16078    -4503   -19859   -21092   -17297   -18952   -21131   -16822 
  -13741   -21176   -28089   -27382   -26146   -26981   -29559   -29866 
  -25825   -26434   -33346   -32147   -20051   -11064    -8911    -7149 
    -916     4383    -2508    -8650      924    14130    26995    37099 
   31608    24753    30757    28869    10662    -1297     1609     7766 
   14459    23868    31808    25177    -1391   -20754   -18226   -13988 
  -11956    -5391    -6345   -24848   -46808   -48038   -25544    -2046 
    9279    18793    31691    45989    56097    48670    21242   -19205 
  -54411   -60014   -45519   -36193   -33891   -42556   -67042   -79122 
  -57138   -24318     1856    25317    29849     5683   -21193   -29431 
  -27359   -31742   -39602   -35032   -14697     8232    18112    10777 
   -2002    -3952     -769    -4457    -9509   -18285   -37218   -58714 
  -68848   -56448   -33037   -19515    -8472     5111      980    -7306 
    9217    32405    47700    58708    52625    40938    50854    74113 
   86805    81387    66780    43989    13203    -1021     1848     -175 
    3235    10477    12172    22424    27344    16850     6242    -6430 
  -17901   -22281   -22206   -22893   -39637   -65253   -84110   -99203 
  -99677   -83577   -66860   -44786   -23498   -29143   -52205   -60450 
  -53462   -52351   -62703   -63351   -39094   -16449   -14310   -15751 
  -13622   -15519   -22794   -21463    -6754    -2060   -11653    -6488 
   22280    43324    43413    51266    67968    65765    43609    17686 
    7357    15283    18328    13718    17263    29065    37203    24765 
   -6666   -27635   -19753    11303    48570    68373    62345    41991 
   16718   -10998   -43861   -71113   -66135   -34288    -6866    10415 
   21759    18782    10746    18697    34612    32917    10050   -14999 
  -32370   -43598   -43413   -31386   -22318   -31280   -51794   -62533 
  -54737   -28831     3261    18540    20727    31048    43235    34433 
   15527    19298    41480    66276    93204   105507    95354    77214 
   57271    38592    17915   -13432   -44062   -58784   -60500   -60586 
  -64061   -60427   -54118   -63756   -73905   -68895   -58124   -48466 
  -58021   -91598  -125285  -154120  -174425  -161967  -122486   -92653 
  -89232   -99554   -98969   -85301   -84964  -105452  -128225  -134682 
 -124919  -107563   -71649   -29982   -22686   -43930   -57576   -47362 
  -15518    26464    59786    69153    58927    48143    51722    66650 
   80454    92925   116368   156562   192056   203878   209363   210863 
  197140   194525   211515   218520   210193   190950   148537    92898 
   60438    61288    67736    57349    33281     4530   -28576   -57175 
  -70745   -82451  -104930  -136462  -166288  -178892  -179184  -180681 
 -186144  -193144  -190023  -176399  -171315  -174567  -170741  -163061 
 -150768  -123770  -103365  -106139  -112612  -117900  -115402   -83339 
  -36786    -9193    -9178   -10088    15326    47109    61851    70636 
   88048   105536    96834    65569    41253    32387    34884    42151 
   47980    53469    56740    50974    33691    17011    17847    38977 
   67163    77263    58162    33023    22943    18292     7697    -1078 
    3574    22288    46830    72862    87489    62492     8229   -23161 
  -21984   -22080   -19913    10048    44595    47709    28904    12071 
    7402    19600    41899    56783    58318    53960    41993    20954 
    6828      535   -14773   -32580   -38931   -39438   -46826   -73190 
 -124843  -175609  -176831  -137991  -108345   -92117   -84908   -92099 
 -100298  -107920  -125865  -145033  -138381  -101421   -66806   -52269 
  -48984   -47590   -38793   -24310     7566    67073   105096   106222 
  109178    93895    50658    25843    29299    33544     6394   -44424 
  -58006   -20757    24991    52015    43991    14111    -1119    -3156 
    -252     3385   -16517   -40265   -29207    -1402    14817    12420 
   -7739   -33168   -49623   -47452   -29064    -6876    15574    31344 
   29929    27529    55209    95908    98640    77430    72786    68855 
   49226    25196     2687   -14193   -15371    -4024    -2455    -7333 
     911     5448    -1255    -6492   -16201   -25932   -33579   -36126 
  -22512   -27938   -67895   -91615   -76307   -50409   -39776   -30542 
    2555    36995    41173    22091     2771     7163    29064    44188 
   57110    63972    48756    23348    -2187   -34762   -56452   -43310 
  -24079   -20146   -17523   -38275   -70978   -57048   -21631   -11580 
  -10914   -15692   -25810   -20034   -17636   -45662   -78225   -88523 
  -84824   -79739   -67818   -43252   -23183   -19512   -29636   -51737 
  -66434   -58789   -39815   -22314   -18995   -33091   -51105   -53496 
  -29714     2150    34414    78125   111105   111501    96866    97190 
  123639   146753   133321    97202    68897    47934    23553      430 
  -18297   -24845    -7569    22493    40505    39166    37755    39420 
   27633    13744    10748     9085     8818    21454    46380    62035 
   50692    28655    18648    16686    14713    15909    25770    36150 
   22882   -12865   -43490   -59869   -65137   -63182   -66467   -78906 
  -92697   -91114   -69086   -63887   -90196  -112332  -111512   -85203 
  -43907   -19962   -25193   -42130   -57217   -72573   -84412   -85801 
  -87346   -97268   -97351   -63012   -18517   -19523   -53720   -60986 
  -42723   -36178   -31482    -5860    18956    18180    11290    12267 
    1201   -20410   -34823   -37824   -25662    -8927     8202    40841 
   70425    65662    40041    27838    34541    48081    64893    78327 
   81738    75111    70636    83187    95239    92165    88927    77911 
   45314    15773      560   -17925   -30403   -28035   -32147   -42815 
  -31396     3601    28336    27260     4456   -28692   -43949   -42391 
  -43316   -35667   -13196     1602   -11144   -38847   -60975   -77259 
  -81360   -65389   -53728   -72935   -97652   -86560   -52636   -38364 
  -52488   -65797   -59566   -43802   -23326    -8337   -17763   -33409 
  -28717   -10674      297   -10029   -31436   -47522   -58496   -54984 
  -31000    -1381    22617    35415    43399    60312    77413    84061 
   90057    94767    91725   101609   130092   135534    91686    20322 
  -49862  -101163  -111843   -84308   -59994   -52224   -43961   -38462 
  -33515   -14021    21544    50155    42218    19446    15897    12275 
   -2679   -11065   -11846   -17510   -35483   -56589   -67821   -67471 
  -58671   -51788   -50828   -41651   -10224    36170    67899    70788 
   59424    42022    23471    18138    19399     1506   -35621   -60277 
  -48810   -17463     3202    10736     8806    -2910    -5665    19770 
   72809   114706   107126    70474    26265   -23411   -66642   -96936 
  -98281   -67333   -34749    -9876    20370    59263   100905   115948 
   84689    40725     5066   -32864   -56848   -49850   -14404    33438 
   52138    25732   -13015   -37381   -52172   -64384   -62618   -49370 
  -36910   -23400   -22952   -39251   -39225   -16673     3268    10469 
   -2810   -40178   -70945   -64628   -42912   -38404   -37598   -31067 
  -33497   -27211    -5753      805     1192    19441    36105    30113 
    9668   -12132   -22945   -21867   -28505   -42375   -35668    -6640 
    5633    -6251     2857    28375    28918    17081     1351   -33552 
  -58037   -42449   -11623     9116    19996    18040    10662     8436 
    1339    -7506   -10407   -18250   -30337   -37050   -30095   -12270 
   -7202   -16017   -22364   -22032    -9459     7076    18017    20461 
   -2107   -31133   -26504    -9634   -17231   -29898   -26226   -11753 
   10134    21863     8019   -13446   -23133   -25915   -29918   -24182 
  -11128   -14450   -36782   -59224   -57177   -29168    -2695     8116 
    3173   -15183   -33501   -32890    -8968    14488    14076     -816 
   -6421     4376    19075    21762     9274    -5391   -12148   -12164 
    3859    33322    38473     2133   -44728   -53796    -8010    44703 
   58603    48382    37466    26188     8444    -9328    -4297    22586 
   38543    28483     4579   -12514    -9934    -9019   -24702   -25998 
   -6594     4658     1248   -20209   -46372   -34021     2604    11643 
   -4911   -28800   -47125   -39800   -16568     2841    15630    16829 
   11754    18148    31808    33574    18689    -8205   -36022   -40192 
  -13171     7817    -1223   -19178   -34981   -42525   -30075   -12569 
