Origin Time       2021/02/13 23:08:00
Lat.              37.7
Long.             141.8
Depth. (km)       60
Mag.              7.1
Station Code      FKSH10
Station Lat.      37.1616
Station Long.     140.0930
Station Height(m) 364.4
Record Time       2021/02/13 23:08:15
Sampling Freq(Hz) 100Hz
Duration Time(s)  293
Dir.              3
Scale Factor      2940(gal)/6170270
Max. Acc. (gal)   38.946
Last Correction   2021/02/13 23:08:00
Memo.             
[...]
   93471    87704    83101    85589    92480    99533   102621   102810 
  104757   108960   114596   119109   117091   108712   100069    94606 
   92529    94388   100645   109429   114848   114509   112990   110189 
  104758   102343   105602   108031   102062    93128    91825    94088 
   93498    92805    94575   102202   112533   113375   109598   110373 
  104358    95135    98513   102722    99858   101405   106185   106719 
  101096    95555    98244    99720    95007    94149    97185   103042 
  109734   108555   103958   102517   101649   104408   111851   114348 
  106848    97020    94281    97994    98791    94641    95116    98297 
   94923    94256   103223   108151   102450    95847    93965    92915 
   91070    92177    96107    97499    94820    93441    97067   100561 
   99063    98301   104428   109139   102371    93771    94938    98849 
   96350    89838    88076    91262    92024    95472   106194   112562 
  109195   104853   105112   106130   104709   102987   101095   101570 
  109226   116348   115175   111876   110660   110165   111391   111697 
  104949    95804    93834    95603    96979   100971   104053   103391 
  102540   100763    97205    96068    98892   101795   101378    98338 
   95223    95742   101224   104991   102856   100575   100079    99061 
  100109   101968   100755    99182    98212    94932    92044    94481 
  100491   104938   104596   100690   100494   104860   104325   101048 
  106078   113904   113814   109695   106132   101148    98439   100191 
  100067   100267   106693   113926   116241   112943   109053   112225 
  116316   110967   102133   100829   102900    99973   101648   112785 
  116728   109886   105352   105161   102455    97710    99334   104861 
  101605    92974    93186   100540   102774   100106    99676    97608 
   89658    83310    86069    96863   106432   103928    95172    96026 
  102631   102506    99107    99314   101108   101193   101922   103011 
   97805    91157    93812    98672    95678    91007    91891    93558 
   90765    90560    96216    98513    99302   105003   109311   107637 
   99681    90362    89701    92196    87460    84266    92513   102908 
  104601   100903    96168    93236    96417   100665    97541    89895 
   88265    93420    97269    98009    94659    92195   101181   109029 
  101078    92232    92155    92097    94638   104068   108568   101024 
   93446    96435   101511   102387   106315   109123   105556   108623 
  118288   117346   107269   104049   108499   109302   105123   100231 
   95125    93453    97945   102185   100103   101234   113221   119380 
  110217   102041   102946   103861   103175   106687   108794   102548 
   98313   105130   112481   112486   112064   113200   113941   116018 
  113309   102562    92934    89373    92363    97291    94178    91913 
  104018   117344   119242   119009   123640   125501   120623   120265 
  126768   125191   115051   107369   100455    92741    89227    89080 
   90309    94527    98765    97784    97715   103193   102397    99269 
  110261   119268   108162    94339    93498    97721    97745    97028 
   97683    92056    84949    86630    90117    93730   100769   100682 
   94891    97528   102799    99571    98153   104208   104219    98662 
   98102    96972    91491    89700    94005    96998    92134    87353 
   91035    91666    86093    89405    98747   100827    99167    97925 
   93735    93470   102866   110044   108281   102643    94805    91872 
   98236   101315    96281    93015    93799    94285    93150    89579 
   87024    90231    93778    93433    92975    91353    88576    91008 
   98528   105272   105593    99278    97646   105292   111604   112205 
  112519   114795   114955   109763   104680   105866   107900   105764 
  105082   105727   102741   100003   100859   104235   108997   111235 
  109005   106445   106172   105418   103742   104225   105928   106272 
  106259   106786   106374   107232   113369   120153   121032   116725 
  110116   104204   100405    99102   102317   108014   111567   109478 
  100898    93933    96015   104262   111682   111689   103942    94206 
   90079    94692    97789    94743    96472   103224   105534   104452 
  107006   112567   111204   101218    97012   102247   100642    90099 
   88623    97282   100354    97724    97563    97531    96730    99572 
  103705   105207   105014    99074    87918    86020    94668    99968 
   99729    99543   101371   104632   105640   102044    96517    92448 
   91541    93310    95926    97256    95005    93906    99148   102746 
  101340   103311   106831   107033   108939   112000   112729   111248 
  101477    88290    87931    93455    89196    81348    79374    83698 
   94671   105820   107484    99310    85653    76681    79465    84235 
   86152    91399    98698   103449   103495   102211   108311   118218 
  117249   106457   102143   107649   112307   112802   111756   103055 
   87092    83404    93696    98636    99390   105689   112563   113204 
  109065   107308   108894   108785   108732   112081   114749   110284 
  100135    96000    99341    97885    93490    94199    97669   102933 
  107756   109329   109560   109159   108115   104627   100576   102535 
  109210   112871   108371   100177    97141    99087   101255   101876 
  101424    99729    95849    93674    95110    95038    94804   101807 
  111130   106251    90156    89873   108758   119939   114711   106203 
  101010    96810    92034    91837    99341   105124   103708   104620 
  109314   108172   105280   105110    99909    91723    86942    87259 
   95740   105649   106487    98181    85661    79618    86289    93250 
   94499   100920   107728   100930    89569    89321    98607   104814 
   98030    88317    94164   106977   108620   103086    97445    92614 
   92789    98691   106467   110708   110076   109721   106973   100094 
   99109   103841   108020   110760   103681    89651    90820   107475 
  117164   115033   111057   106426   102509   104765   106494   101944 
  100486   104545   108220   112046   110860   100586    96489   105950 
  113364   111837   108971   105529    98878    96443   101800   102123 
   98243   106441   116147   109780    99317    95967    95446    97097 
   97266    91581    87645    90311    94680    96681    96747    97539 
   99341   100696   101699   103238   104323   103410   105974   113959 
  113786   103006    98846   103394   104739   102727   101316    99739 
   94537    84037    81828    95711   104471    98202    93255    95132 
   98300    98668    94421    93326    97542    97997    95883    95772 
   93816    90955    93805   101665   105482   102662   101976   105830 
  107740   106203   101944    95373    91990    96029   104330   110301 
  110973   109341   106875   102815    99789   101039   106768   113161 
  115252   112033   105326    99506   101187   107694   108104   101197 
   95078    97500   107853   113434   110356   108135   104732    96298 
   94146    97465    92477    86655    93169   104771   111045   111076 
  107873   103975   102973   107183   106339    94105    86153    88627 
   89011    87453    88766    87405    87810    97000   101508    96119 
   97680   105538   103286    93699    90899    96215    99934   100154 
  104836   112733   115644   113331   107523   101246   102538   108379 
  107889   103603    99606    94463    95232   101476   100972    94176 
   86778    78482    75084    83380    96341   102968   105158   107132 
  104742    98352    94503    97153   105958   114684   117323   115102 
  114439   120181   126226   122426   109992    98825    96062    97953 
   97236    95699    94849    92648    94392   104641   116507   119027 
  114074   114331   116092   108490   100950   103772   113875   123886 
  123229   112491   105657   105840   105618   105467   109769   112295 
  106963   104572   110057   107538    94883    88601    89722    90658 
   91898    91051    88560    91476    96501    98252   100166   101326 
  101141   104527   108164   105624    98356    91634    87122    81684 
   77725    80778    87366    94031   101121   102685    96105    91086 
   92950    97694   105484   112704   109391    97429    88779    92843 
  104525   107961   103642   103703   105517   100555    92591    91325 
   98406   103719   101249   101855   110847   116250   113669   109468 
  105951   104704   107642   112244   112951   109871   109857   109168 
  101665    94643    92252    93587    95340    90565    83938    82864 
   85603    89224    91460    93970    98196   102087   106219   106658 
   98810    91035    90049    91198    96835   108070   107282    91070 
   83452    94653   106643   104101   100099   108752   114886   108942 
  106649   112286   110897   101094    98549   103118    98948    89892 
   91707   100317   104745   103804    97600    93079    99853   106763 
  103648   106575   120400   127124   123750   119641   113387   101972 
   93402    95064    97219    88091    78406    80189    85938    90323 
   91161    86569    90855   102386    98369    90006    98186   106672 
  103736   107030   121019   123755   111915   109048   116879   115195 
  105474   103079   104922   101436    97849   102132   110989   114294 
  105245    91186    88403    99034   107710   105056    97737    91788 
   90075   100016   112456   110355   106210   112788   115498   106992 
   97917    98078   106738   111409   105226    99063    97810    91791 
   86951    95450   105863   108159   109777   112525   112405   111437 
  111014   109620   107839   106236   102771    93412    82621    81908 
   88227    95646   108092   117478   114085   106374   101242    99229 
  105667   116425   118454   111883   103945    97431    95596    96685 
   93193    88347    89475    90060    87040    88607    90448    84057 
   78392    81364    89081   100839   110367   108757   104445   102922 
  100874   102168   106900   114549   122738   116323    96376    86777 
   95238   104847   102539    94971    94175   101493   110259   112832 
  107150    99548    96769    99755   104423   106667   106418   104260 
  102070   101640   100804   102824   111152   116574   115264   117143 
  120610   113371   101934   100583   104273   103854   100011    95883 
   93029    88487    85520    93728   105556   107489   105379   108825 
  111847   105033    93419    90483    98668   105368   100519    93755 
   95945    96932    93478    97269   102775   101766   100690    99249 
   93709    89275    88159    88803    95815   105230   102623    97002 
  104963   110881   103728    98365    97704    98373   103464   106720 
  103123    98832   101142   110479   117926   116153   105820    92596 
   87782    93912    96507    88203    79123    77741    81908    89821 
  103076   112890   110567   107449   112478   117506   118469   119097 
  120988   126718   135780   136493   123172   109001   104269   102710 
   97144    90622    88604    87392    82727    85501   100793   109063 
  100246    89909    88271    92834    98374    98715    96140    96366 
   99525   103673   102018    95951   100367   113960   119616   113012 
  101074    89690    85350    87868    84450    74102    72714    81785 
   92444   103350   108106   101830    97292   103840   113155   119432 
  124701   124725   115258   103288    97601    98578   103178   110768 
  117194   115954   108852   101750    99708   105581   113230   118382 
  123243   124286   119736   111652   101438    98771   106541   110094 
  105672   104307   106502   104574    95711    83151    75317    78577 
   91540   103591   100518    87178    84976    93794    93368    86622 
   91592    98311    92055    90591   106562   117223   110237   105724 
  107329   101423    96344    98185    97671    94328    86779    76535 
   75358    76989    73518    80167    97122   102108    92383    86430 
   91883    99449   104717   112604   119830   118672   110930   101027 
   90575    86917    98339   115377   121160   115211   105524    97481 
   94959    97026    99720   101368   104630   114865   127930   129276 
  119937   116333   116213   105306    90068    86756    94752   101783 
  104059   108390   112903   105445    90698    87268    94510    99873 
  102457   104018   106485   114610   124490   129902   129303   117663 
   97757    84863    81288    78357    81928    96789   106798   105528 
  106237   109010   109051   112878   115380   107757    98723    93338 
   86089    77104    68266    63593    69792    84085    98969   107846 
  105945    99342    98330   101479    96338    82186    78785    90368 
   97500    97769   101218   100439    91115    89514   101868   112169 
  111170   104104    94450    84755    80094    78650    73023    64548 
   65553    81880    98029   100993   105411   119971   128346   122764 
  111467   101402    96246    97535   100124    96988    89972    85538 
   86758    92166    96405    95198    92788    98363   105581    98618 
   88416    99484   126065   144708   149505   147278   140083   130269 
  125350   124832   118911   106177    96962    95193    95312    97219 
   99232    95774    94109    99063   106093   119688   133814   133152 
  129497   138261   147301   142771   129418   116866   106544   100386 
  103271   110432   115744   120231   123258   125214   126918   124933 
  120511   115594   107796   101078    99133    98097    95396    90514 
   83616    73839    62545    58363    57944    51058    49757    58470 
   61074    68807    97129   122410   124882   113851   100028    84234 
   65878    47192    28232    19478    34630    54215    58452    63770 
   81444   103580   124681   139773   142666   133134   121096   116572 
  117718   114479    98828    80712    75451    74689    70432    71640 
   74807    73313    76301    85885    94539    99517   101599   105298 
  114294   126985   135712   130227   116054   110970   118057   125016 
  124392   118932   114337   117880   129838   138008   139297   143844 
  150161   149836   148162   149445   143584   128209   117583   119426 
  123860   120575   112688   106428   100671    95362    94761    97683 
   99299    98870    97056    97247   102757   105211   102327   105891 
  108622   100551    99923   110025   109287   100640    99869   100387 
   94953    92261    94271    96529   103993   112183   107026    92377 
   76093    59941    54031    59821    63084    60599    62362    67880 
   67213    63177    65238    73265    84711    92009    85611    75345 
   71995    68452    66650    79562   100764   109048   101918    95519 
   93891    86771    77163    80760    93942   103984   118150   139602 
  154177   153915   142613   131829   128662   123621   111247   102852 
  102107   102922   105498   105315   100069   101437   110810   121101 
  131997   140200   146270   152286   150100   140353   132246   130152 
  136832   143455   138799   130380   123887   112945   100944    95862 
   93710    88868    84721    87724    97145   105339   110975   115119 
  112016   104859   102863   102616    97330    86941    75962    66959 
   58979    55303    57229    61746    66571    66761    65482    73913 
   90059   101239   100905    93109    85433    80151    77449    79700 
   83351    77315    60415    47477    47335    50696    48000    48183 
   64672    86301    90565    78911    69851    73584    86074    96876 
  102435   102161    94400    89734    94221    93965    85517    82875 
   91867   102307   100391    90092    85740    87273    90816   100778 
  118833   138239   149762   152765   153897   156381   157841   152438 
  139071   121696   107327   108748   122404   132154   138973   143856 
  142771   142278   139945   127898   114314   107850   107223   109967 
  115710   123528   127623   125647   119890   110365   105631   110325 
  112538   112999   119228   120164   109082    98388    97430    99528 
  101086   107014   106962    95149    90000    97947   109249   116277 
  111920   100266    93195    92918    94402    94217    94831    97023 
   93681    85484    82610    85383    88813    90576    85751    78708 
   75932    66961    50452    39733    34249    29562    29032    36877 
   56429    80719    99824   112526   117706   118948   120603   118537 
  112238   100258    81853    66730    59476    61506    73295    83788 
   89837   100654   115185   122959   117833   105966    95227    84650 
   81002    87927    95968   110723   128538   127329   117659   117258 
  119755   125474   131845   129434   126201   129394   130615   124076 
  118381   122202   124645   115196   106069   106704   111657   120067 
  130536   133642   125597   113166   108337   111046   107451    99749 
   97627    96244    96566   103083   108197   107153   101332    94359 
   92895    96996   102821   110719   121939   134313   137674   126637 
  111137    95067    78353    71925    75511    81859    96813   115728 
  124488   124171   120797   117089   112510   105829   104367   109450 
  112856   116190   117353   103685    85009    83579    90856    87837 
   76954    65605    64422    82270   103505   112315   112063   108203 
  106537   106872   102403    97997    99267    98449    91548    83556 
   75951    72802    78071    77915    68338    73771    99520   121478 
  128528   124596   111588    97337    88800    78885    69918    75466 
   90251   103954   116518   122909   117655   104978   100541   116016 
  135743   141668   140988   144074   149288   148401   133081   112028 
  104663   107765   104085    95376    94442   101921   108203   108915 
  108247   108461   110440   121465   141966   154678   146507   126651 
  112499   108602   105630    98033    90643    84883    78487    76468 
   82656    91839    98826   104229   110125   113990   111189   100786 
   90869    93471   101862    98418    81705    59242    41558    37739 
   38140    32717    33748    50777    71279    85498    97998   105572 
  100099    88306    79212    68781    55056    49194    58828    75206 
   85021    86306    86717    87509    81745    72798    71447    78645 
   91614   106266   115517   120803   123651   122028   123193   125558 
  120850   118101   118288   114235   117582   131179   143689   153018 
  155667   149737   141257   134303   132501   131323   124520   120404 
  122021   123810   127592   131537   131809   133887   140913   147777 
  148097   142394   139914   143312   143115   135163   125490   118457 
  115353   117831   120193   111652    96431    88387    87862    90349 
   96205    99903    97088    91447    84877    80860    83325    87315 
   93601   106159   110148    95859    76851    62460    55094    60240 
   70860    70421    58643    51283    57328    70915    79474    75981 
   64851    51618    41962    48468    68887    79858    76754    77114 
   82762    81908    70459    56509    52350    54841    53457    50696 
   54348    70849    96856   113845   114327   109050   100873    90212 
   87458    91752    94082    95795    98431   100724   102345    99873 
   92500    86831    88853    96857   105796   113790   126541   147610 
  160555   152665   141501   142833   147667   145524   140582   139718 
  138353   131324   125288   124791   125187   127102   136273   147776 
  150998   145007   134252   119810   104272    99603   109755   113645 
  102753    95249    91588    85973    91241   103693   109122   113163 
  117182   112057   102301    97810    98094    98263    93803    82319 
