Origin Time       2021/02/13 23:08:00
Lat.              37.7
Long.             141.8
Depth. (km)       60
Mag.              7.1
Station Code      IBR013
Station Lat.      36.1587
Station Long.     140.4892
Station Height(m) 29
Record Time       2021/02/13 23:08:20
Sampling Freq(Hz) 100Hz
Duration Time(s)  240
Dir.              N-S
Scale Factor      7845(gal)/8223790
Max. Acc. (gal)   289.968
Last Correction   2021/02/13 23:08:20
Memo.             
[...]
  -19518   -18172     8581    42790    54927    43317    19728    -2628 
   -8540     6907    30532    43390    39405    26302    13973    10600 
   15601    18227    13859     9414    13441    21814    20903    11931 
    4483    -3241    -9911    -6386     5657    17386    25579    32680 
   44448    56012    49883    26445     6660      496     3650    10933 
   15423    12761     8630     9610    10542     2165    -8710    -5367 
   10959    25705    37388    50977    60891    59842    43044    14347 
   -5597    -9915   -10179    -5422     6118    19786    34811    44388 
   43881    39613    33419    20155     1521   -10118    -7668     6389 
   32252    58487    61310    41499    15862    -8476   -20873   -16505 
   -6316     3827    11284    12787    15237    31005    60116    78545 
   63944    26962    -5088   -16152   -12181   -12301   -18031   -12602 
    8534    36822    58384    57773    40770    29080    27317    25220 
   18995    13074    12528    18042    22412    15538     4618     9929 
   25185    25419    13109     8224    14331    20989    19368    16328 
   29272    50444    50074    28264    15284    22341    30553    22605 
    3033   -14353   -21313   -18959   -15358   -10296      469     9594 
   15566    29565    52203    68126    67938    61956    58452    50511 
   35298    18338     3451    -7530   -11493    -6342     -390    -6586 
  -18515   -18867   -10193     -391    14466    30204    39849    52519 
   74547    89984    80792    52882    26256     7033   -10288   -18095 
   -6858     6208    -2038   -18708   -15236     2754    17436    36990 
   64836    78526    66097    43646    30364    32252    40122    33867 
    6404   -24641   -41949   -46117   -41272   -25273     3769    39954 
   66228    71679    66823    64123    61620    51081    26802    -9447 
  -47768   -74738   -81074   -68000   -41316    -5907    30426    60362 
   86026   111578   121784    94490    41088    -4152   -28850   -43310 
  -55371   -61705   -54718   -33895     -595    44398    83323    97195 
   96560    97295    90038    60805    18328   -15830   -38011   -58492 
  -67626   -52116   -24132     3169    27449    48479    71911    95323 
  103891    89611    55190    14519   -12999   -25643   -37827   -52605 
  -53310   -25286    13273    25647    10867    -2749    -1409    20422 
   59832    90159    91839    71721    37575   -11265   -61956   -85297 
  -75343   -54143   -26527    16984    68027   109291   127981   112166 
   65778    15003   -23244   -50855   -66459   -61842   -35100     1675 
   29305    37813    40254    56662    76972    78678    63278    38878 
   13132     -874    -5154   -14693   -33508   -44984   -27851    13821 
   51445    61911    51632    43559    32938     -103   -40302   -59370 
  -53701   -30057     5919    45547    77016    89746    82811    64093 
   41501    20455      869   -25050   -56501   -72519   -56609   -20598 
   11732    32805    49265    61545    61855    47605    28059    15888 
   17382    31750    43879    33581     3145   -24856   -26145     4303 
   40755    56795    50831    34812    24036    27642    35957    35884 
   28102    13228    -5152   -11550    -9811   -19777   -33427   -30948 
  -12033    14851    36428    46990    59722    76677    86890    87961 
   74038    44385    19226    15813    28972    37447    32167    25879 
   20722     8141    -5316    -9188    -6999   -10612   -22164   -30194 
  -28314   -21624   -11716    12907    56957    98082   115123   114615 
  109011    90614    44269   -14293   -50491   -59867   -62186   -68791 
  -76068   -75250   -56848    -8833    59637   114269   139815   145575 
  139253   121965    90637    48973     4743   -41088   -80117  -100338 
 -103231   -89230   -53670    -4791    37619    63238    84304   107893 
  114010    92395    59501    29527     6065   -12514   -26067   -23877 
   -7283     8480    28803    55584    61414    33124    -6354   -26414 
  -25006   -23175   -16623    12148    47806    69372    82582    90976 
   81787    59262    48531    51964    37986   -12306   -75363  -114484 
 -113672   -81309   -41890   -14278     5821    28879    58017    91328 
  113351   113000   103152    87191    52004     3856   -35274   -48392 
  -31758     1109    30238    33998     4671   -33130   -54603   -56176 
  -37503    -3962    30464    57662    74339    77376    69957    61264 
   55906    42264     8495   -28868   -45018   -39411   -24474    -3858 
   24031    44194    33721     5792     -697    23283    57281    73710 
   46731   -15666   -72912   -94050   -73688   -29540    17608    67109 
  118127   152869   158399   137317   103187    61792      843   -70183 
 -115426  -115306   -77337   -32611    -1212    28718    52257    54276 
   53723    69435    89922    98442    90432    68640    36282     -959 
  -37192   -67394   -79265   -71346   -57454   -37551   -19103   -22771 
  -32198   -13613    41580   114048   159538   152367   107102    50658 
   13163    -3281   -35127   -84292   -96850   -52543     1042    35985 
   70191    98001    91878    52539    10246   -14072   -31853   -42992 
  -22751    17062    38811    41391    50714    73446    86309    73163 
   48643    25014    -3593   -30289   -31738   -11207    -7765   -37206 
  -69687   -80287   -67176   -34264     1386    18274    24871    54164 
  116024   172168   175633   128633    72084    28310    -8812   -41312 
  -57001   -48150   -28894   -21409   -26041   -29677   -26611   -13485 
    1152    -4727   -26319   -30735   -10665    11565    29712    54970 
   81014    83367    67917    77714   112163   123650   102147    63386 
    9779   -45044   -75890   -71868   -49366   -33151   -24451   -17521 
  -14908   -10534     8488    50055    95474   106602    83722    61977 
   55316    52280    39603    19904    12218    18827    24069    28553 
   30719    16140    -7177   -21681   -29431   -42654   -65407   -81548 
  -65092    -8101    56079    77268    53050    25100    27330    65419 
  107090   114497    95307    74331    48980    12123   -26685   -55534 
  -62664   -38460    11219    58172    68037    41642    15665     7939 
    5421     8203    19873    21961    16627    22437    34923    43229 
   33485     1624   -22542   -15385     7304    16659     6933    -4222 
   -5331    -1884    -4176    -6304    13765    55015    91692   109449 
  100233    59911    12746   -13633   -25728   -39847   -50684   -43542 
  -24760   -19408   -32580   -41413   -33399   -19071     4725    54430 
  118852   168762   183706   157663   104387    42431   -16758   -65053 
 -105239  -138322  -146191  -124317   -92398   -47453    21726    93428 
  151858   197860   216500   192620   125288    33238   -47960   -99295 
 -123022  -121282   -83242    -1971    84025   123458   120006   109059 
   95972    55296   -14184   -79062  -115047  -117015   -99663   -81369 
  -47283    18276    98722   164289   185893   162382   120475    75292 
   26655   -16722   -30792   -13946    -1937   -13583   -29891   -21956 
   20588    66745    75917    44045    -3261   -37905   -57304   -75825 
  -87793   -77340   -38623    23877    80586    98338    93297   108803 
  147584   172184   155580    98242    17660   -56239  -101568  -125655 
 -146175  -162064  -153504  -106879   -38128    18581    51252    81685 
  120931   145463   142369   129902   118411    98794    69557    38196 
    1146   -43696   -80495   -97029   -93629   -71840   -32790    24220 
   90826   144510   170035   167431   140957    95366    35617   -33450 
  -91767  -111638  -105916  -107667  -104495   -73971   -26354    32771 
   94031   134848   162608   183809   172197   113067    18387   -75324 
 -119518  -109576   -88670   -80794   -65155   -20478    33790    56775 
   47826    45802    64984    99828   137407   145663   122971    84342 
   22646   -42377   -85374  -128587  -183949  -213179  -182314   -86877 
   53531   175424   213638   179274   131815    95077    64492    45428 
   37656    42006    62707    86765    87745    42537   -33427  -102878 
 -150638  -172189  -172903  -153107   -93537    -7150    68353   131568 
  189676   221343   215981   194718   166086   107666    18424   -64191 
 -111345  -128466  -142326  -161308  -163206  -142229  -112237   -65572 
   11049   103619   176256   209906   221267   203960   131989    40879 
  -14485   -33621   -33574   -15214    13875    36139    53821    71841 
   67269    27278   -25741   -63427   -77396   -76019   -68960   -57296 
  -25479    23697    52536    54410    59657    81727   114274   145632 
  162387   153692   120384    64983   -16561  -108017  -178275  -212172 
 -205333  -161006   -89581     4126    97582   145523   132348    89073 
   58301    54664    62247    70781    70380    36944   -22742   -73824 
  -94949   -71771   -24466     1877    17460    51070    88746   107065 
   94613    56959     5521   -44814   -53717   -17717     2227   -11803 
  -19984   -16540   -22211   -32934   -34472   -12942    42955   114916 
  168712   185206   157647   102818    52155     9153   -35100   -71417 
  -88452   -85525   -71833   -51633   -15990    32266    76414   107789 
  128000   139758   129211    77325    -1490   -67776   -93113   -77658 
  -45724   -10708    43703   112815   151150   144200   120081    88843 
   35417   -45866  -126096  -161173  -135190   -68183      946    41145 
   59599    85889   114102   113031    90062    69908    46909    14482 
  -18797   -47906   -65782   -65273   -38261    26030   107219   152010 
  130623    64231   -11048   -76634  -125821  -150666  -145183  -110959 
  -42053    51386   118930   137392   126253    91210    37636   -15147 
  -60648   -96095   -96303   -35749    64665   152540   204984   228687 
  213655   145519    43542   -54803  -123327  -156105  -162209  -144292 
  -95269   -22403    49994    94178    95000    76797    71255    63104 
   36751    10507    -6100   -14844   -19161   -16923     7302    41962 
   51988    36767    25409    21289      222   -26730   -14026    40311 
   89856   104545    91839    72716    60609    60777    67694    57183 
    8606   -65662  -125123  -133135   -93507   -32221    50592   142453 
  190787   173481   122454    72944    25690   -29006   -74497   -96882 
  -98771   -89830   -87187   -89525   -83056   -60172   -13813    49293 
   95454    97992    84404    85135    79105    50546     6789   -39769 
  -61992   -52186   -24092    15044    43012    46221    44265    43607 
   34187     9008   -37237   -77966   -68003   -16382    25446    43714 
   60508    78193    89846   104737   119853   116945    91142    49053 
    9441    -4198     4644    14778    20471    26318    28181    24437 
   25547    26121     7279   -23148   -47923   -69213   -85915   -86549 
  -60130    -5665    54861    96589   115404   116380   103508    79926 
   49665    27112    23519    28845    31833    22978    -6008   -37632 
  -49119   -37373   -11535     8244     7433       44    25357    97833 
  168983   181611   118835     4558  -104085  -163723  -174372  -161848 
 -140267   -82254    18436   103226   129543   114161    91461    79343 
   77942    77498    58565    17973    -6511    14851    52564    65323 
   47582     6755   -36381   -54410   -49013   -32884   -16471   -17539 
  -32987   -28013    17980    72797    95658    91790    72967    33007 
   -8696   -25293   -24090   -15001     2042    14331     9736    -9952 
  -29268   -27224   -11951   -12050   -17235     1368    38047    83201 
  125231   128181    95893    74838    75149    79845    83868    81897 
   57450     3150   -60436  -108209  -128308  -118616   -91677   -58764 
  -17216    29528    63618    75132    77720    81162    68401    33016 
   -3539   -33187   -62588   -79363   -59270     -683    65755   106006 
  113242   107211   100619    79304    40946    17668    24628    42161 
   54718    51648    31403    16497    21271    33511    32972    12591 
  -15865   -44666   -74398   -92407   -82309   -44273     4779    39619 
   53865    69286    91578    97345    82822    65618    45528    16533 
  -11439   -28071   -36045   -39833   -31622    -2029    35307    52249 
   46692    36208    19051    -2929    -7632     2542     6471     4503 
    3785     1374     1715    15021    31167    34349    32687    41195 
   65225    97528   118812   121011   109302    83416    47128    11048 
  -25749   -67039  -104117  -118343   -95076   -55701   -32028    -8688 
   31534    66268    82578    89295    92958    96345    97077    88094 
   67163    45846    39604    49797    56812    27919   -35402   -81333 
  -75841   -43497   -30279   -41276   -37072     -179    50595    86281 
   76944    26226   -28636   -59240   -58657   -43918   -38724   -40888 
  -30433     2436    47868    86848   107131   101329    67525    27013 
    8760     8862     4048      781    24888    71747   107661   107208 
   76194    43579    19724   -12262   -52078   -75514   -75284   -71379 
  -73865   -67672   -43433     5443    93032   188217   224985   195000 
  130827    43950   -39622   -85239  -103331  -117787  -123526   -98051 
  -38052    29459    82055   105021    95334    86026    93784    84947 
   36171   -35748   -92659   -99364   -67551   -45951   -44086   -30037 
     503    20850    22000    13759     1485   -10836   -17194   -10574 
   16646    58228    94409   116322   128393   128992   112494    88381 
   69778    46518     2878   -52145   -88454   -85202   -66640   -67338 
  -72590   -57322   -21321    31982    87516   134086   185830   235275 
  244086   199341   121351    31376   -61788  -154562  -234404  -283504 
 -286258  -238314  -151524   -28275   120675   235657   281306   295845 
  287601   228448   131927    10162  -113633  -181525  -193573  -187093 
 -156702   -81365    29092   128532   168858   139001    74148    19106 
  -13154   -22189    -7607     8498     7157      681     7663    32219 
   56897    61850    51459    34983    18739    10346      874   -14396 
  -10161    27151    66772    72932    47348    16529    -2417   -13821 
  -33810   -60015   -63009   -37773    -9466    27949    90768   156714 
  199044   203366   158696    72813   -28163  -108742  -151293  -175162 
 -189018  -171251  -115700   -34036    68493   176850   262309   304258 
  294023   234770   149424    66356   -12483   -96291  -170078  -204404 
 -180114  -114839   -56606   -27576     -807    54499   124285   167579 
  158680   111289    71072    48567    18146   -11998   -23859   -27405 
  -31376   -32580   -32292   -40298   -55283   -66150   -67782   -50827 
  -19620     4901    26400    54928    83898   111998   133585   138717 
  133637   122241    98408    59513     6461   -48276   -88495  -114706 
 -124857  -104712   -62797   -27311    -3936    17176    36018    52763 
   70383    85988    95592    93278    76601    58700    41467     4325 
  -49064   -87239   -91588   -70276   -49323   -37449   -15901    22624 
   66015   100731   117741   120394   120492   120366   107265    74403 
   36394     7817    -7731   -14824   -28728   -47515   -47858   -29089 
   -6282    18493    37592    45188    51279    51004    33228     3079 
  -31816   -56454   -55312   -32074     1642    25834    21689     6490 
    9242    26304    43013    50290    36749     9973   -14872   -41913 
  -73047   -97721   -96931   -53677    19870    90532   136981   157154 
  150201   112180    47952   -27814   -90868  -119908  -116563   -97811 
  -71321   -32610    17122    73325   129672   169136   180269   165109 
  129880    80989    16170   -57920  -105923  -111025  -103486  -105166 
  -96314   -51363    21929    93217   143193   165257   162830   151370 
  134481    97287    35078   -33566   -79716   -90175   -80936   -69048 
  -55456   -33956     6353    60377   106461   132160   136092   127894 
  112207    77870    27175   -18991   -42938   -48336   -59022   -78155 
  -81001   -58980   -22071    25976    80048   121490   134958   125051 
  101741    73143    52234    37920     7280   -48361  -100433  -119800 
 -109603   -78624   -28491    30588    87840   135927   168913   176986 
  139463    62807   -11749   -64341   -96541  -109742  -114875  -113431 
  -92605   -48470    12051    73229   119487   145724   151059   136985 
  105476    60546    19229    -3551   -12208   -14673   -13300   -14126 
  -27912   -54149   -70698   -57404   -21413    13475    24471     5476 
  -21683   -37524   -40062   -19380    20563    48713    60589    78556 
  101000   108211    88036    41297    -9018   -38234   -50701   -58812 
  -60928   -49952   -22204    15202    49342    74193    93325   113505 
  131811   133362   108263    61720    10188   -23573   -35243   -49073 
  -73967   -88668   -79134   -51038   -18111     8955    32296    55972 
   76605    93102    98733    81483    52273    35762    36597    43047 
   42048    21189   -18399   -53735   -66951   -66162   -60486   -45029 
  -19195    14416    52363    81969    99921   110917   104329    73845 
   30595   -17108   -59366   -79829   -72176   -43314   -11468     9090 
   24899    38199    39505    33562    27179    14013    -6463   -16291 
    7477    57048    95851   109069   105713    96611    93441    86062 
   50907    -8125   -61560   -84350   -84223   -83775   -75431   -42348 
    7366    62360   113849   143872   148706   137442   104465    49279 
   -5464   -39513   -49923   -42884   -22698     9771    42334    54949 
   48861    43773    47452    48516    28578   -16143   -67112  -100867 
 -101895   -79218   -60523   -50103   -32684    -4010    34812    72411 
   89881    93528    98794    96603    74541    40948     9555   -16929 
  -41177   -61851   -74090   -74995   -57873   -15138    41397    86695 
  104392    93409    62903    24997    -3427    -7677     5902    14087 
    6416    -9460   -27658   -39360   -31106    -5894    19880    43247 
   66771    72963    55459    37732    32751    39461    55235    60120 
   36441    -2987   -29835   -23240     7257    27832    31044    34996 
   38485    30138    13123     2374    11510    33988    50882    46137 
   12870   -23726   -26919     2049    37243    59892    59799    38200 
   12096    -4452   -15284   -20364   -18138   -25189   -41777   -44123 
  -26019     -966    21143    45227    79778   115983   137231   139985 
  126779    94612    46620     1694   -23036   -31837   -39911   -47206 
  -38577   -11448    16843    33623    44938    62392    83228    87340 
   61997    23224    -3302    -8627     4556    27280    47148    59013 
   54642    25064   -15028   -42318   -51727   -47993   -37280   -27742 
  -18393     4197    46070    87484   105239   102423    88024    59718 
   20891   -14180   -31098   -31021   -30137   -35023   -37385   -29192 
   -8020    20559    45230    61200    72152    79932    78707    59401 
   25648    -3321   -17108   -20083   -12415     5441    18495    13946 
   -1317   -20688   -48019   -72150   -73589   -52967   -18617    24044 
   64420    90320    96174    92723    93198    88909    64054    23031 
  -13220   -34199   -45081   -44662   -24868     8731    37087    48271 
   45570    42219    51818    69439    72504    48228     5794   -35970 
  -64690   -77631   -78005   -72540   -57990   -23085    26514    71199 
   97267   100637    86574    62475    31819     2745   -13806   -14203 
   -1336    14791    20031    10972     1232     7724    31935    62340 
   91237   114377   122555   106178    62814     4905   -43341   -71259 
  -83208   -77847   -54365   -19175    19217    52803    79254    89530 
