Origin Time       2021/02/13 23:08:00
Lat.              37.7
Long.             141.8
Depth. (km)       60
Mag.              7.1
Station Code      IBR004
Station Lat.      36.5516
Station Long.     140.4102
Station Height(m) 61
Record Time       2021/02/13 23:08:18
Sampling Freq(Hz) 100Hz
Duration Time(s)  219
Dir.              U-D
Scale Factor      7845(gal)/8223790
Max. Acc. (gal)   102.987
Last Correction   2021/02/13 23:08:18
Memo.             
[...]
    4012     3372    16150    31446    29316     8135    -4761     6821 
   25124    32179    21077    -9315   -31433   -12224    32622    58608 
   45594     8023   -20968   -14929    21371    54575    54039    23026 
   -9308   -23117   -17016     3870    28379    38921    26250     2408 
   -8330     7867    36065    41870    14616   -14755   -14323    14193 
   44150    47324    19249   -13026   -20459      -43    28624    43209 
   37768    23438    10515     -646    -6299     5502    32340    49650 
   38203     8422   -10215    -2342    20746    38766    35144     9281 
   -9428     1995    20902    23388    22416    27780    27187    16903 
    5694    -3484   -10308    -4909    19279    41451    37808    20318 
    6141   -11086   -21789     -534    35575    45108    32557    27822 
   23261     1807   -10166    10642    35565    42041    45933    42165 
    9036   -27638   -27467    -1921    18972    33659    41289    26929 
    -712   -12842    -5784     4548    10335     6457     2246    22042 
   47591    34574    -1217   -13684    -1320    13895    21676    22175 
   18841    11693     6345    10579    13281     5020     4611    23839 
   36138    22685     5012     -145     3932    14758    21956    20625 
   17467     7948     2145    23134    48855    38986     1476   -24062 
  -14300    18704    47680    60320    48061     8545   -24930   -18118 
   14203    33747    28657    20988    25003    23256    11491    10241 
   14404     8225     7811    25224    38981    33552    20524     8684 
   -1767     2478    25118    36418    19839     3045     7601    15406 
    7407    -4598     2007    26669    38546    18353    -6552    -6447 
   10415    28480    36825    19818   -12769   -21386    11928    56732 
   64196    21571   -26173   -29528     6741    39467    33602    -5127 
  -29837   -12444    22689    45736    42876    11815   -17655    -9331 
   28053    48361    22940   -16163   -17871    15603    46980    54884 
   36316     1782   -20121    -8749    13058    11472     -367     8324 
   27712    29131    12745     3690    14523    28221    26558    14843 
    8093    14574    30465    39291    26743    -3144   -27945   -18601 
   29956    74418    67601    22754   -12739   -17339     6156    39810 
   52618    33826     5209    -7630    -2087     7627    20379    32050 
   19519    -4623    -1815    18958    30657    37720    41064    26534 
     288   -14238    -8059     7631    19533    24873    23598    10141 
   -6469     1067    33268    55332    47379    21235    -2646   -10494 
   -3229     8375    13049     4270    -4789     4653    20501    20626 
   14177    15897    11121    -5833    -5692    19669    39569    38566 
   22507    -5404   -30400   -29971    -2708    33319    55497    48428 
   18549    -8104    -9331     8495    19016    12640     4893    12228 
   30928    41581    37326    27184    15133     5111     3142     2708 
     723     9892    30441    42812    36227    19282     7186     4708 
    2376    -2151     1304    12374    22068    28829    28312    11684 
  -10060   -11306    10531    33458    38392    19300    -9175   -20143 
   -6068    22284    48124    46728    17077    -7898    -7704    14735 
   44545    54989    38784    15723    -2076    -9225      895    18728 
   26441    18954     8029    15433    39897    45981    20696    -4068 
   -6844     1919    12348    17895    11808     9679    24236    34948 
   30921    23305     9659    -7222    -8779     1314     9177    22167 
   43860    50476    23855    -6801    -2151    20331    23417    15680 
   18229    23757    20773     9030    -6174   -11044     1229    17459 
   23822    15311    -4569   -13478     6068    31209    32981    21733 
   21392    33764    41902    30491     1466   -27363   -30663    -1678 
   25375    22661    10862    12305    18571    18466     9764     -535 
    6272    31522    45925    37204    26191    17980     5397     3831 
   16721    20683    11595     7726    17771    30831    29397    14068 
    1863     3267    14739    22161    19383    13586     6770     5956 
   17377    22555    16625    19444    25947    18239     4666     4050 
   18544    34164    39727    29695     1090   -21097    -4923    26716 
   31237    12938    -3098    -7902     -280    19292    39849    38770 
   12555    -9211   -10347    -1514    12887    24570    21936    17076 
   16510     7399    -3515     3438    26617    44354    39796    20308 
    2651    -9435   -14566    -4081    20146    39868    44926    38576 
   17066   -19273   -44377   -30607    12658    47871    54298    38874 
   15461     2242     8698    15664     7429     1815    14215    29980 
   29550    11502    -6318    -1949    24780    45801    34697     7090 
     750    12125    12683     6056     9359    21720    32000    28549 
   18442    19656    23253    17547    12663     3298   -15769   -15993 
   15965    48001    46157    17520      607     4760     2806    -3003 
   10231    31611    39754    33561    17097    -3311   -10152     7280 
   30079    31302    13130     -982     2451    15905    20927    11487 
     378    -4876    -3970     9417    28572    32676    21003    13851 
   20048    27321    27302    30316    38919    36012    21501    15014 
   15614     9616     1536      519     3418     9351    21243    30364 
   25118     8978     1999    19828    45505    48365    23352   -11362 
  -25856      207    42380    57051    35482     3966    -6199    11364 
   32154    31348     7087   -20201   -25731    -8866    11923    25802 
   25643    13398    14243    35172    42195    14712   -23445   -38434 
  -21818     9933    33669    33816    19535    16247    21065    14017 
    7723    16375    17081        0    -5332    10926    13896    -9597 
  -15788    19710    55254    53395    26574     -564   -16659   -13509 
   11541    35797    31187    11234     9020    25037    36153    26207 
     503   -13090     6540    39367    43479    12892   -13797    -8941 
   12262    27095    36416    38358    22734     7009    12681    23841 
   18985     5103     4164    20760    32293    26960    16645     9277 
    9918    21887    36238    41631    33481    21276    23352    35530 
   34500    21072    15005    19364    33107    53127    48419     5447 
  -29959   -22027     6573    23572    15731   -12800   -26950      164 
   35611    34399     5981   -11302    -8259     -946     5517    11476 
    5738   -10810   -13279     6994    27421    30402    16488     -901 
   -2515     9293    18882    27448    32435    22959    10800     4488 
  -11939   -26704    -5499    36918    53006    31027      911    -5872 
   10582    27175    27710    13790     3523    10258    20011    15425 
    7468    16537    34520    37326    27051    19742    12725     6322 
   14551    31969    41443    40606    30488    18342    17610    20343 
   15866    13077    12070    10841    23233    42059    35939     2274 
  -21865    -5903    37889    69361    64993    33548    -3403   -23484 
  -14558    11596    33631    35357    12322    -9100      345    20684 
   17925     -419   -11495    -7840    10913    35414    45640    28668 
   -5840   -25402    -8598    23904    38785    27607     4687    -7766 
    -689    13694    17593     3604   -12513    -4673    23637    38402 
   22806    -3797   -16164    -7142    10482    18787    18476    20313 
   20120    12522     6141     3273    -3180    -5725    15751    52246 
   56983    21629    -2227     4405    13797    16991    15812     3369 
  -12919   -10000    25150    71045    86587    57607     4376   -41667 
  -51089   -17914    27847    51621    43818    13529   -15604   -12791 
   22019    50134    42948     9722   -16114    -7398    26300    54398 
   55629    23492   -16123   -18409    14596    37747    40151    44101 
   49230    42128    23751     6023     1323    11533    29876    44633 
   44305    35758    32202    26380    13444     7001     7546     7126 
   12899    21695    15109    -2407    -9355    -3804     2617     5263 
    6350    12332    18358     7269   -13505   -15276     8611    35887 
   35846     3299   -22165   -11286    13077    28979    38637    35089 
   20480    18277    25986    17388    -4272   -14608   -10380    -1177 
    9941    17259    18620    21471    16362    -9911   -30442   -18536 
       8     3434     9958    22098    21652    12262    13770    33687 
   55424    56803    33987     -452   -21790   -10039    23275    47389 
   41547    13606    -1953    14592    45175    53941    18941   -26268 
  -26360     6975    31083    43367    44392    27541     8932     -513 
   -3689     5432    25486    39384    32055     2646   -24746   -22677 
   -2065     5035    -2444    -1769    10215    23526    35229    36283 
   22670    12191    11735     8830     7647    17848    26082    25324 
   29301    33952    20710    -2733   -14449    -8847    12426    43781 
   57326    22661   -38601   -61929   -20756    46114    83496    65573 
   17609   -10069    -6135     2502     6262    11267    11884     7974 
   11168    22248    29073    14916   -16170   -20574    18964    54639 
   55802    39997    20102     2945    -3545    -8402   -18671   -23947 
  -12550    16243    46072    57850    50133    29551     6523    -2864 
    4594    17972    26991    28895    29374    30613    27797    15719 
   -4791   -12471    13042    48551    53725    26208    -9204   -29559 
  -14469    30989    65460    62378    34387     3958    -9899    -3036 
    7744    13733    14365     -830   -22104   -15657    23504    64251 
   77666    55417    16205    -8509    -9803      -29    15549    38630 
   58861    58353    37548    15885     6431     6022     1360   -14709 
  -27733   -18516    13846    49273    54949    21590   -17154   -28312 
  -14008      -95    -3203    -5602     8511    20001    22535    33457 
   42600    31432    19454    33173    56301    45832    -2889   -38122 
  -19039    26430    42414    25118    11740    15985    30384    48558 
   49555    14006   -31168   -39108    -8051    22297    23471    10100 
   14442    28533    21830     4132    -2270     -629    11707    34788 
   37951     6768   -21486   -13772    13073    32054    40756    36659 
    8214   -28235   -30481     1898    17559    -1196   -13397     -257 
   14477    29571    51958    47420     3807   -25799    -9710    21099 
   37875    43054    44365    41940    30508     8953   -10658   -13146 
    1223    17976    27205    23897     5044    -9813     3878    35240 
   58155    58016    31619      353    -5840    12636    33111    40566 
   33520    15469    -6021   -17041   -13277    -7460    -4943     6917 
   33427    54191    49871    35208    29451    20043     -425    -7967 
    8595    27899    34987    35923    35182    33235    33901    36537 
   33987    23013    10860     6207     6944     1242   -17004   -34101 
  -32950   -13263    16995    45616    59240    53175    26769    -6894 
  -17622      681    17042    10050    -3179     1906    17604    20406 
    5725   -13898   -17645     6529    34218    29543    -4067   -36450 
  -52141   -48428   -20457    22685    43784    16991   -22360   -22581 
    4864    20351    24220    30385    32651    23183    13032    20995 
   35540    30543    17379    20366    34705    40936    26177    -1683 
  -13173     5062    29107    35797    27116    12513     6420    22759 
   50125    62816    47443     7709   -31240   -35599    -4101    19915 
   11488     7333    31966    55772    61541    54251    29556    -4234 
  -26854   -30221   -13279    17212    43681    53387    46137    27290 
     260   -23791   -22735     2631    24914    29938    25920    26442 
   29961    18908    -7200   -27816   -24557    14709    68486    78552 
   37851     2783    -7015    -9786    -6057    -2629   -14747   -23939 
    4179    57917    79105    44567      -90   -10087     8113    30458 
   53531    75111    76604    53778    26298     9339    10697    30271 
   37164     9058   -15365    -9166    -6073   -12332     4249    30068 
   29135    11134     3215     5680     4822    -2586    -2983    14659 
   33023    29698    12488    -7215   -30877   -44698   -33154    -3748 
   27097    43329    38173    24475    15388     9100     4043     1900 
   -3636   -12216    -9370    10608    36406    46907    24480   -15525 
  -28428     3075    45724    56812    32416    12912    23230    43467 
   54715    45530    13197    -1846    25706    45458    22956    -2311 
   -2226    12542    37937    59319    45227     1188   -33061   -42356 
  -31502     4777    45878    46446     9688   -23359   -39552   -39845 
  -15681    21384    36566    17410    -9448   -15435     6870    41166 
   46896    12865    -9749    16830    61816    73962    46275    15479 
    2262    -7709    -9818    16645    44493    36576    14972    13892 
   27660    24509   -13536   -49134   -34672    14199    56146    71001 
   48664     9460    -1625    19016    34619    24977     1453   -11137 
     741    28379    48473    35507    -7443   -40236   -33754      117 
   30476    40849    41538    44680    47194    48918    45534    17176 
  -26029   -37368    -7889    24715    40228    38549    15435   -13332 
  -19055   -13281   -20680   -16467    21332    59495    70403    61179 
   36031    -2544   -26704    -3302    45679    56193    21396     -418 
   13973    34674    44282    39486    11502   -17606    -9040    28048 
   54761    48024     5089   -44381   -61788   -38435    11786    46538 
   26117   -15753   -19620    18031    68422    93339    58969    -7209 
  -34819       63    59278    88825    51586   -35598   -93266   -67397 
    2523    48398    49617    25651     8540    21591    53470    68285 
   53009    28204     9080    -2334     2331    19126    30623    37542 
   39374    22268    -4658   -22761   -27052    -9798    22446    46172 
   57253    56538    30824    -4984    -7353    22773    42676    40537 
   31872    23777    17555     7037   -11821   -19224     4120    36440 
   35714     5791     1267    41308    69499    39865   -14191   -42149 
  -40392   -20375     9644    26500    10887   -19278   -12771    47351 
   98058    73791    -3871   -62328   -67084   -31645    20069    56488 
   48047     7188   -21674   -16915     9761    33138    26416    -9614 
  -31190   -11496    16276    22994    16530     3445    -7700     -164 
   27071    53786    55846    29839    -1927   -10733    10513    32692 
   22748   -13512   -35610   -14338    21471    15325   -34473   -74214 
  -60180     2870    62202    66097    27745     4783    21031    53262 
   68713    49072    12634     1549    17834    22098      891   -26694 
  -36306   -11830    30196    51437    25654   -29840   -50905   -14137 
   32806    57788    56235    28736     2740    12731    59107    93814 
   70711    18385    -2648    15417    43166    60920    60750    48514 
   42731    39202    13085   -26721   -37498    -8509    26983    44464 
   31303   -19934   -66144   -44776    32420    93100    89060    34561 
  -13547   -19527    -3873     5832     9185     7963     5458    15167 
   40363    65439    65402    26712   -29415   -58224   -34312    22708 
   68384    70025    29725   -15066   -23789    14640    70073    89635 
   62845    32728    23549    22522    13032    -9671   -24883    -7641 
   29041    52874    51644    30935     5425    -6592    -3051     2335 
    4029     2362    -3123      261    18428    26180     6278   -17136 
  -22447   -23581   -21752     1420    27793    27129    11106     7646 
   20270    33012    32829    19318     4020     1308    13170    24495 
   13684   -22856   -51104   -32853    15556    44541    39471    16062 
   -9224    -9224    31198    73977    64700    10650   -21054      972 
   33841    39515    22743    -5699   -28206   -19342    14747    36517 
   28937    12586     2867    -1775     3708    13255     9736    -5082 
  -22752   -27961     -623    34491    37057    27380    41068    59991 
   56189    38785    18334    -7690   -15367    15615    45916    43059 
   39819    58804    71509    56043    24710    -1638   -15152   -13316 
   12869    52736    70205    52851    23268     4326     1841    12081 
   24154    14706   -19101   -41886   -31691    -1799    26037    29010 
    3613   -13277     3589    28603    32097    11813   -17020   -28607 
  -16368    -4271    -1436     1163     1143     3572    14985    17253 
    4962     2015    14415    24611    24567    16502     7352     6343 
   11647    14989    16645    23159    31943    32698    27510    23396 
   18148    15236    21212    30384    35527    32875    18351     -538 
   -8127    -3464      492      777    12087    41823    69346    62900 
   16201   -29974   -28526    12964    57157    81268    67641    21092 
  -19356   -28725    -6656    34464    54333    29315    -3597    -8905 
    1074     6648    10926    20582    23452     8986    -7285   -10606 
   -4953     4835    16002    25934    31567    22854    -1227   -21496 
  -15435    24267    63759    50814     1564   -14102    16487    49788 
   64183    55386    17761   -21910   -21366    13606    40016    40216 
   28973    20632    22337    30721    24965     4626      961    11854 
    7084    -5586    -9598   -11056    -4924     7869     7190    -1433 
    5348    25956    38284    24887    -8013   -31527   -27016    -4310 
   20028    39706    49410    36632     1023   -23668    -2385    45071 
   64588    41710     6454   -19969   -30392   -13109    24420    45841 
   30420     3647     3053    26130    37353    18268   -14104   -28582 
  -12222    18694    42911    47664    33261    18370     7747   -10497 
  -20105      151    30674    42930    38410    32424    21298    -5343 
  -26350   -20725    -4274    13109    28615    23962    12530    23037 
   33293    19757     7597     8864     3732    -2097    19772    64933 
   85939    49736    -9686   -29220     5373    52012    67374    44825 
    4644   -22083    -7213    37119    60021    39447     6266    -6143 
    9221    36022    39320     7314   -21582    -9756    32579    61537 
   47163     9925    -5498    10115    26119    21525     5111    -4036 
    6519    28422    40324    30929     3211   -20115    -7445    37520 
   67257    44271   -13405   -53123   -41211     6392    38785    26559 
  -12059   -42718   -34457    17339    61141    45063    -8055   -37431 
  -21555    13524    38724    47966    43143    34375    39660    44054 
   15049   -31954   -50571   -22227    35953    86387    88396    33868 
  -30113   -44231    -6570    31688    36309    20124     6916     1445 
    2639    15573    31860    24100   -11539   -33880   -13703    23822 
   43578    39001    17590    -3067    -3044    10207    16245    14029 
    8052     -386     1513    20664    35824    26662     6124    -1676 
    7851    25698    42009    47740    41112    27477    10183      233 
    9525    22036    18526     6133    -5204    -4664    16627    32526 
   17246    -6060   -12285    -9802    -4307     7857    16159    13983 
   13562    17775    22779    39517    58788    45839     9117    -7331 
   -3464    -4422     -295    19514    30034    13894    -9815   -18296 
   -9352     8700    25628    35442    36452    26650    13852     8135 
    3828    -3306    -2060    10426    16195     9387     9562    24918 
   42844    51509    45546    31288    22092    19614    17990    17739 
   23588    34699    40598    33723    21041    10945       33    -7558 
