Origin Time       2021/02/13 23:08:00
Lat.              37.7
Long.             141.8
Depth. (km)       60
Mag.              7.1
Station Code      IBR003
Station Lat.      36.5915
Station Long.     140.6453
Station Height(m) 58
Record Time       2021/02/13 23:08:14
Sampling Freq(Hz) 100Hz
Duration Time(s)  196
Dir.              U-D
Scale Factor      7845(gal)/8223790
Max. Acc. (gal)   167.162
Last Correction   2021/02/13 23:08:14
Memo.             
[...]
   39857    64773    75556    23492   -12402     2440    22747    24167 
    6120   -38824   -63297    -9602    54448    51440    39995    58337 
   34982   -29500   -33342    42384   107177    80037   -13594   -50619 
    7740    44653    10350    17431    84788    58796   -52386   -43398 
   77237    76788   -66429  -113746     2523    79918    42881    19584 
   41129    40406    33442    53275    69874    71323    44617   -26777 
  -61815        6    60150    16762   -61129   -41242    37656    42863 
    7929    36958    82791    55044      446    18662    71618    38248 
  -44747   -34746    41022    49284   -14062   -63479   -38858    46087 
   86165    28864   -21510    12509    48628    27426    29315    89375 
   93667   -11477   -77301     3213    91795    41076   -67352   -65520 
   48127   100967    10331   -56215    38308   118913    12803   -93492 
   -3950   100942    41931   -12036    48728    60454   -15160   -35172 
   21438    64593    57165    25793     7430     4695   -18311   -50249 
  -27409    30834    48082    36841    53100    83123    69784     1291 
  -43814      499    53338    33488    12961    31634    11838   -47903 
  -44876    32996    67891    22832     3842    39322    36666    -6628 
    -724    50872    65963    33336    21768    46396    34210   -21451 
  -33558     3219    14403     -452    -2625     5009    27487    52852 
   35588    10616    33883    38853   -17034   -23796    58444    88422 
   13309   -29548     9501    13393   -30380     3150    95142    92605 
    2259   -33438     1443    21070    14782    23418    48230    51907 
   20376    -3156     4826     9278      847     4961    21095    38348 
   44316    20640    -3744    17664    55266    46827     6102     -367 
   19977     1182   -25786    17261    73926    39123   -37459   -40086 
   14022    41237    31635    25178    42284    53773    29439     4515 
   34308    81207    40437   -44551   -31245    30441    23095    -4976 
    2347    14431    22046    30615    26739    17567    11244       40 
   11142    56367    72515    35560     7967    24169    37400    -1860 
  -39361    -2629    41536    21469    -5973    -3998     1158     1429 
   -8756     5460    77560   111997    51513     6427    22457    20009 
  -10812   -12091    21733    41640    12002   -28796   -11122    44905 
   54635    15269    -1062    16606    17887    14509    44579    52423 
   14162    22184    58707    13797   -43279   -13883    15188     7075 
   34345    45281    -9937   -35089     1853    61457   132587   129957 
   14678   -63467   -26781    19784    25841    15327   -15557   -33278 
  -10639    16355    39617    54859    29949   -13224   -13019    38526 
   76758    54826    15890    17471    38572    25409   -10901   -10768 
   20792    21726    -7535   -16590     1868    14708     4828    -2524 
   33207    95650   109624    59688     9468    -6381    -8772   -25659 
  -33781    11261    52745    21217    -5321    24900    26983     1061 
   21497    44120    25833    17653    22324    14551    32675    75452 
   64716     3088   -13792    16773     8337   -21269    11102    53326 
   12371   -45586   -29415    20730    49141    58166    53987    37084 
   19989    15198    18300    19689    21027    35761    56718    44217 
   -8542   -49783   -32784    14953    24277     1418     8696    38774 
   35745    10177    14350    35752    34426    17014     6890    27067 
   58468    30177   -32382   -38157   -15777    -7717    26518    67165 
   58178    27005    20143    27159    35193    51584    53477    25475 
    5524    21367    35800    16733    -2008   -12517   -33170   -26576 
   11875    27294    13913    12442    33034    47216    44915    33039 
   16537    34828    85307    77299     9034   -19435   -12969   -32508 
  -39933      575    40996    41319    12510   -15005    -7871    41162 
   67090    29369    19774    70407    59617    -9672    -3480    46465 
   26630   -24574   -21780    11974     8600   -13517     2243    35337 
   53705    44442     7449    10909    64341    70660    27869    19152 
   30591     6754   -17624    -5876    -1664   -28624   -31005    17244 
   45060    32319    45007    62195    37358    25968    51309    50342 
    6147   -24448   -13540    -5439   -16320     6232    44834    16599 
  -31941     7241    77823    76392    35673    17078    32628    57173 
   34018    -7699     4791     2794   -58644   -55177    27306    61221 
   50429    47622    28433    13840    27243    31916    31595    28144 
    5429    11893    36572     8068   -18909      978    -7315   -13128 
   44830    47464   -15500    24495   100847    41709   -34132    21301 
   86456    43969   -10667     8908    30989    -5232   -40902   -24198 
    8286    21186    24534    12964    -7341     8316    48158    67343 
   75676    71312    29556    -6157    11950    24722   -12981   -27095 
   10345    26410     1976   -13730      801    14987     7582     5481 
   32526    71045    76918    47760    38684    43395     9470   -17023 
   19053    34236   -31329   -69337    -6180    52947    19410   -26480 
    4911    73398   108337    81931    16357    -5175    39326    51333 
    5640    -1204    21756   -22619   -79245   -36975    33447    22781 
   -7416    22121    60403    58252    48077    50242    48061    30616 
   -7015   -37273   -13170    39368    43680    16390    40883    70497 
   17871   -32043     -195    29970     3611   -14389    24584    54450 
   -4542   -64137     3333    87650    39490   -22891    32254   100044 
   76596    22331    12452    28472    12191   -29058   -29222    17945 
   40744      839   -35263     2012    51027    31548    16677    75600 
   95025    22974    -7425    27292    25864   -10770   -23126     2278 
   30499     9791   -38994   -32809    25871    61173    69063    74931 
   50507    -5817   -38677   -12305    35772    36664     1277      868 
   38221    51081    25567     6434     7689    10039    16236    32894 
   39926    25525    10216     8434    16464    30485    32526     6675 
  -13269     1098      116   -26210     5983    76540    76773    40144 
   37458    20615    -5748    17516    37258     8664   -19454   -24768 
   -3165    42171    52716    19836    11826    35738    41193    21119 
   14380    39016    48068     -418   -43845    -9112    39968    19889 
  -17571      152    49785    71396    48466    25429    25326     7218 
  -17936     9842    45431    14661   -24474    -2710    44203    70487 
   53306      594    -9818    38067    53369    20802      403     -797 
     988     2486     3086    16964    31239    16295     2524    17977 
   27162    22665    41295    57762    21577   -14150    19055    59049 
   25234   -34326   -40612    -7905    22270    37863    28017    19912 
   40030    39465    18733    42371    72160    42088     1123      -60 
    6207    -2646    -3839    15257    26319    14484    21003    44901 
   27893   -14349   -23851     1487    47235    80044    40197   -36022 
  -39845    26018    68366    46234     -874   -11036    11338    14485 
    2440    18270    51718    43609     8267    20038    42464    14709 
    6758    47158    50579    11722    -2994     1135      252     5817 
   10957    21296    39831    19593   -14137    13987    52328    26050 
  -10651      772    26173    32189    31784    28948    23695    31055 
   25389   -11086    -8618    45597    44327   -25716   -37177    38692 
   76603    37870    25531    51907    21757   -31814    -4885    42804 
   21007   -19483   -27045   -17302     7009    48196    64980    36211 
   21790    42580    30175   -20915   -23183    40810    71412    28702 
    -805    15593    16526    -4114    -3616    12919    12330   -12283 
  -30554     -637    55379    61651    25363    14230    37736    65269 
   52539     9154    19853    57962    23977   -22064     3883    29436 
     981   -17290    20603    70298    57990     -660   -10666    27373 
   40286    41054    44737    20047     9601    33763    13262   -47158 
  -48374    13308    43000    24741    39394    70347    38063     4248 
   40084    71988    52709    19330    -7534    -5876    14688    -6345 
  -37893    -4849    26067   -22148   -52581    20376    94004    60559 
   -6809     6026    57415    42196   -12706    -1117    59472    57329 
    3917    -9783     3929     1089   -15915   -34403    -4804    71481 
   81765    10443   -22979    10288    31804    16040     1786    13095 
   42391    58066    45381    32914    31649    28039    30508    38793 
   30269    18611    26419    12861   -36261   -52995   -31399   -19377 
    7335    44555    40327    49742   102196    87740    18470    23911 
   50485     7237    -9011    33226    32358     9177     8560   -28287 
  -61618      703    79427    69919    30854    33106    36933    30524 
   56829    75917    44791    17837     8699   -19596   -41605   -40531 
  -30564     8835    46588    17571   -16247    32341    99597    97227 
   44663     1081     6270    31488     6042   -37035   -23704     8892 
   11551     5235     5270    10130    13792     7419    23376    76704 
   90225    25616   -30495   -33633   -37825   -29627    34346    79405 
   48284    17986    33480    34171    13595    34476    62719    23548 
  -19816    11290    29019   -43503   -92971   -34366    33948    51649 
   58563    47695    26379    29477    42930    70683    95250    51406 
   -6639    21870    60702    13833   -37606   -27730   -13988   -24772 
  -27708    -1451    23334     7200    -2380    40468    74619    65268 
   62860    72738    55020    22947     6434    -2471    -3268    10473 
    2489   -40666   -54418    -4546    37100    10778   -17452    24513 
   72018    51067    21897    48525    69507    32027    -2357     3588 
   -3001   -40317   -56450   -19053    35680    52093    34281    24436 
   20223    13084    45801    91038    58885     3902     6419      243 
  -32759   -27260     3046    16490    27942    40379    13909   -26671 
  -16340    21001    40755    52439    72501    83230    49999     6058 
   11404    44402    48775     9328   -27981   -23662   -16073   -25193 
   -7017    43077    74933    64092    37501    29066    36312    23534 
   -1053    20340    51682    15437   -28699   -10328    11950    -6234 
   -7798    45239    80296    20062   -62264   -34739    57391    59579 
   -5956     6243    85874   114724    75780    27997    -1948   -14952 
   -6747     2477   -11641    -7668    25370    13898   -20040    15646 
   64627    32996   -16726    -5394    38449    71015    78054    58044 
   27639    -7110   -51109   -62731     2035    83357    76781    -5270 
  -37422    22893    66603    30825   -16429   -27476   -16267     6589 
   15367    -2219    18266    93850   118902    70051    66609   115452 
   69079   -74540  -142300   -90093   -30812   -18131   -13849     3330 
    7932   -16117   -31722    16881    99238   129960   119659    99848 
   30630   -32729    10735    67822    36130    16999    58361    54683 
   -8513   -46657   -34431    -8808   -14628   -46743   -36097    17928 
   20013    -7246    52809   135440   101579    20740    22743    62992 
   61045    45247    32917     6361   -15094   -42380   -70148   -35765 
    2941   -38033   -60798    -4795    25266     -747     9030    80809 
  131882   112954    77110    66765    57403    31351    -1255   -34036 
  -53451   -27109    23114    19188   -21315   -13667    31654    44294 
   -1166   -49111   -20969    54465    74707    36317    39683   100006 
  107800    42313     6385    24405    29924     7022    -5903    -2297 
   -9240   -30294   -38731   -26578   -23134   -18760    33370   103308 
  127566   104949    55335    -9097   -53504   -39368    -6007   -31693 
  -84437   -57319    40189    72091    11412   -10463    36759    56423 
   46136    56517    59705    58685    95600   107059    40112   -14688 
  -18138   -54047   -99944   -49511    49349    69020    23554    15500 
   38511    23329    12613    50539    60072    37894    73653   107071 
   35635   -46379   -35206    -2492    -9553    -3732    33455    46278 
    7632   -38117   -20912    32100    17437   -24792    27696   110963 
   94490    37423    36490    32243   -15169   -25517    12499    29307 
   14702    -8607   -16015    18709    57532    34851   -26230   -44281 
   -9655    23550    32464    28395    29909    25110   -12603   -20258 
   54500   105031    67408    49310    74892    45252   -13250   -21375 
  -11234    -4855    21082    40942    17437   -40142   -74730   -34056 
   34163    48868    47614    87408   102064    46107     7878    40828 
   57072    14111     9602    55628    53183    12945   -13699   -43507 
  -53878   -16066    13791    -3204   -21226   -19722   -26098   -23082 
    -922    19440    68516   129224   108437    37037    19916    35017 
   29255    24474    15800   -28877   -65923   -35452    23206    51695 
   47833    10098   -21366    21321    87929    70646    -6505   -24956 
   21814    27456   -33241   -86449   -66279    15635    58071    28680 
   20821    55784    64615    45044    37547    45231    60435    71628 
   50681     3419   -11728    12120    10122   -18377   -26366   -15931 
    5228    28263    19368   -10952    -8699    23375    34956    38614 
   77939   113913    80299     -330   -45254   -14428    52868    74313 
   26453    -5181    16667    13640   -25574   -26431     8812    22145 
   12484     9505    18229    26933    19334     1109     2169    32895 
   84743   126783   104068    19218   -46093   -29376    32057    54869 
   38415    28250   -10847  -107819  -156394   -77056    19458    29594 
   27036    63517    57207    14219    44255   105813    84727    32104 
   26150    31850    42822    73414    69471    28335    10671     6999 
  -10338    -9655     -121   -32300   -68169   -53419   -17867    11534 
   26661    14990      934    12607    37531    43729    27978    22565 
   36888    45003    23508   -11635    -5984    40132    49979     6068 
  -13105    29019    72401    70476    47263    42287    62999    62353 
    6744   -39816   -25200    -1534   -11300   -19510       91    25786 
   54754    67780     8623   -55135   -11249    81888   120923    92362 
   36510    18476    43333    34014   -31504   -64103   -32772   -28568 
  -55525   -20875    59462    96078    79868    56667    30036    11503 
   44860    70650    16533   -29539     8390    55004    39345     5632 
   -9358   -35267   -38303    -5580   -24945   -56439     5695    73198 
   39977      210    56450   123547    82903    -9513   -30839     5030 
    8972    -6478    24711    55948    25085    -2284     9258     1047 
  -22002   -18883   -10305   -11831     6281    54615    93915    95554 
   85263    85926    79639    58614    44643    26260   -28528   -71483 
  -51817   -38350   -69614   -67339   -17882    -5393   -28983    10563 
  103651   128285    86895    77961    83104    41154     8910    42819 
   72607    38630   -17496   -52490   -56658   -24883    15799    21532 
   13001    38079    59560    24421   -11091    23161    77719    76408 
   38017    15804     8518   -24625   -78011   -84150   -17548    55553 
   58718    14215    -3624     8532    34785    73768    73507    28564 
   18901    30834   -14512   -53005     4657    58017    28147    15130 
   46673    53342    37893    16229    -4780     5717    36301    35951 
   -1939   -25779    -6524    26154    33754     6717    -5830    36860 
   68465    46930    30150    24425   -11596   -46488   -26778    16494 
   26526    12600    -2463     1386    60420   127851   102008    17868 
    3287    52461    53221    -6239   -44520   -36775   -18427    -1306 
   18898    20987    -1856   -20162   -21876     5262    78544   129321 
   94733    51985    48764     7549   -71730   -85099   -27325    19971 
   25292   -12228   -45906    11389   103546    92352    20290    19403 
   68384    75701    57747    57048    52143    44898    46095    15182 
  -44008   -61020   -27303    -2944     6756    31810    40424    10899 
   -3665    21103    37971    21963      409   -17037   -29280    -2251 
   43519    25650   -36736   -35668    32144    74688    67294    52744 
   37639     3892   -10303    23900    47871    46913    64326    65483 
   29057     1580   -15325   -16159    16260    29733    17656    43129 
   74409    42781      607     -419   -12401   -24602    21824    55775 
    6153   -39915     4900    61510    17810   -42341    12069    85988 
   54521     9745    40286    37372   -47418   -55325    43502    74553 
   20405     9991    36659    14220   -36603   -38857    10968    52089 
   44224    27125    52384    67352    15245   -36984   -27627     6932 
   32972    39494    20326     8249    21076    39136    47845    45928 
   62077    87444    42888   -47502   -60818   -16606   -21567   -54184 
  -49007   -23049     6976    66873   128518   118648    51759    17015 
   59212   139441   151752    45195   -72280   -97518   -64710   -30253 
   -2081     7333   -27093   -63432   -41277    -2376    13838    22806 
   17890    26627    77160   112610    95206    57595    18840    -9852 
   14256    70432    54915   -18742   -12191    59752    47167   -27677 
  -28906    20947    29281    -1440   -34161   -28900    19998    26709 
  -22041      843    97488   108653    25704    -9205    21386    51601 
   63259    34102   -20344   -38094   -17113    10897    32913    33232 
    9992    -5053    12198    38971    53439    71751    68535       13 
  -61981   -34044    21582    28317    21150    40755    54182    47794 
   47547    26252   -24171   -29166    19881    39549    10859     2702 
   38010    38057   -17343   -17745    41385    35220   -17734    -2670 
   47972    37353     9447    19597     3376   -21126    22700    73552 
   63991    17521   -18715    -8598    26982    34923    12858    23376 
   72997    68145     8804    -1104    32385    25520    -4379    14951 
   47493    16463   -28057   -16734    -1262   -24375   -27835    18584 
   50161    25165   -11670    -3435    44159    65365    48159    61524 
   89988    60907    31324    66526    84404    22331   -60176   -90215 
  -53458     6535    37951    23080   -21857   -54163   -42877    -3921 
   19454    27799    63617    91586    49369     4739    35603    88908 
   93681    43664   -12403   -14841     3356   -28048   -69615   -49805 
    3063    35019    50442    47869    24362    27616    55647    55348 
   62927   110023   106528    30152   -10361    -1084   -20580   -57582 
  -67617   -52239    -4679    43193    33312     5008    23413    69176 
   95677    83108    47302    26269    16534   -14389   -37409    -5490 
   30726     3138   -34014   -10370    20601     8912    15052    63298 
   79550    31642   -22902   -26379    16505    56073    51749    18257 
    9934    23363     3680   -19469    16738    47842    -2263   -53368 
  -24656    21643    29112    37512    63768    61288    31996    29517 
   51062    61538    43510    -9325   -54012   -39490    15618    59134 
   60405    31912     5988   -18945   -47845   -41791     6490    34356 
   22126    19604    42230    67014    69480    25112   -20655     6394 
   55011    34812   -18353   -19714    34245    66895    34835    10917 
   42473    47636    -1281   -19537    -6262   -19485    -7258    50733 
   41505   -28394   -20047    56058    81170    53789    40873    34449 
   18450    21126    27724    16443    13209    15838    -6957   -39687 
