Origin Time       2021/02/13 23:08:00
Lat.              37.7
Long.             141.8
Depth. (km)       60
Mag.              7.1
Station Code      IBR006
Station Lat.      36.3665
Station Long.     140.4543
Station Height(m) 30
Record Time       2021/02/13 23:08:19
Sampling Freq(Hz) 100Hz
Duration Time(s)  241
Dir.              U-D
Scale Factor      7845(gal)/8223790
Max. Acc. (gal)   116.951
Last Correction   2021/02/13 23:08:18
Memo.             
[...]
  -17041     3603    36954    50587    37669    14800     1640    10858 
   32043    33178     2506   -24968    -9344    39748    80041    86566 
   61923    28726    15431    21659    19562     1431    -9522     1204 
   19753    30173    36462    45638    54661    60038    56554    41524 
   23282     9460     8183    27045    46780    37918     8797    -9760 
   -5518    15438    36784    44975    40672    28725    23923    41368 
   59328    42102    -1067   -20501     9316    54286    66934    43584 
   14422     6292    26387    52483    50504    25721    14932    25860 
   37277    35591    20277     -515   -11421    -3096    16673    37567 
   53596    55023    44032    36342    34662    28001    13375      187 
   -6791    -8980    -5487      197     9038    25502    33708    24779 
   22608    36922    46656    40878    31419    33170    42869    46741 
   43746    35209    17223    -1063    -3353     9472    22133    26123 
   26717    31222    34511    27687    19807    27394    48060    58515 
   37532     2081    -8499     9271    32152    41862    26491     3514 
    6556    31969    50153    46722    28109    10905     6755    12872 
   18185    16406    14467    22966    41821    61626    64069    37949 
   10960    19997    49640    51057    10791   -30596   -24503    25304 
   67878    70517    44718    23058    23242    32103    35136    25061 
   -3160   -24548    -9323    28354    58185    65788    51615    34707 
   31550    32371    24459    12555     6886    11603    19287    18507 
   13232    20503    45817    70160    66838    31974    -7488   -22022 
   -8293    15475    29187    28097    27781    41162    61884    72724 
   57604    20667   -11115   -14823     6538    27556    30578    26527 
   32896    45619    50313    41121    18524    -2949     -550    23735 
   45179    43629    20270     5026    21709    54994    76671    66356 
   27369    -1404     4692    27625    39267    27153     6416    -2755 
    -538    12210    31105    35442    18802     1795     4166    25212 
   48236    53920    38994    22793    23349    37219    44988    34257 
   16802    10847    18848    29072    23863    -1710   -22549    -8833 
   34191    70422    67942    33362     8109    16467    39569    38723 
     606   -31349   -12671    36941    73009    72550    37775     2245 
   -2552    17471    39463    43163    28648    20524    25849    31126 
   32617    25990    12725    11773    25323    34588    32930    27117 
   26561    39692    57757    59773    38276     6106   -10030      -99 
   13329    15097    12102    13486    27477    52288    73954    78336 
   56320    17890   -10453   -16028    -7225     1930     4731     7560 
   18581    37274    58923    76782    77056    46484     1921   -17516 
    -274    30898    43941    26905     6409     7669    24946    43043 
   49449    42820    31919    22751    22855    30339    27349    12105 
    1659     4334    21109    41621    42938    29859    28256    36359 
   40053    35812    17901    -6987   -12780     8028    34538    49389 
   47707    30115    11742    12803    29344    38391    30809    20895 
   19013    14596     6889    14245    36115    54769    62673    56493 
   35013     8357    -9096    -7460    13301    33535    29224    11901 
   16733    48423    76966    74430    39938     1375   -11215     3755 
   24885    34327    29727    22292    24283    33277    35012    20521 
    1782     2300    21695    36355    34875    26333    24052    33640 
   49801    53762    29497    -4873   -10802    17678    43241    37616 
   15647     6856    20457    41504    51182    44793    25492     2377 
   -6357     5015    17953    16910    11855    18318    32803    40672 
   34561    24420    28890    49192    61121    42901     4540   -18785 
   -2856    36856    56783    33188    -7672   -23535    -4405    32320 
   65904    79913    70495    48884    31702    28722    31606    21860 
   -2736   -21903   -17262     7940    36502    55120    61213    57438 
   46290    31158    16993     7084     -128    -2521    11434    40008 
   60127    61010    51582    31278     1236   -15967    -8174    13317 
   33423    37714    27001    22663    32807    38010    23344     4488 
    2833    13782    26882    43229    55139    50781    37512    27931 
   22553    15394     -163   -14914    -3998    33025    61515    60538 
   46125    33077    21485    16654    18667    16923    11043     9154 
   15383    28818    41212    45706    44088    38769    33708    27452 
   10795    -4496     2628    22951    33053    27234    24088    43906 
   71582    76727    58182    33457    15774    10338    17605    35244 
   45339    29145     5976     7677    26082    33577    28652    27801 
   33516    34118    25119    12901     8739    22341    44221    50477 
   37949    23707    15113    12503    13495    11290    12298    21448 
   23773    14494     9247    17208    29883    33069    26662    23753 
   28198    32674    27344     9895      402    12476    27363    30835 
   30897    34009    35525    29479    18740    10868    10825    17811 
   26464    37046    52277    59192    38507     5343    -1219    22013 
   43471    37778    10829     -148    21443    47521    49165    27638 
    6551      545    10955    38587    64420    63636    37798     7299 
    -172    24166    54989    65665    54792    40651    38411    47985 
   57092    46408    14283   -13732   -18565    -6619     6342    13405 
   18268    25743    37081    46836    39970     9067   -21398   -15472 
   20868    44344    34280    10404     1996    15971    35328    47405 
   47522    34518    20470    11967     5865     3262    -1263    -4260 
   11880    40032    53870    44348    29428    33840    54600    65958 
   49889    10546   -22009   -19714    11724    44705    56461    43430 
   19037     5541    18455    45123    59679    47961    15371    -5240 
    9320    36270    44390    31730    22518    33192    42493    26863 
    2060     2863    34113    58776    49539    21162     2770    11701 
   39920    56577    44693    18756     1884    11743    48072    79604 
   74829    36463    -6068   -17092     9471    33255    22453    -4779 
   -9971    23160    64509    68278    38079    15186    19521    38780 
   49432    40950    21259     1487    -5690     7746    27768    31433 
   16467     6184    19519    42579    51001    37118     9439    -6264 
    6150    31796    49400    45731    25643    13535    22624    42627 
   54297    47719    28732     4283   -17446   -18307     8661    40463 
   48691    31325     8032     2710    24509    51980    58849    43090 
   15769    -4827     3916    37978    63003    54962    22042    -4149 
   -1215    13759    13482     5868    13798    33732    47764    49369 
   39255    20032     2149     1790    22513    45539    47613    26887 
   10932    27801    64156    77344    49971     6947   -17440   -11666 
   13562    39846    47341    24804   -12166   -24105     3832    34302 
   37440    34982    52242    72511    65511    42321    35259    37285 
   25431     4016    -9296    -2936    14737    27130    34064    35965 
   26650    12185    10165    26833    43926    47883    48675    56231 
   69720    77629    63471    28395    -7371   -27087   -27363   -12178 
    9498    26370    37922    52820    68289    66459    32620   -17193 
  -36144    -6107    34923    48415    33355    13393     9358    21500 
   37858    41327    22242      787     4406    31087    58855    66428 
   45188     8978   -17397   -15741    13473    44806    52172    36748 
   14837     2964    15901    43698    59055    55039    35432     9865 
    3157    23134    49288    53137    21436   -16596   -18060    14966 
   38623    26777     6054     6785    19483    28864    37845    47247 
   47657    41300    39511    33488    15430     1842     4247    17598 
   31035    36508    32138    18539    10466    23869    49118    67814 
   59368    13722   -27795   -15488    33092    63267    54932    32413 
   23149    29695    40583    45557    40479    26449     8437      218 
   16605    49188    60696    29636   -12710   -29416   -21533    -2158 
   15697    20044    20290    35274    66158    90911    78786    25608 
  -33604   -55347   -25861    29128    72958    83691    58812    20682 
   -1318    -3021     5063    13366    13190    10600    14299    25913 
   49319    67790    55633    19186   -12268   -12185    18087    50013 
   63814    55926    33265    15526    17140    30129    33650    17554 
    -677    12634    57685    84160    61743    20950     1728    12052 
   30831    34383    25060    17142    12787    13288    26507    54336 
   81730    82703    50703     9308   -15487   -18536   -12834   -10783 
  -11853    -5606    13181    40282    73249   100657    97322    59583 
   17140      858    18952    47865    48851    17491    -7916      985 
   29964    44983    29074    -2602   -18403    -6571    18198    37208 
   35078    21022    23562    37863    44400    46870    42607    25652 
   10604     9612    21313    31128    16499   -14894   -28779   -13360 
   14454    36421    47574    48185    34663    12104     -522     3352 
    8187     7284    11087    20696    28995    42684    67474    83461 
   72829    46059    20174     4002    -3129    -7086    -1163    23464 
   49281    46969    17051   -10882   -17086    -1559    27368    50619 
   53545    46180    45144    50733    50078    36481    25095    35762 
   60736    68489    42059     6212     2226    36016    75718    86112 
   53698     5617   -10752    15161    41528    22171   -34801   -72021 
  -51625     9564    68593    90231    64712    18927       82    22654 
   52821    53049    21319     2133    33307    83362    94031    48309 
  -18531   -55954   -48497   -11333    26370    33871    16826     5841 
   13482    28606    35533    31654    22241    17243    26380    39806 
   43714    44587    50195    50471    36649    16845     2301     -838 
    5352    12545    16918    18972    26711    44926    61094    64034 
   53628    35688    16309    -2146   -11038    -2587    14216    25435 
   30987    44682    70132    82532    58290    11867   -26852   -48632 
  -51846   -28894    18574    73499   107098    97201    63714    48280 
   49037    34199     1250   -30380   -42394   -16333    46543   112820 
  138712   106944    52078    23116    27355    30801     1009   -44686 
  -54719    -6450    73272   125390   109497    52274     9730     4396 
   21370    31519    20201     1071     -234    29467    67968    76967 
   45227    -9941   -53140   -50564    -7954    33191    42855    31583 
   29786    45345    55984    34474   -23734   -77958   -74493    -8255 
   75035   107169    54928   -25813   -55584   -18551    39364    51764 
    7655   -25647      333    56317    86657    69608    22219   -20305 
  -25494    -1849    20086    41096    56115    49489    37856    27978 
   18729    30051    53759    62108    46672    15093    -7530    -9571 
     -16    21134    36070    18975    -9298    -9466    30345    90830 
  124117    98725    40512    -2856    -4654    19593    25501      103 
  -25378   -14434    38086    92011   107747    86888    57939    43174 
   34180    14875   -18570   -57753   -61916    -3160    73778    97600 
   47038   -16738   -12152    55016   108805    96855    31288   -26636 
  -37571   -14698    22890    55556    56814    26013    -5980    -9482 
   10442    24466    21242    13621    16552    28587    26946     3649 
  -11079     6312    42376    66094    52150     8934   -20351    -2677 
   52155    96466    89343    44211     7886     1445     5317     2562 
    2349     5566     2751     1690    16202    45912    71690    70911 
   39672     1561   -13572    -1183    31783    68227    75236    50584 
   20421     1813     4249    20988    35573    42770    39359    34210 
   42356    45486    25968     6049     1521     5344    17902    39569 
   60158    70784    69176    57667    38917    19356     9846    11088 
   11114     -626   -12806     3572    45752    74517    68755    38962 
    8008    -4664     7056    35267    48489    20846   -20962   -32251 
     229    56277    91319    73926    23010   -14859   -13402     8923 
   19003    19422    24722    25947    24190    35920    55501    62681 
   52992    40090    34263    25455      251   -23483    -9817    29065 
   43363    30686    22512    27417    39796    47640    44793    38923 
   30503    23753    26504    25564     6088   -21709   -27319     5821 
   48536    56340    30258    13311    24158    44267    58212    52771 
   25173     -853   -10023    -9028    -6953    -6986     -635    26258 
   62973    74233    54800    30477    14975    13979    26802    38600 
   34577    16012     2658     7982    29305    51441    45959    17640 
    6222    18890    31976    23912      596     -629    24868    45079 
   51764    55206    63741    74592    60975     5863   -58600   -77947 
  -35510    32613    71714    52578     7126    -5742    24942    65727 
   79753    46607    -2274    -2556    46386    74459    37443   -29477 
  -49781     -502    64624    92616    76048    49638    53685    83338 
   94320    52959   -18002   -64912   -61065    -2007    81846   118702 
   86578    45420    38348    42342    28039    -1730   -32462   -43112 
  -19456    12681    23399    24175    28040    21906     5510      363 
   13382    29689    27116    -1652   -25343   -12413    23203    54951 
   68731    54360    23376     3703    12263    51009    92034    86927 
   22090   -53623   -62417    14833   108529   148510   113435    26585 
  -36661   -30117     -576     5779    -1096     -325    23268    69048 
  103176    88776    34800   -12307   -24133   -14686   -11142   -15210 
  -10696    11492    49828    80410    80669    61704    31413    -9899 
  -36726   -27778     2614    28792    44543    54996    60327    60265 
   51267    35451    31808    44080    56116    59505    45231    14831 
   -5790    -3333    17382    49846    72900    65851    29621    -9873 
   -9875    28453    54616    43291     5819   -30152   -34832    -5614 
   31864    48240    38161    27249    37527    58348    61735    32641 
  -13042   -29849    11281    74869    94139    50849    -5115   -21732 
    4093    46704    76068    72091    44373    16999    -2054    -9560 
    4673    31295    44097    35965    16614      -45     4455    25986 
   39179    38550    33384    31546    38596    40521    25961    13456 
    9367      527    -8379   -10045      965    34947    77679   100548 
   87389    45297    12714    14624    31503    29671    -6172   -43082 
  -35900     1144    30192    45943    54919    60376    64933    59931 
   36111     4704   -13964    -9332    17906    52500    65620    46546 
   24547    21128    17695     3032    -5687     8927    46060    78251 
   76539    51167    36059    39328    34299     3856   -26994   -28902 
   -9582    13431    30225    21799   -10199   -26079      298    56693 
  107260   109459    63350    19186     3179    -1941   -11437   -16676 
    4939    46693    72593    78567    80727    70884    43185     7187 
  -25200   -33635   -22126   -20961   -24012    -3724    32374    50949 
   42591    35187    33486    13074   -10237    -3092    25435    39950 
   21089    -4612     4311    46842    85812    84920    52587    36463 
   49609    63046    50450     6273   -43289   -60559   -31004    22858 
   53230    45894    36248    40443    40279    28494    16895    19978 
   36208    46795    40883    26276    13828       94   -15828    -9776 
   28946    61778    55607    36248    43518    75226    91851    56791 
  -12722   -56918   -44497     2134    44018    67143    75348    70274 
   61215    52359    32401     4000   -10126     5864    38712    56259 
   44828    15804   -10604   -16375   -10227   -16096   -23234     -222 
   45195    72426    67944    54407    46637    38011    20919    -1286 
  -10778     2269    21953    37948    49292    54772    58051    43185 
    8490   -12378   -15202   -10164     3346    14844    23820    27861 
   22021    27463    52158    74895    70920    32445    -8267   -21099 
  -14368    -5807   -12459   -22424     4561    65317   111194   103330 
   54186    18288    10636      114   -20271   -30738   -12614    26287 
   53858    65481    73665    70336    56965    48162    43000    33478 
   15037      992    13297    33124    28567     9567    -3397    -4837 
    3377    15217    32298    52596    64390    64789    52974    28221 
    3334    -5660     3928    28212    62804    84753    67864    22601 
  -19118   -29268     4191    52641    68814    41258      422   -21093 
  -16416     3503    30715    64107    82377    60318    18407   -14050 
  -29184   -16899     6814     8681    -7423   -15426     3619    44878 
   79342    87627    64034    19770    -6961     -664    15909    28449 
   30813    23742    32215    66587   100205    99932    55170    -3485 
  -35550   -33220   -10324    15745    33384    39333    37666    41234 
   49343    40879     5859   -37250   -52600   -16842    48894    89409 
   76257    40347    21346    20563    25257    31810    34416    28310 
   20934    22688    34753    48420    53562    51295    50835    52884 
   50631    48732    55647    49843    10993   -25712   -19585    21807 
   64632    70560    38535    15708    23619    46905    65634    54641 
   22864     3532    -2133    -1282     1109    -5799    -9853     7711 
   38792    62675    69045    59171    39766    22468    14679    11279 
    5246    -5067   -15858   -17446    -5213    13475    27884    34711 
   41636    53192    58364    42475     8959   -15075   -10220    12510 
   38210    61140    69982    54846    26923    11179    10471     3827 
  -16341   -33521   -22702    22815    75805   102558    90882    52197 
   15377     1876     6011    10998    11234     9707     8078    14939 
   36463    58056    62716    42504     2708   -26345   -19480    11514 
   37118    39928    29870    31523    46909    55220    42990    12825 
  -13937   -13369    11550    41349    55177    42526    26032    30126 
   43794    45933    28089    -2928   -29412   -34376    -8845    37601 
   83296   101406    74344    34561    26327    44909    66140    69846 
   48359    16281   -12556   -24714    -7731    27444    56620    61862 
   44581    27704    25558    31780    37817    36991    28487    13617 
  -10262   -27662   -17404    14392    48196    60936    35793    -2166 
   -8877    16823    41200    41686    23618     7788     3782     8193 
   15952    13529     -399     -311    22833    43664    33971    -1822 
  -20187     9895    63571    88817    65657    26183    12403    28674 
   47821    47553    27544     8614    14665    40702    59791    58730 
   40205    11279    -8298     -658    18202    24765    20137    13829 
   19516    40302    56446    52917    24417   -13637   -24328    -5621 
   13184    20494    19846    21960    35986    55333    71617    78999 
   68188    40321     9347    -8773    -6245     6943    15631    15121 
    8394     9329    32394    61522    65809    47547    32027    24876 
   15858     2157   -10944   -17163   -12187     9208    42543    62834 
   55925    36396    21053    19504    23585     8858   -16430   -20501 
    1227    34098    60475    67312    56421    34825    10308    -5244 
   -2768    11921    20552    23912    39154    57300    60077    48162 
