Origin Time       2021/02/13 23:08:00
Lat.              37.7
Long.             141.8
Depth. (km)       60
Mag.              7.1
Station Code      IBR007
Station Lat.      36.3523
Station Long.     140.5955
Station Height(m) 24
Record Time       2021/02/13 23:08:18
Sampling Freq(Hz) 100Hz
Duration Time(s)  172
Dir.              U-D
Scale Factor      7845(gal)/8223790
Max. Acc. (gal)   73.723
Last Correction   2021/02/13 23:08:18
Memo.             
[...]
   -1378     2897    11002    13495     9845     2358    -3615    -2300 
    8831    21762    18724    -1887   -14754    -4114    10774     8777 
   -2336    -6592    -6370   -12725   -17282    -1714    23614    31849 
   20185     6042     1394      953    -6342   -13988    -9377     1316 
    7657    12253    19943    25064    19969    10876     6384     4337 
    5066    12187    17856     9895    -7109   -14461    -5811     5946 
    9251     5645     4433     8756     9412      274   -12846   -18692 
   -9273     8170    17001    12544     5057     4222     8519     8922 
    2579      706    10706    22102    24709    20025    14678    14102 
   13119     1412   -15115   -18936    -9396    -1171     -103    -4276 
   -8680    -5805     -479    -1977    -3856     5140    21253    27754 
   18895     8079     3796     2558     2783     3415     1602     -179 
    2060     3053     -232     3262    13694    14841     4128    -8438 
  -15541   -11469     1894    12384    13925    13531    18096    25070 
   24953    14526     2504    -4650    -5408    -1069     1998     5481 
   12657    15808    12646     4236    -9902   -18985   -15996    -8259 
   -2041       13      602     8147    18493    18067     9659     6563 
    9259     9343     5925     4951     7380    10157    14395    17212 
   11229     1062    -3299     -179     6269     9076     8461    11034 
   14133    11581     4896     -376    -3507   -10102   -14211    -1452 
   18256    21806    12703    10481    14764     9995    -5485   -17994 
  -19429   -11797     1354    15186    24792    25820    14083     -769 
   -2760     2538     2647     2351     6806    10254     8388     3145 
    -739       35     1113    -5098   -12766    -8124     2705     2242 
   -1394    10852    25928    18301    -3634   -13030    -7149     -303 
    1269    -1836     -696    15201    36182    40694    22626     -919 
  -11688   -12609   -10918    -2263     8691    12337    17091    26535 
   28563    18719      390   -13532   -11059    -5124    -4584     1298 
   12750    22546    25686    16598      541   -11658   -21196   -32097 
  -33598   -16497     4045     9532     4534     4367    11113    12102 
    3910      232     7817    19171    25767    22624    11826     3646 
    4012     8579    11240     6782    -3503    -6583     1790     7236 
    5017     7067    11713     6102    -4384    -4834     6249    21568 
   31060    25467    12387     6848     6988     3946    -2293    -3342 
    4066     6141    -4477   -13824   -11958    -5482    -3384    -4105 
     432    11399    19236    13730     1190      226    12127    20268 
   18075    11939     6172    -2438   -14937   -21274   -16299    -8048 
   -1570     1047    -2371    -4303     1586     9649    15607    19107 
   21087    22715    16853     3728    -1111     5814    16310    26038 
   25493     8448   -10282   -12472     -371    10069     9679     3383 
    1844     6393     7731     4085     3549     6324     2523    -8761 
  -12573      -28    21845    41941    47239    31576     7962   -10137 
  -24332   -32856   -27901   -11337     9828    24489    20858     7642 
    3956    10881    20344    27086    21124     1840   -12806   -14284 
  -14185   -14472     -218    24544    34187    22540     6457    -1108 
    4167    15087    13756    -1107   -12465   -15831   -17525   -16723 
   -9016     5968    23012    35534    37003    22833     3088    -6636 
  -10413   -21018   -33466   -29955    -7905    12220    15439     8491 
    3970     6195    12187    15346     7593    -4229    -2276    10746 
   20852    23993    19772    13594    12267    12298    12739    19118 
   25848    21139     4816   -15329   -29513   -25232    -4874    10293 
   10712     3364    -2219     4006    16217    18481    14478    13454 
    9644    -3885   -23927   -32610   -10739    27014    41825    21821 
   -7418   -16947    -5902     3245     -244    -4345     1588    13169 
   20216    17008    12036    18758    26680    19149     6331     4449 
   13884    20452     8024   -13325   -19345   -13771   -15114   -21583 
  -18550      800    28088    43042    33058     9148   -12780   -29563 
  -35523   -25597   -11153      419    15990    35468    48944    46950 
   25759    -2435   -16421   -14593   -16254   -27819   -31163   -14881 
    8455    22815    22314    16652    23811    37096    33816    14173 
   -6674   -20086   -25713   -25556   -16303      126    15026    28028 
   32653    17556     -919      765    12733    11060    -5925   -20483 
  -21651   -13244    -3365     1258     3936    13232    24692    27734 
   17442      -52    -9050    -8480    -8251    -3723     7345    16096 
   21514    21041     8290   -11641   -28005   -32202   -22100    -3076 
   16968    28818    33791    42025    46246    31091     3869   -15635 
  -21690   -20259   -13666      955    20903    31926    27062    20915 
   25461    34501    36475    24163    -1417   -32886   -55239   -50615 
  -22280     6610    19207    15687     8379     3549    -2876    -5494 
    3670    15714    19180    13890     4303    -4612   -12301   -20683 
  -19400     1372    24511    33941    37940    34187    15770    -3046 
  -15061   -22570   -18049    -5977    -5517   -14264   -13828    -2961 
   13614    29798    27283     7488    -3809     3339    17971    25211 
   22378    22499    24792    14808    -1383   -10018   -10044     -616 
   11001     8425    -3831    -8935    -5884     1229     9339    11230 
    8893    11349    20262    33069    42620    36837    19236     7389 
    1389   -12442   -32980   -41072   -20829    11515    19800     1393 
  -12822   -10199    -2037     3538     5524    10243    21243    24310 
   12904     5626    13836    26971    32224    23171     6724    -1726 
   -2083    -3669    -9013   -14914   -15400   -11408   -10485   -12268 
   -8511      626     6493    10486    16440    16359     6030    -4383 
    -321    20040    37581    33995    15738    -1567   -11098    -8001 
    3786    12424    16294    14924     6226     -606    -1950    -4413 
   -3159     5358     9251     2317    -8629   -12214    -2654     8225 
    9390     5250    -2964   -11176    -8287     1105     7919    10416 
    2529   -12140   -18474   -16715   -12372      830    17832    24894 
   23650    16441     4928     3088    11456    14770    11889    10417 
   15002    25096    27820    17180     9776    15939    20741    12067 
     -86    -4789    -3631     -808    -1414    -6907    -8406    -5493 
   -8754   -14554   -11391     -129    14540    30530    37768    28802 
   12455    -3897   -18172   -25898   -27178   -21255   -11655   -10188 
  -12216    -3939    12717    28385    39410    48406    49543    27653 
   -9346   -31815   -26815   -10343    -8856   -22378   -22975    -6897 
    6076    12433    15863    19562    25072    23450    16189    14351 
   13589     9377     9873    11746     5864     2897     8982     9640 
     557    -4230     4182    17331    19400     4210   -17207   -28127 
  -26347   -20761   -11167     2473     6974     3319     7537    17220 
   18376     4236   -16700   -20744    -2226    16177    21729    24416 
   33748    44230    40196    15461   -13740   -28992   -31666   -27359 
  -13282     4990    15477    21439    31700    37673    28946    14692 
    4777    -1682    -4945   -11380   -23004   -19992      711    10604 
    3491     5782    28389    49883    48338    29338    12537     6654 
    4855    -3979   -16478   -19757   -14218    -8191    -8171   -12825 
   -4082    22623    45883    52817    45751    32958    19426      885 
  -18350   -24367   -18554   -19288   -33995   -48687   -45658   -21294 
    9217    25928    21836     7188    -5123   -14092   -20256   -22499 
  -22050   -12727     3294    10612    16902    37007    52605    44845 
   25496    11826     8251     9904    10125     4908    -5053   -12568 
  -15807   -22638   -30110   -25879   -14517    -6694     2201    10420 
    9474    12096    27303    37002    33407    30735    32580    28429 
   13971    -5124   -16603    -6839    17547    30705    23271     7646 
   -3906    -8128    -9628   -12137   -10393     1629    15817    18490 
   11549    11931    27589    38670    24232    -1655   -11206    -1310 
    9254     4974   -11815   -24815   -20887    -3021    14131    17487 
    4849   -13554   -23473   -19575    -7696     2127     4180     2710 
    3446     7597    15418    21303    17759     7107    -4557   -14742 
  -20259   -17984    -9972     -972     5913    14544    33014    52793 
   54573    43096    33629    19511    -5637   -31548   -44076   -31965 
   -4978    17640    32393    33531    20715     9229     -762   -15117 
  -23504   -16322     3611    20881    19105     5965     1559     5875 
    8417     8077     5941     1070    -3365     -990     6141     5155 
   -3145     -317    13047    15149      243   -13003    -5359    15661 
   21811     4711   -13980   -11448     9269    20317    10987     4334 
   11723    18315    13991     2501    -3341     1013    -3855   -25851 
  -37893   -20083    15326    44298    51800    41962    24857     -398 
  -26832   -30727    -4595    27765    36876    21054     8252    15495 
   26881    21598     6334      357    -4175   -24865   -46668   -39317 
   -1632    37851    54386    41239    11624   -11692   -23832   -25031 
   -8518    11712    16981    16968    23367    23676     5844   -17011 
  -24880   -18863   -15831   -19982   -13713     8417    22546    19168 
   15893    19133    20351    12424    -1071    -5209      770    -3389 
  -19992   -17676    15986    45546    42349    19197      955     -595 
   10296    18351    14461     6451     3481     5880    12656    18272 
   15307     6342    -3370    -9131    -7973    -8201   -13774   -20785 
  -33388   -45960   -40809   -16810    12781    34479    39977    37515 
   37642    28497     2076   -18133    -8328    23689    47146    37944 
    8289    -6639     4139    19610    17991     1634    -6999     1976 
   10048    -1426   -21136   -22165     2332    29979    31116     5208 
  -16549   -18605   -18098   -31077   -49979   -51522   -23816    18261 
   49432    59682    60080    52921    24359   -14747   -35587   -35398 
  -26025    -8023    16429    37643    52309    65777    76944    66158 
   27718   -10924   -34929   -46217   -39371   -24509   -14875      545 
   22048    27621    12988    -2342    -6650    -7511   -10138    -7190 
    5279    22555    30929    17362    -3435    -7090      211    -2212 
  -19735   -40142   -41555   -19489     5105    19084    26779    30717 
   24459     8106    -2538     -502     4692     7067     5601     3175 
    4380     5724     4625     3908     3551     6747    16866    24844 
   22674    13964      984   -15588   -31715   -38908   -24159     6925 
   32147    47015    54631    48721    28252     1308   -18670   -17863 
    3789    26416    31839    24867    16730     9328     -581   -17909 
  -36088   -34519   -10752     6162     3557     5178    21415    37563 
   41824    32732    21099    11497   -10497   -44176   -64511   -60288 
  -42024   -20677    -5028     3327    15763    30645    35819    40842 
   49809    46138    34030    27114    16935    -5008   -30465   -45646 
  -43889   -28880    -7925    12303    31089    48463    56142    50128 
   30989     2434   -21918   -36613   -40095   -25771    -8527    -9139 
  -18287   -13393     9913    30466    31843    26129    20765     9794 
     510    -1583      734     8386    16495    20864    21443    15925 
    9022     6426     8033    10262     3842   -10566   -17473    -8671 
    7682    19180    22115    11859   -16445   -43553   -47247   -32830 
  -11978    10457    30510    47363    56068    48298    30846    19241 
   11749    -2739   -20009   -28691   -21051     5259    31799    40313 
   40127    36148    22627     6119    -9792   -28968   -49212   -58931 
  -45210   -12717    22148    47166    52137    39479    28667    21166 
   -1350   -29223   -40198   -36162   -24543    -8305    18554    51788 
   57303    24838   -20220   -55476   -63840   -45654   -18216     5935 
   20016    28105    39549    47794    35891     7843    -5364     6844 
   15002     2570    -7618     6015    34017    51927    44431    13697 
  -22257   -45312   -54696   -52432   -32174    -4681     7269     5610 
    9663    27351    43029    29658    -4455   -17429      584    23861 
   35533    36486    36814    43733    47744    30535    -4995   -34218 
  -42480   -32718   -20513   -20025   -22324   -11334    12988    37550 
   44055    24509    -8365   -32435   -33033   -15084     3937    17913 
   34184    50502    53595    42695    25343      496   -23410   -23125 
    -288    16139    16829    12954     9786     6289    -3986   -19261 
  -23072   -13359    -7206   -10284    -9961      361    11622    13301 
    1891   -13838   -16837    -9347    -9313   -10839     7469    42064 
   65981    60211    30288    -1233   -15329   -14709   -13047   -14766 
  -17446   -13335    -1115     2859    -2992     4433    26717    34493 
   16731    -3699   -10442    -8139      554    17965    40606    56667 
   48440    14505   -16918   -26380   -27072   -34773   -44938   -36676 
   -3316    27473    34057    27687    25146    28308    27691    17745 
    6771     7024    17080    21940    14661     2833    -7574   -18320 
  -28368   -30148   -23970   -22299   -25407   -14503    15385    39950 
   32051     -243   -15707     4045    32437    39510    28842    26086 
   36903    40552    21924    -7893   -24420   -17860     5487    29930 
   36626    29930    30765    38792    33686     2358   -43271   -72613 
  -69738   -47162   -23849    -6400     8071    24106    41994    49262 
   33743     1526   -33469   -58872   -61913   -38267    -3447    23129 
   39093    46472    40374    21597      494   -15346   -19311    -4804 
   15230    26167    38030    51946    49580    31167    12540    -5125 
  -29791   -52863   -52201   -24335     9583    33805    47773    50222 
   39938    28935    26260    16922    -8541   -36697   -57478   -61194 
  -40019    -5772    27901    49763    48026    29143     9221    -6601 
  -20391   -32706   -42276   -40547   -16040    22343    50310    56710 
   45909    23047    -6038   -29091   -35689   -25890   -10052      467 
    5598     9639    14725    22817    24898    10639   -10378   -24101 
  -26400   -16964    -1277    14416    29820    40883    39059    23010 
    3994    -2768     2254     3280    -2432     -384    14918    35961 
   53115    58606    49017    22788   -11048   -35324   -46433   -45908 
  -34393   -17994      253    13894    18273    21632    24123    15728 
   -5248   -30005   -42007   -27207     6373    30838    31777    26064 
   31584    39860    34321    12611   -12359   -24745   -23017   -13756 
    -513    11412    21509    28262    18766    -2349   -11200    -1057 
   17311    27429    14821   -12853   -29963   -26650   -17869   -12613 
   -2355    18287    41820    53349    45659    26356     5563   -11075 
  -18569   -11943     2473     8172     3784     1787      108   -12675 
  -32104   -45644   -46753   -33257   -10878    14214    38175    49798 
   44482    33952    34314    47985    51368    24414   -13937   -31922 
  -29039   -26570   -28059   -18175     4638    23383    29432    27294 
   16857        8   -11905   -15277   -12465      303    24243    49515 
   59344    47268    26833    10289    -5791   -26102   -45274   -45597 
  -12785    33250    58180    57411    40937    12406   -17809   -36976 
  -42745   -38670   -25569    -3283    16349    19269    14644    18580 
   26519    27202    19338     8942     1228    -9566   -25078   -30595 
  -21267    -9130    -5451   -10540   -12397    -8884   -14238   -27805 
  -30751   -12841    22203    54481    59995    48124    39874    32439 
   23735    15570     5081    -1918    -1104     1669     1804     2694 
   10122    17095     9594    -6930   -16800   -19221   -13444     3728 
   17910    17312     8480    -4683   -20953   -30754   -29893   -23791 
  -16937   -11616    -4216     7215    12634     9863    11200    21613 
   31561    25571     3033   -13007   -11556    -7082    -2427    12980 
   32768    40768    31294     8453   -13446   -16627    -2840     7896 
    6096     2155     6292    16448    29111    40667    43081    40466 
   41856    36784    18805     2150    -5254    -7516   -10654   -20389 
  -31028   -31085   -22890   -13648    -4548       -2    -3198    -6644 
   -5879    -5857    -6227    -3565     1217     8139    11357     3246 
   -2674    13270    41146    54626    44950    24880    15001    17455 
    9647   -13721   -26414   -14543     6292    19138    20271    15269 
   10423      984   -17362   -33914   -38329   -32089   -20119    -6646 
    3728    10184    12714     7902     1556     5247    11956     8050 
    3218    12306    27306    31941    24314    18760    25405    31792 
   21875     3366    -5043    -6696   -15811   -21870    -8856    11978 
   20741    12075    -4351   -11751    -5269     3256     3765    -3719 
  -12854   -14446    -1819    22805    44806    46880    29421    10354 
    -888   -10220   -16393    -9267     5346     9967     4310     3206 
   10760    14710     5231   -13510   -27922   -26487   -13063      356 
    8630    11075    10906    15078    24965    33243    30786    18509 
   10215    14022    18555    12515     2947    -1144      360     6538 
   11250     6745    -3007   -10141   -13927   -17770   -17182    -2092 
   18119    21659     5352   -18459   -36421   -39482   -30557   -19633 
   -9385     4590    22702    36234    32976    12803    -5240    -4949 
    6230    13236    14940    18172    25085    29282    22401    10039 
    5908    10480    16800    20908    18238    11597     9613    11017 
   11206    11979    14696    15383     8483    -2938    -9875   -15075 
  -26693   -37239   -35314   -24430   -11260     1503     9204    10080 
    7904     9610    19315    28665    24802     7200   -12957   -24521 
  -22536   -10230     3940    16236    25645    26248    16000     3348 
    -973     7310    21767    28089    17539    -3322   -19984   -20209 
   -4257    10195    13711    18711    30784    41138    45369    43649 
   36485    26665    10581   -19282   -51208   -61303   -46503   -26723 
  -18573   -15673    -2330    17987    28768    25812    21190    24406 
   29014    28102    23514    17388    16040    20973    17814     1872 
  -11443   -11406    -3235      616    -4514   -11307   -14029   -13354 
  -11905   -13807   -17875   -16503    -9212     -441     8949    14962 
   17450    23037    25721    13824    -7366   -21973   -22499   -14354 
   -6651      -28    10806    20991    22314    18326    13207     8210 
    5703     2768    -1036    -1857    -3437    -5208     5211    26920 
   41366    39649    30765    27429    29178    21234       27   -15708 
  -13528    -6683    -9544   -18446   -23733   -19742   -11928    -9543 
   -7103     3434    13635    11408     3919     6355    11731     6929 
    1463     8568    24657    36643    37080    30223    22046    13142 
   -1212   -21421   -33470   -28310   -15456    -4013     7527    22469 
   34353    30022    12074    -2052    -6169    -6420    -6093    -4448 
   -2554    -4606   -10552   -10913    -3060     -778    -8016   -10488 
     372    20580    38033    42186    34878    21504     7824      220 
   -5194   -10624    -7504     5676    22613    34005    27583     4340 
