Origin Time       2021/02/13 23:08:00
Lat.              37.7
Long.             141.8
Depth. (km)       60
Mag.              7.1
Station Code      IBR013
Station Lat.      36.1587
Station Long.     140.4892
Station Height(m) 29
Record Time       2021/02/13 23:08:20
Sampling Freq(Hz) 100Hz
Duration Time(s)  240
Dir.              U-D
Scale Factor      7845(gal)/8223790
Max. Acc. (gal)   125.936
Last Correction   2021/02/13 23:08:20
Memo.             
[...]
   22944    26288    32868    36802    33450    23615     3643   -18540 
  -22929    -9790     9290    25191    22931     8459     9520    25420 
   29759    14337    -5857   -12877     1418    27383    39954    25547 
     -75   -14372   -11267     3003    20472    27594     9370   -20665 
  -30130   -14598     8614    32609    56902    69133    53030    15867 
  -16303   -26586   -14836     7522    24459    24663    11685      990 
    3472    18820    32414    26320     7288    -5290    -7727     -955 
   14365    25172    19214     4293    -3149      183    10720    27020 
   36833    29921    18441    11927     2940    -7506   -10602   -12100 
  -15395    -7354    11295    23099    25614    30121    39881    42276 
   23170    -7728   -25988   -24417   -13609    -1640    11234    19172 
   15491    15506    32624    47062    40358    22616     7038    -3905 
   -8367    -5260     1405     7776    14573    23210    29193    22833 
    1189   -20514   -19438     3299    21354    24486    24413    23195 
   19386    21847    32192    40279    33407     7213   -19680   -24798 
  -11880      621     7411    17331    28611    29349    23020    20332 
   20050    15958     7258    -1011    -4502    -3877    -2089     -592 
    1328     5487    15484    31758    44679    43896    31158    15075 
    1282    -9387   -17489   -16332       47    15859    15529    11715 
   14889    19332    24668    30150    31422    23511     -102   -25855 
  -28466   -10547     6593    13157    11599    12456    24247    39907 
   48312    44593    26103     -375   -16335   -10925     3964    10099 
    6561     1252    -1903     3927    21371    37993    43781    37746 
   14102   -21358   -39908   -26095     4126    27513    30823    17193 
    5175     8212    20788    28566    24349    15106    12082    16715 
   22052    19795     3550   -19768   -30470   -21150     2565    31865 
   43980    28715    16028    30030    53361    55625    30871     2046 
  -15390   -28246   -37866   -36096   -18397    10295    35722    50211 
   51428    34006     8934     -614     8591    17837     8853   -13591 
  -25952   -19141     1598    29794    44227    31066     9647      120 
    1830     4812     2358      132     4718    12260    16201    13429 
   10504    16691    26576    27868    16845      280   -12314   -14624 
   -1825    15834    20475    15218     5427    -3624     8532    33972 
   43106    38304    28287     8110   -12224   -17813   -11403    -2223 
    7560    16839    19381    15723    16798    24769    30105    27344 
   15830    -1637   -14554   -15628    -6427    12123    33318    41257 
   32715    22227    21077    24298    18166       36   -19303   -27645 
  -16916     4557    17713    17008     8198     -461      144    14141 
   37041    50364    40123    21905    12672     8984     6972     1791 
   -9444   -15304    -9957      510    12852    25327    33007    29112 
   17581    12252    14269    19228    25409    20452     3381    -6343 
   -5078    -2774     -260     2845     6880    15907    28395    39015 
   46134    43436    19673   -14297   -27538   -15569    -2809    -1564 
   -4158     2068    15406    17938    13346    22758    39511    48004 
   48136    33565     5509   -17398   -27464   -22739    -5493     8067 
   12210    11535     6293     4259    13578    25456    23683     9035 
   -1197    -3527    -3538     2578    11106    17397    22319    18954 
   16818    29563    40086    33644    13579    -9717   -17786    -8028 
    8144    24664    27803     9711    -7479     -525    22582    38134 
   34291    17070     2045    -2957    -4696    -8079    -9405    -5405 
    7011    28644    46364    42631    23967    13563    16387    22326 
   21220     2762   -24171   -33291   -14994    15592    31688    19175 
   -7171   -22245    -9668    25933    56709    61585    44706    19958 
   -2332   -17504   -25038   -27031   -24517   -13367     7850    33947 
   55642    58113    42083    28917    22621     9036   -12313   -25743 
  -16808     7007    20202    13555     2169     -367     6235    16972 
   24656    22397    14858    13554    19319    24590    23920    17666 
    8793    -1026    -5594    -2886    -3682   -10735   -10930     5545 
   28887    40107    34969    18808     2374     2752    16853    26395 
   25255    14931     1528    -7407   -12294   -12077     1489    25249 
   37847    34246    30157    22289     5946    -3078    -5283   -11700 
  -15391    -9117     7190    27908    40371    43573    42043    29444 
    6536   -10741   -11533    -3576      877     3555     5530    -2026 
  -10902      955    30222    48207    38963    17037     5046     6119 
   12021    20649    26015    16849    -3391   -16198    -9116     6077 
    8561     3126     4072     7568    11064    16595    18126    12814 
    6820     7963    13101    12630    13034    23465    34388    34759 
   24769    10920    -2822   -19692   -34978   -35340   -16626    14214 
   40833    50388    44784    27681     9444     5059     8957    13373 
   25034    34273    22947      835   -13423   -15859    -4143    22493 
   52698    63189    38622    -2520   -28337   -25833    -4083     9867 
    5823      934    -5196   -16490   -12167    14976    45215    58306 
   49648    31770    18603    15688    15322      943   -21455   -32567 
  -31592   -18887      957    10149    10069    15530    31692    52292 
   58711    43212    17030    -8100   -23352   -27993   -23899   -13224 
   -6421      932    20750    42595    54672    53929    41828    28321 
   13973    -2388   -11630   -12560    -5147     9054    14505     6845 
    -172     2874    18534    42909    59699    48971    10228   -30072 
  -41472   -16486    23480    51231    52898    27413    -5078   -17955 
   -8125    10185    17394     5350    -6451     -369    13628    21498 
   26774    35263    41292    40023    28530     2722   -22604   -25027 
   -8930     8266    13629      814    -9026     9900    44192    64790 
   56380    19618   -23274   -48485   -44292    -7897    32695    38429 
   12436   -11307    -9842    12997    37442    50850    48131    25744 
   -3973   -20065   -19674   -13741    -9992    -7723     -704    12919 
   31835    49777    49381    26696     3817    -5100   -10118   -20194 
  -28679   -23602    -1143    27997    49674    55108    37975     9186 
   -4140     4247    14497    12141     -666   -13171    -7541    24741 
   58426    62568    37835     2150   -20571   -10498    17167    29759 
   22809    10606    -2376   -14944   -15631     3315    28572    43883 
   48115    41629    21570    -5443   -23931   -23873   -10087     2744 
    5201     2812     7183    19840    33990    44799    42996    22245 
    -959   -11295   -14308   -12480    -3642     8506    20920    28458 
   29489    30592    28142    14146    -3100    -8286     3213    17157 
   17300     9292     1216   -11044   -20861   -11705    15942    40174 
   42831    28972    15782    10674     7580     1139    -6623   -12452 
  -13350    -6156     7051    21767    35901    41769    36741    30765 
   21309     4899    -3786     1202    10867    14555     8700     1536 
   -4410    -8461       29    18219    30901    32773    25207    13643 
    6049     4357     5422     5232     2107    -3233    -6057     3006 
   21309    34913    39420    34819    18983     2039      953     8355 
     791   -17064   -25331   -24520   -16055     7099    38688    63278 
   72617    67902    51842    26750     -662   -24351   -37825   -35777 
  -24144    -9541     4793    15252    25266    36590    44810    47856 
   42530    26207     4062   -13234   -16969   -10085    -5262    -6691 
   -7585    -4060     5915    24578    47120    56627    36873     4841 
   -7379     -758     7619    11801     9919     1510    -8750    -7480 
   10293    25143    22420    12704     9431    13822    19028    19734 
   18439    10160   -13346   -30711   -15689    13952    26272    24125 
   22766    17620     8842    10822    20511    24376    21736    13180 
   -1194   -10755    -7223     2978     7825      -64   -17359   -25425 
   -4047    36629    58666    44648     9135   -25713   -33089    -2324 
   40543    64651    55580    16110   -20039   -14890    22451    50175 
   50776    37135    20270     7695     5042     4784    -1987   -14227 
  -19144    -1032    31603    50683    40620    11745    -6762     1449 
   18720    25783    22863     7801   -11362    -6667    19577    32917 
   22681     6843     1078     8351    19884    18095     -202   -14165 
  -12819     -313    19745    30184    20256     8660     8441    16102 
   25608    20934    -5050   -32590   -43425   -31930     2648    37455 
   42731    27747    18044    17842    19776    13325    -3821   -20717 
  -29475   -20212    13578    50357    59560    35172    -1080   -21138 
  -18171     -182    24061    36983    30192    16021     3129    -3766 
   -2567      -98     7492    25199    36867    31160    16503     4876 
    5265    14987    22357    21941    13095     4612     8494    17313 
   18732    16416    16916    12777    -2203   -11599    -4052     5849 
    9162    13722    21671    23090    10920    -3555     -233    18727 
   32474    36126    33272    18559     1151     -247     7006     3396 
   -9200   -15071    -7832     6690    24679    45692    54198    31405 
   -5925   -21751    -9828    10359    20953    18630    13421     8044 
    5564    19097    39702    45161    35660    27238    28512    23198 
   -1323   -24216   -34319   -39519   -32794    -9601    19961    42807 
   51482    56266    61847    51017    20494    -5609    -9333    -3376 
   -5061   -12028   -21775   -28547   -20390      -60    26569    50136 
   56342    49609    33905     5682   -20850   -34896   -39730   -27843 
    4148    34001    41308    33982    32040    38917    40886    27866 
    3599   -15387   -18612   -16987   -13566      -81    10547    11082 
   21154    43625    56469    47808    26153     5200   -12050   -26690 
  -33131   -28800   -16977     1896    27950    56266    74031    62810 
   24430    -9337   -18496   -12341    -5267    -6160   -13687   -15881 
   -1243    26099    45195    46030    36026    18650      302    -1983 
   12866    23912    18998     4959    -8775   -18206   -15974     6021 
   36644    55115    53389    34156     8137   -11938   -17647    -3503 
   19043    24906     9363    -9724   -17336    -7736    17166    44725 
   52867    28073   -12793   -41756   -50089   -36167    -2061    30685 
   44216    44342    42250    43032    41469    25868    -2438   -26152 
  -31315   -23163   -14440    -6621     3057    14056    26172    37450 
   45906    49072    37781    12525    -7476    -9431     2847    15963 
   19344    18481    15601     3948    -7362    -7168    -2604     3380 
   15947    24898    22032    19865    22827    23791    23323    19121 
   11750     8166    -2185   -22497   -29501   -14095    14288    40269 
   47341    42843    36979    25324    12771     1389    -6072       56 
    7727     6245     -438   -15539   -30323   -31961   -20335    10939 
   53339    76262    67679    37581     4625   -13838   -17208    -6127 
   18102    31436    19651     1381    -8870   -13115   -12950    -3144 
   17118    32622    38078    46218    54513    48716    23006   -15724 
  -41847   -37562   -16984     4685    23452    29556    21452    15942 
   27873    50464    57022    34878     4274   -12144    -8353     8347 
   21525    19746    -1039   -30411   -43393   -33029    -9788    16686 
   37983    50841    45454    17721    -6701    -9540    -3276    -1120 
   -2874    -1992     5015    14608    22673    26345    20494     1736 
  -16783   -13302     9811    31882    39287    29280     9864    -8235 
  -16247   -11535    -2775     5881    17084    29754    38672    34963 
   20301    11678    17362    24630    22033    17644    18473    17167 
   10755     4394    -1929   -13197   -24127   -15418    14076    35665 
   36628    28659    16640     7493     8788    18669    37260    46795 
   28402     5306    -6119   -19942   -30925   -27610   -16353      143 
   17583    27375    37638    53014    55215    33110     -981   -21714 
  -13474     9294    25489    26937    13417    -2155    -4001    11476 
   31920    36296    21871     3553    -6756     -549    15298    19876 
   14956    15606    11029    -7653   -17321    -4530    18654    40516 
   46950    31479     4918   -21668   -27626     -426    31360    39128 
   23776     -587    -8152    12372    32626    29432    15076     2574 
   -1964    14561    42043    48014    27248    -2690   -29396   -40529 
  -29346    -3663    21714    32166    25396    12931     1093    -7944 
   -3204    11786    12024     3813    16730    36223    34416    22860 
   17402    16368    16244    12901     6212     2658      689    -8599 
  -18461   -14527    -2801    10521    32967    52068    42979    15884 
    9664    34425    60273    63489    39189   -10528   -67185   -99300 
  -88015   -40616    20164    66268    77712    63445    38379     2525 
  -28831   -37107   -31041   -20102    -6813    -4683   -15580   -11055 
   29215    81247   108054    98485    62483    20536    -8770   -15793 
   -1991     3535   -24468   -61408   -69750   -40593    10493    56107 
   80694    82996    63967    33574     8159    -5158   -14744   -26042 
  -26773   -13020     -994     5918    19607    34582    39962    40663 
   39695    38735    34231     5123   -44721   -79562   -80435   -45921 
    9798    56079    78541    79960    77607    91174    96439    62291 
    1013   -66877  -117342  -120965   -77612    -9139    52224    76434 
   71429    61188    50662    37304    18461    -1263   -14550   -25559 
  -34407   -36134   -27090     -849    34149    64527    84181    82453 
   66159    44972     7720   -35942   -63639   -66086   -31830    25182 
   67028    77291    58833    30723    12889    -4556   -29326   -41485 
  -27994     2488    39911    69804    65271    27810    -4218   -15715 
  -16235   -10247    -5019     4774    26717    37789    24255    11020 
    6393   -12347   -32734   -20629    13616    41215    48575    30692 
    5394     -657     6432     8490     9674     8182    -8641   -28702 
  -24158    12337    53149    65072    43858     8094   -14114    -8676 
    5138     6601      -13    -8241   -16625   -11342    16065    46975 
   49866    18704    -9208    -7715     8244    20804    20464     9838 
    4588     7137     3986    -8677   -10539    13346    47484    67370 
   54372    10157   -34684   -49404   -31198    -9076    -4800    -1021 
   11145    16900    20371    21427     7272    -9738   -16044    -9101 
   24629    82606   121871    99154    28699   -33698   -62833   -63239 
  -31253    11327    24659    14130    -1013   -19699   -26801   -11084 
   20206    62829    99546   101482    66911    20965   -17790   -46236 
  -56239   -38388    -3372    34357    69122    82725    55587     5748 
  -29304   -36254   -23504   -15018   -21456   -12954    18045    44355 
   55868    45208    20777    14715    20984    13491     -595   -12744 
  -30527   -47841   -48452   -24221    23130    76553   107507   100110 
   64339    23352    -5572   -22986   -36157   -35506   -13329     8984 
   10945     -164    -1962    20831    50382    59371    55171    49126 
   32374     5242   -23332   -47457   -59937   -58811   -39496     9729 
   77791   125821   122858    70803      166   -52272   -68651   -59301 
  -38516   -12911     1624     2408     4770     6647    11869    35433 
   63855    80796    89981    84666    49308    -4500   -39791   -47364 
  -45590   -30528    -6681     -558    -4170    10817    46930    77226 
   75325    42651    -7901   -49516   -48687   -20644    -7029   -10326 
   -8953     7867    38287    73954    97694    78949    16702   -40752 
  -62536   -51698   -20424     -433   -10693   -26725   -18430    16700 
   58606    85280    86628    63702    26584    -5485   -19691   -28313 
  -41600   -37276     2822    57268    90452    87216    59571    24784 
  -12209   -44527   -63347   -68858   -58390   -32208    -1229    27864 
   48490    55779    59339    60872    46151    11985   -27814   -48024 
  -33736    -2546    27322    48298    49855    42696    41106    35131 
   23124    13633     2739    -9772   -15358   -16132   -18908   -14701 
    1443    13639    24628    50584    77471    83781    62538    12692 
  -49592   -88321   -80654   -40890     9776    50911    52594    31765 
   33355    45831    48123    53428    53924    29070   -14223   -53090 
  -69826   -72025   -65269   -30434    26897    81251   113853   105121 
   67895    23554   -31183   -73974   -83035   -70015   -32692    29833 
   88303   109617    77561     6411   -52844   -47858    12865    72268 
   97306    79299    23701   -30299   -49967   -39645   -23861   -19526 
  -10663    10797    31187    51179    48130     8220   -17570    -8862 
   14008    49885    73001    56278    21964    -7776   -35148   -53968 
  -48055   -20090    10619    31918    46673    64670    82142    80511 
   48184    -3689   -42539   -47322   -33982   -31341   -43320   -45030 
  -24282     6215    44003    80127    86331    59389    22473     1352 
   11180    30504    15853   -37115   -85093   -96003   -64361     1636 
   66186    99316   103045    80684    36896   -11006   -36971   -30639 
  -15323     -904    20572    39199    44929    31627     7950      106 
    8464    24927    58656    97929    98581    41935   -26009   -71189 
 -106795  -114845   -76658   -21311    37114    86248    97151    72956 
   26821   -25375   -53493   -46854    -9795    39695    70650    69801 
   33924   -28767   -80283   -86489   -48344    13813    78646   124962 
  136433   113873    71039    17575   -38524   -72878   -66313   -36948 
   -2446    29312    35232    23562    19989    14413     4009     2566 
    7276    11337    11622    10840    11167    -3959   -31749   -31806 
   -1418    25042    48554    71617    71050    47633    17335   -16293 
  -41500   -42793   -30447   -10876    33331    85680   101973    70792 
   12098   -33265   -34651    -9778    18468    46958    56701    31963 
   -6188   -30169   -35330   -28274   -11396    10449    24387    24143 
   17155    13495     9101    -6648   -26565   -41710   -51587   -43638 
  -16657     1748     2407     9586    36120    72353   104850   121223 
  113470    75473    14532   -38334   -59764   -54344   -39222   -19853 
    9818    35822    37135    22765    17820    35083    59614    66852 
   52786    23291    -9563   -34778   -59697   -79783   -72191   -25294 
   43924    86775    81749    47158   -12218   -61859   -54130   -22021 
   -5136    10103    25353    38286    53064    56562    47131    26550 
  -12779   -45423   -39444    -7480    20736    22739     2419    -3362 
   12144    16355     2154     -314    31857    77279   100515    88997 
   41574   -23785   -76655   -97962   -72206    -4581    60567    76754 
   39621    -6706   -12837    13730    24491    14412    14608    21917 
   25411    38678    57029    55786    32278    11705    12776    28131 
   40483    29435   -12683   -66031  -106004  -103547   -43330    32653 
   74795    78355    59755    42188    33671    17767   -13394   -51079 
  -71996   -60829   -35734    -1490    49241    86667    87192    61894 
   32165    16937     7229    -6521    -3888    13077    16109     2871 
   -2678    16371    52002    87585   106567    88469    37631   -15071 
