Origin Time       2021/02/13 23:08:00
Lat.              37.7
Long.             141.8
Depth. (km)       60
Mag.              7.1
Station Code      IBR007
Station Lat.      36.3523
Station Long.     140.5955
Station Height(m) 24
Record Time       2021/02/13 23:08:18
Sampling Freq(Hz) 100Hz
Duration Time(s)  172
Dir.              E-W
Scale Factor      7845(gal)/8223790
Max. Acc. (gal)   176.925
Last Correction   2021/02/13 23:08:18
Memo.             
[...]
  -16503   -11142    -2162     4047     8095    11080    12275    14154 
   16930    17338    13559     5769    -5323   -17840   -26686   -28401 
  -25856   -21242   -12920    -1026    10489    15137    10947     6323 
    9999    16860    15326     5776    -6953   -23834   -36386   -31984 
  -17167    -5724       94     2023     2222     3774     4864     4855 
    8229    11317     2118   -17574   -29463   -23483    -7931     2747 
    2496     -288     3657     7572     1210    -9998   -14701   -10339 
   -2443     1351    -1783    -8241   -12305   -10444    -4220     1894 
    4282     1516    -2392    -1756       -4    -2207    -1516     6646 
   13216    13566    11033     4430    -4106    -7550    -8542   -12565 
  -13760    -6921      441     3210     5892     7723     4818     1749 
    1892     1966     1252      -36    -2149    -4446   -12102   -25466 
  -32063   -27336   -20553   -17639   -12757     -626     9657    11610 
   13381    17768    19322    16869     9219    -6709   -26651   -39352 
  -38303   -27854   -16518    -6578     5718    19338    24872    17188 
    6266     4446     6795     2027    -5260    -8185   -12870   -20367 
  -24826   -26287   -21978    -8901     4839    12872    18450    23184 
   22863    12622    -3744   -13186   -11813    -9004   -10440   -11556 
   -6975     -911     -830    -6022    -9612    -7173    -1753     2550 
    3581    -3322   -15522   -20542   -12927     1108    10782     9301 
    1468    -3808    -4368    -3640    -4819    -5787    -2481     4163 
   10060    10812     3939    -4382    -4490    -1059    -6740   -18171 
  -23553   -21743   -11732     9263    28306    31623    24502    14107 
    1090   -10752   -18958   -23859   -22068   -13061    -5358    -7015 
  -15179   -21199   -21425   -15569    -6065     2297     9462    12013 
    4831    -3570    -4519     -336     3862     2632    -2056    -2632 
      47     1987     2597      953    -1039     -981    -2891    -8838 
  -12650    -8662     2882    15901    21273    16051     5790    -3743 
  -11558   -19210   -25191   -26611   -23147   -13509    -1637     3256 
    1071    -3009    -4193     1717     9261     9944     5414     2108 
    2484     1688    -7331   -22555   -35009   -36825   -24688    -5401 
    8610    12692    13196    15944    14986     2887   -10835    -8252 
    7388    13286     2008   -10697   -12781   -11133   -15129   -20835 
  -20791   -14615    -5285     6444    18916    25069    20703    11203 
    3034    -3431   -10569   -16713   -17788   -15812   -13925   -10605 
   -8514   -11408   -13594    -6902     7303    18509    21190    18758 
   10359    -3489   -11099    -5845     2060    -2567   -17795   -24854 
  -17621    -7010     1043     8243    14814    17284    14443    12854 
   16387    15229      203   -18854   -27276   -29091   -33642   -35357 
  -26330    -8457     8779    17698    23839    30265    25173     4558 
  -18304   -31604   -35437   -32706   -22422    -7911     1129     3673 
    8367    13818     9953    -2478   -11280    -7460     4580    10743 
    2810   -13651   -27244   -29033   -19554    -8133     1128    10215 
   18489    22428    19516    14133    12343    10334       -9   -14727 
  -21058   -18968   -18754   -22404   -25068   -22333   -10791     7519 
   21224    20394     9001    -2073    -5792    -2479     2351     5922 
    6971     2979    -5233   -13297   -15111    -9537    -3856    -2412 
   -5049   -11462   -16290   -17632   -19238   -16746    -7264     1830 
    5805     7273     9877    10828     4318    -6774   -12557    -7520 
    3514    10060     8793     7623    12417    19426    21324    12823 
   -2841   -15261   -18022   -13400    -9593   -11477   -15853   -18709 
  -17259    -9324     2220    10519    11346     7680     5103     3549 
     973    -2486    -8793   -16617   -17751   -10436    -3330    -2037 
      21    10450    20717    16950     2380    -7781    -7369    -4299 
   -7041   -16910   -29598   -35735   -30470   -18868    -5921     5445 
   11325    11834    10764     6326    -4217   -10095    -1826     9477 
   11272     7192     5810     7086     4347    -1663    -4372    -6570 
  -13620   -23107   -32498   -38223   -33716   -20279    -3801    13275 
   25597    28659    26617    21523    10768     1289     3011     9801 
    8325    -3331   -17317   -23869   -20783   -19144   -24617   -24317 
   -9466     6771     8857     2535      203     -211    -2303    -3612 
   -2849     1568     7095    10851    19288    29432    23082      622 
  -16437   -18647   -14935   -16004   -17788    -9393     4885    13802 
    8829    -9312   -20245   -13937    -6473    -6797    -9301   -11958 
  -16609   -19090   -10145    10004    26794    26827    11395    -7676 
  -21212   -28166   -29633   -24854   -12838     3882    14392     9458 
   -2486    -7285    -5543    -5389    -8110   -10363    -8834    -1198 
    7360     5184    -5834    -9170     -479     7996     5917    -3272 
   -8857   -11542   -15747   -13159    -2525     1744    -2320    -4363 
   -3404     -411     4915     7481     6933     7256     7565     5578 
    1850    -1950    -4839    -5385    -3487    -2593    -2357     2060 
    9460    15245    16201     9398    -1962   -12946   -22142   -25299 
  -18792    -5287     7676    13949    14332    11873     8738     6338 
    3321    -2454   -11418   -21327   -27619   -28008   -24363   -18091 
   -9305     -399     5066     3196    -6826   -14544   -11904    -9362 
  -15437   -22280   -20775    -7863    11511    24491    28331    31055 
   28769    12934   -11300   -31942   -41400   -40950   -32590   -16920 
   -6419   -10060   -14323    -8478     1158    12132    25434    34539 
   33639    19959    -3829   -24553   -32768   -32520   -29083   -23569 
  -16588    -6004     6393    13019    15211    21610    30630    29353 
   15167      170   -12885   -27692   -36062   -30535   -12451    13575 
   32367    32238    25759    23133    15136     -580   -14812   -25330 
  -35301   -42152   -41956   -36605   -27411   -13344      386     7830 
   12962    20027    25050    23719    15218    -1792   -26312   -49565 
  -60993   -53370   -28356    -3577     5008     1526      634    13250 
   36711    53870    54441    47054    38645    24259     4692    -8495 
  -10908    -9767   -13068   -26859   -46305   -54480   -45295   -29119 
  -15755    -1391    21986    45981    56972    54621    44706    32644 
   19330    -2228   -33369   -59325   -67703   -66564   -66293   -56454 
  -25527    10864    30456    30511    18586     2548   -10185   -14912 
  -12094    -5742      723     4702     6327     5503      -87    -5552 
   -5115    -1418     5070    16845    29972    34389    23521     2346 
  -21039   -42105   -52722   -45192   -24181    -3096    11075    19943 
   21278    10346    -4947    -7199     4743    12384     8721     7607 
   18881    31864    27992     3454   -29620   -56158   -67242   -63729 
  -51992   -38554   -25868    -9836    12576    32246    31472     7041 
  -18678   -24457   -12669     1775     6737     5509    12973    26989 
   33050    31494    27295    17470      616   -18129   -32738   -40759 
  -37014   -21604    -8839    -5144    -4691    -3645     4541    22281 
   37875    40778    33818    29141    33400    37191    30646    14524 
   -8479   -32602   -50078   -57906   -56191   -51213   -50190   -50055 
  -44300   -27608       78    26318    42822    54402    60054    50197 
   23072    -8024   -27542   -37809   -47182   -45446   -23255     7942 
   33288    42466    34496    21755     9319    -5316   -15489   -16217 
  -14774   -19016   -24790   -22415   -11939     -625     9166    20615 
   32319    34983    25672    12482      708   -10921   -24387   -35523 
  -39100   -44398   -54934   -50676   -22401    12545    33895    36674 
   30689    25763    21254     8930   -10979   -25721   -31386   -33496 
  -28655   -11655     8426    14570     1729   -17081   -29457   -34993 
  -33664   -21844     3924    40548    69888    75693    64089    49889 
   37808    26312    11719    -9597   -27660   -31455   -34184   -46859 
  -54147   -46600   -33697   -21339   -12086    -6241     5502    22383 
   28780    20328     5769    -7042   -16807   -29285   -41625   -39395 
  -23287   -10288    -7719    -8058    -2774     6561    11492     9418 
    7596    11773    17053    15655     7801     -236    -5493    -8525 
   -9073    -7437    -4949    -2187     2308     6903     7373     5676 
    1615    -8448   -18770   -26623   -40587   -58109   -63153   -50633 
  -26790     -490    17879    29875    43587    56412    62333    58496 
   42107    11740   -25652   -53323   -63634   -67599   -72351   -69558 
  -52608   -24213     7944    28914    29174    17936     8615    10835 
   26032    39772    44498    49505    51799    38175    13254   -12866 
  -37822   -52650   -53387   -49242   -42318   -32668   -25751   -17928 
   -5663     2536     3592     3809     5663     9950    19396    32930 
   45507    50768    40755    14427   -15425   -37188   -50201   -51235 
  -35185   -10702     7084    12791     9373     1667    -5597   -11183 
  -14261   -10700    -3419     -198     1645    10963    31484    57888 
   80657    94617    94733    77508    47310     6685   -42822   -89683 
 -120777  -132591  -127138  -103131   -60604   -17316     6450    16557 
   24174    30873    43742    59206    67050    67788    48640     3025 
  -44064   -74409   -88986   -90250   -76609   -47073   -17139    -9463 
  -22345   -33484   -29392   -12814     5813    20726    34001    39802 
   35417    36979    46884    44836    28062    12893     1694   -14045 
  -28644   -25806    -6304     9942    14922    17325    19116    11431 
  -13487   -46087   -61280   -46610   -11412    24437    45871    53798 
   52524    46275    46565    58687    73834    76909    57661    19705 
  -27157   -78717  -126129  -145617  -125930   -90795   -66592   -49770 
  -25289     3573    25834    45968    67814    77183    62017    26175 
  -17290   -53229   -73377   -73828   -51908   -21039    -1819     7865 
   19997    32526    43591    52891    53879    49640    47869    42504 
   22523   -12752   -50985   -73797   -72387   -55618   -36471   -18612 
    -673    15832    24505    19828     8455     1723    -2843   -12024 
  -21872   -27716   -32194   -38900   -48367   -56614   -53056   -29155 
    9070    43861    61746    65114    60376    44189    14427   -17736 
  -34443   -31324   -19164    -4707     6069     4770    -4749   -11511 
  -11514    -6412     2722    14412    24312    27928    20773     2700 
  -11542    -5736     8471     4603   -19850   -48861   -69876   -72010 
  -52249   -22194     4611    21676    26208    19597    17149    34485 
   61514    76594    71712    51981    25679    -3252   -31029   -46033 
  -40963   -28705   -24181   -24331   -21442   -14670   -10399   -14476 
  -20386   -24179   -34905   -53647   -64177   -46557      653    51281 
   79748    82507    64245    33427      268   -35140   -69245   -84399 
  -70476   -37500    -3144    21199    33150    35719    31441    17960 
   -6073   -34056   -56916   -70892   -68751   -35498    18102    50373 
   48161    37316    32400    25759     8660   -12124   -19074   -12317 
   -7712   -12244   -23182   -30256   -22125    -5374     3572     3665 
    8872    28606    55225    73111    76327    68671    53465    30663 
     380   -33496   -69425  -106111  -124723  -105856   -61811   -17239 
   16345    34870    42593    48627    56112    64332    68932    63293 
   44452    16877    -7045   -19997   -28096   -38838   -51154   -60766 
  -69257   -78819   -81083   -59578    -8692    48054    81777    87701 
   68033    26014   -23348   -62629   -77872   -68006   -51337   -39484 
  -22859     -248     8688    -2473   -13437    -5979    15491    30115 
   25737    16833    23701    41634    53086    58716    62206    49195 
   17396   -16552   -47247   -72624   -81056   -67602   -41585   -16745 
     157     8270     9925    12663    16630    12344     2844     -638 
   -1134    -6054   -12540   -15507   -17406   -24823   -31862   -18875 
   20586    61099    69967    45868    13196    -9043   -23569   -45337 
  -71433   -81996   -69361   -39907    -4340    25672    47322    61416 
   61161    47927    35694    28853    20565     6331   -14077   -36467 
  -51988   -53044   -36927   -12114     2667     5479    11037    15803 
    8139    -5127   -11323    -3618    12684    21725    20946    17902 
    6667   -23874   -68474  -104749  -109634   -83115   -49399   -19504 
   17644    63450   103167   121032   112140    82198    37481   -17643 
  -77195  -122644  -125107   -78241   -14071    30947    51050    53964 
   41098    21730     7395     3283     8050     4070   -14611   -28863 
  -30885   -26356   -20281   -18916   -23311   -31222   -39042   -34477 
  -13215     5799     7786      855    -4990    -9266   -11535    -5225 
   12101    24622    19449     8235     1333    -2729     -341     7271 
   14796    29243    54990    80190    84696    58081    14557   -24807 
  -53651   -74979   -90751   -93648   -73603   -37400     -932    29878 
   50315    47522    16767   -20082   -32416   -22181   -15650   -15286 
    2350    48905   101417   120517    98836    60254    13807   -44975 
 -107117  -150132  -156778  -132970   -94097   -44722     6149    42958 
   70627    99635   111287    80784    20657   -26046   -32665   -10091 
   16548    25454     7582   -24212   -53021   -74988   -89087   -85503 
  -55242    -7198    37068    61412    66688    71940    90398   102494 
   82124    32722   -35388  -112340  -169680  -188472  -170091  -115770 
  -38176    37287    87388    97236    77330    60052    68655    91912 
   92612    58352    11811   -27476   -54195   -70433   -73458   -55591 
  -22442    10623    35707    57578    75901    77280    61927    41295 
   18015    -6079   -31880   -65175  -104298  -137215  -143511  -108425 
  -42815    21321    56574    63823    64442    65522    55872    32401 
    3807   -23453   -47553   -65036   -73361   -76222   -76000   -71963 
  -64794   -53304   -37079   -14735    16136    42546    51214    54234 
   62143    62833    46318    18241    -9057   -22545   -15985     3844 
   24229    34156    23890    -7416   -40261   -47016   -21969    10215 
   22852    21867    31260    47541    54282    55775    53042    38315 
   20736    10458      -83   -16120   -33023   -52691   -77827  -101453 
 -115704  -114864   -96488   -60930   -10540    39145    72813    95288 
  105560    90154    59171    33070     8522   -16510   -29531   -37041 
  -54976   -69333   -56007   -22200     8280    24422    28150    32691 
   44385    41752     9899   -28294   -44705   -38929   -28659   -25155 
  -18756     3069    21328     7905   -25049   -40868   -21994    14484 
   36050    35116    24178     5643   -17424   -36059   -46299   -44396 
  -36576   -39109   -47348   -38136    -3099    43587    82595   109312 
  132046   145435   126061    61337   -31855  -114081  -153756  -147899 
 -104323   -39491    16715    53148    76616    79922    59163    31662 
    8592   -11360   -27742   -44169   -60691   -66390   -64048   -68621 
  -75405   -66897   -40826   -10447    12548    27157    33579    28953 
   16754      365   -20483   -34611   -28294    -7337    13431    27301 
   31371    25864    21285    27658    39598    45076    38572    24636 
   15452    13312     5023    -9405   -12619    -6924    -9482   -18995 
  -28452   -37859   -41154   -36082   -33241   -40049   -55679   -70283 
  -62125   -24085    24636    67605    93621    90116    63941    37805 
   26727    28813    28656    18285     4406   -15057   -46521   -76547 
  -90558   -92055   -88746   -83216   -67797   -33681     6276    27410 
   25490    26454    58812   112170   142483   126603    78078    15103 
  -44896   -82926  -100125  -107411   -98949   -73202   -47421   -36431 
  -43592   -58390   -58619   -28418    21763    65935    97380   120511 
  131457   125523    96229    52994    23453    12496     3280   -17324 
  -53023   -91250  -117439  -132224  -134056  -110768   -62147   -10188 
   28101    59539    85506    91612    79718    62498    41646    18931 
   -1952   -17358   -16945      781    19157    21334     2889   -30404 
  -72835  -115152  -133567  -116236   -82647   -53835   -27999     9373 
   54643    78555    66819    43474    33259    28200    12491    -2284 
    7709    37103    56072    49161    20158   -17490   -42462   -45864 
  -39625   -33679   -21417     8287    45033    64584    65055    57935 
   48479    42051    31895     3554   -37411   -72361   -89961   -92866 
  -89244   -78921   -60413   -35536    -6372    21286    46168    66128 
   71309    65719    61615    53646    33664     9645   -11470   -26723 
  -26407   -12156     -943    -4110   -22554   -49117   -71541   -82098 
  -77496   -51371    -5140    39669    60886    58810    47875    37119 
   28385    21352     6783   -29859   -82736  -119408  -114616   -79944 
  -46637   -25917    -3203    29824    60446    78410    87104    86256 
   72264    51061    30144    13822    10573    22874    31711    12027 
  -33731   -76387   -92163   -76283   -43637   -22068   -25489   -42284 
  -48105   -28142     4503    28614    40878    44566    37119    16591 
  -10146   -27697   -27168   -16758   -12792   -25162   -44413   -48055 
  -29837    -6988     7944    22333    39776    47277    39734    23471 
     976   -21343   -34349   -33060   -17358      116    14119    34429 
   51069    44629    20567    -4031   -20216   -26612   -29038   -32027 
  -27688   -15120   -12328   -25057   -44047   -69765   -96246  -102396 
  -81529   -46751    -5773    47461   109035   149238   144196   104762 
   54990    11236   -22315   -59251  -104449  -130989  -117302   -76331 
  -27471    20669    57496    75718    79348    77052    78447    82054 
   76747    65688    55432    37708    10709   -11449   -21170   -30512 
  -49503   -64995   -65214   -59490   -57069   -58190   -61730   -64755 
  -63919   -53073   -27426     4483    32144    48261    40934    14535 
   -7480   -15854   -14697      523    29702    55190    65296    63116 
   48019    17852   -16069   -38159   -48910   -57956   -65206   -66631 
  -62753   -51052   -24545    12455    38770    42041    31986    22113 
   19021    23145    29502    28818    14388    -9383   -33064   -48512 
  -46105   -23217     2042     9612     6735    10615    19724    22225 
   17331    14723    16209    15708    13483    12087     8068    -2481 
  -20293   -39073   -42236   -25131    -8409    -7855   -16951   -26441 
  -33605   -36451   -34843   -27500   -12263     3257     8812     5481 
    3029     9958    23575    30758    23670    10625     3954     2849 
   -2092   -13219   -22198   -25196   -30233   -37678   -38912   -34815 
  -21865    12113    56984    87127    92608    77186    52593    36217 
   31194    22719     3666   -17193   -38180   -68030  -101722  -122224 
 -121117   -99640   -63506   -23510     6513    18735    20744    23440 
   25276    24840    27468    31868    30015    17606     3341     2852 
   16501    29285    31757    28082    23360    12218    -8783   -28981 
  -35911   -31509   -27491   -28799   -35098   -46568   -56563   -58209 
  -50252   -30119    -4125    12937    18868    22326    28949    38144 
   48027    56447    55776    40493    10837   -28509   -60978   -68808 
  -45813    -1709    34668    44059    36572    25488    12916    -1000 
