Origin Time       2021/02/13 23:08:00
Lat.              37.7
Long.             141.8
Depth. (km)       60
Mag.              7.1
Station Code      IBR013
Station Lat.      36.1587
Station Long.     140.4892
Station Height(m) 29
Record Time       2021/02/13 23:08:20
Sampling Freq(Hz) 100Hz
Duration Time(s)  240
Dir.              E-W
Scale Factor      7845(gal)/8223790
Max. Acc. (gal)   227.503
Last Correction   2021/02/13 23:08:20
Memo.             
[...]
  -18864   -19176   -22378   -18350    -4521    15610    38759    57221 
   64239    61638    51584    32290     8121   -12710   -23895   -22354 
  -14596    -7079     -562     4271     9757    12879    11793    16848 
   27052    33901    38384    36213    26071    15595     5483    -2101 
   -6863   -17091   -27731   -24229    -7435    10575    23197    27845 
   26581    30485    40182    43583    42061    43491    42010    29245 
    5667   -21544   -37208   -33295   -22928   -14366    -2191    12055 
   25632    38982    46313    39197    22612    15561    18465    16973 
   15653    19359    20132    17664    12849     2542    -3727     7597 
   27703    35762    31579    30078    33022    31858    23475     7514 
   -9143    -9190     4348     4677    -8402    -9852     1385    12297 
   23368    33022    33930    31310    30127    20534     7146     5586 
    7951     7808    13400    20599    24732    29389    28375    12969 
   -5035    -5287     6161    14345    20699    20584    15009    19307 
   25407    20904    14952     6972    -8529   -19207   -12573     3304 
    8739     2485      727    11102    31990    56290    66787    52587 
   29704    18316    13023     2897   -11604   -33296   -58348   -65863 
  -48475   -18096    21807    62062    79510    76172    69531    60710 
   52625    44358    20860   -12507   -34646   -41330   -38480   -32571 
  -30299   -25596    -7038    15155    30268    50527    71145    72519 
   62029    50446    33215    12748    -5456   -25416   -44482   -43889 
  -18963     7773    22388    35515    56741    75091    73047    54243 
   33297     9466   -16393   -29752   -28576   -26495   -26437   -19251 
   -9359    -4895     8584    37227    59405    62247    51590    35780 
   21586    12721    14584    25080    20420    -6619   -25963   -23299 
  -10409     6077    16633    13965     9423    12621    17483    18285 
   16893    18369    31764    50419    50892    37534    30349    20646 
    -787   -17271   -18046   -11238    -4274    -1875    -6740   -11304 
  -10731    -7925      297    12399    18597    22204    32923    46053 
   52648    53308    46078    28254     8689    -4380    -8453   -11192 
  -23067   -28348   -11165    19218    48077    57102    47798    42321 
   36899    22179     6339   -10513   -27804   -32967   -17701     5867 
   16490    19510    30473    41513    41369    27854     8743    -3541 
  -12143   -16846    -9991     -199     9169    26732    48591    60025 
   53572    37864    23980    18810    20322    12799    -1374    -9238 
  -17324   -18349     1863    22532    27619    31029    29820    12449 
   -3627    -3053     5151     6983     1273     5949    28988    51655 
   55098    41709    32035    30896    19519    -4787   -30700   -54639 
  -67174   -58040   -35044    -8631    20561    47896    65637    69749 
   60948    51486    44579    27656     2826   -19388   -30172   -22292 
   -8814    -1401     8513    19222    16883     3505    -2463     7159 
   18476    19098    17331    20425    18937    13081    13348    13262 
    5706     1641     5779    10142    15342    26669    41559    51922 
   49462    39552    34645    27810    13687     7858     5782   -13896 
  -37071   -36829   -20510    -5366     9977    28534    42178    46738 
   52340    62310    64879    59551    52304    37986    13497   -18468 
  -45933   -51572   -38542   -19894      835    17963    25729    29137 
   34850    41100    40610    28354    11195     2853     2230     -584 
   -2648      137     -110    -8182   -19219   -23238    -7580    23591 
   49072    60826    61126    50485    34199    17917     9919    11094 
    3450   -15481   -33027   -48828   -52605   -29673    12120    55404 
   81966    86938    82903    71092    48733    23205    -1717   -23045 
  -37428   -43501   -40420   -32069   -17377     3237    19336    30991 
   41316    45692    44942    36717    18889     4126      -43    -1501 
  -10621   -29934   -36470    -7003    33241    55237    66451    66568 
   52793    40617    31725    16800    -2335   -21343   -36157   -34796 
  -10345    20653    38990    46365    41960    17331   -12218   -26856 
  -27897   -11533    19508    42402    51939    51471    39286    26171 
   16934    10177     9683    15512    29674    42245    36828    22430 
   13219     8883     -413   -22011   -34825   -18374     7944    21517 
   25483    30242    34700    29944    20602    16240    10600    -6045 
  -32876   -53191   -46792   -16113    18562    41368    52162    56798 
   55089    49279    41715    30820    19720    12931     8370    -1393 
  -14015   -17867    -9953     6519    27160    49372    67392    64293 
   36618     2610   -19086   -20364   -10906    -4862    -4914   -11033 
  -18952   -17424    -3786    11757    24736    43407    64851    73057 
   61188    28416   -13159   -41349   -64296   -90479   -86441   -42198 
    8174    50874    86584   101314    94710    90300    98193   103032 
   88921    50689      415   -47158   -91643  -114779  -100834   -73807 
  -41447    10586    60858    79583    77881    76175    75312    75716 
   68775    40649     5289   -19915   -37193   -49243   -53883   -44946 
  -19957    15634    50089    62287    53539    55445    78430    96368 
   77633    29030    -6309   -20310   -38206   -59260   -69029   -59283 
  -23843    29166    69279    67886    38334    12760    -7032   -27735 
  -42784   -43947   -25196     4218    23279    24606    19726    22496 
   29727    33264    33477    24740     8777      961       -6    -8669 
  -22910   -22316      703    32927    66501    93544    92924    59244 
   20038    -4993   -29575   -56604   -67832   -62927   -49924   -31341 
  -10381    15037    45077    74798    96087    99146    83026    52829 
   24428    13572     7998    -1826    -5429    -5409   -11047   -18273 
  -17342   -10881    -9000    -5984    -1495    -3512     2469    21393 
   36603    42792    40464    32957    29068    31369    31781    18052 
   -6411   -19265    -2307    33604    57321    62511    57327    29403 
  -13549   -37928   -41627   -42476   -45621   -55844   -67713   -53603 
   -5212    51746    98347   124964   126774   121683   121042   113054 
   87133    35646   -40113  -115816  -148556  -112982   -45693     4509 
   43965    79604    87509    63493    24605    -2253     5490    21280 
    6282   -24732   -44174   -58029   -67559   -45319    13533    69419 
   94393    92435    77372    59695    31962    -1102   -16453   -24011 
  -33597   -32393   -32194   -31926    -9774    18345    36828    49133 
   49181    45831    49431    54195    52600    26663   -22373   -60461 
  -60501   -18486    33818    59779    63936    58276    53638    66842 
   85483    82772    47761    -6262   -51555   -79533   -89181   -72507 
  -39382   -13293     2527    29554    69028    94864    97595    74638 
   25625   -20297   -43290   -53314   -47008   -15510    21186    37594 
   39789    47591    62409    73693    72540    58317    42314    29945 
    6494   -33343   -65101   -76752   -75361   -48554     5541    60566 
  104167   131993   126597    76233    -3250   -67662   -77903   -35830 
   21654    61719    72459    51482    15206   -19523   -55035   -73471 
  -56087   -24012    -6308   -11437   -16745      -78    21744    36960 
   52201    65194    81427    93118    72368    22813   -27232   -52535 
  -43873   -16584    16044    43187    58742    77935    89193    64444 
   24283    -3902   -23203   -36479   -41176   -31600    -4569    25119 
   38402    34080    22584    16540    29417    54830    57176    16740 
  -32940   -54984   -60851   -68231   -66937   -48037   -13427    32038 
   69800    77626    61614    47501    43622    37427    16110   -10301 
  -12482     6683    17768    21261    20729    10793    13297    37052 
   56203    59949    56906    39690    -2116   -54935   -99611  -111709 
  -73537   -22615     1169    16156    39615    68146    97671   106655 
   88060    64115    43861    28445    20521     6805   -21143   -47677 
  -57445   -51767   -33420     -888    32593    41287    19764    -5472 
   -2041    29146    57717    73030    81307    71116    34850    -9157 
  -38227   -42830   -31024   -24894   -33635   -44794   -45158   -18917 
   37341    86513    98486    82266    46722     9923     3758    14659 
    4156   -21014   -37627   -46134   -44667   -29562   -10964     9999 
   37597    52058    40922    36464    63285    97206   108083    84136 
   33781   -10442   -34148   -45142   -37353   -16038     2065    19924 
   36467    39537    35100    40481    51699    45754    21826     3622 
   -5745   -22621   -46008   -62517   -66368   -52014   -11321    43430 
   79266    82965    69849    50909    27811    13856    26736    52293 
   56598    40325    25515    17783    14077     2508   -27753   -66626 
  -96645   -95604   -48608    16803    62633    86552    94976    89727 
   82737    78142    68875    53152    27842   -13051   -67460  -125338 
 -161852  -145322   -83686   -18111    36574    80041   100336   109273 
  121386   118187   102077    90035    67024    32745     3387   -28803 
  -61582   -78383   -81718   -83579   -86852   -83149   -66657   -31275 
   33660   109212   158012   171799   165180   143561    99628    44336 
   -3037   -48116   -86084   -95698   -80403   -54707   -29902   -15803 
   -1691    24934    47634    55551    58315    51309    31062    11453 
   -3063   -10431   -10519   -13964    -1503    37936    59004    54039 
   50301    27229   -22562   -61944   -67394   -47718   -23029     7078 
   54700   108514   138217   129178    95073    52894    10338   -19327 
  -30385   -41323   -53130   -46800   -32610   -19215     5398    34209 
   58596    74646    69214    43992     9201   -27670   -55378   -70618 
  -74088   -67628   -55482   -23041    30215    61306    53165    34006 
   23935    32890    68828   112618   120515    83589    41305    14131 
   -3337    -3354    13458    24880    21253     5895   -31689   -93306 
 -146618  -154469  -101148    -6988    68739    88252    82536    85406 
   74028    44352    44451    74456    90737    84304    63479    37600 
    5486   -51962  -122735  -162251  -144917   -87389   -14931    62023 
  116806   142568   161033   152126   101819    40359     4819    25770 
   68161    65300    20353   -37756   -87035   -98346   -80306   -60944 
  -34705     7315    48772    71339    71140    45681    -3843   -51057 
  -64866   -28621    50928   113692   108110    59350      826   -55418 
  -88092   -90682   -77082   -62807   -44374    -7350    34449    74379 
  120016   144350   130674   102053    75555    47906    22512    11746 
     396   -26005   -47453   -54224   -45786   -15585    18813    27399 
     -41   -46535   -84824  -104700   -95235   -40516    34105    87839 
  119917   146846   168528   166915   134705    96950    69180    32109 
  -22688   -72314  -105354  -142384  -186629  -201649  -171134  -112538 
  -32130    55784   116253   140725   143220   136857   130855   114960 
   86799    60755    29925   -12370   -50631   -70812   -74811   -71086 
  -60983   -50718   -42676   -21699     7925    32734    70314   129243 
  185151   214204   199463   139981    61928    -7804   -48840   -53140 
  -48516   -61311   -80111   -91103   -97726   -98358   -77122   -22038 
   56501   128177   160949   152448   139299   144455   145897   123660 
   82389    25699   -41670  -104766  -150291  -165175  -145308  -117269 
  -99931   -65310     5100    79209   118164   108712    67340    28125 
    7738     4652    15327    24081    13714   -21397   -68555   -83578 
  -54383   -26766   -10881    17685    58935   104652   137664   134109 
   87361    23448     -935    13845    10127   -10270   -23095   -34600 
  -35788   -16521    17155    47422    56361    57769    67209    73934 
   68265    47623    17524    -5622   -18382   -31079   -43137   -53523 
  -62914   -59591   -50298   -45489   -22851    21505    61643    90000 
  115623   132768   111767    49860   -11718   -48294   -55441   -43023 
  -38388   -27980    15758    74969   128160   156509   144944   108912 
   57275    -6435   -65647  -111657  -121338   -79836   -23078    14083 
   22797    10400     -225    -6872   -22279   -39622   -42645   -27594 
  -15797   -16875    -4788    22341    40618    50598    55956    52922 
   49459    49003    45673    34986    14033    -8866   -10855    19629 
   57005    70159    65765    54132    23078   -24840   -74979  -122129 
 -149295  -131697   -74399   -12523    31375    57312    62347    54912 
   55198    62756    75497    97664   111676    97534    50024   -27147 
 -102423  -140462  -141432  -116864   -77959   -37401     6469    54669 
   99407   140914   169514   156055   101090    42026    -1849   -29447 
  -27974     3700    38576    53951    41115    13907    15399    42088 
   43146    13281   -29581   -72878   -83471   -46465    18468    84330 
  122586   122659    92373    37766   -20155   -48014   -45264   -44203 
  -54332   -45152     3510    67004   110864   125093   105078    51638 
   -4654   -32246   -38092   -50484   -82062  -117776  -133286  -113629 
  -48339    44651   112436   139720   155089   165858   157594   118330 
   50383   -19160   -70703  -117383  -160401  -175917  -163651  -140030 
  -97625   -26936    52914   120217   168833   185862   157438   105337 
   70866    61693    59425    55467    41628     9715   -28509   -61133 
  -88150  -107069  -116203  -110639   -85897   -50349    -4151    63632 
  147582   220947   247364   215786   159786   109236    67153    24043 
  -43807  -131892  -195763  -224726  -225116  -166928   -53582    57688 
  127674   142464   118747    96736    80628    63765    58180    51441 
   26875      881    -8757   -11321   -22302   -34373   -30288   -13285 
   -1281     1107     5304    25911    66537   104753   122678   136096 
  147218   126527    66515    -2608   -48795   -67571   -73654   -76130 
  -82386   -95376  -100390   -90432   -67107   -16248    54359   110250 
  149990   184944   198278   171779   112536    57381    28192     3431 
  -29115   -64076   -92394   -97221   -87134   -78912   -72322   -71894 
  -70370   -53692   -22022    25945    78526   113286   126125   115452 
   80019    37783    13837    23317    51329    53727     9780   -57204 
 -116491  -145161  -131399   -92090   -55304   -27130     2859    47309 
  105399   158221   195296   210735   189471   130134    51240   -19295 
  -64382  -103239  -154548  -193541  -188343  -136127   -51495    46522 
  131205   168594   150411   109526    76566    63612    68445    61330 
   28660    -4849   -23267   -19738     3055    17103     7238   -16132 
  -30813   -12839    22168    32568     5235   -38789   -62581   -53558 
  -24387    19715    59853    68249    46649    22222    13990     4094 
  -29280   -67679   -88769   -93264   -76432   -37153     7847    54962 
  107311   142550   137262   105837    77680    48616     4729   -39043 
  -70823   -86282   -77670   -58001   -31961    12100    55003    76968 
   87752    89530    75924    48105    14966    -6002   -12495   -21791 
  -35355   -34285   -11273    24370    62487    82850    74201    54121 
   24822   -13900   -36028   -47237   -68690   -78102   -64488   -57775 
  -58712   -32834    18091    67313   110943   131056   108966    81297 
   75710    69747    47737    14412   -24011   -58965   -73215   -59636 
  -37439   -19704    -7911    -5111     1314    16005    23128    26622 
   37057    45813    57842    85152   105945    94917    60247    18937 
  -19711   -47794   -66028   -76027   -64755   -28285    16711    58556 
   98670   144890   190120   207279   183691   125475    45369   -40139 
 -117347  -171074  -200611  -215284  -200178  -140138   -45121    58062 
  133749   171464   196607   217737   198197   118116     7307  -105678 
 -183199  -188315  -164825  -162596  -149597  -101079   -26730    63201 
  127095   144517   155480   169474   155200   111029    58325     6929 
  -32922   -42529   -33124   -36711   -43795   -32541   -14787     3863 
   28921    55953    85699   105567    94297    71518    61261    50237 
   32591    14933    -3703   -17350   -25771   -39912   -53536   -47667 
  -19488    16779    49437    79277   105179   115365   104573    73244 
   28908   -11369   -52547  -104488  -147189  -163390  -152126  -111276 
  -46372    29899   107293   172643   211727   214652   178401   113620 
   39995   -28082   -89908  -141340  -156007  -125632   -80947   -38975 
     508    26981    37924    42782    53624    77873   103323   110080 
   87774    44138     5985    -7030     3141    21567    28453    17362 
     122   -14239   -24229   -26555   -21968   -19746   -24548   -22326 
    2637    38688    63121    68413    56459    32784     4224   -21470 
  -35881   -39407   -37621   -29778   -12181    11757    37253    66926 
   92654    93270    70750    52155    43178    25787      789   -19697 
  -35325   -43201   -38383   -22054     6330    37921    52355    48401 
   40830    34865    31695    23853    -7295   -51266   -70359   -55803 
  -27961      120    22184    31368    33598    48938    80883   103663 
   95940    64756    31407     7258   -10309   -24279   -33704   -42657 
  -55325   -58306   -39927   -10195    21355    43036    32177    -6814 
  -32809   -29832   -23215   -23687   -26131   -28965   -24428    -8035 
   17500    40972    50685    53713    57207    61643    73603    84114 
   72611    41202     5930   -26214   -54085   -66232   -48227   -16691 
   -2601    -6195   -11325   -10719     1946    30582    63402    82240 
   80061    62276    45245    42070    46336    42911    18736   -20055 
  -39961   -28062    -5011    20333    45455    61828    73939    77414 
   51530       81   -50479   -84856  -102470  -102026   -79643   -36929 
   24108    95619   154912   187290   192387   168947   123244    68314 
   11040   -45054   -96731  -142175  -176662  -183313  -148996   -86877 
   -9981    80727   162103   201563   197811   173600   147559   122833 
   95912    62897    22196   -20930   -67015  -109155  -121212  -100834 
  -69034   -33099    -1375    10773     6061     -492     1156    18404 
   46597    66785    78129    90337    87704    56797    15611   -15932 
  -37273   -54426   -68527   -74945   -67216   -48276   -28668    -6816 
   26046    62846    86463    89338    77549    61137    43518    27652 
   20583    24648    37894    50418    49189    40628    32888    18985 
    3627    -2061      252     6623    12984    18338    27136    35239 
   36024    32898    27390    12606   -11306   -31267   -37854   -38144 
  -49219   -69327   -68697   -27645    42676   114223   160705   170843 
  140638    77909    10072   -45241   -82252   -96816  -105142  -115537 
 -107900   -72127   -19653    29455    67892   104213   133678   148427 
  144373   111593    60737    13618   -21651   -38936   -39201   -27230 
   -3889    16444    21774    18288     9551    -5763   -26048   -47598 
  -61861   -58804   -37280    -8518    15579    38901    71115    96327 
   85959    44886     2983   -22756   -31618   -30987   -26535   -16645 
   -7415    -2255    16933    55547    88322    91993    62976    17541 
  -17240   -31309   -36015   -32863   -19132    -8730    -3430     7987 
   21953    33573    41165    32373    -3048   -54199   -94166  -102188 
  -78549   -34805    22647    85708   136101   158036   151359   129508 
  102377    70919    36062    -6255   -58202  -103478  -121185  -104419 
