Origin Time       2021/02/13 23:08:00
Lat.              37.7
Long.             141.8
Depth. (km)       60
Mag.              7.1
Station Code      IBR004
Station Lat.      36.5516
Station Long.     140.4102
Station Height(m) 61
Record Time       2021/02/13 23:08:18
Sampling Freq(Hz) 100Hz
Duration Time(s)  219
Dir.              N-S
Scale Factor      7845(gal)/8223790
Max. Acc. (gal)   268.431
Last Correction   2021/02/13 23:08:18
Memo.             
[...]
  -12420    -9799    -6037    -2053    -1189    -2587    -1857    -2506 
   -8060   -12969   -13713   -12039    -7695     -441     7511    13186 
   13815     9362     3149     -955    -1819    -1621    -2331    -4707 
  -10316   -18447   -21500   -13186      139     8567    10160     6180 
     128    -2512    -2855    -3904    -2025     3946     7488     3947 
   -3863    -8819    -5935     2161    10060    17424    22395    18029 
    4685   -10042   -21586   -24594   -15005     -769     8905    14937 
   16441     8619    -4556   -14021   -16815   -14146    -5898     5718 
   12897    11068     3632    -6870   -19183   -26222   -22578   -15186 
  -11639    -6322     3738     8954     7916     9167    10227     2978 
   -7202   -11178   -11766   -11601    -6685       17      679    -4193 
   -8037    -8730    -7238    -1038     8154    11535     7719     1971 
   -4523    -7906    -2682     4552     6223     5883     1629   -11372 
  -22875   -24220   -18744    -5941    10840    19039    17405    11715 
    -279   -15163   -21149   -17143    -9601    -1146     4359     4664 
    3450     1398    -1840    -3353    -4108    -4253    -1117    -1163 
  -10030   -18792   -18964   -11124     2504    17793    29238    31799 
   20082    -3430   -25301   -34925   -31907   -19307     -819    15286 
   20250    15508     8392      822    -4496    -2311     2035     1193 
     882     2697    -4931   -20776   -26919   -17814    -4326     7072 
   15974    18067    10331    -2718   -14690   -20719   -19048   -12568 
   -2216    11391    19003    14778     6775     1016    -4114    -6459 
   -4669    -3110     -927     4074     4634    -2770    -9784   -10427 
   -6709    -2662       63     2929     3210    -3514   -11414   -13986 
  -12834    -7281     2390     8895     8618     4378     -606    -3532 
   -3246     -866     1726     2259     -321    -5302   -11655   -17844 
  -20422   -15205    -3265     7928    12991    12179     8583     6277 
    5474     1526    -7196   -15998   -19782   -18569   -14941    -9931 
   -5537    -3765      -41    11279    23876    26149    17891     6143 
   -5096   -14770   -24915   -34217   -33843   -21775    -6832     4841 
   12622    14609     7415    -6575   -18362   -21667   -14991     1687 
   20638    27645    19306     3824   -13602   -28428   -33100   -26842 
  -14270     1263    13194    16016    13905    11813    11021    14060 
   18296    16459     6804    -8607   -26319   -38932   -39028   -25489 
   -3709    18740    36364    46090    42441    21729    -5867   -25469 
  -35515   -38758   -31018   -16498    -8583    -6583    -1837     4434 
   11624    22585    32279    33849    26597    13163    -1857   -14715 
  -24003   -26106   -18497    -7395     -850     1674     2677     -903 
   -8008   -11086    -8599    -3927      985     2902     1077    -2447 
   -9833   -20524   -26442   -22609   -10385     6367    20626    27176 
   27222    21328     8776    -4804   -12829   -16132   -16544   -12607 
   -6590    -2199     2236     6967     7839     3125    -6124   -16569 
  -22333   -19001    -4812    15236    28583    29354    21123     5501 
  -13683   -26171   -26580   -17248    -2787    10602    17176    14162 
    1750   -16305   -33166   -43260   -45037   -38317   -24686    -7462 
   10743    23643    26563    25365    21213     6481   -11577   -18462 
  -18702   -18713    -9756     9981    28177    36612    35915    26397 
    7149   -15580   -30217   -31943   -24090    -9823     6920    18149 
   19515    11032    -5540   -19812   -22823   -17987    -8117     5374 
   14420    13936     6945    -2259    -8586    -6161     2523     7607 
    6972     7570    10670     8321    -1286    -7923    -7746    -9941 
  -16915   -20650   -18403   -11807    -2193     5481     7808     5047 
   -3703   -14416   -17761   -12263    -2901     9644    22763    27793 
   22545    11468    -4068   -20548   -28981   -26298   -18693   -11206 
   -3871     3160     7971     7389     -576   -10440   -13095    -7257 
    2515    11041    12256     5806    -1834    -6228    -7693    -9204 
  -10663    -7996    -3346    -1892    -1453     -581    -1521      288 
    9140    16121    10065    -6205   -20945   -27997   -27982   -21928 
  -12661    -3763     3997     7311     4179     1394     2974     5381 
    6902     6359     2926     1050     2197      568    -4545    -6664 
   -3788     1047     5983     8900     5837    -5111   -19226   -26758 
  -21880    -7462     8895    20075    22734    14990    -4757   -29149 
  -43475   -41061   -23653     5198    34511    49712    47745    34132 
   11009   -17132   -36327   -36749   -23835    -7038     8256    15529 
   11465     1046    -9923   -16328   -15095   -10993    -6810      -81 
    3203    -3130   -10810    -9981     -251    13616    25301    30964 
   28339    14789    -5559   -22627   -30279   -27338   -16417    -5487 
     148     3134     3997      457    -3346    -1752     5042    14135 
   22482    26292    22909    11816    -5007   -19610   -23099   -17714 
  -11349    -4727     1420      891    -6336   -13778   -17766   -16706 
   -9124     3785    15574    17847     9416    -4830   -22632   -40988 
  -50619   -43475   -20248    10802    36794    47101    42128    28725 
    8595   -18625   -43650   -51956   -40759   -20245     1223    20073 
   29535    25830    15901     6750     -643    -4824    -2565     6384 
   15249    14850     3314   -14148   -30503   -36846   -27022    -5503 
   17196    33025    37843    30322    11794   -10280   -24525   -26466 
  -21469   -16950   -13548    -7526    -1590     -221     1069     8568 
   20461    28957    27922    18277     3673   -14679   -32152   -39734 
  -32859   -13952     8428    22677    23738    15430     2960   -10331 
  -20561   -23899   -20777   -15959   -13030   -11109    -7138      519 
   10617    20306    26404    25508    18295    10509     2705    -8896 
  -20058   -25429   -29101   -34504   -36007   -26308    -7304    11018 
   23862    31827    29376    11789   -12754   -32046   -40463   -36354 
  -20676     -473    13126    15244    11535     6257     -422    -2072 
    3726     5931      859    -1894    -2928    -9188   -12906    -6187 
    6092    19538    29434    29239    19515     2110   -20279   -35210 
  -33624   -22478   -10149     2817    12757    12679     5115     -745 
   -2555    -2458     1543     8446     8986     -363   -11871   -21772 
  -32154   -38981   -37909   -30472   -14925     6772    20723    21790 
   17585     6042   -16486   -36242   -40413   -35515   -29867   -20067 
   -6696      -14    -4158   -14264   -25215   -31546   -27264   -12729 
    3265    12957    17446    19369    16619    10033     4819     4768 
   12943    24158    22342     3227   -21602   -44320   -56093   -44621 
  -16117     9991    25793    30483    22284     8212     -182      585 
    9715    25015    39374    45360    41548    31826    17671    -2023 
  -18165   -19170   -11141    -5547    -1297     3970     6100     4888 
    4909     7022     9948    13699    17594    19553    15500     2770 
  -12924   -21130   -17632    -5938     8943    20341    19635     7628 
   -3156    -6399    -7838   -10478   -11256   -10903   -12233   -14247 
  -15078   -13346   -10037    -9718   -12480   -15344   -21963   -36009 
  -49896   -50051   -33675   -12226     5670    18274    20965    12452 
    -406   -11055   -15554   -12282    -5337     -864       70    -1521 
   -5830   -10281   -11512    -9400    -5292    -1682    -1208    -4538 
  -12445   -22509   -26037   -19198    -6596     7527    19129    27071 
   36047    43916    41079    26028     6959    -6022    -8887    -9038 
  -12947   -14443    -8179     -369     4185     9085    15110    17034 
   11920     3350    -2752    -4911    -1948     9181    22350    27776 
   26060    20579    12873     8988    11709    14500    10650    -1314 
  -15916   -23098   -20009    -9207    10766    33627    40544    23395 
   -6222   -33826   -49666   -49427   -37894   -21913    -5300     8016 
   16614    17936     5209   -14611   -20441    -7234    11832    26674 
   29755    15021   -11905   -38889   -55917   -53511   -30518    -1128 
   19940    28004    20108     -742   -17045   -18003   -11477    -4376 
   -1270    -9090   -21817   -27742   -28372   -26639   -17725    -2266 
   11248    17290    16380     9385    -1773    -7894      635    24320 
   54459    75882    79582    69238    47092    14928   -15136   -34118 
  -37659   -15803    25371    61842    83381    89233    72076    31580 
  -18877   -61318   -79502   -69066   -42997   -15886     6420    18193 
   16946     7931    -6906   -24493   -35121   -40257   -49798   -61393 
  -68732   -73336   -74413   -67930   -56160   -41307   -17906    14458 
   43119    57196    57986    50001    32032      502   -41224   -78052 
  -92858   -86275   -72094   -49219    -8102    41443    78672    92838 
   81257    42380   -16638   -72981  -102066   -96202   -65360   -21933 
   27425    67093    75436    55371    26119    -2621   -19056   -12158 
    5599    15105    14318     7716    -1505    -7938    -7159     1356 
    9873     8070    -3399   -19071   -33943   -39787   -32854   -18546 
   -8604   -12550   -26474   -40664   -49183   -44271   -19219    23005 
   70108   103254   108321    88867    57157    21226   -13247   -40770 
  -53554   -45210   -25419   -10966    -1413    10385    18146    17500 
   14373     6210   -12031   -33525   -52513   -64153   -57079   -28672 
   13697    61503    97649   104372    80076    31903   -32034   -94046 
 -126609  -111183   -55379    14648    71718    92608    69387    18527 
  -37837   -81619   -94066   -69165   -19998    34067    76956    97254 
   86752    47224    -9374   -70812  -113734  -108247   -56490    14629 
   87095   138937   143471   100805    33366   -39182  -101159  -130755 
 -108112   -42529    27801    70100    72975    42728    -3150   -47694 
  -73693   -64847   -22171    36065    86231   109032    99361    59556 
   -2789   -58082   -73870   -52986   -14890    31931    73240    85297 
   58279     3291   -62684  -118802  -133088   -89320   -12067    58002 
   99825   111080    85777    25452   -38286   -72249   -73973   -52369 
  -12231    27049    38894    23075      410   -16426   -26100   -32093 
  -41998   -55674   -61150   -51691   -28587     8009    48354    70922 
   67302    47017    20160    -6416   -30361   -48065   -43056   -11928 
   18188    28930    28306    27275    29088    29848    25798    17378 
    1829   -21555   -46137   -66818   -81807   -89803   -88330   -71354 
  -39170    -7350     6494    -3098   -28125   -51165   -57341   -38840 
    4992    51393    61820    25078   -32097   -80940  -109161  -104481 
  -57890    14092    78190   110821   108040    77959    31573   -12259 
  -23221    12151    64184    92793    87365    53623    -4846   -74499 
 -123859  -127836   -90200   -30499    33534    85071   105162    80322 
   15302   -67995  -138973  -165002  -132333   -57762    27913    93642 
  117371   101121    69259    42003    21693     8517     1777    -5643 
  -11018   -10012   -10690   -10528     3805    30543    56269    70110 
   68496    54157    28516    -4729   -37039   -61429   -69662   -62897 
  -50311   -22599    24876    66287    76960    50230    -3025   -54568 
  -79891   -74695   -52699   -22223    20109    56624    60255    34221 
   -1775   -30604   -33921    -6424    31708    55146    53411    25199 
  -20187   -56209   -64878   -54943   -40535   -25870    -8376    13344 
   30262    31313    21551    16021    18748    22979    22238     9101 
  -20806   -60070   -93930  -102162   -68061    -1661    71289   132703 
  159688   128646    46986   -52639  -136433  -175794  -164280  -118091 
  -47335    38200   108368   133820   117408    87546    66679    57115 
   51544    47925    49635    49758    36922    12692   -22765   -68809 
 -106095  -121702  -118339   -84507    -8429    82981   139741   133816 
   73043   -13088   -96213  -159930  -189807  -178378  -137200   -74569 
   11857   104842   171244   189507   154538    77218   -20248  -111456 
 -170608  -182287  -147001   -89071   -42442   -12938     7763    11674 
   -5470   -28945   -35714    -7962    48054   103131   135897   143467 
  122112    70089     2949   -58233  -103842  -131116  -133456  -106839 
  -55474    14625    89613   143008   157207   138119    96435    36313 
  -30640   -90312  -135990  -148284  -109197   -39070    34360    98355 
  126411    99424    42152    -6043   -34680   -54637   -66390   -61183 
  -33991    14416    69009   106238   110700    79837    23697   -42403 
 -101640  -134295  -128016   -86582   -26846    27059    51478    39391 
    7221   -21691   -32038   -14760    30943    82798   111041   112584 
   98226    70852    30767   -22377   -81130  -125415  -142263  -132304 
  -98194   -46099     9004    50280    68191    61715    30811   -23949 
  -81649  -108355   -99219   -76958   -56371   -34452    -4614    24977 
   43056    53576    60011    60894    59672    55768    40967     9776 
  -32348   -70279   -87590   -78881   -59150   -44685   -33667   -25650 
  -26114   -26249   -15471     2652    25100    53568    80088    87335 
   68272    36865    16926    24813    60542   112355   158650   175348 
  153535    92010    -2627   -98847  -159121  -162658  -113350   -43148 
   18006    57572    59841    15033   -63852  -148772  -204353  -199667 
 -128007   -14542   102258   187762   215308   184091   114258    18123 
  -81442  -134446  -112120   -35544    54044   115284   113757    45644 
  -57688  -152964  -201955  -182845   -88697    61839   205287   279347 
  259251   146319   -14809  -158234  -246566  -254585  -176986   -65921 
   20244    64469    59304     9664   -53115   -96084   -82846     3636 
  115371   189757   207264   159240    45547   -91396  -204029  -272558 
 -275157  -199249   -75406    49048   145782   200232   199366   144707 
   59201   -25158   -79682   -94842   -71918   -14706    44626    68712 
   63886    54976    47753    33183     5625   -23503   -45054   -63440 
  -72650   -61048   -32987    -4305    11277    10041    -4529   -30105 
  -61177   -78597   -57177    13250   108954   181619   200314   164479 
   83299   -27513  -140846  -218560  -226119  -168164   -81542    13204 
  102926   149353   122422    40383   -53804  -131137  -172030  -160859 
 -104730   -23333    63240   121721   134817   127118   111966    73071 
   21228   -14273   -32142   -42391   -47660   -41856   -17562     3595 
   -2177   -12893    -4970    13589    39981    69130    79145    59502 
   14791   -29745   -39912   -23569   -11637    -7777    -4455      544 
   11310    24449    30755    30388    27884    16663   -12587   -47412 
  -67085   -70357   -61846   -42491   -24432   -18573   -17282   -14084 
  -11200    -2691    13224    17583     -962   -23904   -32891   -28549 
  -11453    15813    40698    58163    69649    70614    60300    45447 
   30327    17919    14044    15492     7048   -12665   -27217   -36127 
  -53576   -71338   -67043   -36998    10635    64925   103335   105927 
   75709    27205   -32383   -92383  -127943  -125085   -93129   -42962 
   17232    70866    94882    73118    16191   -45503   -86814   -82294 
  -19589    63113   111639   112086    72868    -1383   -88688  -145995 
 -148944  -107778   -43468    28364    96931   144474   142723    82443 
   -7418   -82823  -112545   -89964   -34519    22688    61465    78953 
   79425    63448    27700   -22422   -71891  -110396  -128420  -112573 
  -65726   -12484    23043    35071    34821    31660    23332    13363 
   14893    25348    25897     9521   -13545   -33552   -46596   -42587 
  -10837    35710    68904    76689    59042    15851   -35368   -71552 
  -94468  -108091  -102397   -78610   -48038   -14631    17204    42434 
   62588    70032    54939    26094    -7917   -45057   -70005   -60824 
  -18422    22716    39063    47892    56263    51417    44015    37411 
   12467   -27338   -60894   -67198   -38713    -5547     1023    -9413 
  -10902     6829    36161    66982    92419   101133    81765    33242 
  -26946   -69495   -85569   -90232   -89031   -76704   -56490   -33335 
   -7530    15691    26829    17964   -13203   -51314   -72238   -70598 
  -55182   -34978   -19024      634    39217    81912   108394   122708 
  123232    97715    49916    -5227   -57019   -92761   -97173   -74594 
  -45783   -21879    -5908     4954    21753    45569    68563    89236 
  104398   105391    88393    53654    -1908   -74291  -135075  -152207 
 -126627   -80908   -30435    13217    38288    38946    18171    -5813 
  -15133   -10096     7503    30790    32046    -1507   -43459   -69427 
  -79918   -69587   -22985    51985   121085   149319   118084    35284 
  -65291  -142612  -168143  -130565   -39306    68748   149659   182368 
  162496    88420   -19430  -107439  -129270   -86872   -19900    33978 
   60870    54149    12695   -40826   -85166  -109664   -91118   -28435 
   35479    68592    72152    50086    12868   -10025    -8463    -5374 
   -6633      962     5539    -7545   -25797   -39973   -50076   -39143 
   10164    77990   123986   134185   118530    85932    41925    -9697 
  -54843   -69048   -48234   -12112    20848    42407    46665    24665 
  -14823   -42637   -53785   -65792   -76815   -77841   -72281   -60562 
  -39334   -13324     6066    11433     5254    -4868    -7854     4688 
   26356    45157    57657    57721    27351   -39741  -116237  -161068 
 -152162   -94034   -11092    65848   115580   125351    93040    36872 
  -21358   -69115   -92485   -82259   -47615    -9059    18553    29953 
   22408     1580   -18682   -33367   -43804   -49905   -56956   -65207 
  -58210   -29571     2268    30200    66953   105347   119001    97795 
   50318    -8079   -56502   -78773   -72369   -40668     5273    36624 
   26998   -16545   -61190   -77530   -56486   -12139    35623    77195 
  101695    97004    67414    25412   -17261   -48392   -69025   -83855 
  -82969   -61630   -22869    36270    99508   131049   121120    85515 
   34522   -18716   -51748   -59751   -55540   -42298   -18828     6858 
   26601    33102    20613    -3380   -22443   -23109    -3441    20571 
   37613    58305    80653    81245    54822    13776   -37277   -93216 
 -131133  -124879   -79266   -25866    14238    35476    34318    13603 
  -19032   -56519   -84310   -85074   -57998   -19931    12667    33825 
   42115    37818    27873    21764    22188    28744    45952    73824 
   94759    87701    54811    17895   -10188   -28620   -30522   -12559 
   12683    34145    48508    49241    32850     5174   -26686   -52068 
  -55899   -37720   -15422    -3273    -2461   -11277   -28706   -48763 
  -65232   -77456   -77598   -49500     4946    60956    96472   104107 
   85430    44429   -13321   -68612   -89425   -64064   -15526    26684 
   45511    33561    -5815   -58418  -102440  -115334   -90018   -40635 
   13032    57719    82210    76384    42546    -4935   -56158  -100822 
 -116847   -96134   -55815    -9296    38350    74271    87307    81315 
   62225    32387     6639     1348    12344    28112    36055    18392 
  -21824   -61021   -88344   -94837   -63171      849    68322   114531 
  121734    81797     8941   -67409  -122779  -144344  -126770   -72087 
    1714    61303    83577    72619    42429     1609   -39399   -64138 
  -55981    -9154    56654   102296   101259    60446     1097   -64585 
