Origin Time       2021/02/13 23:08:00
Lat.              37.7
Long.             141.8
Depth. (km)       60
Mag.              7.1
Station Code      IBR006
Station Lat.      36.3665
Station Long.     140.4543
Station Height(m) 30
Record Time       2021/02/13 23:08:19
Sampling Freq(Hz) 100Hz
Duration Time(s)  241
Dir.              N-S
Scale Factor      7845(gal)/8223790
Max. Acc. (gal)   197.790
Last Correction   2021/02/13 23:08:18
Memo.             
[...]
   -4384    -9713    -8575      297    10521    15299    10146     4576 
    6349     4511    -7218   -18748   -16646     2605    20466    17398 
    3496    -2552     2274    13140    19372    12469     1090    -6133 
   -9591    -2153    14130    23383    24613    20644     7098    -5417 
   -3412     4104     5476     4388     3672      985    -1165    -2103 
   -3325     1948    16559    30375    30901    12410   -12128   -21585 
  -16337    -8779    -2168     2029     2957     1368    -6616   -18158 
  -19765    -8094     4830    11709    15157    14207     8078     4271 
    5994     7804     3481    -9953   -23561   -23967   -12630      243 
    9104    14226    19936    27900    32460    25886     7087   -14956 
  -31869   -40570   -36873   -19333     6096    27843    36485    31403 
   19434     8621     -992    -9227    -8892     -669     7022     7958 
    3383     3913     8356     2629   -10878   -18108   -12533     2988 
   19897    31788    34279    23604     2096   -20385   -28814   -17724 
   -1567     8746    16318    19753    17887    11938    -3349   -19251 
  -18096    -7402    -3827    -5352    -2662     7254    16414    12199 
   -3049   -13979   -10868     4947    21991    26828    16082    -5182 
  -25564   -31033   -18913     3924    29659    45482    42032    23988 
     564   -18790   -26658   -28236   -28192   -13713    18995    47849 
   56594    45416    19703    -7261   -24295   -28494   -20382    -5965 
    6870    13386    16768    22975    24475     9628   -18000   -42996 
  -50645   -38157   -13225    16227    43251    57840    49997    23599 
   -2644   -19674   -32240   -35814   -27464   -18234   -10037     1167 
   12387    20420    18862     2262   -17444   -20093    -2247    22454 
   39958    43518    29212    -1541   -32178   -44104   -34574   -10798 
   17919    41303    54116    54133    35249     -128   -34542   -51788 
  -48558   -32656    -9740    21994    53705    62399    39556     2489 
  -32452   -61468   -74341   -58301   -23190     7901    27240    39077 
   44138    37566    17882    -2119   -12201   -18412   -19635    -8731 
    6170    16633    22173    17826     1250   -15826   -13697    10551 
   33077    34587    20839     6868     -895    -7858   -16822   -16006 
    1995    22616    32035    36138    42273    43575    28323    -4094 
  -40617   -63598   -61069   -37203    -8301    16125    35236    43087 
   33181    12989    -6284   -23032   -36922   -43390   -35241   -10870 
   14239    20337     8937     -585     1487     8523    13593    14023 
    9136     2266    -4247   -11649   -19021   -20695   -12143     4723 
   25166    38225    32836    16552      334   -16528   -28842   -26752 
  -11799     6882    21335    28003    27216    15822    -6116   -22349 
  -21577   -11399     1503    11846     9751    -5512   -20515   -18225 
    3840    29236    43852    48216    47475    38115    12718   -20181 
  -41709   -46422   -38507   -16468    15300    37952    41231    32394 
   22107    16222    10596     1765    -5039    -9983   -13343    -9406 
   -1740     3129     8035    13906    13961     3289   -14274   -25517 
  -21350   -11353    -9077   -12540   -11244    -4896      583    10964 
   29585    40501    28316    -3129   -31568   -34857   -20016   -12206 
  -13743    -8584     3337    11279    14754    17401    21020    20949 
    6705   -14505   -25058   -21370    -4020    18335    27112    24025 
   22094    20745    16492     6481   -10376   -26727   -40759   -51891 
  -40921     3319    51806    64288    40571    12326    -5105   -14544 
  -16158    -9444       40     2324      612     8735    19726    13784 
   -6785   -23657   -25061    -9891     9980    19588    18204    10728 
   -3295   -20914   -34975   -37804   -23809     1001    28200    50650 
   50144    18800   -26747   -66388   -80661   -57134    -8696    39374 
   66988    65273    44697    19273    -9089   -39198   -61886   -65597 
  -46442   -11938    20916    39889    47289    41821    21362     3057 
    2303    11238    13829     6855     3665    10166    13629     7025 
   -1286    -2650     1803     6721    12262    20185    22594    11653 
   -4079   -13058   -14424   -13564   -12371      460    28825    49693 
   43773    20908    -1714   -19210   -28050   -22179    -6589     1948 
   -3028    -6158     6403    31558    56852    67000    54689    22994 
  -21573   -62193   -73477   -50044   -18415    -3507       72     7688 
   15642    10033   -10639   -35398   -48196   -35440    -3597    28436 
   51181    58206    47090    23225   -10316   -40771   -48227   -33129 
   -9661    16627    44983    66276    68277    47283     9940   -24668 
  -28151     9919    57824    77271    70102    53528    25101   -19507 
  -65156   -86987   -71023   -27052    21037    55502    65088    44721 
    3466   -39726   -66795   -72986   -66056   -48118   -20617     2047 
   15669    32174    45975    38638    11472   -17915   -34372   -28858 
   -4267    21146    31287    24069     6569    -5838      425    17348 
   23985    15025     2694    -1205     3670     4198    -6386   -14585 
  -11283       85    23176    60978    99158   116056   100504    58849 
    8260   -33396   -50699   -35946     -446    31796    49424    49302 
   21377   -24748   -53207   -46764   -26923   -22835   -34199   -37489 
  -19969     8876    23575    11900    -2110      378     5054    -2061 
  -16123   -26654   -32975   -43939   -58629   -60948   -39093      576 
   41863    71894    83636    76005    56104    29662    -9235   -54828 
  -81980   -77491   -42734     7326    43332    55015    52529    40042 
   21938     6666    -3017    -3111     8681    19969    19554    11485 
    2916    -6961   -23669   -36729   -21367    18904    49628    53050 
   38184    18655     4610    -5483   -17532   -25937   -29423   -31669 
  -22615      384    20641    27413    19425    -1551   -28278   -54692 
  -76324   -85522   -74868   -41732     5444    45469    62702    59956 
   42194     9189   -34377   -78754  -105721  -104652   -95985   -92541 
  -74258   -28918    30586    85018   116781   115642    91419    56916 
   14878   -18387   -32362   -46093   -67794   -82744   -78344   -44718 
    5011    27160    11325   -11194   -23380   -13594    22925    56061 
   66854    70636    70879    59891    42974    24846    12611    15130 
   18551    12491    14064    21674     9859   -17857   -38595   -45441 
  -41652   -34534   -23835     -251    24989    31109    22631    13701 
    7160     3919     5682    16993    41802    61562    54843    30707 
    4113   -21590   -36629   -32665   -24430   -27221   -26164    -2689 
   33135    52409    35195    -6382   -45837   -71477   -73225   -44940 
   -7038    16958    29073    44388    63394    70079    62698    53859 
   39934    10461   -26632   -52829   -58452   -49025   -35093   -21359 
  -12212   -10061    -3626    17378    46292    70711    82501    85270 
   87281    78105    42063   -10285   -50450   -64481   -59706   -46460 
  -29805   -11353     1325      346    -6448   -15560   -34454   -56207 
  -62762   -42572     -284    40851    62633    67911    59512    35641 
   10353     3989    15974    28591    28582    19418    12492     1853 
  -22777   -44554   -37935     -800    40331    56481    46118    21230 
  -13289   -48903   -67626   -58220   -25482    14661    42348    49812 
   43178    24514     -843   -20047   -32266   -33898    -9096    37719 
   85633   119961   126416   101137    59339    13632   -27033   -47958 
  -52347   -58349   -58565   -36035    -5049     8847     -627   -22133 
  -39210   -45505   -43880   -33187    -8910    23288    42155    29936 
   -7989   -49014   -71709   -71332   -56999   -35611    -9760    22526 
   67304   115967   139995   118346    59206   -14727   -81272  -117185 
 -113347   -85191   -52570   -13377    44404   100765   114805    76966 
    8662   -68052  -117778   -99936   -26325    48388    85135    74969 
   35610     1116   -12591   -14278    -6662    11924    31143    40452 
   35698    17324    -1525   -13892   -32589   -48702   -41461   -17196 
   20295    65672    93511    92011    54036   -26820  -108184  -132251 
  -94317   -21226    59146   118922   146068   148709   131184    83760 
   15731   -40863   -72215   -80250   -65947   -34994     3447    32070 
   28513    -4873   -34967   -38612   -27541   -24749   -37029   -55290 
  -67659   -65549   -42905    -4097    24642    17405   -17061   -47005 
  -49245   -18831    27876    55910    42155     4132   -20460    -9756 
   35248    90458   117080    99528    54850    -2628   -60393   -97946 
 -108342   -95856   -69192   -46863   -46383   -61044   -51738     6137 
   81226   123144   116145    82005    41199    -7419   -63509  -111834 
 -130492  -100538   -31145    38254    80096    93267    82888    50487 
    2446   -39029   -51124   -32212     2151    42606    86321   111114 
   95308    42876   -31594   -93919  -105773   -75446   -29862    25107 
   71004    79677    56227    26507     8051     3476     -716   -13498 
  -23735   -18137     5887    35710    49422    42780    28210    12572 
    5782    19288    42601    55566    45431     6281   -44308   -72586 
  -73797   -66857   -48674   -11497    27095    51398    53256    25845 
  -11703   -32297   -31700   -16272    -3927   -16519   -40675   -37046 
    1394    39810    57025    63965    63524    44770    12361   -16051 
  -32680   -44004   -58687   -69515   -59244   -27187    13188    45887 
   54373    30835   -19251   -77642  -117112  -116044   -78213   -26021 
   29775    81874   112365   121644   116599    84408    32578   -12718 
  -46967   -62658   -47823   -27340   -26181   -20922    10690    48888 
   59321    29554   -13385   -46660   -80674  -108442  -106222   -76002 
  -31168    14971    49819    79184   107462   118755   111011    95234 
   58429   -12206   -97340  -162718  -174748  -132196   -78587   -37188 
   11357    76549   139035   173097   160853   100822    21165   -43590 
  -84098  -103967  -108982  -101780   -71470   -20421    16148    18110 
   10091    21276    49658    69535    66973    49592    25012     1011 
  -13419   -12472    11951    54986    92076   106833   102417    85949 
   59140    32258    27109    36539    17122   -50363  -128773  -155748 
  -95377    12098    79091    81712    62235    33416    -7712   -32225 
  -24549     2666    42715    78993    79666    35235   -39299  -112079 
 -126469   -53519    54207   122804   132652   102226    52747    -6660 
  -78277  -136691  -144882  -119435   -93449   -60774   -18121    15132 
   43147    83444   124760   149326   152004   120592    52593   -19943 
  -66117   -81114   -67373   -44274   -43100   -55799   -48581   -15643 
   29060    66201    81707    87384    86560    59514    12033   -27256 
  -52332   -73593   -83389   -73276   -61257   -55912   -46240   -43829 
  -59020   -67868   -51683   -12792    37837    73738    72733    54094 
   57624    75020    59821    18886     7350    38430    76160    84986 
   55192     2324   -49040   -81187   -95065   -84159   -33018    29106 
   59506    49206    -3048   -82721  -145368  -155017  -120079   -66530 
    8976   101744   165676   163915   102061    24205   -27573   -55266 
  -66359   -50087   -10720    25361    29093    -4946   -55345   -94640 
 -104242   -85359   -54488   -23556     8421    34823    36412    14424 
   -4982    -2990    20661    57974    93243   112561   111882    82204 
   23284   -36620   -71439   -82765   -76613   -47286     2516    52037 
   75836    65808    40069     9177   -30491   -59989   -62498   -43189 
   -2074    38321    40618    14407   -11792   -32659   -40378   -18327 
   31928    86035   113470   100691    67058    33968    -3908   -51048 
  -98419  -133913  -142619  -115180   -55620    14809    67234    87097 
   72781    24794   -38842   -70605   -37249    32981    86154   102135 
   94105    68944    10754   -70667  -119210  -103438   -43811    26725 
   79428    97000    75978    33091     8943    25947    54815    58012 
   47884    51448    54777    36917     4599   -27494   -52821   -73645 
  -93486   -99932   -68376     3408    81606   127878   132152   108433 
   66637     6993   -59506  -117090  -156768  -164400  -134871   -83597 
  -27172    17375    39025    49513    61071    69029    72034    77217 
   78831    54560    -4349   -72211  -115372  -127676  -115094   -65149 
   25317   117815   164409   143851    72040    -2679   -50048   -78394 
  -83654   -50545      762    30925    31116    22758    19287    17265 
   13225    13887    28668    49542    56209    34518    -6103   -31083 
  -27966   -12252     9598    24942    16850    -5992   -15885     8791 
   50751    65535    36315   -21390   -79556  -100496   -65830      349 
   67698   117985   125572    82553    14841   -48610   -80549   -58299 
    1387    47741    52671    27043     -900   -10409    -7863     5327 
   37709    70654    80406    62457    30963     6396   -20252   -70046 
 -123655  -138913  -108677   -60061   -20305    -8823   -18096   -18639 
   -7442      811    -3042   -21571   -28167    -9234     4855     1466 
  -19398   -59089   -82853   -70567   -51800   -41219   -23668    11600 
   60195    97394   101881    86524    73766    68542    63552    47272 
   19719    -2274   -13142   -28302   -42034   -21475    33173    74372 
   61670     9794   -27465   -25357    -6963    -2797   -23943   -57686 
  -89627  -114407  -107067   -48159    25219    59593    44051     7986 
   -2786    36936   100252   140983   142460   103249    20609   -88011 
 -179012  -205085  -158051   -76441     9937    88480   133285   128235 
   84717    28000   -15260   -41451   -59077   -55987   -23207    25872 
   71227    95188    94288    75589    36119   -25870   -83285  -108868 
 -108776   -91216   -55810   -19183     -641     1706    -8978   -26493 
  -19448    24447    79945   124290   137080   105146    35680   -56637 
 -140705  -165488   -97730    29635   132229   155709   108853    29200 
  -54234  -118790  -136976  -102012   -32192    40813    80869    82443 
   71262    66066    64349    59076    53769    50249    40999    19487 
  -12240   -41230   -51711   -32971     9603    43044    35611    -3357 
  -39094   -56119   -60331   -54156   -38445   -16490     8243    29906 
   48058    61213    62826    51853    29281     1567   -21332   -42306 
  -66017   -82499   -79578   -47976    19001   103491   160208   150662 
   81456    -6863   -86146  -134319  -129490   -84954   -27388    35086 
   81982    87011    60349    31249    19737    29497    34669     9740 
  -27920   -60386   -95936  -120071  -110917   -75392   -17809    61214 
  129444   142744    92701     4549   -85936  -143835  -144841   -89961 
   -9171    67864   112433    97035    36067   -26511   -57206   -49538 
  -31257   -27179   -24896   -16054   -11483     1676    35576    67616 
   75475    61299    46230    45833    48173    36227     8712   -32445 
  -80785  -111572  -106357   -81876   -56930   -25959     8017    38173 
   77414   124119   156096   157774   119144    50124   -12241   -39653 
  -34452   -11688    20691    48342    54449    45173    27135    -5143 
  -51760  -104816  -135560  -119178   -78463   -41361    -3746    36645 
   68551    77484    59179    30904     7838    -1945    11622    36406 
   42495    16209   -27102   -49176   -33871   -13770   -10763    -8409 
    1148    13454    36000    63535    70139    49985    18121   -13629 
  -36659   -51779   -62964   -59057   -25577    27630    69768    85584 
   79797    50930     -891   -51651   -70240   -53401   -24730   -10503 
  -20699   -36494   -25749    20817    77183   108241    95107    42635 
  -13440   -33709   -13626    23757    51746    56467    36560     4442 
  -11865    -4600     8256    13215    -2412   -40790   -82806  -107532 
  -97904   -56103    -8777    25559    42685    43987    41139    39314 
   27284    -2307   -46255   -85742   -87716   -46259     4869    31830 
   27006     9880     2585     1432    -2272    -3730    -7538   -18878 
  -33139   -49756   -52431   -20591    25470    44621    22106   -14376 
  -21914     3127    29797    43714    49428    47736    36886    16892 
   -4657   -15769   -26053   -51279   -75797   -73572   -34202    28952 
   73882    69784    32247    -3308   -18314   -15009   -10910   -22435 
  -40425   -48527   -38217     4468    68229   107671    94239    33728 
  -38025   -74536   -64380   -33743   -14287   -16168   -24700   -29155 
  -21905    12569    67108   108807   113724    81558    32769    -3829 
  -20290   -35695   -55992   -69255   -79331   -84458   -56053    15720 
   99083   148208   134990    81044    30242    -8974   -36463   -39301 
  -28391   -24576   -30794   -36408   -16237    39185    94782   110035 
   78223    23668   -23886   -48863   -43690   -20803    -6689    -2587 
   -3419   -11973   -13316     -576    10469    12484     8155     4607 
   15156    46445    90235   121934   114952    68526     4876   -51788 
  -80107   -72171   -41003    -4203    21659    25722    14932    -1687 
  -22194   -48585   -85943  -114804  -100252   -47817     5350    41913 
   64687    74133    65786    36637    -1124   -21180   -11746     7510 
   14095     9188    -1663    -9852    -7246    -5833    -5375     4240 
   10359     3168   -11452   -20201    -6465    29052    64930    75417 
   45647    -9323   -52709   -62718   -41791    -3276    27648    27000 
     491   -25849   -28676      460    40223    57892    42394     5239 
  -29278   -36837   -18049     2816     8378    -4965   -30349   -49270 
  -46811   -24372     2479    17088    19057    19514    16740     3874 
   -7867    -8240    -5301    -3337     4178    11461     3943   -13275 
  -22862   -20370   -11034    -6065   -15286   -27024   -29423   -30951 
  -27842    -1452    44227    84268    98127    82138    51648    20059 
  -11637   -37107   -47926   -45902   -34530   -13933     7762    11624 
   -5502   -17498    -5362    19506    39232    49921    51757    35476 
     120   -34277   -49102   -43538   -29944   -19407   -12384    -6108 
   -1561     7445    30331    52691    51189    28210     -608   -28011 
  -49362   -57213   -46916   -18411    17312    37018    30057    10816 
   -4506   -11103    -1891    25789    50971    47070    15122   -16789 
  -25520   -11308     9315    19647    18597    10579    -5637   -17857 
   -9099    12941    31928    43402    52164    67671    79949    61578 
   10469   -47476   -82858   -80123   -53264   -22081    16270    57368 
   72199    50669    18974    -1980   -17213   -31955   -45096   -60135 
  -69990   -64628   -45905    -7924    43016    74073    72449    48774 
   10478   -25493   -38032   -30654   -22079   -25983   -45517   -60523 
  -43069     6133    63861   108513   124591   110478    79876    39376 
   -8036   -46273   -65970   -71350   -61958   -35245     1026    38395 
   73832    95107    96714    90612    76551    47332     6478   -38761 
  -74171   -90610   -93758   -81727   -49138    -6858    30842    59543 
   72603    59848    27531    -6517   -28433   -29848   -23924   -34507 
  -56558   -72719   -80129   -75502   -54985   -20916    18426    46399 
   57140    62139    63791    54907    40153    21446   -11944   -51139 
  -70217   -59663   -23233    29855    77485    94545    72250    22928 
  -26954   -53704   -52461   -37485   -26466   -21581   -20075   -25331 
  -32548   -33778   -26283   -10902     1425     1283    -5643   -15240 
