Origin Time       2021/02/13 23:08:00
Lat.              37.7
Long.             141.8
Depth. (km)       60
Mag.              7.1
Station Code      IBR007
Station Lat.      36.3523
Station Long.     140.5955
Station Height(m) 24
Record Time       2021/02/13 23:08:18
Sampling Freq(Hz) 100Hz
Duration Time(s)  172
Dir.              N-S
Scale Factor      7845(gal)/8223790
Max. Acc. (gal)   250.224
Last Correction   2021/02/13 23:08:18
Memo.             
[...]
   19647    -2678   -24155   -35635   -34992   -23414    -7971     6465 
   19892    24440    14526     3376     2209     1865    -8888   -24961 
  -33095   -27774   -12488     6837    21442    21992    11542     1713 
   -6624   -17621   -27240   -31110   -29878   -27729   -27889   -21610 
   -1408    18536    23753    18497    10508     1557    -9512   -21676 
  -29533   -28186   -15769     2821    14376    14164    13917    19545 
   23145    19782     9429    -6413   -21207   -31788   -41318   -45068 
  -34645   -14868     5845    26109    39077    37469    29566    24198 
   15445    -2728   -21520   -28814   -26433   -20216   -10552     -951 
    5096     7088     4174     -619    -3620    -5873   -10477   -18596 
  -26384   -28896   -24389   -14986    -7503    -3963     1914     9796 
   12739    10336     6899     4878     3303      -91    -5472   -11234 
  -13402    -8020     3499    15361    21822    22572    18597     3514 
  -22771   -45091   -54217   -51003   -33176    -6848    11053    15850 
   16430    16893    12010      457    -8849   -13475   -18765   -20520 
  -16908   -16798   -19049   -16052    -8220     2582    12071    15087 
   16576    20568    21347    15288     2673   -11145   -14569    -8623 
   -4936    -5414   -10156   -20642   -29582   -30557   -24344   -13483 
   -2633     3392     6158    11607    17871    16607     8186     1320 
    3142    11670    14655     4571   -11491   -20665   -19747   -19477 
  -24869   -26342   -17775    -3738     7855    12847    13483    11824 
    6939    -1316   -14415   -33296   -50615   -56523   -48540   -28993 
   -4372    16721    32327    41002    39160    30315    18150     3582 
   -8726   -16158   -19450   -16784    -8013      406     5568    12795 
   20290    18565     6686    -8028   -16947   -16066   -12160   -11335 
  -10754    -8885    -7623    -6837    -3196     2432     1179    -7886 
  -14890   -15132    -9983    -2809     1026      645     -760    -3114 
   -6859   -10412   -11971   -11203   -11442   -12505    -7292     5994 
   18767    22609    19167    12835      338   -17014   -25258   -18311 
   -9283   -11275   -19714   -21577   -13887    -5796    -6088   -12266 
  -16059   -13948    -5404     7214    16717    15796     2104   -15777 
  -23360   -16632    -3543     6745     9126     2887    -8442   -17911 
  -20144   -16742   -12101    -6565      680     8702    15101    14646 
    7781     1729    -5421   -18886   -30696   -30896   -22376   -12513 
    -750    15417    30310    36798    32444    16262    -3493    -9142 
    -650      538   -13856   -30508   -39888   -43575   -41202   -28944 
   -8799    14690    38956    54824    52293    33910    10044    -9983 
  -24221   -34539   -37866   -32121   -18990    -3488     4703     6000 
    8012     5610    -5039   -14611   -17467   -14652   -10611   -13246 
  -21217   -24686   -18237    -2504    11912    12893     5138    -1329 
   -4870    -5130    -3716    -4783    -6465    -1370    12607    25049 
   26464    21942    16227     7414     -900    -7533   -19021   -34056 
  -42583   -39208   -27234   -14658    -5950      820     5940     8368 
   11213    13784     8569    -7033   -24806   -32664   -28961   -24754 
  -22593   -12010     6269    19647    25477    27224    19457      368 
  -17392   -26454   -31504   -31742   -22119    -2987    21477    39536 
   38379    22372     6201    -5832   -18072   -28719   -34267   -37293 
  -34700   -22335    -7269     5776    17672    25184    25309    17608 
     796   -23907   -46723   -55050   -45978   -25597    -3041    13284 
   22698    29681    33764    32054    23917     9705    -4572   -12946 
  -17842   -20250   -21471   -25003   -25672   -23411   -25655   -24430 
  -11021     4695    13254    16425    18858    20746    17482    11184 
    9494    10201     7063       91    -8349   -14960   -19155   -22840 
  -24012   -20957   -13265    -1155     9420    12630     9147     4455 
    3424     2956    -4507   -20487   -35749   -37655   -25670    -9657 
    4496    14026    15630    10887     6354     4567     -891   -10625 
  -15522   -17443   -20965   -22176   -25667   -34137   -38983   -38284 
  -32482   -19213    -1709    16630    32493    39506    39376    39320 
   37138    27334    12756     -548   -10675   -18504   -24111   -26273 
  -24502   -21946   -20781   -17257   -11288    -9262   -12575   -16534 
  -15209    -5012     9703    23664    36454    43787    41226    30349 
   14659     -291   -12441   -24977   -37895   -49994   -58953   -58031 
  -46136   -28621    -5925    22165    47098    54756    37065     4477 
  -18396   -19741   -12920   -13514   -20464   -23693   -19233   -11425 
    -990    12592    22815    26096    22395     9170    -9255   -22203 
  -25895   -22800   -15894    -7719     3240    15012    16880     6845 
   -4409   -11103   -16511   -22887   -26910   -23620   -10849     6409 
   15564     9921    -2315   -11836   -17587   -18474   -13579    -7959 
   -4880    -4287    -8297   -11214    -1937    15265    25918    26527 
   21821    11998    -1039    -8480    -6619      136     8048    14202 
   13028     3532    -4093     -345    11180    19360    14580    -6299 
  -35897   -63067   -82552   -89388   -77186   -47125    -8986    24691 
   48578    63494    64899    54005    44686    38367    21899    -5540 
  -34565   -59562   -71421   -62684   -41134   -16132    10995    35942 
   52015    56886    51884    39102    18962    -6727   -31560   -48289 
  -53910   -48887   -34657   -15462     1409     6073    -8268   -32572 
  -47676   -43298   -25497   -10590    -5728     -534    15867    42811 
   68214    71821    44826     6579   -20663   -37808   -49632   -53292 
  -52988   -49851   -35222   -12633     8469    28987    45890    49761 
   37812    16781    -1485   -12982   -23638   -32817   -30599   -12745 
   10758    23634    20424    12418    13830    20995    13988   -10593 
  -31899   -36711   -29906   -22177   -20183   -18181    -9477      -16 
    6600    15901    21864    12247    -2619    -4750     -257    -4760 
  -17035   -26055   -27330   -23322   -19692   -21573   -23800   -13532 
    7634    21297    19642    12812     8112     4639     3346     6076 
   10554    10597    -1502   -26272   -50500   -59817   -51699   -29153 
    1709    29047    44936    47822    37088    16366   -10411   -43453 
  -74714   -92056   -95489   -84932   -54834   -12256    28630    62347 
   85163    89769    75697    52006    24057    -8594   -37065   -50363 
  -51933   -45000   -28011    -6011    16050    31152    31881    24294 
   18196    14218     2289   -25412   -55148   -69942   -69730   -58406 
  -41569   -26824   -12563     7381    30493    44609    41041    26053 
   12217     7146    17332    40899    58077    53782    33103     6416 
  -19030   -41466   -63197   -76831   -68214   -37606     -243    30912 
   49860    56204    55958    49558    29482     3415   -11774   -22025 
  -40574   -60097   -72229   -79251   -77531   -61501   -36396   -11259 
   11056    31711    47864    55668    57824    54180    39723    19549 
     708   -18181   -31673   -33559   -30046   -21811    -7971    -2347 
  -10355   -19008   -20601   -17964   -14272   -11441    -7099     3383 
   14662    16630     5728   -18280   -45878   -60129   -58720   -47412 
  -25296     3915    31194    51696    62500    67424    76323    84119 
   73321    37957   -15269   -73091  -117254  -136347  -129362   -98221 
  -47128    12942    62853    88990    92183    77282    52632    28061 
    2265   -27704   -52434   -62166   -59810   -53040   -41450   -19687 
    8276    31082    41791    38448    26985    18137    12183      589 
  -20804   -44412   -54025   -42701   -18621    12097    46410    70038 
   65414    30711   -14386   -42750   -43420   -22999     5086    22457 
   18210     -649   -18708   -21801    -9583     1269     -336   -13375 
  -35374   -56882   -64558   -55856   -30766    14521    67643   100502 
   98186    63802     7981   -48601   -86688  -104041  -103369   -85133 
  -57423   -29188    -1026    24860    43075    53298    54881    45908 
   30237     9428   -19553   -50495   -71724   -78173   -68242   -47660 
  -31082   -21867    -7816    18871    51803    74471    71057    41419 
    4418   -19720   -26725   -23033   -12013     7122    32647    58136 
   73839    69553    42174     1109   -37033   -58735   -60550   -49096 
  -34088   -24549   -28220   -43217   -54268   -47085   -25068    -3284 
   14381    33301    47320    45843    33516    27170    35117    47447 
   51591    44910    33160    22214     8815   -11191   -34155   -53883 
  -65092   -65470   -57630   -47135   -34130   -12688    13969    36410 
   50642    46074    14203   -25398   -47675   -50363   -37296   -12025 
   11202    23156    27787    26401    16605    -1425   -17680   -14170 
    9558    32636    35858    11605   -33056   -76993  -103831  -114338 
 -110386   -88497   -53732   -13590    30713    70579    94436   107036 
  117313   117861    94360    44080   -21373   -80109  -113024  -124993 
 -128466  -116526   -87933   -59718   -40173   -27646   -20865   -13959 
   -1544    12052    19244    19461    21757    40963    78989   112299 
  121039   107541    74788    28320   -18177   -60999   -94161   -99370 
  -78263   -53287   -34061   -17470     -260    19399    35739    37377 
   21764     5093     6833    20347    20934     6781     2909    21181 
   48884    76169   102122   117796   108714    72693    20229   -36134 
  -82923  -111423  -124104  -124896  -115192  -102274   -90686   -71523 
  -40698    -9821     7338     4959    -7510    -9833     5109    23889 
   32648    30422    23371    15384     7565     5279    13119    20888 
   12464   -10355   -29953   -34213   -23001    -5161     6316     5382 
   -3157    -9022    -5513      765    -2431   -15059   -24757   -23741 
  -19996   -23873   -32478   -37218   -30742    -9397    20470    46059 
   53806    37309    10800    -2474     4939    26522    49084    54612 
   35922     8199    -3601     6789    18172    13108     -722    -9059 
   -9541   -11427   -27631   -60831   -92889  -100410   -85243   -67918 
  -57257   -53419   -58672   -64768   -52434   -10963    47981    93873 
  102556    80885    55971    43268    39791    43559    57046    73213 
   75189    51773     6602   -48080   -95605  -121795  -124474  -103380 
  -59602   -10336    23688    37667    31336      958   -41284   -68347 
  -63435   -29632    12996    45396    64408    71451    68233    60238 
   53879    54561    55687    44531    23422    -1984   -29039   -42399 
  -32313   -14384    -5826    -6820   -17383   -45770   -86745  -118284 
 -128545  -118505   -85529   -34267    15147    49859    73533    91731 
  105293   111122   103809    78900    34083   -27670   -93129  -140873 
 -153258  -128575   -83566   -42514   -19121    -9310     1787    24012 
   48832    63342    69550    70834    58529    26677   -15724   -50441 
  -66480   -68057   -58004   -31845     5431    38466    55093    53964 
   44259    37039    35245    35490    36181    33870    21674      114 
  -22913   -38664   -41675   -39410   -45681   -62951   -87829  -115096 
 -127345  -104666   -43534    33839    86684    95499    79609    58953 
   36474    11832   -18833   -54594   -79648   -78815   -50990    -4905 
   44853    77005    79366    65935    59159    62056    59103    38236 
    1472   -37625   -62073   -68852   -66934   -60702   -50517   -36081 
  -19429    -6976     -299     4722     9409    12576     9532    -7361 
  -36132   -64741   -78779   -64206   -25839    12717    42851    67657 
   77512    64665    38993    17532     8857     6241     1277    -3919 
   -8649   -18601   -32848   -43734   -44116   -29497    -5876    14580 
   27105    31010    25878    14574     4010     3531    17317    37577 
   44051    19989   -22694   -53720   -59178   -45675   -23662    -6772 
   -7515   -21714   -37955   -50282   -52158   -40945   -23409    -9788 
   -4789    -1873     7084    21786    32263    23598    -1799   -20337 
  -22889   -20272   -14010    -4344    -2597    -5325     4199    26863 
   54693    79303    83153    58495    16703   -31567   -75466  -100818 
 -101113   -77125   -36994     5436    45562    85989   121694   142406 
  134542    88022    13878   -66002  -133300  -168566  -162182  -125714 
  -79153   -38655    -9776    17733    52046    80107    85392    68380 
   38992     6300   -24275   -49046   -57414   -39190      178    44344 
   67652    46953    -7092   -59826   -88911   -92817   -78066   -44972 
    3847    47322    69746    78079    73302    46878     6876   -26921 
  -50242   -75586   -98969   -95719   -55555     6318    64230   105981 
  137084   147779   116730    50367   -24957   -90875  -132043  -136629 
 -114952   -84423   -54210   -36890   -35500   -43480   -51819   -34506 
   14358    65481   104634   127664   119736    83077    47486    31753 
   15688   -18009   -46962   -48852   -36194   -30503   -36234   -47106 
  -54642   -51754   -37489   -20380   -11323    -8661    -8239   -17716 
  -37620   -47991   -27687    18038    59610    76981    71196    49316 
   20144    -7506   -28186   -39283   -42599   -41312   -35181   -19865 
    6708    35151    53577    59439    54847    43345    27209     1132 
  -38419   -75826   -89075   -76540   -50580   -22500    -2697     3377 
   -1100    -7676   -11047   -11475    -5992     6030    18152    31595 
   47467    53126    45079    32688    11913   -25196   -75226  -130720 
 -174480  -188512  -171072  -123178   -48419    34620   108689   173607 
  229140   258152   244699   191585   109439    13500   -64369  -105244 
 -135585  -166891  -172543  -154777  -127325   -83434   -26619    33100 
   85862   117853   120864    94456    49284      974   -42701   -71724 
  -66440   -27660    16834    54453    81610    84673    72382    59142 
   38489    15341    -3530   -29736   -67285  -106536  -136860  -155941 
 -163138  -146739  -106231   -53392     9173    68238   103563   116476 
  110776    76528    18581   -28630   -36435    -9718    32328    68850 
   80326    68235    43256     7978   -27268   -57433   -86005   -97248 
  -85120   -71068   -57611   -30967      645    19661    16456    -7447 
  -28551   -23994      463    28016    50633    63972    62129    47490 
   35490    32566    24093     -202   -27468   -44311   -56930   -65858 
  -61851   -51756   -37604   -13691     6809    14688    12321     -756 
  -13514   -11133     4070    22611    40355    53426    55493    42345 
   11030   -34396   -75762  -101817  -118783  -122045   -97274   -51062 
   -1063    45449    84771   112095   122011   111014    86767    57082 
   19768   -21760   -56405   -71257   -53214   -10314    24229    21725 
  -21018   -77805  -117298  -133569  -130461  -106937   -70461   -26109 
   26489    72458    97671   106174   101016    79775    50522    30046 
   23853    21783    13637     -641   -10401    -8390    -1013     5725 
   11530    18588    29513    34740    18465   -20922   -68638  -106072 
 -122890  -118516  -103387   -88676   -63267   -15213    34198    55287 
   37295    -8779   -43888   -37870   -10342    10396    27280    50252 
   77506   101578   119907   131448   118578    64940   -20131  -112244 
 -179207  -195831  -161065   -93941   -30817     5193    28463    45522 
   47224    43378    40126    37867    48375    67741    78649    68836 
   32999   -13286   -45454   -58014   -58137   -51995   -46311   -43578 
  -37609   -26750   -19592   -15643    -1031    25887    49793    59212 
   52266    33154     7106   -26862   -65951   -93933   -94470   -67251 
  -27218    12482    44262    50949    24397    -7153   -17840   -13895 
   -1792    12658    19765    31214    52938    63378    55321    41395 
   23907    -5414   -51717  -101864  -130708  -129304  -102292   -54473 
     236    41385    56852    46939    24498    10997    21811    52370 
   81722    91231    77049    48379    22343     9749      946   -15858 
  -34885   -44425   -37349   -19580   -12391   -24406   -41828   -53192 
  -56033   -48259   -27130     4942    30235    27696     -220   -33139 
  -54781   -64176   -77976  -105784  -131464  -135166  -105592   -43185 
   24822    70105    97661   123049   144813   149882   132810   103376 
   65200    13491   -44463   -94085  -121529  -122968  -110947   -92506 
  -65942   -34476      541    37281    65371    73529    61740    48189 
   50288    56023    42712    17851     1201   -10936   -23971   -31442 
  -38149   -55055   -80333  -102006  -108970   -95805   -61153    -7653 
   54859   108126   131970   120411    93209    75092    61194    27842 
  -23630   -62203   -69140   -57056   -43100   -33635   -28719   -20884 
   -8460    -1426      195     5994    15376    18628     9976    -6617 
  -19607   -18115      144    28975    52832    50997    17849   -29739 
  -68585   -83565   -73849   -49688   -21637     1356    14104    19149 
   15601     1078   -13489   -19402   -23290   -25890   -16644     7753 
   38835    63591    76287    79544    67936    33174   -15584   -59799 
  -90072  -106095  -112112  -110922   -99262   -78656   -57574   -39609 
  -21582     4742    47345   101005   142636   144030    99530    37539 
  -11244   -39868   -48798   -39453   -27853   -26273   -26204   -21304 
  -14121    -6154     1059    14465    42552    75001    94385    95482 
   79947    44895   -13320   -83716  -141386  -170924  -177630  -173083 
 -155009  -106537   -21890    76249   155709   201783   209993   180443 
  137516   100932    55898    -3168   -62237  -112324  -136907  -127170 
 -107923  -106293  -116760  -113046   -81972   -33192    15186    51408 
   76491    90261    86479    72265    66020    74814    86853    86197 
   70290    43692     9888   -22100   -48631   -77768  -102753  -103219 
  -80989   -54022   -28709    -9664    -5177    -8225    -5378      930 
    2037    -2790   -11520   -24374   -41357   -58082   -65078   -54378 
  -28594    -1266    15084    18296    14377    11298    12397    18091 
   31581    50990    66073    68364    54519    27773    -2937   -34472 
  -70950  -107774  -126995  -115399   -77804   -31835     5085    27853 
   43625    61160    80119    87203    71946    44879    24750    12641 
   -3870   -24671   -37211   -36867   -28101   -16776   -10544   -14467 
  -24062   -33960   -45544   -52041   -37966    -3395    35596    64924 
   76025    64160    33436     -703   -26163   -46457   -62371   -60829 
  -39843   -14449     8037    27772    43475    60851    79866    84704 
   69603    43806    12118   -25929   -66340   -98842  -119371  -128949 
 -122999  -105376   -88906   -74093   -51019   -15568    25681    60241 
   75744    67734    46244    27882    19715    16443    12371    11236 
   20013    37530    57184    69056    59251    27013    -8027   -26149 
  -25007   -17614   -15356   -17288   -18404   -16834   -13190   -12106 
  -17672   -28088   -41324   -54938   -63055   -62951   -54634   -36579 
  -10376    14810    25722    22528    23904    37297    47510    41848 
   24151     9153     9147    22081    33940    30418    10098   -11183 
  -16360    -6011     5356     7717     4205     2776     4425     2562 
   -9675   -30740   -48996   -56124   -53476   -45418   -41133   -45316 
  -44392   -29547   -13309    -6427    -7951   -16773   -30500   -35511 
  -15202    23776    53774    59020    43723    18781     -967    -5209 
   -3510   -11354   -25150   -32811   -34564   -38695   -46472   -45943 
