Origin Time       2021/02/13 23:08:00
Lat.              37.7
Long.             141.8
Depth. (km)       60
Mag.              7.1
Station Code      IBR004
Station Lat.      36.5516
Station Long.     140.4102
Station Height(m) 61
Record Time       2021/02/13 23:08:18
Sampling Freq(Hz) 100Hz
Duration Time(s)  219
Dir.              E-W
Scale Factor      7845(gal)/8223790
Max. Acc. (gal)   192.838
Last Correction   2021/02/13 23:08:18
Memo.             
[...]
   -1390     -279     3275     4413     -630    -6885    -9135    -7672 
   -5991    -4656     -390     3626     2038    -1979    -4841    -6849 
   -6124    -1621     2388     2227    -1615    -6990    -8001      275 
    9987    10577     7520     8478     6192    -2323    -7905    -9698 
  -10848    -5958     1853     1351    -1664     1246     -387    -9848 
  -14357   -13286   -15195   -17598   -14071    -5925     1193     5270 
    8924    12309    11399     4263    -4530    -7566    -4652    -3059 
   -6411   -10883   -12735   -13979   -15078   -10463      234    10150 
   16240    20162    21539    15265    -1800   -21335   -30052   -24459 
  -11939      -17    10620    19341    19674    11433     2789    -5931 
  -14652   -12617     -229     6129     2817      924      635    -4240 
   -6369        4     4297     1156     -341      973    -4854   -15454 
  -16348    -6354     1962     5510     9468     9234     1333    -2751 
    1744     2673    -6716   -17861   -19876   -14790   -11398    -6315 
    5431    14580    14192     7917     -911    -6864    -5815    -5769 
   -9502    -6228     1930      846    -7534   -10579    -7692    -4476 
    1483    11059    16677    14985     7965    -4468   -15913   -14257 
   -1730     8032    10206     7753     2612    -3434    -8581   -12989 
  -15565   -12718    -6428    -1609     3794     8621     5790     -880 
   -2839    -1706    -1853    -3052    -3646    -3403    -3059    -1660 
    2829     8348    10289     9961    10143     8073     3666    -1210 
   -8854   -15753   -14141    -7794    -6214    -7244    -5112    -5692 
  -10037    -7434    -1271    -2427    -4741    -2112    -2609    -6720 
   -2716     7997    10586     2941    -5818   -13167   -17772   -14008 
   -4147     1525     1895     4183     6461     4149     2050     1233 
   -1227    -1162      750    -3010    -9121    -8214    -2162     2351 
    6205     9521     6831     -573    -4384    -2506      438     1675 
    1782      305    -4625    -9400    -8675    -6675    -6960    -3738 
    2535     3720     -307    -5081   -11165   -17232   -16339    -6234 
    5152     9964     9360     4995    -4056   -12563   -14767   -11068 
   -2936     6350    11616    13765    16492    15164     4584    -9931 
  -21130   -25242   -19718    -8194     1084     4878     4712     2643 
    1413     3210     7221     8673     3688    -4307    -9366   -10029 
   -6293     1976     9879    11454     8865     6535     3056    -2789 
   -8014   -10365    -8005     -588     5556     6299     4893     1919 
   -4738   -12665   -15237    -9969    -4633    -5760    -8121    -6844 
   -5086    -2139     4958     9651     8483     8760     8610    -1339 
  -14142   -14110    -3438     2764     2289     2309    -1566   -12866 
  -16660    -5926     1119    -3577    -5244    -2866    -7792   -11323 
   -1880     9420    12174    10889     4467   -10615   -22979   -23387 
  -15766     -166    18659    23971    17458    14149     9401    -5043 
  -18577   -19542   -13227   -11156   -11510    -5900     1784     3971 
    4997    10729    14701     9811     1281    -5827   -12237   -15633 
  -14922   -10041     -602     5983     4864      846    -4167    -9549 
  -10141    -5157     -918    -2660    -8216    -8962    -2806     1499 
    2668     8167    15259    14971     6435    -5020   -14300   -19986 
  -21142   -12206     4812    14679    12688     7531     -579   -11365 
  -14735    -9624    -4857     -373     7365     9451      600    -4738 
     591     2417    -4942    -9975    -7128    -1544     2295     3303 
    3022     3931     4530     2601     1621     3279     2192    -3908 
   -9980   -12351   -14917   -21678   -25119   -16510    -1664     9836 
   15984    17586    15228     6693    -8139   -16997    -8996     7736 
   19144    20984    15824     5786    -9632   -25386   -30052   -22162 
  -11665    -3622     3820     9536    12303    14130    11020     -210 
   -9543    -9101    -5772    -6652    -7888    -4062     3109     9019 
   10505     6065    -3042   -13011   -19707   -20081   -13498    -4032 
    2567     7295    15616    23155    18242     4190    -4552    -7547 
  -11377   -13653   -13116   -12891   -11983    -7843    -1340     5690 
   13294    17332     9130    -7906   -20067   -25192   -28220   -23743 
   -6760    11281    18576    18605    14607     3937    -9964   -19272 
  -18881   -10227      869    11465    18617    16788     5449    -9628 
  -21566   -24841   -19205    -8999     3411    13871    15360     8490 
   -1622   -12407   -17354    -9721     3491    10755    14688    20637 
   23105    19263    12237     -153   -18480   -33259   -35602   -25357 
   -8014     9208    20692    23334    17579     6193    -9170   -22253 
  -24582   -17743    -9485    -5463    -6316    -7816    -9208   -11788 
  -10208       59    13159    18982    14543     4864    -6247   -17043 
  -21313   -15109    -3936     5787    11797    11882     4413    -6008 
   -9733    -3994     4766    11790    13956     9279     3650     -117 
   -6635   -11766    -9718    -5059     -575     4531     8592    10689 
    9687     5034    -3370   -16889   -29381   -32252   -27703   -19028 
   -4850    10272    18227    17734    12410     5760      -99    -6801 
  -13701   -13981    -8544    -6374    -5362      785     3870    -1830 
   -7929   -11853   -13682    -7084     3302     7538     9375    12858 
   11223     4118     3246     9035     6291    -4463    -5817      841 
     904     -584     6831    12858     8989     4648     2435    -2174 
   -4162    -1779      -16     1927     3327    -2257   -13078   -20676 
  -23643   -22707   -14253      232    13166    20507    22034    17479 
    9143     1316    -7065   -17491   -20661   -11045    -2374    -3516 
   -4455    -2359    -3861    -6072    -6454    -7728    -6380    -3952 
   -9421   -16120   -12069    -4214    -1495     -105     3018     5452 
    5699     4885     3029     -633    -3076    -2712    -1505    -1154 
   -6354   -16596   -21756   -18943   -11352     2853    20308    29916 
   29623    25479    14085    -8279   -27059   -29042   -23550   -21095 
  -15943    -4760     5228    11403    15969    17558    15921    14802 
   13980     6786    -7582   -19394   -24038   -24449   -17597    -3285 
    7360    10320    10557     6987     -873    -6281    -5609    -2154 
    1408     5166     6650     2250    -7672   -17489   -19306   -13940 
   -9080    -3811     5846    14872    17305    14044     6143    -7839 
  -21498   -24526   -18609    -9598     1453     8148     5363     1746 
    3541     3460    -1019    -3546    -5948   -12037   -13437    -3959 
    8206    17604    27460    29889    13918    -9629   -24521   -30703 
  -30985   -22759    -7017     9697    17172    10629     2123     2261 
    3157      191     1173     4882     -500   -15928   -27839   -29801 
  -27360   -18357      727    17091    19881    15815    13220    12101 
   12074    13980    13139     5147    -5436   -12865   -17240   -19927 
  -18759   -10638     3061    15859    20803    17182     8117    -6539 
  -24904   -36795   -33597   -20522    -6220    11583    31064    36661 
   25000    11853     3456    -6114   -14706   -15961   -11075    -4629 
    1233     4592     3843      579    -2644    -4703    -6948   -10181 
  -11161    -9394    -6910    -2578      673    -2270    -7987   -10120 
   -7465    -2069     3677     8125     9904     6955    -1335   -11395 
  -18661   -19982   -14256    -5232     3732    11407    13516     9551 
    4990     2484      187    -3604    -6401    -5015       -9     6528 
    9742     4691    -4147    -9767   -14540   -17721    -7851    13105 
   23238    14270     2914    -1302    -8343   -20507   -24918   -17794 
   -9219    -4850    -1610     1560     1971     1274     3655     8839 
   13977    15337     9555     -313    -5860    -4355    -2462    -4441 
   -5525    -1852     1398    -1827    -5094      -90     6411     7538 
    5894      831    -8710   -16815   -14235       95    12083    12573 
    6918    -1707   -10758   -14299   -12167    -7375     -248     7940 
   11790     8851     3607     -346    -1964     -654     6129    20143 
   28390    17265    -2039   -13004   -16429   -16617   -12272    -6880 
   -5319    -4417    -2930    -5134    -7564    -1869     8248    11533 
    8140     3256    -8248   -27016   -35812   -23093      216    21173 
   35868    39536    29647     8920   -16376   -31338   -25434    -7518 
   11191    27984    35298    27407    14430     3692    -9622   -22752 
  -26827   -23454   -20742   -20189   -18571   -19329   -25204   -29404 
  -28248   -23062   -13165    -2141     3094     2902     3554     4529 
   -2636   -17675   -29218   -33650   -35827   -32274   -15992     8174 
   28494    36485    28980    10863    -7654   -18052   -13911     5620 
   26991    31479    17725       99   -12135   -19954   -23098   -15511 
    1318    16379    25535    27656    20448    10300     1806    -3079 
    4097    17624    20804    17093    15975     9529    -7474   -23315 
  -27972   -24487   -19697   -16883   -14654   -10091    -5965    -6974 
  -10845   -12325   -10966    -9757    -9917   -11763   -14087   -11900 
   -6060    -5865   -11637   -12031    -3477     6917    12698    10218 
     747    -9976   -18883   -23352   -18459    -6633      978     1200 
    5306    17190    20879     8070    -6439   -13239   -18833   -21204 
   -9979    10274    25728    33750    35345    26014    10038    -1109 
   -5539    -6015     -889     9340    14287     3132   -15801   -26052 
  -27662   -24884   -13859     3399    19192    28480    28102    19017 
    5046   -10546   -25151   -37237   -43282   -37694   -20004     1566 
   20128    34715    38588    26908    10554     2444     3588     4768 
    2058     3006     6459     4247     -280    -3222    -7484   -11593 
  -13433   -14478   -12027    -3478     6025    11643    14956    15209 
    7036    -6619   -14899   -12155     -502    12537    20684    22885 
   15978    -1964   -24736   -45241   -57246   -57393   -53620   -49968 
  -35818   -10746    11133    24186    28506    19336    -1402   -19317 
  -23206   -14424     1676    20551    35472    40051    32719    17089 
     865   -10739   -22075   -36030   -42898   -37717   -30758   -25832 
  -12684     9849    25739    25150    15052     1354   -13630   -21772 
  -17686    -2948    16857    32899    43838    54378    60563    52444 
   24027   -17228   -52096   -72955   -83292   -76098   -47055   -12996 
    6926     9420     -114   -14625   -24136   -19732    -2446    18775 
   39567    57802    63180    49420    26296     3195   -18983   -31762 
  -22410     4247    29817    42618    37268     9944   -30096   -65314 
  -88911   -98035   -85172   -52617   -14052    21841    53647    76497 
   82293    73260    58572    34919    -3597   -44540   -72648   -84420 
  -77869   -55769   -27234     2336    24926    30801    18578    -5859 
  -31406   -48188   -48652   -26241    10812    39052    44550    39290 
   39602    35295    13144    -9617   -14449    -7669     -616      719 
   -9560   -34530   -63340   -67182   -28825    33768    92529   131922 
  148529   148541   132398    91995    32505   -26412   -65834   -75394 
  -59875   -36869   -21115   -12058    -4445    -3682   -12390   -17035 
   -5526    15792    30723    28228     5991   -27903   -56594   -67273 
  -56046   -27908     2080    23776    36806    36886    18711   -13443 
  -46791   -68526   -71841   -54657   -21458    13158    31288    27664 
   17227    17084    26454    34958    39444    42097    40016    28944 
    8896   -18280   -43897   -55512   -46125   -13304    33615    75828 
   99747    91485    41092   -36332  -111294  -160745  -168712  -135538 
  -76547    -2320    69850   112456   114731    81972    26732   -35889 
  -95129  -130545  -121653   -75231   -14565    41442    79610    85888 
   55181     8324   -26526   -41027   -33427    -2632    33319    55081 
   60253    50647    34990    21424     5027    -9895   -10612     1445 
   21875    47048    62054    54475    22842   -29789   -88003  -126570 
 -131961  -106875   -58873      -43    54972    93934    99774    69032 
   27973    -5239   -37752   -69493   -81936   -71150   -57465   -41573 
   -7017    35270    66534    87921   100927   101301    85882    49115 
   -9792   -78808  -136784  -162595  -152350  -118389   -68347    -9265 
   44996    86132   110077   113869    97663    59335     5034   -46973 
  -84233  -101799  -100464   -84901   -51678    -2744    42433    67720 
   69882    56894    43746    30851     9730   -10158   -17969   -24102 
  -39583   -57280   -66064   -65907   -58410   -35514     4421    45376 
   74077    85603    69535    21936   -37291   -79247   -90385   -75721 
  -47841   -16978    10450    30861    47718    62345    65423    51709 
   26913      656   -21851   -44089   -69842   -93388   -96587   -65857 
  -13892    35626    69183    79037    63838    33173     -241   -27085 
  -40432   -33516    -7869    17390    22851     9921    -7983   -18991 
  -12135    15353    45445    53362    34163    -3881   -55966  -111389 
 -150711  -158545  -132210   -81033   -14153    60311   123157   149031 
  128320    74875    12094   -35264   -51621   -37916     -997    36479 
   47382    37972    21882    -1467   -22287   -28879   -16671    16999 
   59830    85855    79405    54417    35683    27118    30019    56533 
   98446   129054   133571   108433    55634   -13221   -85214  -143665 
 -161890  -127735   -59354    10115    49162    42223    -6312   -78335 
 -146989  -187542  -181597  -117887    -9483   101432   174919   200404 
  183317   125707    40876   -31336   -58796   -50215   -21672    23286 
   58553    54529    31247    15149   -12356   -58706   -95071  -106689 
  -98532   -77633   -48883   -11122    26125    43330    35220     4588 
  -35291   -54978   -52709   -54839   -57460   -40103   -13695     5776 
   23118    33879    21435   -12474   -42981   -48506   -35648   -21031 
   -4475    15803    29203    29709    27087    29313    30045    26527 
   26940    30843    24563     2336   -25667   -46656   -47956   -23402 
    9063    23998    16205    -8622   -46935   -91049  -126474  -138341 
 -124691   -99983   -70703   -32123     7758    39749    63832    75652 
   74511    67157    62370    68578    77411    75988    70402    60025 
   34464     6347   -12144   -34075   -58618   -65654   -55736   -38813 
  -12429    16447    31656    35634    41724    47459    43607    38589 
   47439    65542    74673    67231    47241    18118   -13045   -34578 
  -45607   -51467   -49893   -39191   -20305     7277    35710    50009 
   48559    45995    46029    34919     7335   -25185   -53217   -78227 
  -92392   -77888   -37319     5266    29475    32742    26743    19799 
   11545     2955    -1771     6743    36042    70262    82378    63861 
   22334   -29100   -78521  -116719  -129357  -108160   -63740   -13387 
   26696    45119    43881    30150     6278   -23363   -44923   -41319 
   -9620    35301    80770   125604   157111   143907    75177   -21436 
 -108974  -160034  -160038  -118161   -63825   -14698    29069    55634 
   56227    47116    35629    12714   -16490   -35149   -35745   -28841 
  -22979    -8554    10066     8908   -14111   -40113   -63998   -91550 
 -108383   -89272   -37021    26291    88950   139950   161233   147363 
  106485    41972   -41947  -120029  -153083  -127584   -69367    -5101 
   46688    61461    39333    10126    -3645     6305    35440    63441 
   71737    56374    22820   -20826   -70850  -125963  -164849  -152676 
  -94533   -29901    27598    75008    89587    65010    18198   -37115 
  -84330  -102016   -82074   -39658    -1304    21838    37029    46707 
   43402    27456    11057     1582    -2782     -773    11398    23836 
   16152   -12685   -40787   -50589   -39772   -15905    11392    33745 
   44211    41037    18631   -32000   -92389  -125316  -124752  -109077 
  -77098   -14683    65631   128925   151460   122476    49312   -31645 
  -79126   -71427   -20822    37617    88071   122311   111445    48728 
  -31627   -99576  -146794  -167031  -144612   -75037    14651    89260 
  127318   117263    68284     8068   -46916   -86701   -94400   -70887 
  -39249   -10993    24686    71242   102990    92078    48590     9077 
   -4884     2705    23700    55591    83953    86067    53620    -3303 
  -59252   -94267  -105970   -89313   -43067    18048    82242   134293 
  142520    93762    11087   -75078  -139337  -156170  -111636   -29452 
   44513    93286   116101    95323    27083   -55306  -111726  -125331 
  -94370   -25498    49657    89947    82449    48973    17864    -8704 
  -35125   -41844   -15209    32215    79683   105378    99060    72108 
   34882   -11037   -51170   -68054   -72403   -81616   -81089   -53860 
  -16104    11302    21119     5525   -31139   -59923   -57403   -30816 
   -3014    11504    14295    12865     6816    -5857   -18856   -26140 
  -27872   -23269    -7674    16163    35055    42712    42010    31471 
   10806   -11017   -22650   -15074     8834    25872    15431   -12272 
  -30040   -31072   -31166   -33956   -26245    -9791     -900    -4328 
  -12239   -14756    -5516    15601    45050    74927    92502    86444 
   53103     2020   -47343   -80478   -91247   -73128   -22952    45112 
  100314   120430   107590    72427    24925   -19718   -50568   -68331 
  -71606   -53308   -19772     8545    22207    20630    -2209   -35702 
  -54270   -55834   -52945   -46715   -35244   -20569   -13005   -26177 
  -52471   -71362   -74655   -55960    -6254    61781   114478   134785 
  132563   110502    63494     9466   -28539   -51144   -62691   -56601 
  -32256    -2222    20656    39472    58664    59900    31244   -12698 
  -57007   -89436  -100692   -92055   -61838   -15936    23787    52524 
   76142    74474    31024   -27994   -65169   -66008   -30801    33752 
  100998   126566   101621    66191    36034    -5179   -45904   -66247 
  -70941   -65349   -46689   -15781     8985     1638   -29644   -47815 
  -35095    -4700    22034    31102    19094    -3384   -19133   -22291 
  -18470   -12363    -7277    -5541    -5054    -3919    -4611   -12896 
  -33147   -59653   -78491   -81103   -65489   -28709    24941    76712 
  107307   109386    90576    69051    52998    37092    21631    13140 
   13261     9841   -13470   -50222   -81263  -100314  -105219   -88734 
  -47405     7900    54491    77313    72847    41625    -3145   -42661 
  -66717   -64890   -37377   -10285    -4517   -10154    -7280     7291 
   22740    35379    50049    65588    72991    59458    19537   -30666 
  -66935   -76962   -54236      -33    64145   110555   122895    97410 
   41501   -28545   -94610  -143812  -160683  -130302   -70339   -17409 
   26574    75501   108473    94635    39738   -23031   -69481   -92338 
  -85918   -51638    -7958    28414    54484    67267    65011    56821 
   46535    33502    32201    45654    47366    22310   -17610   -63612 
 -117378  -166708  -182587  -149948   -77747    15379   101339   149504 
  146799   101196    33602   -31627   -75101   -88668   -73384   -39006 
  -12100    -8415   -13274   -17903   -21845   -13014    12422    43922 
   67950    68466    38799    -8814   -50835   -67051   -58321   -36477 
   -3099    34125    51509    39178    15249    -2733   -15649   -23787 
  -24565   -25960   -29706   -18997    17635    63510    90074    90327 
