Origin Time       2021/02/13 23:08:00
Lat.              37.7
Long.             141.8
Depth. (km)       60
Mag.              7.1
Station Code      IBR003
Station Lat.      36.5915
Station Long.     140.6453
Station Height(m) 58
Record Time       2021/02/13 23:08:14
Sampling Freq(Hz) 100Hz
Duration Time(s)  196
Dir.              E-W
Scale Factor      7845(gal)/8223790
Max. Acc. (gal)   278.962
Last Correction   2021/02/13 23:08:14
Memo.             
[...]
   60791    82680    16065   -69682   -77993   -45617   -36255   -32312 
   11203    65176    57237    17300     7123   -11194   -49778   -40528 
   17215    41978    13242    -2581     6660   -17323   -52618   -27089 
   32158    61682    64454    40602   -27774   -97264   -93889   -15597 
   50323    55728    61215    73407    21404   -50399   -54465   -27297 
  -13652     6461    23214    22577    17016    -9097   -40120   -25879 
    1756      519     5547    16754    -3470   -24965   -16263    -5699 
   -6631      295    30865    61947    40352   -19318   -58433   -62322 
  -23556    34794    52104    33471    18792     8795    -1547   -11578 
  -23787   -27496   -14131     3998    20167    31070    16938    -4590 
   10330    30921     4449   -35135   -32516   -11587   -16156   -13954 
   21922    44162    27195    -9163   -41323   -45792   -32856   -20387 
    9663    38481    14061   -23364    15904    83523    58567   -13695 
  -29305   -33654   -42072    22628    81278    16259   -69211   -64390 
  -33374   -18239    13150    37408    33193    28166     7867   -31114 
  -30715     8603    40817    57202    33207   -45004   -95651   -45717 
   35554    46415    14303    -3858   -27569   -28073    42709    96252 
   47007   -30591   -50747   -36163   -14926    27554    71653    63498 
   -8464   -85384  -103712   -67562   -17644    36410    83716    71926 
   10535   -21551   -25112   -28213    -9061     6721     1232    16887 
   25569   -29299   -83859   -49950    24129    53674    54546    51471 
   12768   -38605   -24938    22474    10395   -22813    -7792     3697 
  -11272    11358    45659    13285   -41764   -47829   -30534   -15469 
   14617    44432    43803    25529     7280    -9482   -12776   -15433 
  -35187   -29203    17770    35681     5485    -4673    11106    -2756 
  -16345    10828    11993   -32668   -40397      136    23687    23598 
   31314    38963    35911    15718   -38452   -73934   -28026    33181 
   37052    24937    35017    24435   -26230   -48088   -29613   -28224 
  -17151    21892    38835    35775    25420    -8311   -50334   -78410 
  -70777    -7422    67162    79768    24027   -44267   -68365   -44486 
   -5811    33720    44995     7064   -12071    26188    46707    23473 
   27679    53717    27580   -21424   -29466   -25343   -31599   -28393 
  -33735   -42534   -13807    15565    11341    24916    50668    31159 
   -7333   -14608    -7026   -14774   -10779    29818    49698    14098 
  -28273   -55301   -65493   -37932     -263     8592     5277    11973 
   27503    43996    52992    39249    14087    27973    52407     -529 
  -86509   -96849   -49929   -12303    12814    26936    17517   -13101 
  -41953   -36008    -9418    11225    54689   106551    86008     5767 
  -29947    -7456   -11861   -58365   -64081    -3208    36614     9231 
  -17039    -5815    -3666   -19587    -8614    22292     9433   -32715 
  -12201    45684    30669   -20849    -9219    29567    28210    -4310 
  -29065   -20907    -7110     2031    39135    53319    -8868   -59163 
  -28657     2309    -6050    17339    40057    -4629   -22954    19071 
   13879   -24795    -8343    23076    -1223   -27232    25482    89683 
   49924   -41296   -74861   -85113   -97872   -34072    69257    89856 
   54533    37827    25332    10554     -769   -23688   -28290      859 
    2299   -32967   -29440    16633    25451    -6012   -15911   -25893 
  -65326   -54627    33493    89667    62931    28957    27405     8644 
  -40209   -68511   -59449   -27776    14989    38284    40123    54180 
   51754    -2403   -52008   -63038   -55567     3835    94919    94413 
    7168   -47710   -59429   -52785     4132    58839    17089   -45577 
  -15826    14581   -35634   -44375    21783    25564   -28277   -20984 
   29273    50969    48878    34754     6392   -15075   -13244     3603 
   36668    64628    26223   -53377   -77706   -48139   -23390    -5675 
   18754    31881     5806   -48348   -69390   -18679    45954    39425 
    1479    11307    25756    22644    45970    41590   -28742   -70255 
  -29596    27090    39009    20042    -4333   -28012   -34911   -28710 
  -28030   -18589     3723    16055    22474    30333    21907     7452 
   22921    45351    18216   -30487   -48566   -57338   -55115   -18700 
   10620    23785    55860    74139    34939   -27963   -54985   -39974 
  -18065    -3867    19604    53285    51935     3638   -32813   -32327 
  -15678    11299    38167    40830    10789   -16352      634    17683 
  -19210   -52617   -34481   -16870   -17973    -5374     4614    -5344 
   -7927    10361    28588    24136     2330   -10388     3882    36259 
   51799    31168    -6018   -36952   -52218   -50845   -38057   -10805 
   26562    44717    31726    15537    18698    23013      857   -35139 
  -47302   -31850    -8295    25442    57495    51954     5798   -41372 
  -46168   -20907   -14598    -3123    53272    76951    14202   -40483 
  -33758   -20830   -14196    -6723   -23760   -36397    -3757    27353 
   10150   -17080   -14854    16993    75261   107958    46348   -54286 
  -78073   -25683    25952    46805    45702    22435   -23391   -56114 
  -48852   -42465   -44084     1362    63378    65465    27311    11326 
   16754    -3280   -44151   -58207   -42741   -14033    18740    24293 
     364     1810    39317    42218   -18283   -65157   -35641    17772 
   29679    25868    36174    31244     -807   -26207   -27600   -22465 
  -17271     -175    24464    25076   -11838   -25150    20451    40576 
    5054     5803    42257    24109   -25520   -35488   -32530   -36865 
   -2961    36391     8557   -19739    31399    75373    33663   -25296 
  -48757   -55699   -40327    -8463    10908    28536    35710     1425 
  -26636   -16198   -31529   -55993    -8036    46302    26315     9861 
   35764    34296     5683    -6050    -4603    16665    66012    80686 
   12984   -58023   -52284   -12727     2474    -2382   -16939   -41355 
  -45098     1402    51228    46317    12012    -8926   -28709   -59595 
  -65026   -31677     4166    37619    74979    73917    17412   -20561 
    9769    32481    -6670   -39426   -12968    47741    88635    64197 
   -1000   -49472   -78646   -82734   -34901    15269    13003   -10292 
  -33898   -50383   -22696    31989    59609    60270    59343    53086 
   25942   -11894   -40810   -65884   -75442   -36451    21579    33311 
    2741   -20021   -31063   -51290   -46804     9634    54700    43688 
   23669    11750   -28394   -60396   -19957    45971    72400    75010 
   43889   -38070   -90680   -51240    20380    46846    30025     8888 
   -4608   -12654   -23230   -39051   -19278    16502   -25763   -79631 
   -3141   105406    78507    -8472   -24399   -14567   -35770   -25304 
   49152    87637    32823      291    20715   -24999   -89860   -63918 
   -9458     6939     7280    22523    42014    38867    34358    32918 
   13590    -6250   -22941   -26109    12762    54427    43456   -13516 
  -71045   -72705   -20382     1155   -42232   -76543   -49291     4176 
   40643    52408    42753    20587    -6064   -20210    17508    92418 
  115387    60955   -13252   -91644  -150442   -95850    40431    98257 
   75475    54189   -15890  -113451   -81256    34803    41829   -13297 
    2594    11584   -32179   -26439    18191    23152    15715    17751 
   13508    20741    24368    11439    21157    19128   -48351   -93214 
  -46897   -10003   -44313   -65132   -29571    12001    47871    85845 
   79254    11109   -58500   -73217   -26811    41237    72651    51907 
   23442    19712    24038    19024    13984    18050    -2231   -67825 
 -107773   -75014   -21913    24412    83602   114976    41257   -85981 
 -111971   -44154   -15369      351    72335   101272    17389   -70972 
  -68885   -21487     9539    29751    48092    51796    34441    16752 
   30825    37172   -31189   -92961   -41203    10574   -53835   -95466 
   -9082    54013    13913    10106    77998   100311    57862    17536 
   -4577   -43700  -106128  -113503   -30469    28275    -9286   -66027 
  -87446   -82590   -46298    13894    64038    82147    84748    95756 
   88265    43016     5058     -924     -233    -8789   -27630   -46614 
  -33966    23539    70903    48698    -1158    -6111    18478    27067 
   18735    10836    10912    -3762   -54495   -89421   -62160   -21274 
  -12175   -18743   -26203   -54598  -104409   -93495    23733   140849 
  159162   113283    52276   -33982  -113755  -107943   -34461    22520 
   46772    44598     7241   -28278   -17717    28325    73774    91482 
   82549    71478    63108    48564    21432   -25902   -69211   -78379 
  -50275     2354    35927    27411    -7985   -71234  -139275  -151702 
  -82398    25138    97522   106423    72071    14173   -65925  -130437 
  -81000    65025   124340    52126     7317    24115     -109   -29731 
   11229    31761   -29031   -52174    14536    51382     8683   -35109 
  -55008   -65631   -38746    10296    31467    43347    75591   103270 
  106138    85261    41288     7414    18797    29681   -20491   -89931 
 -110388   -97403   -73917   -15840    52178    49196   -32755  -112275 
 -144532  -132645   -45449   109127   218146   207253   121833     3825 
 -140316  -198702   -78822    59830    88808   101198    90378   -28935 
 -148640  -125427   -17180    32184     1838   -35371   -37226    -5001 
   36165    83955   129914    89721   -31750   -92666   -68832   -53995 
  -42025    31716   112749    99596    30396    -2955   -10351   -32159 
  -60717   -54889    -6913     -746   -54506   -33732    83569   133868 
   81726    62648    78493    16182   -95301  -158016  -159672  -120089 
  -61354   -11399    17424    29442    42267    58899    65380    54990 
   24547    -7977   -17028    -2515    48224   118485   117105    29219 
  -50612   -68852   -32786    18663    36003     9343   -42754   -90452 
 -105817   -93677   -87133   -95895   -82539   -37440     8143    63652 
  124803   119232    36478   -37581   -39016    32186   118216   146462 
  131082   128179   111566    45798   -37581  -114249  -177334  -214224 
 -217418  -165662   -56963    56397   122103   124614    81614    33292 
    2031   -14462   -14489     7261    58761   110943   102424    40162 
  -37575  -127651  -187490  -152128   -68910   -49862   -66436   -10581 
   70983    73801    47467    56790    51455    44242   113800   188792 
  140975    35694   -10368   -62803  -158160  -170839   -85257   -16266 
   22542    77117   111338    48791   -89730  -162707  -100025     1583 
   43491    35577    23379    11387    22435    86799   116768    41195 
  -43611   -56316   -39333   -40251   -48215   -33077     5358    39499 
   55881    68536    90566    88847    19799   -70873  -120754  -145336 
 -135186   -70646      699    64107   130443   146202    74536   -15114 
  -45293   -49837   -61901   -14835    89006   143228   143646   159309 
  162268    83155   -63786  -185899  -205249  -139525   -81117   -84781 
 -118004  -136061  -121211   -57433    22148    42738    37114    83889 
  111071    60064    43819   107217   160246   168222   139326    70012 
   -9481   -72316  -132082  -170703  -145413   -96714   -83277   -80951 
  -82510  -101999   -88573   -31683     4680    18223    41210    49979 
   62298   132274   190051   155802   102115   100165   109161    82549 
   39198    14196    -5233   -52336  -123016  -180787  -191889  -163502 
 -127677   -89415   -47520   -14499    -4864   -30207   -45539    10941 
  100629   157337   172760   149627   116731   106321    85896    29895 
  -25852   -55005   -68380   -66104   -51950   -63904  -115954  -166117 
 -171914  -128650   -39897    89147   201954   233226   203832   154442 
   57316   -79394  -149570  -111464   -48042    -3960    45652    75081 
   17685  -109382  -197854  -200344  -162876  -102433   -14095    72562 
  121770   118563   104932   123867   143375   135386   116353    86809 
   31681   -15939     3666    71544   103650    61009   -37588  -149685 
 -220635  -232559  -201658  -133139   -42068    29810    40994     4237 
  -28973   -62645  -104927   -90435     6357   104947   135796   148923 
  200705   214234   153215   113509   129699   142848   109193    34489 
  -52362  -124155  -157689  -152135  -114018   -75859  -109111  -194960 
 -216265  -138310   -56085   -35290   -17473    37484    81819    98605 
   87014    36042     9093    57103   124537   159030   153694   105563 
   40255   -10413   -69238  -137689  -114836    37851   179463   189579 
   98501    -2995   -59447   -97224  -139554  -157893  -154384  -118555 
  -38863    10828    -3331    -9239    30171    70649    85672    91763 
   89883    66714     5124  -102111  -195588  -200757  -134752   -63308 
  -27697   -41071   -44186    48157   186255   228550   136776    15720 
  -20962    24956    85595   130397   164685   181789   143603    67620 
   20046   -24759   -90142  -138717  -187739  -222180  -200318  -181923 
 -201718  -186646   -94443     6903    51536    91241   162365   172886 
   84308     5313    23774   106023   169179   185658   177998   133172 
   25979  -105063  -185001  -180052  -131205   -78760     -745    76125 
   49717   -55557   -79670    11511    85110    51601   -29019   -54105 
  -22835     3802    -1605   -15604   -10847   -39047  -113568  -133307 
 -102875  -102690   -89591   -28232    26148    63397   122743   193772 
  200564   118265    50554    62167    75342    66185   110538   182926 
  166644    40011  -101548  -170538  -145044   -61712    -3491   -21095 
 -102888  -215836  -291924  -254381  -101067    60357   123614   138276 
  166513   135546    34485   -35419   -52520   -65368   -66961   -19402 
   69530   124696    76435    -3300   -16430   -36652  -109799   -98508 
   49619   188056   208211   156640   100935    17278  -101934  -145160 
  -50731    52501    25783   -72713  -119392  -119558  -102693   -60019 
  -37342   -61611   -83042   -68922   -27656    28248   100233   159167 
  131375    28131   -59148   -86734   -33525    85997   177102   195316 
  170696    79444   -75546  -158068   -76786    61379   105570    49034 
  -34857   -97031   -92485   -33552   -23730   -90991  -146647  -158977 
 -144377   -67201    61310   150076   162807   117876    30133   -55566 
  -81727   -32081    42952    69726    38306   -19222   -71784   -92650 
  -83907   -44639    32759    95567    86860    45279    26451    34030 
   77383   119304    85284    17583     6357    52571   113494   137849 
   64068   -90533  -211021  -253065  -261877  -226856  -131599   -22526 
   56997    86670    76941    57778    29413   -22589   -56386     1854 
  101509   119067    77631    65593    75022    85762   102915    85599 
   20162   -20237   -12769   -11068    -8928    21938    37273    13317 
  -12334   -56602  -144915  -212769  -237446  -246472  -187072   -51386 
   44622    52830    61846   120981   147550   100892    62949    49966 
   27949    58369   136602   124537    28205     2462    20883   -53748 
 -141111   -88666    40254    83716    -4121  -123295  -141656   -44633 
   90651   187199   181719    79515   -69458  -207470  -242060  -157698 
  -48030    23062    64077    92577   107844   110155    90884    45358 
   -8220   -65191  -117289  -108045   -27716    18222        5    31364 
  109328    97310     2663   -43019    -9834    36548    58571    61037 
   28972   -59529  -117124   -26289   134325   182636    79847   -79547 
 -198242  -230247  -178849   -97537   -60459   -58711   -45270   -42525 
  -25358    54121   136657   181302   191419   145856    57569   -31325 
  -68575    -8819    97580   159186   175298   146384    30492   -82019 
  -77507   -56116  -113136  -176153  -208870  -205276  -117671      858 
   35403     5903    13528    63297   101696   113196    75141    -3655 
  -21639    48570   110191   101129    29816   -48008   -85297   -98883 
  -95528   -64334   -39860   -39958   -29826    -5910    -8122   -25454 
   17506   109629   130493    71061    40397    49227    42711    34179 
   38912    35438    33805    43299    22426   -47721  -107130  -105040 
  -88917  -118377  -158809  -133849   -50982    -5081   -21884   -17872 
   52709   127284   145092   134681   126913   102841    35723   -53887 
  -54008    65986   135664    56778   -48928   -88834  -107968  -106963 
  -49582    12106    39757    49064    25257   -23631   -47564   -56577 
  -64176   -11321    69844    58619   -30819   -85846   -82678   -86813 
 -110137   -79805    21114   112063   131652   104143    90578    82304 
   32490      511    57084   117317    83374    22428    25014    24896 
  -61449  -162706  -174231  -102590   -21780    -4769   -60986  -100963 
  -58075    25137    94867   130897    94774   -11595   -75909   -37065 
    7115    -2219    -5371     6551   -18334   -43679     1873    72252 
   73013    -3997   -73213   -55872     -325      318   -26850     2683 
   79826   118670    95723    68530    53229    20058   -24861   -65377 
 -109227  -139766  -104245     3461   111693   156528   119114     1304 
 -130534  -152818   -56720    20154    28536    45623    46781   -34628 
  -97659   -47961    44554    95902    95434    90553    99243    48942 
  -68253  -121285   -37879    63444    53454     4945    23431    25910 
  -48135  -102073  -102290   -94235   -72886   -19693    52286    80856 
   22095   -29543    25875   104716    92017    28220    -6103   -21382 
  -58098   -88730   -68164   -35446   -27724   -23236   -20533   -12961 
   25386    72346    67857     4588   -44138   -33424     7912    55806 
   88364    68778    15785    -9306    14713    59412    72360    14762 
  -83987  -140902  -123911   -69799      -24    59151    66222    41187 
    5802   -51503   -79012   -28189    36655    41473    12301     -954 
   -1629     8460    31591    31228     5329    -8541   -25305   -38686 
   14280    89213    85278    51898    72484    77507   -15522  -125540 
 -136398   -98315   -87956   -49719     4968   -13055   -48015    -9182 
   61047    83338    29027   -67429   -99530       95   146133   218473 
  200290   123985    16401   -72597   -90891   -62086   -64841  -102787 
 -113852   -96886   -87517   -61615    15724    90005    83693    26210 
     163     7145    -1628   -11136    28837    82549    54279   -50669 
 -117757   -82067     3403    49296    36753    13581      388   -20232 
  -25574    27851    96288    97644    49435    17378    11605     2964 
  -20709   -12372    47193    60809   -29038  -130262  -146389   -93121 
  -39164    10787    75429    83714     3816   -53500   -21894    34500 
   57334    35857   -27481   -77899   -62235   -19048    11086    22203 
    3478    -4031    26978    49968    53573    55891    63976    79392 
   67385    23422   -14462   -45504   -70160   -79120   -77569   -53091 
    2023    56056    63657    20835   -33103   -76792  -103769   -80196 
    8704    96439   105673    39841   -36208   -61740   -44942   -17555 
   40765   107605   100188    29922    -5449    16884    31708    12853 
  -10551   -29266   -46835   -56371   -49485   -23094   -13741   -49918 
  -67224   -21249    10515   -15043   -17219    34782    64003    44159 
    3187   -52543   -75138   -21814    55061   100314    93615    33160 
  -23876   -29727    -7088     7222   -10905   -45370   -40239     2435 
   34078    64667   101734    90104    42757    31001    36734    13028 
  -44838  -128298  -190723  -183354  -104981    -3418    42044    40198 
