Origin Time       2021/02/13 23:08:00
Lat.              37.7
Long.             141.8
Depth. (km)       60
Mag.              7.1
Station Code      IBR006
Station Lat.      36.3665
Station Long.     140.4543
Station Height(m) 30
Record Time       2021/02/13 23:08:19
Sampling Freq(Hz) 100Hz
Duration Time(s)  241
Dir.              E-W
Scale Factor      7845(gal)/8223790
Max. Acc. (gal)   264.194
Last Correction   2021/02/13 23:08:18
Memo.             
[...]
    2567    -1923    -8340   -12779   -13155    -8718    -1846    10238 
   25685    28923    15925      133    -8299    -5105     5390     7506 
   -2490    -8078    -1810     5270     3276    -7474   -12583     2926 
   26241    33687    22551     1629   -18981   -29713   -30511   -21753 
     330    21996    23058    13527    11680    11327     5301    -5661 
  -20067   -22027    -3882    13809    18423    17253    16457    16082 
    9181    -5864   -16996   -18792   -11264     6839    22858    26064 
   21793    11067    -4556   -13940   -14787   -10916    -4322    -2656 
   -4665     3163    19838    27930    16978     -700    -4687     2022 
    1285   -11468   -24790   -21674    -1116    13370     6910    -7319 
  -10157     5157    27673    32109     8870   -15099   -15647    -9232 
  -15727   -21575   -10299     9051    20575    21907    18878    19560 
   25243    18859    -5290   -22847   -22952   -19553   -14385    -1876 
    8064    10567    15132    19349    14812     4699    -7983   -16740 
  -10822     2448    10278    12448     9794     7002     9427     8850 
   -2042   -16622   -21575   -11890    -1509    -2353    -6932    -4175 
    9968    25149    23272     8584    -1382    -1339     9566    21211 
   10759   -16888   -27700   -12937     1159     -496    -6176      149 
   23144    42132    26913    -8584   -23558   -17794   -10072      924 
    8421     5255     7338    19615    32321    39185    26082    -4090 
  -21355   -19840   -20186   -28464   -31430   -12683    23554    47024 
   39731    13231   -11044   -13679      918     5243    -2779    -2930 
    5838    14856    18184    11461     4500     5078     1587    -8675 
  -12495    -9948   -10384   -11487    -7388      849     8536     9015 
    2913     3531    14015    18166     8421    -4392    -9877    -5860 
    1871     1836    -7387    -8757     7898    26970    32764    21852 
   -3485   -23976   -25929   -17986    -2155    15904    22789    23809 
   19273     4580    -4348    -6320   -13621   -16006    -7939      157 
    6149     7157    -2297   -13721   -15923    -9180     -126     3411 
    4568    15030    28279    29223    17118    -2540   -18011   -21718 
  -24106   -26723   -19831    -5757     9791    23523    33949    42406 
   37929     9661   -24679   -35645   -14045    18447    30343    18377 
    -147   -12071    -9760    -4569   -12177   -19286    -8178    18964 
   45611    43167     8518   -18457   -14192     7182    24316    16600 
  -10084   -17217     2366    14998     5564   -15356   -29053   -14392 
   18913    33959    22769     5837    -4260    -7996   -15619   -27093 
  -26423   -15283    -4969     8699    27130    41389    42580    24915 
   -4264   -26152   -28560   -15412    -5813   -10037   -15286   -13771 
   -6021    12162    31183    36269    32678    28285    19620     2386 
  -24032   -45365   -40435   -15957     8548    29033    38647    33374 
   22736     7345    -8966   -12803   -11988   -20803   -29377   -19442 
    6192    21961    13536    -3010    -5296    11928    31498    26897 
   -2170   -23344   -18443    -3622     5780     7813     -454    -8760 
     283    15619    21566    21222     9644   -10197   -16046    -7928 
     -31     9390    16707    13080     5684    -2613   -17346   -27878 
  -23880   -13012     4421    29110    41268    34654    22573     6428 
  -11365   -22854   -27355   -20552    -5205     4648    12098    22796 
   21455     6120    -2227     -720     -434       76     -210    -3204 
     568     8248     5258    -8665   -18825    -9269    17289    39202 
   39411    17351    -9850   -23634   -23668   -18945   -11746     2816 
   20876    26720    18769     9545     2327    -2739    -1742     4610 
    9836     5890    -4652    -6588     5167    14411     6165    -9583 
  -12617    -2093     6891     4147    -5732   -10419    -8004    -3451 
    3233    11001    15681    12156     2924    -1227      487     4766 
    9747     9120     9221    16816    17980     3784   -16796   -28278 
  -20934    -4629     2639    -2242    -3843    10026    25361    24293 
   11954     1324    -1003     2272      908    -7211   -13772   -14551 
  -11218    -1620    18879    41987    47933    31293     3842   -23938 
  -39927   -37260   -27430   -15649     2281    18281    28227    35657 
   34119    22731    10970     -514   -11939   -14804   -10530   -13339 
  -21972   -19965    -6116     9661    19086    13439     4059    12919 
   31618    35845    18902    -7465   -29079   -42415   -43105   -27022 
   -3761    22227    47245    51202    32452     9483   -14489   -33193 
  -34217   -24592    -7765    21317    43255    37390    18666     7716 
     484   -11839   -25513   -31488   -19634    10405    34836    30279 
    4963   -14953   -15943    -6763     -108     8452    27155    43263 
   39089    17221    -9828   -31973   -44713   -48816   -42870   -27459 
   -4822    23426    43773    43231    29052    10277   -11092   -26406 
  -31148   -27885   -13707     6340    21591    29849    21409    -9381 
  -36493   -32377    -4572    18779    25486    31006    45544    52589 
   30159   -18982   -53805   -43195   -13373     4731    17315    32304 
   45207    43244     9909   -38283   -58801   -40383    -6828    17847 
   28853    33343    31014    20569     7032    -7172   -19456   -26014 
  -25447   -13795     9328    26248    20154     8988    19066    34425 
   24046    -6957   -33062   -37264   -20537    -5050    -4264    -1768 
   15793    33386    32969    19043     4704    -4764    -8310    -7111 
   -1676    10812    22704    17034    -1880   -11772    -6762     4122 
    8529    -3655   -18530   -15111    -2062     4189     1440   -10669 
  -22234   -15458     5242    18372    15741     7454     5999    12812 
   14006    -2722   -23278   -26777   -14432     6739    28575    34569 
   21033     1188   -11804   -14963   -16483   -18804   -13601     1012 
   19458    37723    49038    43078    21219    -2216   -17702   -24003 
  -26959   -30955   -23209     -110    16420    16914    14891    22801 
   36649    41769    36394    25895     5586   -23051   -41283   -29038 
    7685    31665    20939       22    -3098     6108    10605     1958 
  -10338    -2278    20079    22227     2420   -13147   -13630    -2560 
    5880    -3541   -13738     -162    19255    21193    16128    13209 
    3554   -17810   -41060   -45400   -23939    -2849    -5378   -14389 
   -6211     8741     9617    -4569   -18265   -13115     5583    14693 
   11821     2423   -11732   -17622   -11651      757    19354    33016 
   31187    20521     8098    -3848   -11888   -17655   -21180    -9429 
   21459    50553    56443    35633     4646   -14951   -23179   -27247 
  -21571    -4974    14197    25613    21632     9049     1726    -3456 
  -17668   -32892   -29867    -3306    30173    46862    40774    24514 
    9404     -664    -3711    -4234    -9815   -13097    -2469    14789 
   19626      729   -28614   -38950   -21875     4303    21541    26508 
   24167    15742     6212     4812     7473     4869    -5602   -23483 
  -36877   -32043   -20375   -15203    -7457     6663    20825    28422 
   17797    -9778   -38958   -56818   -49233   -16044    19143    38909 
   41983    31337    14102    -4587   -21077   -26631   -20386   -10589 
     610    14434    27680    36166    37758    32115    19773     9300 
   14239    24794    23365    17076     8122    -7001   -14728   -15728 
  -18588   -11781     6142    22858    36776    40976    25795      720 
  -23229   -42126   -47547   -35417   -14426      461     4741     9720 
   19221    24808    19130    -7431   -45697   -57716   -34191    -5942 
   11939    20865    22395    29111    37659    22746   -11664   -34248 
  -34848   -22962    -2906    19781    35841    41045    32725    16821 
    8205    11584    18354    15169     1892    -4233    -2658    -6532 
   -4927    13977    30580    27140    14893    10191    13732    16024 
    3618   -25212   -45164   -38045   -18053     1358    16393    21205 
   20410    16298    -1584   -25397   -33677   -27016   -19710   -19990 
  -28192   -32063   -24214   -17452   -12100     8901    36481    43247 
   22077   -14393   -39591   -30553    -4322     5549     6559    28092 
   61879    74849    55968    15094   -28749   -52732   -49050   -26595 
    4025    34115    52797    52292    41656    35179    30098    21937 
   12368    -5370   -23264   -18107      912     9159     6814      257 
    -689    16615    35973    36806    23067    -2991   -33627   -50664 
  -58140   -65767   -65827   -55105   -35787    -7222    21108    36703 
   36562    20563    -5672   -28128   -35118   -22724     -394    19427 
   36957    45650    38632    27102     8931   -24680   -58375   -72469 
  -57813   -17744    25901    46376    37133    22198    25317    37146 
   37723    25147    13458    19731    37841    38269    14899    -3607 
   -2374     2671     1424     3254    15714    27589    16958   -15600 
  -44404   -52929   -44955   -35865   -33100   -28931   -26624   -29374 
  -19187    10230    46380    73094    69701    44568    33957    39814 
   36138    12600   -29640   -71552   -83947   -72280   -54220   -20803 
   28120    72855   104514   114156    92519    60210    36219     7091 
  -26427   -43502   -43567   -30682    -3130    22680    30202    23406 
    6997   -16544   -37254   -45060   -35860   -16104     1318    10380 
    9753     -498   -14642   -28107   -34877   -19107    15994    32925 
   12598   -16769   -29781   -32092   -29443   -19832    -7790     3167 
   14115    24194    30372    30686    24943    15111     8703     6122 
   -3986   -14862    -6644    10717    13284     4510     1196    14589 
   43440    60543    43432     5988   -24430   -29737   -12307     8212 
   22378    35302    45561    33810   -18686   -89630  -123851   -96886 
  -31095    41208    90757   101312    81696    49127    24148    19326 
   17690     7642     3140     7514    11429     5089   -24445   -73221 
 -114181  -121725   -86930   -23253    38014    73662    82258    71867 
   48902    15083   -16379   -14277    25335    62352    62492    22612 
  -32132   -61788   -64975   -75115   -87723   -75972   -43510    -1559 
   42286    69990    76767    75070    67940    50454    18700   -23376 
  -56729   -66910   -56706   -34092    -8156    13886    31009    40674 
   35216    15831    -2130   -12148   -18503   -11846     9620    19510 
    6957    -7916   -14377   -20283   -29768   -39793   -45835   -37624 
   -9281    23535    40096    36485    21516    10592    10241     5632 
   -8922   -13743     5806    45550    77176    53681   -28721  -107856 
 -127438   -83760    -9659    54733    96627   131148   159375   156409 
   99021     -390   -88763  -126715  -118199   -76369   -13810    47183 
   91353   119346   126527   106107    68808    17749   -46948   -91241 
  -90540   -65811   -33840     -170    10188    -7325   -21212   -15504 
    3551    18362     9333    -1830    17401    33956    -2712   -83060 
 -151401  -146535   -69888     3711    33550    39811    43687    56301 
   67454    51885    11813   -27934   -52142   -66887   -78057   -64315 
  -14720    38273    62619    53850    31140    25007    34215    34788 
   23130     5605   -10215   -18162   -20938   -18486   -13585   -12895 
  -14766   -20208   -26730   -17020    11408    32524    28015    16344 
   24852    50093    65898    51749    15183   -18855   -43698   -58102 
  -48668   -18743     9505    20193    13930     7087     5904     -650 
   -6548     9886    51393    89799    89644    45153   -15890   -58839 
  -76195   -89737   -97972   -67188     4816    77406   116603   111522 
   67713     3154   -60238  -100303   -97322   -43605    34909    90269 
  105273    98140    82526    51929      741   -55834   -92549   -92821 
  -68858   -53098   -58295   -75155   -80500   -48290     7855    53088 
   83181    95368    75328    34734    -8453   -45916   -61280   -54695 
  -40744   -10315    41372    91276   113270    85634    16374   -52358 
  -90620   -86879   -48766    -8820    16104    28480    23604    10706 
   11612    25837    32803    23066    13733    20506    34130    32529 
    2610   -34804   -45713   -25886     8434    37323    46595    35391 
    4544   -38136   -72083   -80136   -55448    -3241    53076    84296 
   82044    59617    33065     8530   -17239   -42411   -56998   -48609 
   -7321    49291    73939    49351    14675     9950    32807    43868 
   11496   -38206   -58469   -49715   -34669   -19415   -12881   -12008 
    6482    26230    13679   -12191   -18522     1291    38902    64681 
   63767    66788    82652    82733    61194    23261   -33183   -96070 
 -145490  -156301  -119376   -71258   -39478   -11866    19583    59130 
  105787   138663   150342   145166   119110    79972    31378   -44755 
 -136534  -192919  -194877  -163336  -105911   -23375    63794   132787 
  166433   148990    91269    31734    -5427   -20671   -22555   -27376 
  -41257   -44342   -29978   -15981    -8195    -6100   -13582   -17753 
    2704    33054    30902    -9529   -52000   -60262   -25242    21494 
   43665    46395    55782    80296    96091    64986    -6057   -61514 
  -68781   -42556   -19194   -24868   -42203   -34534    -5289    21323 
   46014    70456    89617   109856   115962    74703    -2091   -62626 
  -76441   -53001   -24214   -21695   -45598   -60839   -44405   -13855 
    7665    18706    26019    40255    64605    76539    51486   -11119 
  -86559  -134624  -135553  -123435  -138925  -147208   -85715    36595 
  168463   261551   279099   240818   183691    90331   -47785  -181053 
 -252699  -238925  -158973   -60663    22229    89252   131878   126272 
   80897    17018   -45396   -63994   -17972    54009    86494    43683 
  -51356  -133362  -145469   -88210    -2903    74574   119545   119110 
   86589    28729   -72504  -191690  -261987  -243997  -132817    35988 
  193206   278931   274403   211180   118266    -5879  -134534  -205436 
 -187431  -110512   -20646    43556    48863    14742   -19781   -49698 
  -60928   -42039     2369    77302   156340   175086   107889     9626 
  -52057   -74054   -79051   -68295   -40772    -7268    11738    11626 
   13628    26377    33943    16459   -18863   -27252     5838    41246 
   62077    71668    46422   -18581   -79146   -93914   -55128    17491 
   80867   105399   103315    91188    69730    43281    16848   -14192 
  -47821   -60084   -31922    17880    40748      153   -81224  -142601 
 -156938  -129880   -66459    14343    84624   122454   100697    20097 
  -61920   -95511   -88164   -64714   -29925    22464    84491   125805 
  112147    36761   -53808  -103175  -102708   -65622    -9076    41025 
   79203   115983   139634   117359    42646   -33116   -51733   -18952 
   13509    17223    13432    25887    36261    20047   -13714   -36980 
  -34861   -17433     6650    36599    54761    42473    13205   -14592 
  -53734  -109792  -153719  -161593  -130781   -64806    12773    59189 
   63344    48940    29462    13027    13142    29583    46265    47703 
   34006    13269    -5989   -12928   -19920   -43340   -49323    -6174 
   59232   114392   137176   102485    26014   -46537   -81681   -59409 
    3631    67891   111815   111721    59070    -8445   -57453   -81009 
  -74058   -42695    -3199    44570    99045   129845   121891    94917 
   49586   -21780   -90107  -128538  -134823  -103378   -49243    -6107 
   21118    33170    22419     1945    -4850    18913    59699    76727 
   59281    21454   -29501   -80493  -124524  -163935  -185350  -168868 
  -97416    30211   156775   205048   176427   129201    88670    47268 
   -4374   -67757  -107352   -93248   -71155   -76096   -71825   -43916 
   -6855    41373    82366    92993    84015    65159    31052   -10512 
  -33558   -35548   -39893   -33498     5359    53010    83489    81444 
   39259   -11661   -34152   -32057   -31869   -42336   -45258   -29308 
   -6551     2952   -11242   -34145   -40949   -19518    17302    35006 
   28929    18257    -7231   -47474   -69727   -57310    -9293    59265 
  102416    89581    37126   -17072   -49821   -64735   -61998   -35158 
    5617    50616    89456    94794    56995     1965   -38169   -43648 
  -14347    26492    52316    60793    59719    41767     1776   -53007 
 -104842  -119218   -78264    -4263    67483    99743    76130    33675 
    6547   -23143   -64156   -86724   -69331   -22812    12483     6632 
  -14207    -8633    16206    20328    -5188   -23279    -8587    23847 
   50912    61083    56153    47420    35916    12889   -14701   -28085 
  -14202    28537    65788    53323     4213   -47430   -91623  -101449 
  -53912    22613    94412   141758   142198   104188    53532    -8780 
  -75015  -111723  -104502   -68200   -10505    60296   112828   120326 
   86464    32395   -18767   -44714   -37571   -11234    16957    34987 
   33002    14528    -2466   -10192   -12600   -10608    -6220    -1043 
    5161    11038     7547   -24364   -76068  -105403   -97164   -68057 
  -25702    25099    67813    84555    68679    29261   -23959   -86130 
 -136501  -142618   -91585    -3846    78181   116764   103345    63030 
   25593    -8136   -39703   -42778    -5333    45079    79887    92389 
   84110    55591    10681   -37382   -63810   -51969   -18067     4452 
      45   -15732   -18118    -8795    -4822    -3909     -552      581 
    3159     2583   -13571   -33910   -46309   -52891   -49891   -36595 
  -10273    34308    69812    56558     1988   -45260   -47244    -2617 
   49721    61128    32633     9491    21778    51675    56320    32080 
   18323    32393    53898    60714    47995    31268    32227    41540 
   24757   -26095   -81880  -114199  -114511   -82603   -27506    27758 
   61169    65805    42250   -11071   -81355  -137832  -160659  -144130 
  -81969    17609   121744   186476   176717   101183     6142   -78590 
 -135291  -146703  -130909  -102060   -37035    49329   102689   103582 
   71089    33562     5258    -9544     -704    29782    66939    95543 
  100426    74899    25681   -24228   -49631   -50040   -42988   -39542 
  -34761   -22523   -19703   -44140   -74040   -69651   -21771    38794 
   77187    91786    97741    99058    92992    71091    18457   -63799 
 -137531  -155626  -114432   -48621     8878    43011    67868   106737 
  142585   140117    97178    29262   -43852   -87798   -82405   -43787 
    3913    44059    58486    47698    35603    24050    -6330   -52401 
  -92583  -106701   -91226   -66781   -40378    -1960    36445    60164 
   70482    66171    53350    43114    24640   -12469   -47480   -64091 
  -69060   -58920   -26860    20746    69785    90643    61990     6937 
  -26218   -15545    10905    16148      506   -12873    -7169    10224 
   11111   -10251   -26981   -18670     8067    25479    19006    12168 
   24337    36737    24322   -16640   -66426   -86371   -59246   -19036 
    4590    23171    40128    45478    43703    34119    11549   -16930 
  -34360   -26561    -4464    13239    24633    25972    18308    17460 
   22657    28324    47764    72166    72416    52046    30272     7298 
  -19670   -46062   -65265   -65272   -39804    -3240    25635    36189 
   23579    -4411   -33872   -52717   -52077   -40803   -38375   -43749 
  -35696    -9421    11169     7831    -7940   -14323    -3100    20200 
   38272    36988    27865    22528    13375     -847   -19132   -44594 
