Origin Time       2021/02/13 23:08:00
Lat.              37.7
Long.             141.8
Depth. (km)       60
Mag.              7.1
Station Code      IBR003
Station Lat.      36.5915
Station Long.     140.6453
Station Height(m) 58
Record Time       2021/02/13 23:08:14
Sampling Freq(Hz) 100Hz
Duration Time(s)  196
Dir.              N-S
Scale Factor      7845(gal)/8223790
Max. Acc. (gal)   235.146
Last Correction   2021/02/13 23:08:14
Memo.             
[...]
   38140    15952    -8587    -9786    -1331    16576    36848    19804 
  -19504   -31121   -32356   -55318   -58333      220    48170    17591 
  -26898   -31183   -10932    23660    40012    15364   -15869   -28895 
  -26102   -12661     1032    14467    21398     6558   -19425   -44487 
  -59981   -43530     5863    62812    85457    36236   -48124   -81595 
  -60951   -35592     9153    63852    60922     4596   -38828   -37575 
  -21593   -16595   -15584   -24167   -23035     9277    36297    34518 
   15795   -14260   -42638   -54232   -49266   -24663    -2685   -11179 
   -5953    23426    10782   -22744   -13807    20074    42130    31463 
   -6600   -35397   -46367   -51753   -34804    18285    64003    49480 
     141   -25531   -16677    10076    11920   -40967   -80630   -48119 
    8108    35380    34051    15510   -15499   -31819    -8644     7327 
  -20426   -35415   -12268    -6010   -15516     2856    20961    11434 
   -2668   -16706   -30477   -29754   -14561    -2571     -699     8405 
   21930    24297    15901   -11068   -43673   -46230   -21384     4275 
   22481    35226    32775     6245   -27665   -46951   -44363   -25062 
    4503    42226    49432    -4329   -57902   -60316   -38685   -17118 
   -6656   -12066    -8752    12081    20866     6586   -12237   -25631 
  -22983    13857    60457    56022    10037   -15591   -26499   -39231 
  -28395    -8741    -5066    -4074    -7485   -20133   -28594   -28584 
  -13531     8433    -1136   -37989   -40265     2512    34915    53667 
   70399    37872   -24518   -44189   -35183   -36537   -46684   -51988 
  -36352     2030    46138    60986    24845   -24406   -38893   -31384 
  -40413   -33747    32524    73102    22663   -30456   -39895   -44717 
  -38372    -7817    27595    43104    12795   -35140   -24822    35870 
   55405     8249   -46245   -64940   -55368   -29598    13555    39865 
    8463   -46533   -55154    -5198    47691    51124    10262   -29374 
  -32266   -14516   -18256   -29687   -12140      213   -15808   -25577 
  -35532   -46896   -14840    45916    75540    62538    25988   -19263 
  -32269    12579    47227    14949   -23630   -22497   -18820   -22424 
  -16781   -18862   -43402   -53765   -12144    32206    26703     2222 
  -17898   -35127   -31571   -10266     6907    11303    -1826   -21805 
  -24922    -9238     3302     -467    -4360     -314      529     4656 
    4604   -12155   -14305     2000     9656    17617    17012    -2354 
  -12150   -14073   -20466   -31726   -43001   -28270    -4854    -1884 
   -2867   -14563   -33663   -21097     5212      176   -17444   -17379 
  -20991   -29249    -2072    50222    76936    57728     2536   -45281 
  -38792    -1328    11591    -3464   -15345   -13494    -5439    11935 
   32208    21969   -24663   -61290   -56596   -31567    -5557    21837 
   24429    -7242   -28665   -32162   -38722   -19930    33223    58159 
   14835   -52710   -74883   -38962    -1688      256     -881    28794 
   75236    81572    28001   -21282   -33682   -44614   -55584   -37042 
   -2932      739   -23780   -25008     1175    18458    14366    -8483 
  -27071   -28332   -26252   -13312     2454     1459     -610    -4108 
   -9871     2027    18358    19607     6431   -22253   -40883   -10658 
   32927    27823    -5339   -22734   -13713    12787    18353    -7407 
  -28614   -33906   -25938    -9109   -15017   -47499   -57227   -14019 
   48401    65673    20457   -34025   -42608    -1566    38678    29259 
  -14403   -51910   -47336     4695    33111     5771   -14301    -8903 
   -8151     1408    22839    15882   -11897   -12962    -4989   -34735 
  -66486   -37268    19288    32572    14531     3993    -6389   -26292 
  -45669   -46005   -18901     9393    17239    21165    33079    33602 
   -1487   -52497   -53559    -4587    10234   -21733   -30072     3010 
   25921     6033   -32194   -52127   -38967    -6060    14257    12640 
   -1162   -15669    -7982    20528    44780    49837    32044     9547 
  -14463   -46996   -62653   -65137   -52018     3376    40625    18650 
   -6771   -14054   -15068   -13050    -8838    -3119   -14359   -28147 
  -11425    14405    29727    30184     4446   -14505    -6228      270 
    5933    15863     3304   -26325   -43783   -52668   -46157    -5836 
   24044     6080   -15450   -10600    -9842   -17410    -5775     7159 
   -8699   -29579   -26997   -25687   -36906   -18019    23377    41609 
   34491       52   -41523   -40112     2614    44400    40549   -15430 
  -58814   -42533     -211    35602    68021    67351    11834   -34735 
  -43942   -67690   -81815   -33056    31931    55320    37521     -411 
  -32593   -42280   -41527   -41615   -33131   -23874   -20640    -9163 
     939     1954    12633    30122    32675    17197     4919    -1321 
  -16675    -6066    39194    53130    33995    20792     3623   -22067 
  -41899   -39699   -23445   -27438   -42064   -35426   -14661    -7966 
  -20407   -13774    19836    27446    -8418   -47240   -45883    -8603 
   17586    30462    47019    37405     6322   -16398   -41080   -50556 
  -15165    26088    10253   -59864   -98166   -42385    45901    71165 
   25112   -29995   -38569   -11259     5876     -899   -24061   -34584 
    1147    36024    15986    -9243    -4301    -8843   -35434   -51526 
  -35698   -15836   -17394     1402    53435    56894   -16318   -68245 
  -38801    17875    47204    48427    30821     7893    10399    29563 
   18131   -23078   -55138   -51283   -12221    18419     2656   -28305 
  -29281   -24426   -42527   -38341     6272    28645    14910     9755 
     584   -24278    -3092    51649    40552   -15022   -30522   -25880 
  -30873   -27724   -25535   -33420   -27432   -15784   -23834   -10501 
   42936    55441     6851   -29554   -41507   -44986   -35316   -39360 
  -51221   -32400      514    14941     9999    13312    39958    54234 
   46581    43974    36136    24664    33455    41775    20815   -23820 
  -62800   -63151   -31063      495    13354    -5356   -45045   -61730 
  -48389   -34321   -16163     7541    14285    14878    33546    58418 
   53500    14737   -13402   -17208   -12434     8163    21527     -245 
  -28192   -49311   -78768   -89769   -53767   -17597   -15735     3106 
   38315    48803    65875    79450    42361    -3503    -8883     5212 
    6596    -7061   -21865   -31448   -50325   -92364  -129582  -111360 
  -38369    18191    11475   -10843      450    18904    10018    -9583 
   12781    85421   123724    77413    -8071   -94540  -143514  -112392 
  -41762    -5676   -11912   -27719   -36553   -33767   -14407    15477 
   34871    31634    30624    39754    15302   -35361   -41742     8232 
   45709    23371   -12814   -18604   -16013     4430    56394    83647 
   50527    -4388   -25270    -7429    14575    20264    -6349   -50221 
  -71783   -71278   -64111   -63629   -60029   -33454   -18168   -25968 
  -24561   -12067    10484    42874    70374    78624    57233    15516 
  -24927   -44437   -45157   -45478   -40863   -33061   -30966   -23957 
  -16303    -4488    22746    32458    19631    33543    56459    33727 
  -12611   -44019   -49640   -26038     6070    35835    60351    52613 
    -202   -79780  -139226  -145552  -121937   -71491     3613    28162 
  -19317   -60131   -42252    11564    49565    74146   106505   121529 
  124083   117769    70403    12201   -25897   -67377   -89002   -53827 
   -2077     4630   -28529   -41723   -17165    -5852   -46267  -110269 
 -122646   -55104    17861    31193    21601    40090    62307    44208 
   -7183   -60975  -101885  -122625  -109053   -64189    -6770    72835 
  156631   167987   102173    41801    11214   -19178   -26474     5063 
   24544    12754    -8588   -45879   -99365  -126659  -103231   -64386 
  -40917   -38503   -45769     1614    99154   128252    72773    14644 
  -18677   -22327    -2034    27969    63456    64254    17031   -23515 
  -34703   -29242   -11844    14077    34030     6180   -58915   -72619 
  -15660    53800   105152   120067    84707     8658   -92511  -187382 
 -219230  -145531   -25860    22284     -909   -41307   -95335  -113867 
  -74059   -35425     1027    50382    73878    51788    17689    17124 
   31710    50085   104812   140594   103569    37903   -16075   -27178 
   -9784   -35749   -85623   -74243    -5962    43322    58471    89692 
  105667    34352   -63104   -88234   -51619   -17243   -35318   -94914 
 -124853   -92151   -23585    46533    80536    57523    -6702   -75173 
  -95705   -56762    -5798    28509    38410    23919    14258    14274 
   -4548   -33139   -39834   -24738     5485    46893    63165    14350 
  -82363  -136611   -87308   -26115   -40902   -38560    39082    99260 
  121464   139202   113864    47803    -9252   -41909   -45657   -34677 
  -35842   -48956   -45389     1844    50742    19348   -75316  -126752 
  -86540    -8514    36558    37239    18570     1433    16875    82644 
  142967   116892    19325   -68767  -112352  -119948  -124731  -156826 
 -176705  -126260   -22391    73830   110274    60902   -19014   -29381 
   22441    55031    53866    39842    28879    39425    56864    52795 
   12829   -53782   -95262   -77614   -36593   -22145   -44369   -79398 
  -84742   -43860   -14704   -30547   -19315    48303    97405    84852 
   41573     4507   -23566   -45264   -46858   -22492    23419    50758 
    9540   -51923   -62255   -46739   -25798    19818    56246    55327 
   52326    62880    60817    22729   -45388  -107875  -127836   -77990 
   23977   115241   146024    74275   -66167  -135835   -78865    23638 
   73638    27037   -60486   -92865   -66960   -70540  -122905  -119893 
  -25042    71632   120533   117019    55583   -13005   -40536   -43235 
  -48810   -43132    15306    92063   115939   104097    78339    31976 
   -3348   -28173   -72692  -109355   -98679   -62044   -54261   -76304 
  -72266   -30821    -1790   -11268   -35444   -53001   -55699   -25652 
   24285    56286    68655    48951   -15066   -43411    21512   113694 
  165194   167420   131049    64079   -25182  -104874  -152248  -160239 
  -96399    11381    57986    34065    23695    49883    78667    81253 
   56764    20556   -42851  -124856  -166411  -153751  -111763   -57889 
  -14528    -6361   -48351  -113599  -150562  -138863   -84288    -6137 
   59913    67401    25393    24791    96147   163366   170487   137482 
  110781   105954   116085   121312    89606    25313   -57527  -155532 
 -210493  -178233  -102069   -14897    69172    98732    60266    -6401 
  -83401  -165796  -235400  -250944  -158348    10065   136790   159904 
   92250    -9375   -60366   -42903    10331    78795   108546    69984 
   19299     4166     8063    -2141   -33165   -69473   -66353     1116 
   57118    36504   -24354   -93015  -152598  -162569  -109193   -15627 
   69174   106321   108009    83091    31291   -10550   -19074   -17494 
  -14322      913    11209     8592    -2277   -10640    33743   112730 
  135780    92803    26541   -19789   -16231     1625   -24035  -103761 
 -166266  -134275   -59090   -27049   -20494    11851    60053    80711 
   61263    16578   -31900   -59709   -49520   -20164   -43019  -123538 
 -146750   -72651    -1875    -3454   -37600   -45131   -30703    -3272 
   55201    94500    63931    33662    72939   137708   161360   129509 
   44311   -52689   -88385   -77665   -54629    18985   121645   157601 
   78036   -74933  -193233  -221123  -208822  -197727  -152263   -42642 
   64678    99816    90597    55235   -15718   -75613   -88726   -52327 
   30318    95060    83956    28348   -27753   -58284   -53523   -22362 
   50588   144934   177979   113344    11245   -24171    32157    92809 
   79623    -6886   -92624   -89569   -22829    24378    49204    26187 
  -91600  -204211  -209823  -164319  -129146   -91555   -44513    -4926 
   27514    57361    71945    82621    97278    79473    19089   -38055 
  -49131   -22725    15923    79797   146179   143202    77620    -2025 
  -80374  -102136   -35178    29286    17404   -44998  -118606  -148167 
 -101250   -45993   -32483   -17680    11121    11589     3308    23043 
   31753    -4013   -81156  -151472  -128753   -24220    80573   137331 
  118299    58091    38878    56277    30975   -21226   -13574    36726 
   61352    49173    23041    12926     9005    -9279   -12733    -6979 
  -24867   -39780   -42572   -51916   -48405   -30384   -24970   -37461 
  -61996   -96862  -127315  -120345   -66262    -7978     2930   -29874 
  -34129    47452   151868   168701    97727    23446     -203    12869 
    1691   -49621   -57492    17254    77653    64719    28595   -12463 
  -70375  -118912  -128661   -83290    -5962    23004   -24988   -65134 
  -28676    24505     6940   -39911   -13111    83727   162137   142589 
   19406   -84936   -73098   -19805   -20309   -50653   -32764    33377 
   65165    47376    43067    54922    40925     3969   -20177    -3061 
    7319   -65288  -148366  -132379   -60578     2589    39029    12179 
  -53393   -74210   -45724   -29168   -33158   -26271   -13059    -9868 
  -13012   -12885     5035    25880     5174   -40370   -50348   -27344 
  -12784     4202    65124   141637   154210   101407    61458    62309 
   61681    47985    51158    54935    -3734  -116973  -195673  -191922 
 -130570   -67147   -31696    -5579    -2230   -43387   -63629   -34460 
  -29693   -40406      307    47810    47208    28397    28956    50207 
   46167    -1329   -56640  -126746  -174386   -97810    70426   205683 
  240448   141413   -33304  -103954   -25953    46414    54950    54396 
   35873    -2192   -24525   -48732   -88271  -103586   -89491   -77849 
  -41515    39993    79057    19067   -72461  -125104  -130154  -119545 
 -103465   -47306    27292    74417   114986   142292   110554    34469 
  -11898    33023   112838   120669    63283    -6809   -62168   -85954 
  -87480   -59123    -4125    17671   -23480   -82255   -95374   -53404 
  -23843   -58583  -104013   -89914   -40598    -1969    37849    67297 
   49925    26117    28227    28696    43221    76569    77656    34391 
  -20888   -50818   -35783   -13173   -36742   -76750   -50257    23951 
   31356   -36919   -69861   -24179    49264    90209    74807    54164 
   78005    88974    21670   -69819  -107595  -103735   -81124   -30059 
    3929   -26692   -65095   -72643   -89617   -88785   -15982    74615 
   99025    60396    38603    75594   102525    56876   -20763   -60529 
  -36783     3703     6731     4360    20633    10863   -32536   -55248 
  -29254   -11965   -56988  -115234  -109840   -47472    -9755    -5563 
   29870    59460    36907     8021     2565    40217    85683    54639 
  -14908   -58897   -99149  -117801   -70518    16615    84888   112152 
  101507    47484   -29050   -71772   -46232    12461    43981    52154 
   49821    32857    33366    36518     2443   -49063  -117455  -191825 
 -211825  -170806   -94717   -12572    20205    -2385   -32674   -33647 
   -3064    36211    87527   142366   148186    98794    51343    41739 
   34739    10908    19214    37316    -5957   -80897  -128880  -123755 
  -69288   -32584   -35372   -17574    21622    36104    30846    32232 
   19832   -39106   -94540   -73272    13247   105551   130524    55447 
  -39839   -60200   -34940   -56120  -111021  -118712   -78171   -25866 
   34534    90296   117680   100750    47440      189   -26373   -47424 
  -53250   -45603   -49457   -53955   -24799    22397    42738    39816 
   33959    13369   -23233   -54247   -64376   -43644    -2349    24579 
   13348   -32162   -74888   -70691   -24719    29590    72346    76646 
   32505   -14694   -14584    29285    68929    59822     1458   -47495 
  -35310    -1443   -12733   -64860  -108621  -117985  -110137  -101035 
  -60696    17145    60615    40277    16556    27886    59800    73651 
   37048   -24086   -36498    35818   119313   118590    57082   -11863 
  -83411  -114860   -75351    -7962    43915    53866    20652   -19804 
  -59574  -105652  -118015   -75001   -16532    22932    44018    68877 
   88786    38919   -69087  -103801   -20682    60092    53076     2926 
  -36385   -62013   -66380   -25046    30742    29255   -12406    -7611 
   48735    63113    -5267   -60438   -31482    16987    28356    24158 
   36541    69777    73618    11422   -46534   -41407   -36909   -79042 
 -112981  -101098   -60388   -11859    10951   -12356   -40042   -25515 
    8727     8688   -20463   -11565    54793   111966    91735    -4241 
  -70698   -22889    32467    -6733   -21610    62407   110612    63027 
   -2046   -52610   -76910   -67054   -54299   -53673   -73280  -100033 
  -67622    33886   115990   115011    42606   -55691  -102826   -49913 
   42565    87594    78166    55053    26955   -23575   -88936  -152964 
 -181248  -130904   -39317    33551    86628   105123    70714    24298 
    -668   -24571   -48717   -19209    55148    86707    71423    41778 
  -17157   -66042   -61419   -46884   -63547   -70522   -25525     6677 
  -27518   -63880   -50465    -6581    18567    -1540   -28567   -48779 
  -59907   -12341    66255    98956    60540   -36805   -98995   -47569 
   52910   121833   140725   113564    63493     5772   -44257   -52091 
  -30041   -31332   -58742   -77791   -77664   -66472   -49902   -31779 
  -25366   -35599   -47235   -39487     1894    54996    81334    63895 
   16245   -13801   -20833   -40775   -46788    -3951    49491    64397 
   39062     9687     3060   -16000   -72827   -91253   -34543    19843 
   47241    67219    45600   -11184   -43799   -46182   -41249   -34919 
  -28197     -325    44154    53291    21180   -32247   -90424  -105410 
  -80650   -44720    19897    66523    25851   -45160   -45825    16433 
   49304    19257     -724    43916    94837    91611    66245    54668 
   50376    20308   -58769  -122075  -102759   -35664    26127    46437 
    4846   -67752  -143992  -204109  -193800  -102712    15722   113999 
  156909   129618    67005    22474    -2898   -45989   -98086  -114802 
  -74602    20583   129793   158247    66216   -40720   -55525   -28404 
  -42951   -52367    -8853    24568    31475    48779    42669     8498 
   -8673   -23526   -50167   -59844   -33413    29629    93642    84376 
  -17770  -121522  -148761  -111505   -36693    34473    61021    55988 
   30497    -4725   -23684   -29131   -12874    20773    30994    23845 
   16857     1637   -17244   -33129   -22287    22693    33455   -31178 
 -103991  -114701   -70945   -22831    -4197    10775    49979    64426 
   16970   -28980   -13258    25224    34327    31326    36763    19413 
  -33952   -71392   -41941    42498   104083    66514   -38399  -102915 
  -76983    -3939    38211    26411    11712    14686     4477   -23026 
  -50145   -59042   -45297   -26415   -10732    -6257   -13987   -18231 
  -25691   -34273   -25807   -19870    -9431    45247    89239    47480 
  -25278   -35750    15203    58222    47987     2978   -27052   -14008 
   13718    13513    -5904   -25263   -46076   -50992   -30879    -9792 
     218     2277    -9663   -31671   -41436   -33635   -27773   -28745 
   -4932    54166    71147    -3276   -78387   -82212   -41143    23807 
   74169    60173     9636   -13512     7026    25759     1100   -43920 
  -59331   -33324      487    28992    61504    75790    55795     7855 
  -53701  -100418  -108780   -58437    19444    44682    17717   -20368 
