Origin Time       2021/02/13 23:08:00
Lat.              37.7
Long.             141.8
Depth. (km)       60
Mag.              7.1
Station Code      IBRH11
Station Lat.      36.3701
Station Long.     140.1401
Station Height(m) -36
Record Time       2021/02/13 23:08:20
Sampling Freq(Hz) 100Hz
Duration Time(s)  230
Dir.              2
Scale Factor      2942(gal)/8224139
Max. Acc. (gal)   26.516
Last Correction   2021/02/13 23:08:20
Memo.             
[...]
   84900    89287    86468    76210    68844    73568    81521    84538 
   85122    83525    82394    82371    78806    78780    88580    96012 
   91131    84208    84477    85753    87519    92728    94275    89993 
   84823    79802    78792    83312    85167    85153    84616    79084 
   77620    83128    87311    90193    89625    83693    79143    81675 
   88111    88627    85417    84586    81928    82301    87804    89398 
   87246    86726    89262    88285    86009    90235    87964    80723 
   85014    91265    90653    85132    79212    84686    91777    87428 
   86108    89991    87250    84223    86952    87284    84601    86566 
   88786    86823    87527    91312    93213    92630    88512    83598 
   84573    87251    85387    84569    85313    79381    73521    80832 
   91309    92060    86709    80599    80910    82077    73599    73049 
   87006    95041    94150    90159    82289    76646    78962    85137 
   87019    84234    82838    83937    90514   100570    98197    85075 
   81544    86050    84335    82903    89397    94074    92454    87550 
   82652    84662    88646    85129    82786    87373    90602    89903 
   88091    85102    81546    81556    84184    84989    84740    84676 
   87825    91669    88142    82815    83446    89251    93730    88573 
   83043    84223    80856    78344    83995    83894    79373    83920 
   90397    87891    81076    79020    82902    86433    88952    90140 
   84226    78502    80561    83982    85892    86385    82941    77934 
   76515    79454    83901    84303    78675    75829    79894    83204 
   82116    80500    82846    86985    86489    83782    84813    86309 
   83855    80951    80487    78077    74170    79143    87721    81121 
   70278    77463    90148    91197    89437    88715    82593    82544 
   90178    88150    85789    90698    87778    84214    90574    93758 
   90873    89541    85873    82875    85769    88477    92348    96836 
   97004    92832    83702    81063    88789    90802    88580    90751 
   92304    91748    88850    85217    86624    87573    84834    86584 
   90698    89872    85240    80893    81552    84369    81005    80006 
   88483    89796    82683    81291    78759    71282    70470    74738 
   74753    75674    80570    81892    83998    87594    82761    76859 
   76029    74189    75699    83448    91210    93807    88303    79992 
   75019    73241    77927    88338    93469    89151    84113    86454 
   90497    87034    83488    87421    91007    89541    87311    88199 
   90196    87934    85016    89102    95292    95211    89390    81144 
   74536    75996    86043    93214    92697    90810    85295    79952 
   84312    90801    94209    94913    92676    93771    90104    80759 
   86674    97000    89600    78383    77314    79975    81098    84136 
   90374    89361    80815    81302    88437    87258    80312    76793 
   79110    84072    86476    84063    80613    82108    86508    86603 
   83096    81078    78255    74663    77627    84958    86637    79215 
   70664    69665    72574    76855    81388    78119    74900    82664 
   87905    84183    86067    93634    91620    86348    91042    91586 
   80673    77627    90154   100352    91535    76948    78916    89664 
   94765    96674    97344    95793    90443    84516    82902    81531 
   82744    87362    87876    84947    78352    75400    86379    96122 
   93279    89388    89163    86432    81795    81990    86071    88470 
   89951    91412    89604    84723    83284    89337    94622    89414 
   81900    81931    84584    88256    91713    88362    80784    77641 
   83346    91231    89463    79386    76725    86514    92329    89019 
   84916    74490    64897    73932    86780    87617    81851    74155 
   75544    86198    91152    88719    83928    81816    83779    84234 
   84152    87901    89552    84886    84975    92310    94111    90359 
   87480    86660    90171    91746    88973    90317    90705    85927 
   85970    91974    95285    92561    91413    95447    94053    90050 
   94504    96788    89617    85603    89964    92669    90308    89093 
   86483    82258    85710    89783    83502    76648    74594    74996 
   81946    88233    86910    85706    87201    87162    81139    74124 
   79473    89137    87046    81638    81814    79459    73491    73548 
   79343    83745    84392    79411    74478    77103    77610    74498 
   79051    83674    83532    85040    83363    79913    80144    83227 
   91443    95887    91254    88619    86324    82552    85617    91276 
   92958    91335    85575    78204    75617    79926    86340    86053 
   82630    86753    89338    84144    82869    85864    89865    97560 
  102185    99395    95281    94115    94794    92051    88264    90567 
   91022    85479    83258    87385    96009   101630    98940    94502 
   89151    84375    88245    93035    87980    79262    76453    79901 
   82848    86765    92576    84927    69053    66730    70067    70060 
   73951    80222    84246    81395    76027    77097    73584    60654 
   56592    72581    92646    93947    84852    82044    85027    94656 
   98794    88693    83752    89321    95214    96164    90593    89387 
   93912    94405    91971    88381    88707    90273    79999    73749 
   84680    88360    82293    89262    99850    94031    81846    78358 
   80836    83906    84777    85294    90725    92769    86444    84366 
   89417    92055    88493    82773    76936    69552    66885    70186 
   69531    66417    70533    77148    71811    62471    69080    83408 
   91400    93972    93009    94624    94883    85445    79616    83778 
   86012    84427    86425    91041    89623    83556    79196    77787 
   82371    87894    89829    90748    83502    77074    88962   101610 
   98583    91802    83668    71232    72358    87745    89984    81697 
   83543    86468    83434    89280   100350    99384    92701    91411 
   91937    91906    89222    83079    80019    83014    87043    83455 
   75551    76376    80038    75724    71902    74449    72110    58614 
   52054    63850    72863    72368    78320    84893    82382    77098 
   77168    88578   103027   104410    95593    89406    82436    69029 
   64509    71227    67649    60389    66090    71932    72540    73491 
   72029    72133    75510    80676    95239   111319   108076    93290 
   88817    95372   107396   119279   120272   109117    93827    82702 
   83258    95273   102801    95447    91274    99457    97957    85919 
   86598    97353   105425   112396   119839   120069   101115    77237 
   75597    83871    80407    73754    71207    69368    72566    74777 
   65477    62727    72804    72389    63775    61144    60809    60183 
   59406    63312    76253    90553    98564    98658    97393    98597 
   93626    90305   103342   111495    97123    89097   104161   111744 
   95391    79874    79556    85750    94362   102600   109279   116171 
  117664   115006   115715   108272    84152    69850    82412    93611 
   88140    86772    87431    73398    62465    69365    83124   102756 
  117410   106119    76864    49693    44424    63778    76906    72559 
   68966    66129    56428    50238    53275    56492    64087    78375 
   84508    81487    74412    75737   101343   127607   129658   113238 
   85091    64794    67714    75374    76854    80433    80816    73812 
   70961    69121    58893    57666    77689    98170   110731   129346 
  138734   118370    88072    69946    71022    91049   110393   118764 
  124499   117040    92005    80325    90759    97394    96611    94806 
   83371    65443    55799    60770    71772    76072    74385    77228 
   90238    95667    79153    73946   101656   124410   116311   104814 
  115825   128331   115986    93398    77028    62476    52933    49998 
   53520    64918    61342    39776    34726    51055    69800    80191 
   84438    95762   103890    94054    79107    69172    63275    58394 
   58114    74611    95551    96325    86601    83766    76331    60042 
   61997    89479   109857   114467   125466   125830    89657    53356 
   50163    62729    80707   105610   128117   135546   122769   113073 
  127791   133562    99935    65080    68269    87323    89214    80222 
   81108    89781    84456    63909    59945    73337    76038    84932 
  110971   119327   104161    91608    89068    78011    53285    39410 
   41685    55678    78505    82607    69418    66687    69202    69591 
   75024    83509    92880    99177    87192    66771    72901    90898 
   81333    67394    73753    79840    84558    92853    91093    79463 
   71517    74464    86084   101085   109944   110150   107196    97390 
   84762    83764    92884   104325   114459   109629    95650   106840 
  133478   134302   120463   114070    98421    84014   100225   115956 
   91930    57998    43229    31714    35714    67583    83085    72152 
   72215    74395    63016    70765   101509   114235   103995    98111 
   95982    75432    43197    31893    48064    71113    87440    89106 
   77279    77418    98200   110613   104627    92264    76476    69538 
   88358   124343   138333   108503    76206    80204   100403   111099 
  110586   105586   103203    97675    84524    76443    77822    85860 
   91698    79922    63227    52344    49453    73903    99775    95330 
   90441    91670    85217    84068    87058    96985   104693    79374 
   53919    60297    60187    53021    65076    70421    61464    58494 
   52857    55939    80022    84530    66054    63747    69928    76134 
   96288   110151   104201   100566   108090   126389   138009   108264 
   71821    73757    75699    70141    84063    89997    76836    69396 
   72924    76519    73867    72387    74160    75440    87976   111025 
  121370   118349   114295   109094   112834   122013   112425    90418 
   75636    72497    79775    89897    96400    85396    57067    51069 
   70235    82255    95169   103599    84288    69350    80613    79459 
   59400    64500    89494    85455    64574    68490    76468    58176 
   41800    60512    98139   124962   131171   121127   109216   103399 
   99813    94255    91648    97560   100321    95989    87296    62210 
   36321    44280    71369    86942   103905   119947   106953    85861 
   75772    58334    49881    64617    77955    87698    95905    87658 
   72713    60266    40945    29515    45636    73302    94248   113162 
  121864   104766    85980    87921    95241   108013   114484    83205 
   49370    49403    59375    73329    89122    89411    88041   103615 
  127132   134946   116827    95278    88547    85449    72777    57072 
   60847    78290    81109    79272    89675   101441   102178    88527 
   83857   110047   136283   122845    78746    51131    60801    74247 
   77449    88551    99436   102095   106478    97893    71154    68026 
   88269    91728    98259   117099   109410    81282    58186    41634 
   34715    41898    61150    77845    81373    93795   127194   141469 
  121379   108298   105335    86362    72526    87635   103094    89409 
   69452    72387    85248    79448    52479    40018    57700    70642 
   73492    86895    91316    81005    80464    85071    84716    86051 
   87453    79370    64894    63863    74619    71262    52826    48870 
   72642    91756    97452   118523   127561   105799    97911   103145 
   95385    91362   103716   119415   120209   107191    98091    86417 
   72729    84068   107064   110600    91095    60120    52971    78514 
   98940    99895    94702    90310    80298    74193    97416   128619 
  123592    93847    85322    95712    91426    86032    97104   104861 
   99787    83771    66042    63869    72026    69406    54287    54099 
   72006    79562    96792   135342   135020    96071    80254    76146 
   59211    59113    75127    77128    76007    73481    49588    43823 
   74345    83226    64640    50022    33666    23679    39307    74406 
  108892   121327   112344   100102    86961    69199    65997    94452 
  118825   105568    90734    97714    91346    62159    47710    63223 
   80320    88231   104881   114168   105445   105989   106789   104885 
  129925   152155   131625    93733    69614    64417    74588    87824 
   86890    64959    37044    20742    20868    38855    62568    74282 
   82225    96106    98257    81259    64224    54757    54573    81010 
  114068   112959    97546    91355    90663   102153   114324   116413 
  105818    71392    37913    38240    50762    56982    80362   103720 
   94946    86884    96768    96942    86104    84541   101295   124263 
  131403   116082    99060   101568   107180    99767    91373    86956 
   83492    78451    80881    97966   104026    94699    94217    93819 
   79999    64922    64729    77855    80314    72061    77896    93731 
  109275   120648   109544    84268    75633    83438    95727   109204 
  108742    89175    71375    64415    57578    61851    92281   110709 
   90047    66071    59787    56211    45611    45929    75031    98408 
   83037    62827    68149    75082    82495   112179   130967   112576 
   87390    75983    69155    62052    71680    94265   106068   114162 
  108436    79961    75968    94824    94676    92796   102379   111693 
  112359    94629    77757    71890    75351    95737    92777    56928 
   55007    89495   101875    90968    84303    81182    80713    79504 
   75709    84341    99434   110254   112770    97501    81969    80975 
   96055   122669   124255   102871    88495    57088    15265    11053 
   29851    44872    67791    91876    99285    93800    87133    81654 
   73940    79992   100770    99144    79029    76585    83571    83794 
   97402   132603   139630    85170    30888    28279    50040    76802 
  105138   114376    94053    66410    62880    71215    66276    68948 
   93098   104472    89498    84875    99702   105418   104531   109718 
  104191    81707    74058    92638    96894    79515    73357    75930 
   74922    70762    68046    79698    95368   101796   108241   105487 
   87164    69344    54978    56895    88676   116660   111959    91714 
   79544    80445    82938    80145    85650   104791   109282    94471 
   92688    88036    70185    78808    93534    76754    55915    59429 
   85315   104993    93175    69244    56859    57898    68096    85428 
  116041   130886    95743    59576    63618    79374    93617   102370 
  103216   109286   113458   106867    92826    84897    95035   107397 
  113525   111283    93442    74812    68459    71194    75844    78417 
   74617    66791    74063    83508    72049    65543    80859    99376 
  102548    97453   107813   115295   100623    86979    74752    68168 
   82216    86327    67259    50021    45052    52239    65176    77136 
   90140    96800    90256    85537    94697   102814    93831    81862 
   77558    71632    77431    91862    86328    75420    73148    73789 
   82302    84082    78401    86721    97904   103029   113521   108943 
   82584    80944    96425    86842    89016   118736   120177    99809 
   97268    89922    77228    91073   100658    85271    71238    49773 
   35737    62989    87723    73666    53401    49415    49599    59467 
   92623   118076   112212    97930    95439   103940   107130    94564 
   84095    89229    94387    91913    82273    68208    79554   103670 
   91683    71127    82499    89714    68231    63668    92452   107392 
   94154    76397    71170    79591    85716    96160   113177   112243 
  103640    98496    88905    88960    98620   108198   112125   100037 
   93297    94841    77083    60508    62451    65105    61188    44134 
   28298    40378    62452    66872    61516    66622    77697    72308 
   61048    70826    95582   112908   110000    94138    80670    78476 
   86883    94873   100696    99971    89496    84858    80684    71737 
   80017    97818   101819   100079    99932   104062   119060   119763 
   90927    73688    88202   107401   116488   105602    78162    66183 
   73122    84055    97267   103615    97085    79974    66058    72177 
   83652    87480    90867    84549    73381    77368    77390    65888 
   63818    59710    59641    79004    88096    86660    83218    69222 
   73847    84469    65430    55310    70935    78748    74456    76187 
   92022    92391    66690    62430    78961    86229    98134   115796 
  124910   117734    94452    79590    84380    95496    98535    82636 
   69774    83781   101339    99301    86535    80989    78687    69340 
   73858    96446   103474    81623    64046    82127   102983    95374 
   86728    86019    83459    94382   111844   106617    94362   101626 
  103990    84636    70208    78510    88695    73986    56783    70106 
   90607    85261    65939    63377    79645    90165    93604   105255 
  113097   101100    87462    92260    96542    90405    93978    99274 
   89977    80300    76561    72605    80804   100202   108518   111820 
  112719    92932    72684    71159    70362    76009    92916    93981 
   82075    75073    68072    66746    76928    84477    81629    75847 
   69228    63950    80188   106219   102162    79128    64449    56203 
   54637    66937    88221    94606    81453    75122    83706    91621 
   82417    68457    78794    91457    86616    91723    94200    80275 
   80397    86629    84341    89089    93337    86089    83539    99604 
  116611   112313    95882    83408    81587    90751    96214    90127 
   86525    91081    94355    91779    83222    75581    76423    72904 
   66853    85194   109366   109269   100650    87224    73845    81028 
   89002    86459    90301    88912    81218    84296    89590    96912 
  102080    86914    76977    85102    83268    78694    76935    67621 
   68110    75978    76913    76198    79567    93429    94424    69263 
   65195    92448   101580    87106    87177    88161    66121    59891 
   67401    65485    88831   111230    92308    75840    71520    64771 
   80703   106428   106300    88749    68038    56835    75447    96704 
   90927    79876    70951    67066    77969    84519    91682   106377 
   99814    87693    93226    86138    70618    80553   101428   108631 
  102543    93372    86200    77399    80307   100668   110007    94504 
   75971    69811    66399    77457   110959   117895    90996    80266 
   82494    82235    92384    94077    73626    68899    88904    87582 
   63509    59802    76994    87363    81481    79794    94266    93993 
   78732    73791    70981    73090    84848    95331    95679    88782 
   95778   100414    82255    69610    75922    95928   113695   106223 
   92537    91806    84711    72716    72472    72145    74356    91616 
   96094    79654    74799    87647   102857   107194    97750    84978 
   71209    64207    71450    78624    76916    70572    72081    82413 
   80782    73229    78393    86331    88526    88620    84913    74144 
   66627    75122    88022    87253    79687    77753    69934    62154 
   84234   114620   120768   118731   111036    95727    98224   106544 
   92187    83840    99508    98813    76179    69784    84813   101946 
  103399    85036    74278    87583   101768    97529    82783    79979 
   94049   101807    96129    89681    85237    81832    78714    78100 
   84439    90740    87048    78672    78179    76678    65140    63998 
