Origin Time       2021/02/13 23:08:00
Lat.              37.7
Long.             141.8
Depth. (km)       60
Mag.              7.1
Station Code      IBRH12
Station Lat.      36.8369
Station Long.     140.3181
Station Height(m) 10
Record Time       2021/02/13 23:08:15
Sampling Freq(Hz) 100Hz
Duration Time(s)  180
Dir.              1
Scale Factor      2942(gal)/8224139
Max. Acc. (gal)   35.032
Last Correction   2021/02/13 23:08:15
Memo.             
[...]
  219372   216135   218211   222448   225891   228372   228506   227176 
  227435   227820   224689   220881   222327   226423   227677   227831 
  229026   228393   222664   216330   218100   225115   228347   228482 
  230968   234145   232663   228606   226318   226212   228182   227665 
  222513   221233   226320   228409   224762   223140   224984   224410 
  223933   226212   224861   222299   225242   228133   228266   231010 
  231465   224117   218712   220202   223875   229913   233173   227959 
  224205   225794   223639   222396   228399   229491   222435   219628 
  222019   224567   228860   232665   232414   231677   231137   226631 
  222700   225387   226906   222106   218737   218486   217287   216009 
  215685   217107   220363   222934   225553   229189   230116   228437 
  227313   227002   229414   231354   226177   220503   221539   224797 
  227203   228492   226642   223030   222586   224476   225142   226395 
  226145   222517   221192   222434   224194   228802   234292   235727 
  233454   230197   225730   222633   223879   223742   219002   216766 
  218112   216994   217938   223813   227057   229855   233572   232915 
  233833   237060   236239   235332   234814   229728   222497   220124 
  221271   215650   208695   213668   222556   225074   226179   230067 
  232036   227530   222694   225394   230343   229420   225270   223021 
  222913   223311   224106   226593   225979   220544   221745   229073 
  229402   225235   223415   223952   228006   230018   225190   220145 
  218330   218666   223834   230256   230064   228379   229139   224850 
  220186   223381   227079   226395   223284   219696   222588   231148 
  232721   228229   229424   232877   232460   234058   237915   237959 
  234940   233248   232059   225112   214968   213491   218366   218925 
  221286   229589   232106   228650   228302   229433   228349   227164 
  228744   230627   229420   229265   231903   231881   228397   223956 
  219777   218193   220059   222879   223250   222520   224183   226366 
  227156   225363   221151   221482   227416   231175   230823   228106 
  223445   220135   217857   213578   213556   218925   221877   223695 
  223681   221313   224523   228005   225181   223223   224522   228510 
  233274   233342   231585   228745   221510   218007   222170   226910 
  226910   221119   218057   220919   220230   219186   224707   231215 
  234279   234504   235314   236016   230943   225271   225211   224108 
  222396   226895   228673   221493   217684   222228   227831   230782 
  230137   228098   228943   232193   233324   229849   225302   223736 
  225545   229921   233694   231180   222720   221306   232200   238450 
  231402   222743   219793   220604   221576   219746   216661   217514 
  225031   235453   239453   233616   229778   234372   235336   228405 
  223429   222610   222589   226103   232384   230939   219559   209675 
  207485   211142   218002   223558   225406   225934   228322   233008 
  235407   232872   230010   228452   225607   223167   223488   225394 
  225724   224473   224830   224172   220665   219570   222562   226423 
  227979   227198   227757   230767   233405   231361   223603   218392 
  219873   219322   217409   222876   227438   222319   217536   220279 
  225396   228753   230548   231612   233811   238627   240399   234550 
  227007   221017   215921   215261   217760   216988   214255   214918 
  217568   220486   223994   224806   223642   228341   238100   238245 
  227572   223083   227331   230962   230011   223655   217701   218170 
  220206   218235   218492   224521   226473   224392   225957   227452 
  230513   238684   240295   233552   230704   230486   228447   226917 
  223551   219800   219195   219056   219582   219993   218339   219889 
  225320   228488   230678   234365   234405   229316   225672   228025 
  231765   230094   225931   225792   229329   231051   227182   223072 
  224680   227168   226243   224000   220195   216144   218459   227124 
  232009   227395   220572   220275   224006   224783   222986   223318 
  226284   228548   229019   229630   228586   223738   222262   228598 
  233714   233108   231827   228583   223662   222967   224658   226685 
  226652   221880   222230   228856   228729   222906   218259   214616 
  216054   221323   221529   222523   230593   234787   232499   231741 
  231552   228618   223643   220317   219775   217594   219014   227214 
  228827   221940   217879   220071   223481   221109   217443   220398 
  225489   227576   225988   224414   225786   224348   224428   231768 
  231086   220976   220653   227954   229585   226308   222335   221344 
  225720   229517   227523   226643   233032   238867   238108   235778 
  234004   230787   225518   217421   212710   217767   223800   224590 
  224089   222934   223900   227202   227468   225988   224915   226235 
  230662   229865   223673   221458   222532   223053   225022   230230 
  235714   236240   231832   227206   223879   218084   210096   207705 
  212314   219075   227750   233817   230341   224617   226003   230242 
  232663   236601   239897   233942   223550   219329   218791   220094 
  224648   227016   224128   222246   228121   233666   229292   222269 
  218898   220340   227952   233223   227943   220249   221605   226963 
  228185   229408   231580   229628   224804   223005   225362   225308 
  221123   218578   218994   221836   225520   226428   225890   225925 
  227244   229205   227780   225396   227188   230404   229671   220795 
  208974   206131   209829   212907   217995   223628   224958   221602 
  217166   218554   223206   223376   221498   222141   226469   229961 
  227218   224995   229138   235148   235552   228114   224341   227479 
  225624   220726   218725   218106   222511   229342   231179   230724 
  231183   231283   230501   228914   228290   229899   229408   223140 
  216750   216110   217682   219852   226173   229421   223944   222415 
  227672   229875   232767   238724   240729   239305   238114   234004 
  223322   214467   215230   216143   214076   215347   217055   220600 
  226174   226604   228237   236575   240641   236131   231558   230835 
  234536   240425   238162   228190   221991   221788   224654   225603 
  220689   217085   219658   222214   224256   230540   236301   235826 
  232042   227682   221923   213934   207504   209567   217227   222959 
  226995   228810   229026   232254   234233   230997   227813   224017 
  217841   217193   221439   219790   214583   216328   223059   225763 
  223033   221711   227152   232843   231367   227659   226588   226031 
  224937   224916   223528   217161   211755   214088   223119   232887 
  234087   228694   227793   229954   229016   225564   220770   217798 
  220051   222926   222002   219465   216286   215993   222330   229857 
  234199   234528   231356   228224   224083   220491   222043   221933 
  217344   217224   220359   219634   218918   222307   225221   225775 
  226922   229471   232360   231742   228722   232116   237879   233135 
  222593   219793   223574   225228   222820   220764   224124   229473 
  229475   226598   227460   231237   231061   225103   220976   221981 
  224191   225890   224739   222484   225745   231140   233747   235882 
  235457   233811   236466   236515   230262   226957   227362   226729 
  228009   230867   229329   222920   217437   216606   215838   213834 
  217574   224031   224548   222831   224931   226369   221470   214778 
  213406   214994   212244   205515   203582   206906   207576   208674 
  215823   224648   228977   226940   226247   231834   234643   229374 
  219559   212942   214945   216735   213983   215671   221332   224128 
  221582   215099   212557   215995   217998   218500   221737   225907 
  228160   226616   221017   215831   215095   215662   214390   215339 
  217371   216183   216909   220195   221593   223121   223959   224526 
  231072   239693   242379   240781   234948   225147   222417   229109 
  233988   233829   229996   222941   219396   221817   223739   223265 
  224631   228568   232069   234347   236271   237153   234374   227942 
  225074   229306   231419   227956   228194   231758   230640   226323 
  223987   225387   226176   223006   222987   226426   226049   223384 
  218546   211634   209187   212986   222292   233232   237566   234651 
  229331   225302   224868   227688   230971   231060   229752   231572 
  231874   225884   220017   216697   210617   206012   208041   209854 
  211526   217641   220459   219234   220083   221252   225289   232538 
  237280   240679   243567   244925   245567   243679   238522   232702 
  229720   231338   236561   244096   249903   248533   241906   235606 
  230693   227875   228862   230832   227907   219053   210921   207604 
  205623   205289   208526   209420   206444   207542   215736   226581 
  236252   244906   255749   266899   269568   263291   255464   246090 
  234403   225027   218771   216444   219497   221865   219125   214897 
  210751   204662   201480   208063   220009   228487   228586   220499 
  212784   212614   216820   219148   214666   205225   201070   202329 
  200334   199933   206972   212895   215303   222643   233617   238870 
  239707   244296   248698   243903   232675   221454   213683   211358 
  210703   210276   213973   218242   219443   221381   221960   217807 
  214928   215685   215029   212112   208361   206012   209035   214061 
  218003   226382   238473   246958   251236   254966   257848   258153 
  259222   264084   269244   270012   264173   253512   246280   246611 
  247266   244779   240491   231250   220078   209657   195170   184149 
  186138   192869   195762   198417   205503   214600   221984   227743 
  233517   241774   252082   259322   260597   259289   258766   255980 
  250708   244844   232573   219121   219535   231109   242607   245918 
  236355   223071   213209   202011   194177   195625   199327   204087 
  215014   225968   228981   228232   227971   223053   214590   214041 
  221533   229092   238670   248780   250001   241965   233371   233548 
  241331   240711   224596   207007   197869   195608   199632   204531 
  208240   218176   228884   232101   235746   243807   251033   254550 
  249651   234400   217463   206794   204380   212118   226384   237543 
  239943   232816   218587   201491   186565   180596   184898   192581 
  202050   216541   229077   233766   236236   241151   249517   255692 
  250030   235526   224137   222991   231462   240844   238802   221281 
  199609   187150   181946   174046   162562   156689   160708   168651 
  176454   180598   178695   181002   192059   197133   189607   185477 
  196366   210810   219697   230272   243899   255168   262496   263333 
  260458   260994   262822   264346   270214   274587   266506   249274 
  234851   233733   248250   262306   262940   260632   263637   268324 
  271945   270095   259154   242219   226015   213721   205687   201529 
  197010   191875   186001   173993   163046   165715   177558   189450 
  203413   221346   238368   253935   268658   277249   279776   278382 
  268794   255204   249239   249042   242731   229841   221817   224857 
  238256   258755   276258   279266   265859   242716   217115   194765 
  181967   181943   188281   191712   194809   202555   207936   206629 
  202576   197503   194958   195849   192672   185549   182283   186109 
  196904   208556   217331   228043   235414   232664   228550   229351 
  233919   240159   239080   228131   218327   214103   215226   226219 
  241941   253918   268050   283905   289156   285549   276127   254967 
  231460   220711   219366   216985   213921   215006   217787   216695 
  207301   192011   186568   201773   228988   255796   276396   285556 
  279975   264867   248061   233428   223427   216382   211343   214524 
  223310   226444   220749   207866   196362   200785   220785   242626 
  257627   263019   260456   257404   254230   246080   242894   253038 
  262273   259449   249238   230920   203272   179707   169304   165281 
  164859   172119   179801   178368   176455   181951   187586   193976 
  208029   223781   230862   229830   230940   235566   233937   225377 
  213015   195864   183104   186275   202672   218648   222914   219503 
  217664   220730   233315   252718   266288   270237   269380   266846 
  261192   250449   241084   238142   236796   236926   243122   248570 
  245668   242817   242964   235052   220969   212747   213439   219433 
  222296   215399   202594   190976   187022   191610   197662   203634 
  210438   214747   216421   216452   219570   227365   225714   213435 
  208180   210141   209723   209617   214307   224302   238540   249377 
  248323   241586   240391   243870   249517   257812   262877   256335 
  237510   219904   217304   221790   218975   209333   197270   186818 
  183485   183014   181596   185974   194128   199000   201127   196951 
  187051   178379   168141   158672   159506   171278   195331   232497 
  269230   290795   301977   311797   315071   312894   313717   312439 
  303291   287856   268875   255888   252694   251900   251716   248005 
  234733   221281   215473   211459   205193   197833   192136   190813 
  191689   191315   193545   204426   221571   236798   240850   225976 
  197375   174378   167701   170025   177461   195070   216604   226404 
  222868   216449   209223   199999   191026   179668   174765   196695 
  239600   276724   294120   295324   293275   296990   306999   319770 
  323130   309280   284223   251829   221787   206359   193068   170356 
  151120   143580   144300   151538   160941   171043   190629   219735 
  244633   259556   263293   253882   247756   258592   268285   261075 
  245344   232019   227074   231724   240125   245142   244528   239575 
  232677   230979   240058   255467   269262   273086   262998   247792 
  238553   238162   242357   245569   248722   251554   249555   242519 
  229182   210033   193495   181701   173335   178605   200816   221917 
  225984   218373   214813   219215   221772   217486   215256   226960 
  248135   261578   259726   247698   235502   225385   207941   187991 
  180720   180944   178410   176971   180220   185828   188310   184677 
  185920   202643   225409   241586   250966   255089   251360   236487 
  213752   198617   197784   196299   189244   193071   210270   222335 
  224407   228510   237942   248719   254631   246496   228472   212710 
  202791   202281   209763   213066   208140   201999   203187   216147 
  236005   252370   254778   244397   236703   235970   235292   236078 
  236567   229956   220405   218079   228175   249720   274518   287342 
  279794   263852   254180   246063   231526   217055   210142   209547 
  210579   211404   215989   222162   221278   222076   238364   261720 
  278390   280365   261677   230079   201735   186748   186707   192577 
  195504   193941   185028   176817   184133   198193   203598   201685 
  195635   188208   187170   192717   195870   198128   206921   217981 
  228043   233558   227084   223724   239915   257206   256834   246524 
  235082   221391   209421   210894   226567   240028   240533   235651 
  234067   235519   239620   243091   236938   223935   219248   226498 
  235422   234763   218363   194692   179365   175915   183628   206884 
  237085   253362   250831   239029   227646   226957   238819   256976 
  274814   281460   274012   265428   262646   257875   244775   231209 
  229815   234711   232347   227947   226785   221738   214548   209725 
  200901   186106   179232   192229   216220   238472   254226   254541 
  236854   212781   191691   175541   168588   184948   227466   266662 
  276760   264393   245455   232912   234519   240124   233024   216139 
  205760   206537   209424   204373   193677   188446   187516   185704 
  188454   194752   196375   193847   192311   198818   220360   250911 
  275869   287501   287356   280949   274395   273330   275256   269410 
  252148   230500   209858   191776   184727   196485   212753   211871 
  197847   189928   196624   213547   225714   221965   207280   191871 
  184697   188306   199351   217591   235043   239387   238060   246350 
  264016   279134   281029   271991   263737   264024   273225   281611 
  275861   255245   232467   220140   217294   216016   215451   213462 
  207875   202906   197136   192439   194950   194790   184451   176404 
  179508   188163   199793   211319   209610   201233   207624   220976 
  225644   228312   235143   243426   252369   259799   259321   251696 
  245666   240695   229032   213729   207588   214015   222477   224621 
  220039   212934   207616   202242   197370   198630   206412   217845 
  226308   226890   225028   222594   220206   222966   225229   223318 
  227789   242771   257898   262885   262084   262584   256203   239473 
  223749   213420   207013   204834   203805   204137   209401   217483 
  223061   224781   224124   218628   212989   221169   237859   245590 
  245743   242981   230688   213651   207094   210320   210373   203397 
  196326   196539   206124   222798   238176   244048   244864   243129 
  235535   231269   236160   241756   244834   247718   248452   242392 
  228324   213036   205301   207031   213128   217360   217647   215963 
  215573   219882   230010   241818   249046   246828   240038   243515 
  251652   245303   231742   222793   215952   214910   218168   216442 
  213877   219893   234134   247573   250265   243174   235512   231107 
  227874   223384   219969   220395   220642   221433   225823   227739 
  224403   219322   215480   215121   215063   211164   205094   200971 
  204423   215374   221957   218652   216503   222187   228276   227114 
  221634   221826   224633   218072   207141   203157   211179   228607 
  236650   226683   211334   194643   180381   184608   209618   235292 
  242595   234736   227853   227338   226951   220835   211015   207296 
  213036   217719   215125   213148   217397   224668   230698   232852 
  229821   222403   219989   228156   231418   221984   214569   217533 
  227288   234742   232123   228264   232852   241342   250329   256049 
  251457   241809   236248   231488   226552   228409   234701   239691 
  240376   233262   227607   231955   237978   238844   234072   227707 
  227380   234585   244302   249520   248260   239951   224445   211854 
  207015   208001   216314   223844   229468   242908   251387   239372 
  221142   215454   220881   228549   235433   242053   246511   243642 
  233840   224185   217988   214577   210691   205903   210597   226076 
  237452   243267   254022   263181   259904   253192   247608   232997 
  215676   207871   205335   209609   224664   233884   222790   203980 
  199399   208205   211511   207493   207860   214983   226790   236420 
  237089   233969   228164   218315   212643   211569   210737   213719 
  221757   230040   233026   230235   224586   217887   214064   213969 
  215759   222876   233597   239508   240719   241164   239695   235255 
  227746   221390   221849   222683   215557   204218   196983   198177 
  204599   210527   214748   216082   211755   204543   201410   204377 
  209926   215052   219815   224748   228375   230222   232218   233475 
  227144   212079   204250   215446   235232   252337   263417   262691 
  249551   232773   222197   220777   223290   227261   236282   248043 
