Origin Time       2021/02/13 23:08:00
Lat.              37.7
Long.             141.8
Depth. (km)       60
Mag.              7.1
Station Code      IBRH12
Station Lat.      36.8369
Station Long.     140.3181
Station Height(m) 210
Record Time       2021/02/13 23:08:15
Sampling Freq(Hz) 100Hz
Duration Time(s)  180
Dir.              6
Scale Factor      7845(gal)/8223790
Max. Acc. (gal)   86.948
Last Correction   2021/02/13 23:08:15
Memo.             
[...]
    7322    11313    15325    11292     6046     9830    17385    15772 
    7749     7449    15981    21014    15438     5740     2882     6858 
    8861     6238     3547     6196    15662    23670    20139     8985 
    3624     7885    10791     4720    -1201     1313     6741     9166 
    8247     7358    10604    13933    13489    13482    12568     5733 
   -2200     -931    10243    16623    10692     7480    15394    18495 
    6601    -4036     2263    12426     6108    -6222     -796    15379 
   21462    18322    17460    20934    17209     2600    -5544    -3268 
   -3786    -3434     7966    23882    30531    26208    23309    23053 
   10000   -10833   -14131     -568     8236    11334    19403    26823 
   20583     3430    -7049    -8082    -9814    -6718     5147    15230 
   17547    13771    11915    14771    10219    -2137     -553    17126 
   19372     -118    -5826    10284    15307      928    -4168     9481 
   18404    13825    11252    14813    15696    12043     8862     9859 
    9612     2627     -654     7695    15360    10929     5822    17169 
   29451    15172    -9861   -14673    -1134    16229    25513    21995 
   18905    22176    19526     7946     -206     4644    14967    16097 
    9936     6932     6253     5686     5004     2821     9757    27692 
   31155    12231     -252     9567    19024     8465    -5764    -3582 
    7803    15106    17311    16505    12640     8252     9813    13819 
    8307    -2540    -5803     1962    12333     9610     -153     4865 
   20353    25392    14106     5613    15830    19527    -1016   -10948 
    9417    28719    25235    14800    11365     7803      -60    -5840 
   -7119    -3672     7969    19224    16303     8845     7558     4117 
   -2664    -1710    14766    31588    28057    17269    10987     1474 
   -3165     1772     3001    -2315     2848    26684    38708    18624 
    -707     3156    12135    11627     2390    -5791    -1325    11866 
   16769     5748    -1688     9610    15947     3067    -4476     6991 
   17544    10304     1156     6810    15404    17221    17605    16771 
   12619    11772    17890    20329    12812     7608     9805     7854 
    5468    14702    23197    13004    -6112    -4553    16966    17913 
   -8627   -24846    -8623    26875    40193    15209    -6432     6845 
   32852    23886   -17138   -20027    24933    43640    11468   -18555 
   -8939     8283     4557     5471    15228    10216     1216    13497 
   31784    16191   -17825   -16229    18481    40911    35068    24818 
   23751    14395     1251    -1142   -11399   -23480    -4218    31801 
   37948     5265   -19074    -3662    12020    -4469   -19368     2882 
   41863    54236    35716    14701     2801    -7086   -12899   -11206 
  -12927   -14284     3084    28352    37454    29974    23791    28879 
   28008     9061    -6987    -6501    -1937    -1167     -302     4305 
    7512     4646     6578    12922     7834    -1100     4533    17265 
   15013     7105    19365    29331     7296   -16515    -1414    33704 
   37372    17740    23560    40653    26505    -5044   -23892   -32967 
  -30248    -2629    27382    32120    26964    31141    33828    17930 
   -9778   -21060    -5582    15045    20025     9448     -623     5427 
   21053    21409     -155    -9463    19465    47771    27017   -16079 
  -14377    27229    33642    -5235   -22354     2436    22812     9323 
   -9513     3423    25089     9676   -14181    12522    50247    26905 
  -12272    -1858    14685     2926     -720     5422    -4915   -12734 
   11213    40944    29434      322     6516    20722     6385     3179 
   22879    18742    -2420     4841    33826    38730     5285   -23186 
  -13462     7789    10867    -1355   -11966    -2404    23041    36672 
   21001   -10049   -16740    10034    22651     -889   -15823     8110 
   38124    33972     7504       44    10893     8043     -788     4976 
   11989    14931    24630    29901    14341    -3684     7630    25828 
    8581   -12984    -1628     7560    -4060    -1136    23646    33640 
   14674    -3465     2562    15439     9899    -2398      673     8475 
    5741    -1755     1719    21789    33162    21019     8841     6361 
    3743    -1051    -2490    10585    30063    32845    22978    18451 
   21226    19222     5482    -3177     4846    14148    14092    12757 
   18272    22108    12071    -3888    -5937     9796    23413    20358 
    7352    -2407     -857     3597    -1399   -11680   -18027    -9937 
   15226    35364    30153     8325     2934    25469    29880    -4873 
  -23114     5505    35492    26728      769    -3624     9936     8548 
  -11466   -15480     7676    25311    16920     4996    15496    29120 
   14212   -10351   -12846    -3483      321     5698    22810    33542 
   15897     2106    20621    32602    15947    -1992    -4234     2733 
    5927     7735     8995    -3383    -9063    13294    31934    20866 
   -4108   -14374     6929    33868    22107   -16792   -30071     6011 
   55861    55792    11866    -8912     3925    22623    30204     6139 
  -23558    -7136    32418    37045     5058   -20699    -8519    23209 
   25535     -114    -7218     8152    15223     2754   -11821    -5782 
    7017     7045    11880    21088    15893    18597    38298    32190 
   -3902   -15975    14589    36046     9062   -18285    -1610    19006 
   16653    10490     4495      252     6548    20343    31305    27280 
    9940     1066     8567    11763    -1458     -336    36132    51408 
    9949   -25335   -12969     9751      537   -25945   -17378    27643 
   56243    37898    -4407   -14539    20754    33299    -6134   -26959 
   -3908     9429     3289     8226    28629    41589    22446   -11888 
  -17020     3704    14847    11091     7781    16915    27927    23303 
   15705     6880    -9983    -9606    10971    28163    30304    12648 
   -3318    -2462   -11423   -25755    -7587    21060    15124      531 
   14207    31203    19619     -815     8410    24381     7597     2628 
   31209    27321   -10409   -19278     8835    35451    23442    -2297 
   15762    51227    44666     2955   -27282   -13366    22153    26330 
   -1767    -6754    29965    46190     5331   -34476   -26253     2748 
   15345     7838     5077    21641    30983     7697   -27101   -30242 
     369    16141     -703    -9347     8337    23689    18284    11541 
   21482    21022     1305     3958    20564    11047    -7040   -10084 
    -934    15064    23515    21964    18511    17026    31163    47163 
   34171    11762     5008     6374    15816    22671     6216    -8888 
    5715    17960     5617     1563     9865     1116   -14953   -14029 
    4896    25915    29057    21571    15121     6486     4498     -577 
  -22403   -33723   -14320    24032    52269    42387     8326   -10077 
    3827    30839    28316    -9073   -24003    11236    49750    46592 
    9798   -20757   -10390    26029    29551    -4642   -17699     5553 
   35756    47943    25807   -10523   -23550    -9234    10704    10697 
   -4565     1363    19637    16788    11194     7931    -7994    -6008 
   16916    18623     2214     3210    17074     9539    -8210     2898 
   21481    12961     7537    24167    27900    12773     7645     9946 
    5138     2771     6093     3499    -5602    -4336    10893    14783 
    7303    14041    34770    49486    32740    -9772   -27522    -9202 
     859      437    16430    24302    13289    18388    40680    45976 
   10747   -23272     5265    33843   -14870   -61676   -23831    40666 
   42696    -1911    -2205    40697    33588   -24651   -48897    -9336 
   40471    31936   -10273     4494    58585    54472    -2840   -25107 
   13288    40289     5956   -21667    12237    39217    10033   -14435 
   15452    50556    25224   -28251   -18253    41566    36409   -30618 
  -42726    11361    50970    38732    -2007   -15017    12606    23394 
    5081    -3430    -9167   -11938    13986    38261    22191   -13323 
  -17748    20672    37407      648   -16671    16704    43614    38816 
   13815    -9370      271    19843     6678   -20177   -21764     9317 
   42016    39872    20927    20511    30134    19530   -17282   -36911 
  -13844     9679     9571     9008    23386    46241    46060     -583 
  -36670      837    41962     9255   -35523   -27986     6096    19460 
     696   -11907      276    12557    30954    51811    30126   -13255 
  -13848    18231    24645    -6066   -24570     -427    31575    35305 
   24615    20934    15796     3956     -843     1320     -626     4297 
   24071    29849    14100    11724    22064    11718   -25277   -53144 
  -20101    39490    30335   -14521     1246    50851    56706    12648 
  -16113     8822    29263    12407     -947    -1455     4873    23878 
   25234    -7938   -16974    25829    44988     7622   -17402     3858 
   28287    19602    -4510   -10771    -4573     1533    20962    39978 
   32950    19653    15187     8735      -63   -11094   -21938   -19187 
    1918    27733    40616    37170    26217    20351    11655   -14963 
  -19650    18700    30446    -1505    -8287    18054    27480      927 
  -25220    -9290    12982     4376     3701    17162    15838     6832 
   -6176    -6721    21757    36232    21116    13127    15506    13991 
    4317    -6820    -6759    -7366    -5987    15815    29049    12982 
    2023    16752    30312    18104    -1389    -5934     1274    20147 
   33030     7877   -19475     9169    48612    30472    -2513     3742 
   16561    12048     9985     3962   -18341   -23776     9448    33913 
    9459   -19404     3086    50689    67432    41368   -11898   -43569 
  -16474    10957    -3836   -10281     9992    28458    42658    53210 
   40520    -7276   -58510   -57800    -6416    28302    13815     -927 
   26821    65780    55834    -7609   -53919   -31877    19457    36093 
   18288    15620    27292    18657    13583    23107     8600   -21793 
  -23345     7615    23184    10147    17952    36724    25138    10624 
    6099    -1209     1428     6565     5917     7990     6382      611 
   -6941    -7053    12522    20283     4195     6544    29567    34464 
   15210     6033    17066    14667      715     2701     9405     5971 
   -5121    -9036     8405    18936     3393    -7666    -6239    -3655 
    9495    31018    38719    20093     -205    14972    43209    28263 
   -8712      865    34889    25938    -7410   -12901       27    -4804 
  -18827    -5042    33772    47167    13826   -11225    11163    41395 
   38284    14072     3944     5570      584     -356    -2851    -8912 
    1439    13729    19838    28683    19708    -2236    -2201     9348 
    3721   -10547   -12033     2188    16204    26063    36744    27830 
    -226   -11927    -8938   -16943   -24283    -8815    16950    28134 
   23247    22458    33281    33386     7730   -20433   -12415    26103 
   34488    -1150   -17163     6135    23820    15191    -8268   -19637 
   -2862    16399    30257    45164    32637     4727     4303    19619 
   21375     3846   -11040     1634    28911    43375    27037   -10249 
  -30800   -24541    -5636    16048    25004    16240     8955    20950 
   39698    39397    15746   -17266   -32211    -8959    25440    26418 
   -4452   -20266     5296    33617    24158     -760    -6754     4467 
   10588    -3073   -13894     3960    24007    18233    10860    19521 
   22299    10057    -3389    -9387     -548    21070    26681    12835 
   12256    14539     6469    14677    22384    10727    14639    30659 
   25168    13201    17093    19160    -5695   -35114   -13760    39999 
   46947     5421   -22705   -10372    13599     6390    -6770    17035 
   34555    15596    10902    27657    12641   -24699   -27298     5386 
   31710    32333    18168     8100    12019    22762    18667   -10451 
  -37416   -20580    21778    20775   -11423     2405    42977    29937 
  -20331   -29791     1672    17456    13329    19171    32481    37061 
   29346    10118   -13807   -23800    -8152    12556    20136    28594 
   32466    14569    -3878      870    23056    33937    14050    -5383 
    5329    16326     1366   -15458   -17910    -8363    23912    60852 
   60492    17015   -34653   -46206   -14747     8004      -16    -7229 
    5729    26663    43576    44419    23464      452    -1432    20278 
   39518    21366   -15311   -23795    -9891     5409     8947    -2490 
   12537    43144    28669     2427     8726    16733     5107   -14300 
   -7361    28179    34163     2106   -16483     7238    46761    39361 
    2733     6839    23388     5559   -16626   -13940     1332     6542 
    6897    20183    30993    20407      106    -1038    18034     6012 
  -31603    -9726    56986    53011   -26650   -49322    26640    62827 
   -6893   -49048     9244    53410    17329   -12339     7809    10840 
  -16159   -15384    14408    33525    24382     7020    18782    40201 
   32651     9994    -6921    -7906     -479    -6056    -2868    19997 
   19861     6442    28359    60690    53721    18846    -1574    -4511 
  -21022   -36234   -22410    -6906      -25    15592    25417    21319 
   14860     6687     3993    10390    17497    21250     5682   -12939 
    8515    27930     2281    -8640    23206    47017    24533   -16009 
   -7776    31986    31561     6372     6214    13981   -13732   -53902 
  -38009    16953    30122     7982    17014    59267    74370    30261 
  -26250   -48779   -40599   -11272    13188    14300     2377     3573 
   55451   100453    48524   -26673   -21119    32044    52018     5985 
  -41222    -9958    39981    33660    12943     2965    -8500    -4302 
    6714    10330    15965    12148     8837    30133    42568    14013 
  -22050   -14085    27954    32093   -11246   -22045    10114    14289 
  -12712   -21393    -1039    23221    18087   -14280   -27456     -314 
   30619    23743    -5130    -2173    35565    48163    13585   -11948 
     754    14941    12939      523   -12557    -3631    20410    33077 
   30866    18411     6994     5494    10569    29214    34272    -9892 
  -34499    12918    44170     1412   -50418   -38757    30057    63459 
   12487   -26208    18981    74827    62357      920   -29169    -2542 
   11315   -10304   -12680     6102    10782    14635    37188    45461 
   12879   -14535    -1890     7092    -7879    -9641     5351    12811 
   19017    37697    53414    45935    25921    14636    11381     8264 
    6226     6656     6168     3226     4777    12465    18269    11917 
   -9890   -28177   -28537   -16011    -2579    -2860    -3105     5590 
   11009    24975    24709    -5707    -8976     8289     2465     4266 
   28305    41812    18301   -17578    -3450    27942     6831   -22279 
  -18376    -5132    20781    54486    54859    17500    -1861    25158 
   39094     1669   -27708   -10886     9863    13914    25168    35530 
   21085     3600     6266    10457    10561    19354    23167    11400 
    3469    11391    18165    10693     1745    -6610   -21215   -16954 
    8279    12372    -1605     1243    18508    31518    36038    27369 
   -4356   -33826   -24961    -5039   -19390   -43322   -14719    49851 
   70410    47148    37525    39383    19639    -9560   -17386   -11921 
    2249    26617    27534    12023    11416     9374     1879    -9108 
  -23139    -1790    47079    61195    29650    -1942     1744    16596 
    3874   -11083     7105    33129    41791    37497    19279     2659 
   -3187   -17209   -23753    -9173     3032    20301    45779    53005 
   46192    29425      658   -18677   -27719   -31209   -15390    11357 
   27116    25424    17814    13506    -4846   -35541   -37814   -14187 
   -6181    -3180    19178    34136    28220    19327     7589     4862 
   27024    45384    37640    19839    10504    13589     5562   -22828 
  -28389    -3410    11938    18763    20574     2992   -11129    -4467 
   16004    32258    13196   -12677    11236    58282    61861    12599 
  -17678    26836    76123    47775   -11983   -23616     7657    30339 
   23517     1854   -15384    -6739    32232    63563    48660     1937 
  -16727    14274    30308    -8502   -46607   -40791   -15661     1850 
    4066   -16792   -45303   -39279     7803    44359    27484    -6381 
   10982    49736    32080    -9180    -2926    26557    32886    26453 
   22311    10102    -2413     2058     4905    -1711     2964    17451 
   33762    39074    20421      908    -4981    -9779    -7177    12475 
   29180    24833    15059    15114    16924     7897   -17783   -35391 
  -15061    12889    15236    23310    50742    50800    19684    12938 
   29544    19774   -10505    -7299    36485    53329    17447    -6250 
    7724    16206    -3489   -34246   -34959     2644    24295     6767 
   -7109    13054    37797    17410   -33153   -49917   -25504    -6663 
   -3638     3260    13925    31963    48049    37215    16503    -2733 
  -18959     6862    54334    57289    36197    36413    39460    15711 
  -25452   -45357   -31499   -13828    -7582     -946    13876    29083 
   29532    19926    26145    44635    33662    -8618   -30279   -11770 
   11805     9112    -5167     7164    39356    44159    16376    -6210 
  -12039   -17197   -28733   -35392   -19211     3643     4180     8804 
   40815    71308    78503    55200    11319   -13913    -9524    -1660 
   -5310   -26229   -45272   -17042    38716    54696    27438    -5895 
  -20317   -12355   -10413   -27056   -42507   -44070   -15719    38682 
   56787    17289    -9269     2219     6048    -4630   -10412    -2355 
   25874    53098    51868    18450   -22520   -25952    -1761     5834 
   10727    38753    76769    93027    70587    36139    16830    11076 
   11357     7186     5236     6099   -14669   -35989   -26622   -15026 
  -22574   -26951    -8252    20833    43024    57237    58611    48409 
   23785    -8414    -4989    25721    22820    -9215   -10886    29180 
   49677    14426   -23120   -18913    -9084   -18856   -22523    -7522 
   16484    26295     9501    -5043    -3493     5101    19984    20533 
    4973     4594     5956   -13374   -17123    15778    41855    30639 
   10372    12326    23576    13177   -12572   -14465     6662    15129 
   13871    23738    38210    37508    14149    -1865    19622    51460 
   53973    34816    34380    61433    67498    30669   -10682   -23402 
   -2940    19958    12465      626    14658    32201    30341     7951 
  -31757   -67722   -76261   -53492   -13379     5443   -14170   -29704 
  -10740    17608    26644    14521    -2992    -7963     -839    15836 
   41824    46427    19804    12757    38622    55628    55836    34519 
  -18497   -50460   -33866   -20763   -24567   -12144    18500    42205 
   42153    35502    28622     4710     4342    47839    67224    40787 
    5985    -4923    27332    52667    23618   -13186   -28077   -24591 
    6849    22415    -1270   -14125    -9508     -689    16927    13663 
   -8336    -7009     4060    -3971   -16902   -13836     4423    12966 
    -965   -14008    -9501     4707    12386    -1026   -19480   -15560 
    -581    11249    23087    23369    16891    24066    30361    17572 
    2751    11178    32084    23148    -8619     6737    70256    70497 
  -18550   -58901    -5074    17045   -34264   -58457    -5819    49962 
   34298   -12081   -10794    30200    54529    36247     2344     1858 
