Origin Time       2021/02/13 23:08:00
Lat.              37.7
Long.             141.8
Depth. (km)       60
Mag.              7.1
Station Code      IBRH11
Station Lat.      36.3701
Station Long.     140.1401
Station Height(m) -36
Record Time       2021/02/13 23:08:20
Sampling Freq(Hz) 100Hz
Duration Time(s)  230
Dir.              1
Scale Factor      2942(gal)/8224139
Max. Acc. (gal)   22.945
Last Correction   2021/02/13 23:08:20
Memo.             
[...]
 -125995  -128385  -129134  -126682  -124961  -126879  -124640  -122405 
 -128200  -132117  -129937  -128117  -125733  -123785  -124513  -123911 
 -121954  -121960  -125633  -130383  -128457  -123336  -126202  -130319 
 -129150  -133355  -138859  -134383  -128632  -128364  -128231  -123765 
 -118288  -119098  -123214  -123607  -122169  -123159  -125007  -122702 
 -117544  -115651  -116888  -119819  -126921  -133444  -131712  -126164 
 -125115  -126347  -124406  -125088  -130874  -130443  -125316  -127928 
 -132294  -127693  -126100  -137178  -143698  -136802  -126306  -116816 
 -120028  -134387  -130308  -114373  -117518  -129798  -128290  -118924 
 -117836  -120947  -120394  -121810  -124896  -129618  -137764  -137274 
 -125875  -119890  -124957  -130072  -127191  -123063  -123334  -120849 
 -116343  -118242  -124006  -125620  -121097  -119529  -123223  -119659 
 -117437  -128474  -129285  -115399  -116842  -130891  -132989  -129078 
 -131207  -128487  -119701  -120955  -128251  -127145  -123421  -124521 
 -125577  -125599  -126701  -125373  -121238  -123506  -133204  -136379 
 -131229  -127372  -124371  -123334  -128509  -133066  -130762  -124362 
 -119245  -121737  -126239  -119792  -114527  -121838  -124173  -122801 
 -128035  -123781  -113306  -115978  -123707  -124918  -126025  -131449 
 -131913  -122274  -115462  -120197  -126293  -127839  -128939  -127526 
 -126003  -129381  -130284  -127842  -127055  -123707  -120249  -124237 
 -128410  -123261  -120351  -129826  -132795  -121096  -117510  -126393 
 -129497  -124791  -122566  -121408  -117753  -121354  -130491  -128243 
 -120571  -124220  -129053  -125001  -122258  -121587  -123892  -134623 
 -139920  -133143  -126889  -126127  -128271  -132021  -134090  -130432 
 -123596  -121861  -126455  -127828  -126463  -130866  -133236  -129339 
 -127620  -128170  -130180  -132937  -133285  -132575  -133154  -132487 
 -126207  -125392  -135514  -141339  -139833  -134616  -129078  -125639 
 -119472  -119870  -123103  -115578  -116714  -125844  -122607  -121905 
 -122999  -110058  -108005  -123928  -126557  -119362  -121246  -122597 
 -119068  -120132  -125096  -126088  -121297  -116006  -117174  -124934 
 -124636  -116108  -121219  -130547  -122756  -114088  -119672  -129907 
 -134217  -131044  -128379  -128352  -124515  -119842  -118457  -119846 
 -127003  -135864  -135243  -126274  -123558  -132888  -139158  -131739 
 -123923  -125347  -129158  -132672  -135845  -133614  -127724  -126704 
 -127764  -123078  -120704  -127137  -133276  -134746  -133508  -130638 
 -129729  -129347  -123777  -117899  -121647  -130158  -130573  -125923 
 -129197  -135961  -131889  -122909  -122220  -125172  -127610  -131361 
 -128116  -122443  -126446  -128031  -123913  -124522  -122867  -115338 
 -113035  -119635  -123125  -120933  -124757  -130623  -129508  -123192 
 -116127  -114798  -117454  -118339  -121786  -128893  -133228  -130998 
 -124063  -119578  -117050  -111746  -112503  -123885  -132052  -129374 
 -125469  -127014  -127001  -122119  -119998  -118324  -115431  -119006 
 -121765  -126049  -138659  -137334  -124105  -123006  -126063  -127845 
 -131807  -130403  -132159  -141112  -142110  -136525  -131390  -126875 
 -127693  -129294  -130122  -138523  -144144  -138011  -131973  -129782 
 -126954  -127797  -131340  -135479  -142402  -138460  -125651  -124861 
 -131541  -134121  -129258  -122459  -122716  -120837  -114413  -116789 
 -125655  -127958  -121659  -114355  -111030  -107782  -106219  -116818 
 -127804  -122331  -115616  -117536  -117269  -115911  -120106  -128235 
 -132850  -129617  -128254  -131631  -130203  -129948  -132379  -129608 
 -129578  -127664  -119716  -121952  -128791  -126215  -121437  -121761 
 -121109  -118251  -120201  -120892  -117366  -121072  -127568  -125066 
 -120704  -121691  -122823  -121722  -126095  -138842  -143152  -134250 
 -129126  -127737  -125463  -129292  -136170  -138238  -134545  -128873 
 -126688  -126964  -126064  -126743  -129802  -130234  -127103  -120393 
 -112286  -114868  -128335  -136239  -132094  -120534  -111141  -116630 
 -130707  -131622  -123568  -126928  -136003  -137974  -133971  -125562 
 -120704  -124580  -128517  -128738  -126274  -124123  -124563  -121493 
 -117069  -117518  -118930  -119056  -118214  -119415  -125539  -130855 
 -130342  -127341  -130940  -139036  -136741  -127800  -127642  -129066 
 -125042  -125752  -128224  -127758  -126148  -119614  -118110  -124776 
 -124721  -119722  -118939  -122289  -126288  -130426  -134887  -128295 
 -117271  -127376  -139862  -128239  -120808  -132730  -135544  -125352 
 -123558  -129540  -131161  -130027  -130111  -130914  -134816  -137578 
 -133834  -129115  -123282  -115709  -116208  -122920  -125409  -128933 
 -135816  -130210  -115311  -114563  -124025  -124271  -121579  -126044 
 -132236  -137486  -138650  -131058  -118260  -112617  -119308  -125513 
 -129662  -134738  -131652  -127484  -129809  -132916  -133929  -130310 
 -128430  -131013  -128745  -125876  -129433  -131183  -124475  -118887 
 -123106  -124652  -118436  -119172  -120834  -113780  -115179  -127225 
 -130797  -124152  -118929  -118118  -119360  -120545  -119345  -119696 
 -123963  -129135  -132416  -128563  -121217  -119950  -123809  -127917 
 -129809  -129620  -129689  -131419  -133979  -134091  -130945  -125671 
 -119196  -117371  -122890  -128217  -125440  -115163  -104620  -102953 
 -114427  -120050  -111302  -119225  -136414  -130819  -125910  -130956 
 -125011  -123228  -131056  -134040  -139291  -143087  -133976  -121556 
 -114538  -113969  -115623  -118701  -131080  -134798  -119975  -117690 
 -125022  -122157  -123592  -128942  -132953  -138937  -133240  -119990 
 -119811  -131807  -140447  -140524  -139583  -136574  -133961  -140325 
 -144594  -140431  -135178  -128569  -125212  -127130  -123421  -120272 
 -126729  -125992  -115256  -112264  -116999  -118050  -110535  -103998 
 -109726  -120395  -128769  -130295  -120090  -116503  -128866  -132646 
 -120997  -113154  -109868  -107635  -119647  -134751  -129996  -116255 
 -109966  -110778  -115221  -120648  -125826  -132601  -141453  -143876 
 -139336  -136463  -125205  -111510  -125347  -150322  -153081  -142900 
 -133130  -123398  -114691  -107582  -107387  -121042  -139885  -141431 
 -124023  -112826  -113915  -114853  -121944  -130981  -120700  -111952 
 -125373  -126814  -112108  -117175  -133952  -133772  -115554  -101223 
 -107937  -125197  -138746  -142246  -138453  -140228  -139646  -128206 
 -126603  -136529  -138144  -135537  -133654  -131862  -135534  -129474 
 -113053  -114723  -131134  -141023  -146915  -153760  -149472  -128482 
 -112253  -115734  -123072  -119430  -113961  -116306  -110538   -91268 
  -84592   -93436   -99210  -104461  -112969  -120644  -127774  -132665 
 -139452  -148699  -150691  -146053  -135710  -126486  -125533  -116348 
 -112021  -131747  -138808  -126931  -125987  -124588  -115676  -113721 
 -120587  -133316  -137679  -128780  -124672  -118424  -103014  -104074 
 -117570  -123084  -129789  -134630  -136755  -154677  -167792  -155691 
 -148396  -153651  -145670  -129263  -126573  -133257  -129686  -116014 
 -107059  -106498  -112712  -119688  -117344  -112915  -112297  -108664 
 -110224  -120546  -120636  -106968   -95910   -89437   -90818  -116887 
 -148705  -147364  -125763  -120664  -128177  -129343  -132791  -145574 
 -147556  -134509  -132756  -137411  -119253   -99238  -101853  -100435 
  -91413  -101088  -126682  -148140  -150242  -135008  -123655  -125535 
 -125224  -118694  -121236  -126306  -122220  -120056  -123638  -127156 
 -126798  -115965  -104812  -114691  -138634  -152305  -152078  -151162 
 -155225  -154654  -138258  -121842  -134306  -155881  -151344  -144219 
 -152321  -145571  -123911  -116664  -118806  -117717  -131352  -151033 
 -137297  -112071  -118458  -126844  -113123  -108463  -116691  -124713 
 -131279  -115462   -91303   -95100  -109548  -125226  -145143  -139051 
 -112625   -99212   -97764  -103410  -113055  -119439  -124564  -118534 
 -104527  -111908  -129663  -121548  -103106  -113405  -143054  -155398 
 -152147  -153401  -151434  -146724  -153392  -161694  -164863  -163966 
 -152170  -140009  -141953  -142665  -127292  -120105  -129687  -127946 
 -120549  -121805  -121944  -123985  -118235   -93891   -84726  -104279 
 -117382  -117099  -123196  -130549  -138235  -152253  -144683  -113687 
 -110513  -132881  -139965  -146091  -160843  -153666  -119358   -91639 
  -94539  -101634   -96931  -107164  -121610  -117618  -116876  -124907 
 -126751  -135369  -149575  -141461  -125213  -124667  -126481  -142697 
 -175792  -173430  -136282  -115445  -116046  -117054  -110150  -103323 
 -104037  -107200  -113023  -117161  -107289   -89397   -86130  -101133 
 -114120  -122350  -131044  -131521  -126929  -127823  -139753  -155756 
 -145180  -112649  -108071  -125373  -125253  -123988  -132021  -125439 
 -112652   -98348   -74100   -72594   -89012   -82096   -83554  -114866 
 -131569  -127930  -127368  -126183  -123561  -129307  -140532  -158565 
 -180832  -171589  -133505  -115885  -116209  -112946  -118606  -138867 
 -158603  -164350  -158758  -143606  -125433  -126716  -137571  -136699 
 -139488  -146358  -140605  -132629  -127194  -114826  -105228  -113377 
 -139005  -161060  -150812  -116741  -100126  -117405  -141933  -148512 
 -146327  -141739  -130724  -117055   -96646   -89091  -109075  -115979 
 -106353  -117049  -130118  -123190  -117148  -114818  -109564  -117877 
 -132196  -134624  -139077  -145905  -142334  -141178  -145855  -144459 
 -137596  -127098  -116128  -114825  -124167  -131599  -135965  -139563 
 -126535  -108460  -110641  -111950  -103549  -113301  -135394  -148058 
 -150750  -139661  -116199   -97602  -100151  -124833  -142839  -133551 
 -114756  -100630   -96217  -103335  -112237  -126202  -142352  -145971 
 -144200  -143610  -135808  -122366  -121972  -135261  -145594  -163574 
 -180693  -158429  -117771  -103821  -108675  -115978  -117690  -100703 
  -89648  -104911  -109744   -96202   -95740  -102408  -106702  -120638 
 -133324  -130293  -124769  -127921  -135097  -140468  -141257  -139467 
 -140890  -146040  -146022  -145444  -153403  -144339  -109584   -89105 
  -96535  -110650  -124366  -134836  -129550  -112854  -104166  -107208 
 -115620  -124661  -127296  -118212  -105416  -112066  -142906  -163460 
 -156455  -155911  -163601  -136294   -88520   -74610  -109350  -158739 
 -162737  -111099   -69276   -77652  -106624  -122193  -123021  -122000 
 -125690  -135029  -143116  -140522  -140711  -143343  -129648  -119820 
 -124731  -122909  -109476   -94612   -97128  -111102  -117436  -126299 
 -127111  -109675  -105571  -121603  -134939  -134979  -126129  -116878 
 -109136  -112394  -124727  -120000  -102948  -100437  -103859   -96384 
  -94084  -105862  -114747  -124796  -148447  -161724  -143008  -116035 
 -115635  -137597  -153346  -161901  -164365  -148238  -134659  -143480 
 -158944  -163393  -146847  -114435   -88684   -91007  -119433  -138491 
 -130886  -121400  -117659  -105614   -93579   -99084  -112675  -127218 
 -151595  -153301  -118031  -105479  -126158  -134088  -137322  -162137 
 -186208  -184833  -171873  -150441  -112495   -94185  -116629  -138792 
 -136136  -125964  -120044  -114262  -104882  -100795  -111184  -123430 
 -129999  -141149  -147363  -135784  -123372  -122490  -118350  -116433 
 -135411  -151857  -146063  -132925  -125467  -128565  -136246  -141006 
 -140044  -131958  -126052  -127569  -138809  -155210  -143575  -108846 
  -99316  -107936  -116849  -145262  -174363  -171015  -146281  -116883 
 -101806  -113675  -117202  -103563  -117374  -155520  -168647  -139195 
  -98078   -78902   -79751   -84545   -85071   -88171  -110817  -136301 
 -125019   -98096  -115003  -157620  -158242  -131417  -131591  -141237 
 -139772  -138338  -122833  -108139  -123859  -133791  -108972   -90613 
 -115195  -150908  -156996  -148452  -141863  -128135  -116527  -119533 
 -130554  -135356  -125243  -115749  -117328  -114010  -109684  -123485 
 -133728  -114963  -100060  -112963  -122866  -116864  -119854  -136379 
 -133925  -102114   -87696  -111793  -126160  -120199  -123295  -123221 
 -121749  -136750  -151741  -143359  -107107   -92053  -138017  -187443 
 -184616  -150730  -117556   -87724   -71377   -98135  -148960  -164627 
 -142680  -118929  -103364  -108332  -131534  -135130  -134788  -154263 
 -141114  -101704  -108184  -137910  -130771  -100973   -89893  -110511 
 -133531  -127827  -109815   -99215   -99500  -113444  -123750  -126322 
 -134125  -142514  -140776  -120248  -114592  -148579  -158498  -132082 
 -130281  -134028  -111190   -97785  -107639  -119507  -121809  -114631 
 -108530  -104896  -104025  -112253  -121659  -131990  -149280  -165709 
 -172685  -165672  -154215  -153453  -157423  -159672  -161688  -147534 
 -115207   -99237  -109961  -123384  -128530  -119088  -100599  -101349 
 -114987  -116259  -126863  -156015  -159871  -131780  -117192  -133752 
 -146587  -129000  -127360  -162156  -167096  -143629  -141588  -135689 
 -110880  -102285  -126349  -156567  -144958   -96870   -71860   -81727 
  -90684   -97553  -109651   -98648   -80887  -100062  -125891  -141604 
 -164624  -163668  -142668  -134777  -125485  -126343  -154028  -159603 
 -131549  -120472  -115566   -93584   -96495  -121915  -124850  -112872 
 -102047   -89743   -86948  -102887  -118920  -114941  -116789  -144101 
 -151345  -122065  -119385  -151001  -154372  -135109  -120406  -109030 
 -124524  -146958  -143969  -143162  -134123  -103636   -99322  -125508 
 -150703  -166032  -157511  -121489   -80572   -61611   -76694  -112086 
 -146056  -164566  -160188  -139179  -120891  -115469  -119824  -131444 
 -135471  -123649  -114993  -113292  -115474  -131683  -148221  -145890 
 -133590  -122242  -117088  -123624  -128677  -124155  -126293  -129851 
 -122011  -120976  -132484  -139114  -143160  -154391  -154957  -130030 
 -103443   -94319   -87647   -81463   -93804  -109541  -106756  -102636 
 -112572  -128128  -134357  -134052  -137787  -130323  -118465  -118330 
 -114820  -118991  -129182  -126603  -134366  -141574  -125809  -116158 
 -115936  -112645  -123815  -150045  -166986  -160575  -142412  -136885 
 -143364  -142219  -135912  -131496  -123952  -122979  -132398  -137257 
 -136294  -132580  -133416  -139687  -117570   -87339  -111073  -148000 
 -143280  -126952  -121555  -128240  -139441  -131529  -110332  -101250 
 -107763  -115909  -118635  -116916  -108444  -102730  -108567  -114416 
 -123788  -141030  -142649  -130573  -131086  -146188  -151880  -125373 
  -99524  -116237  -136378  -131519  -139352  -154878  -145374  -134493 
 -144286  -143623  -118145  -110145  -132468  -142650  -142651  -153913 
 -145647  -121252  -118863  -114363   -88323   -87921  -129385  -153188 
 -128715  -103736  -109393  -120468  -126361  -140233  -141671  -122369 
 -120818  -128695  -118242  -115620  -125123  -123510  -120000  -120572 
 -105702   -89584  -115819  -148902  -133473  -121412  -140470  -136135 
 -112367  -109733  -123903  -134905  -130952  -119334  -116764  -116136 
 -112113  -116571  -130343  -149019  -161582  -148483  -125786  -132973 
 -151538  -141373  -122185  -114615  -107075   -98373   -97606  -105597 
 -109651  -115375  -129150  -126800  -123947  -141334  -138913  -124418 
 -134284  -124282   -88254   -95091  -126679  -130963  -129836  -128983 
 -122654  -132084  -147989  -158037  -160720  -152774  -149192  -144653 
 -127784  -116344  -112067  -108820  -110527  -108166  -109609  -123678 
 -125894  -114635  -104337   -91439   -87219   -97816  -113152  -133872 
 -147116  -144057  -143842  -148788  -142674  -133169  -142558  -145080 
 -121212  -126434  -161138  -162143  -129728  -103438  -102184  -110434 
 -118785  -127662  -114805  -100917  -115668  -126345  -118247  -106764 
  -98313  -101370  -111327  -120811  -124222  -119545  -126590  -137027 
 -137258  -148585  -155578  -140844  -121551  -102366  -108823  -141531 
 -149697  -142630  -147793  -139417  -108912   -85641   -96984  -129597 
 -143120  -136561  -121863  -102581  -107995  -122096  -112255  -120016 
 -142194  -132406  -115740  -119161  -134383  -145943  -146889  -152518 
 -158878  -155445  -149611  -132165  -108224  -102093  -101320   -95013 
  -91324   -84886   -87085  -108337  -125825  -122214  -112554  -116266 
 -121378  -119854  -121043  -121775  -128838  -141571  -138713  -131021 
 -139806  -153137  -154874  -144414  -135626  -147218  -163552  -153925 
 -132753  -130504  -138036  -134900  -127422  -119460  -109117  -104622 
  -97328   -89641  -100589  -109374   -98714   -89202   -92115  -104896 
 -120514  -130905  -137313  -135326  -119028  -111643  -134948  -168239 
 -181110  -165546  -147712  -151937  -148111  -131129  -141758  -151831 
 -122370  -100325  -120718  -144714  -136034  -115065  -109150  -106708 
 -106559  -122870  -129459  -116237  -125000  -138032  -121409  -126543 
 -149747  -138106  -121869  -117844  -116391  -126199  -122451  -112911 
 -131627  -145408  -121968  -104163  -130334  -159325  -157037  -147457 
 -142585  -137034  -125069  -108708  -105466  -107167  -106797  -128547 
 -154377  -146576  -124166  -114095  -109892  -108992  -129701  -158356 
 -149183  -122913  -124479  -127242  -115971  -120587  -134009  -133851 
 -126702  -115915  -103057   -99108  -101852  -100319  -100608  -117234 
 -130515  -117274  -109345  -129605  -148609  -146375  -131920  -122250 
 -119670  -114573  -120645  -136937  -133068  -119040  -118191  -116159 
 -105085   -99257  -106770  -128744  -148741  -144671  -136651  -137196 
 -127257  -129417  -154024  -161056  -147667  -135031  -121707  -115294 
 -129645  -147892  -143162  -120653  -100090   -89834   -93611  -102991 
 -113220  -130415  -126223   -90894   -82021  -107990  -112151   -98165 
 -102181  -116321  -133053  -148316  -149454  -141712  -127365  -116730 
 -126667  -139133  -144575  -151000  -143230  -125230  -120638  -122678 
 -120980  -124394  -130535  -127715  -124457  -128563  -132196  -135122 
 -127913  -108157  -111542  -141771  -152462  -135495  -131044  -145087 
 -142456  -133674  -149137  -158710  -143287  -131915  -127570  -118997 
 -118951  -126883  -119450  -100962   -92772   -88545   -81426   -83814 
 -106925  -134682  -130734  -100383   -81022   -82849   -98907  -119746 
 -136931  -152562  -155899  -143418  -141238  -142534  -131992  -131959 
 -134512  -124356  -121032  -127788  -136872  -137376  -122378  -111692 
 -111605  -112730  -113744  -114505  -117996  -120182  -120241  -123876 
 -124129  -118814  -113386  -121470  -154001  -174825  -157049  -131014 
 -117248  -118509  -129640  -135248  -145520  -163399  -164937  -149490 
 -138107  -133785  -120329  -105158  -108454  -121516  -130943  -125887 
 -106971   -95816   -93104  -102508  -131168  -145875  -132892  -117748 
 -115025  -120560  -122258  -123610  -134126  -141616  -139136  -136252 
 -132503  -123751  -119144  -127619  -142005  -150587  -154653  -154711 
 -132795   -95389   -86526  -109417  -130338  -135803  -124011  -111788 
 -116409  -122597  -122149  -128614  -141093  -145403  -146765  -148093 
 -129883  -110053  -116783  -123233  -118430  -118269  -113719  -104919 
 -103315  -107330  -108257  -103018  -102249  -111912  -127296  -132941 
 -119584  -108284  -112116  -124166  -141602  -151116  -145134  -135274 
 -119927  -107728  -120440  -135170  -136435  -151414  -163323  -142152 
 -117351  -114018  -117761  -116588  -120352  -137597  -146492  -133888 
