Origin Time       2021/02/13 23:08:00
Lat.              37.7
Long.             141.8
Depth. (km)       60
Mag.              7.1
Station Code      IBRH12
Station Lat.      36.8369
Station Long.     140.3181
Station Height(m) 10
Record Time       2021/02/13 23:08:15
Sampling Freq(Hz) 100Hz
Duration Time(s)  180
Dir.              3
Scale Factor      2942(gal)/8224139
Max. Acc. (gal)   23.273
Last Correction   2021/02/13 23:08:15
Memo.             
[...]
  -76727   -64841   -66852   -81155   -89710   -92639   -89980   -81973 
  -81599   -87274   -83829   -74973   -75782   -80087   -75355   -67972 
  -62607   -58237   -62301   -76496   -90643   -95058   -89757   -86123 
  -87696   -88273   -89753   -88091   -81615   -80481   -76785   -64509 
  -61082   -73826   -85141   -82495   -80145   -86409   -87943   -84229 
  -90825  -100793   -92970   -81055   -80163   -75945   -75983   -87912 
  -85503   -68998   -68403   -85585   -99324  -100919   -96525   -85845 
  -71552   -67571   -66303   -60259   -68470   -85050   -83169   -73013 
  -72202   -71451   -77762   -94761   -93864   -77762   -66721   -57418 
  -58490   -69314   -72933   -82949  -103904  -106022   -86711   -72646 
  -74698   -84568   -88321   -83308   -77953   -79068   -85904   -81361 
  -68883   -79794   -98435   -89841   -72385   -71224   -83155   -89085 
  -76438   -70426   -82543   -85541   -79354   -81016   -86773   -87937 
  -77812   -62698   -65504   -83612   -84195   -71477   -75096   -81159 
  -75116   -71003   -66939   -65364   -76013   -81191   -74950   -75177 
  -79100   -84126   -92541   -87525   -78175   -85446   -93939   -91949 
  -83951   -73510   -72844   -83131   -88758   -84356   -70511   -58981 
  -69574   -83435   -81417   -85585   -96538   -99725   -99597   -92184 
  -80076   -74268   -66950   -54141   -48957   -60069   -74569   -80212 
  -86729   -91567   -88645   -93528   -99091   -84079   -70445   -81126 
  -83836   -63445   -57515   -74854   -91524   -96353   -90409   -85325 
  -86513   -87704   -89768   -89915   -79824   -70686   -76407   -83694 
  -80404   -80230   -87656   -89681   -88226   -86848   -82969   -84527 
  -88048   -82439   -77094   -80296   -83718   -85423   -87200   -80669 
  -70557   -71390   -74229   -68405   -62457   -65156   -80838   -95413 
  -89993   -86085   -99384  -100884   -85280   -75397   -71058   -65650 
  -60737   -59875   -65797   -72882   -79188   -87336   -87057   -75385 
  -79146   -99231   -96199   -77576   -76423   -80304   -75559   -71683 
  -73873   -79164   -81453   -82192   -84831   -80608   -70133   -65545 
  -63324   -61128   -68609   -80192   -84886   -91189  -100481   -96707 
  -86150   -82753   -79060   -73878   -68064   -59551   -63053   -74370 
  -70694   -67838   -85363   -98000   -92183   -85314   -83447   -85337 
  -85545   -80528   -80061   -81012   -80253   -83563   -80676   -78773 
  -89885   -91118   -84080   -85854   -82807   -80827   -86987   -84226 
  -78255   -78170   -86175   -99829   -95481   -81072   -83397   -87253 
  -80358   -75093   -74437   -73379   -70339   -71427   -75645   -69974 
  -66847   -86359   -98944   -80890   -67320   -71718   -72469   -76292 
  -86717   -83231   -68493   -68172   -82914   -88686   -84561   -83559 
  -84921   -86796   -82854   -66734   -50295   -55186   -81189   -94558 
  -87507   -86714   -86189   -78471   -83841   -93139   -85565   -71487 
  -65489   -76432  -101629  -112465  -102145   -94959   -92801   -88198 
  -80158   -67405   -62961   -69477   -70379   -63990   -67028   -86521 
  -98948   -92939   -90834   -89781   -78277   -72995   -75269   -78644 
  -86690   -89559   -82831   -71685   -62776   -67356   -72463   -66739 
  -68764   -77579   -80098   -79807   -77094   -76445   -84905   -97241 
 -104980   -95852   -72669   -65101   -78574   -85997   -79614   -70881 
  -63902   -59528   -63270   -77494   -92020   -95590   -91349   -87835 
  -87847   -91924   -99273  -100134   -86103   -74241   -77985   -79532 
  -73890   -73103   -72103   -69121   -72895   -74945   -72434   -78286 
  -79223   -70021   -74931   -88484   -92685   -92715   -94805   -91831 
  -80615   -75136   -76318   -74420   -71356   -66324   -55791   -45022 
  -48986   -64295   -76268   -88674   -93850   -91457   -95208   -92616 
  -84762   -86919   -87674   -78239   -70656   -68940   -69533   -78374 
  -88430   -90852   -92041   -89833   -85797   -81657   -72765   -71757 
  -82128   -86844   -85669   -89176   -92261   -89232   -88047   -94930 
 -100867   -92681   -76974   -69529   -73129   -82996   -86818   -79366 
  -77449   -82991   -81375   -79303   -82104   -81001   -79983   -81908 
  -83195   -83960   -78676   -74007   -78624   -81619   -82370   -81654 
  -69460   -55017   -56207   -70105   -79010   -77422   -74808   -75995 
  -81248   -89650   -95604   -92966   -86088   -84194   -80740   -72226 
  -67300   -60733   -56382   -72144   -93087   -94290   -85719   -85332 
  -93484   -98390   -90949   -81507   -77433   -73236   -74383   -80476 
  -86184   -97302   -97541   -78563   -73924   -84329   -86124   -90054 
  -93618   -82548   -71849   -73402   -76990   -77637   -84350   -91264 
  -88712   -84944   -79431   -75698   -82815   -79586   -61511   -62253 
  -75448   -69284   -59984   -68575   -80090   -78927   -67740   -63860 
  -74564   -88906   -96033   -89642   -78956   -75170   -71934   -67915 
  -70858   -77857   -78925   -71308   -64276   -70827   -85693   -94109 
  -93772   -85480   -81152   -88418   -87974   -76547   -69311   -73720 
  -89721   -97864   -91381   -90105   -90524   -79200   -69743   -78339 
  -99322  -114284  -107946   -85518   -70812   -69304   -69400   -71629 
  -75701   -80504   -87345   -84609   -78655   -89424   -99661   -92938 
  -86196   -85449   -83243   -73402   -54303   -44325   -53177   -63942 
  -74109   -90926   -95841   -84051   -80555   -79999   -70479   -68457 
  -72493   -77043   -87646   -93163   -87018   -79924   -83164   -96114 
 -104067   -98334   -86321   -75150   -64453   -60550   -70017   -79801 
  -80955   -82540   -84766   -86794   -90856   -92998   -96364   -92045 
  -76176   -75096   -82566   -76113   -68527   -61863   -60146   -75789 
  -83628   -76534   -77240   -83313   -85153   -76276   -62461   -61592 
  -66648   -68609   -74785   -85256   -95575   -95152   -81379   -73892 
  -78823   -85660   -90173   -90552   -83598   -66306   -57284   -75593 
  -93259   -86449   -74848   -78669   -90396   -88024   -81309   -93945 
 -104414   -91843   -80042   -83377   -84892   -81349   -84507   -84121 
  -73826   -75948   -86748   -80414   -74405   -87482   -93579   -81737 
  -71386   -69236   -69584   -73935   -85698   -92111   -83975   -75568 
  -71324   -65346   -64022   -64636   -61476   -60154   -61369   -70162 
  -86001   -94292   -96827   -98097   -92342   -87862   -90674   -86012 
  -73997   -68307   -63564   -58633   -61462   -74250   -93100   -96499 
  -84997   -86630   -94873   -93987   -91469   -90448   -86817   -74833 
  -61091   -60286   -67365   -70960   -70954   -78271   -98987  -115996 
 -115865  -101665   -80890   -72372   -77618   -73588   -64948   -65782 
  -70602   -78768   -82736   -78583   -81881   -97926  -114637  -108292 
  -77939   -54841   -52178   -63639   -73696   -66237   -62583   -81905 
  -89113   -73404   -73148   -80657   -75861   -79807   -86606   -80670 
  -75344   -71505   -65244   -59506   -56366   -65064   -76018   -74278 
  -71745   -68254   -61188   -73583   -97380  -106309  -108976  -105397 
  -90474   -83316   -82051   -78054   -85749  -102928  -104958   -80651 
  -57200   -70006   -98564   -99746   -85584   -84715   -84241   -79878 
  -86895   -89665   -86455   -95243   -94880   -77679   -73483   -83134 
  -84912   -78065   -75817   -81495   -79286   -66078   -69554   -88538 
  -89008   -71749   -61407   -69957   -92051   -95833   -71324   -59998 
  -73488   -82221   -76593   -60832   -52875   -66563   -77978   -82084 
  -96167  -105667  -103659   -99214   -84152   -67302   -67872   -74945 
  -72528   -63360   -62617   -71926   -72782   -73533   -87455   -93233 
  -85839   -79581   -71888   -60124   -54243   -63472   -75143   -68837 
  -59208   -65697   -71419   -72569   -87762  -100487   -90130   -75327 
  -69268   -73384   -88102   -95640   -93442   -90321   -84896   -87759 
  -89397   -80311   -86248   -94485   -84473   -84229   -93852   -90930 
  -85160   -87922   -95720  -100280   -98216   -97391   -95631   -91378 
 -100809  -112800  -100707   -78754   -69175   -67063   -66451   -71034 
  -78538   -80473   -75975   -71753   -72389   -74773   -75253   -75313 
  -72025   -65276   -64439   -67968   -64041   -57464   -63255   -72746 
  -70032   -64188   -64025   -66236   -73539   -87034   -96481   -94252 
  -89283   -89573   -89109   -83635   -77276   -72567   -66564   -64547 
  -72542   -82472   -88939   -96063  -106485  -108529   -94848   -83273 
  -79536   -75446   -71878   -67540   -67888   -79259   -95654  -102389 
  -91075   -85175   -93571   -93183   -88724   -84253   -72603   -73067 
  -79758   -69354   -61501   -70985   -79080   -76253   -67124   -61627 
  -69608   -81315   -85365   -84087   -77232   -75361   -85556   -90416 
  -91058   -96502   -94173   -87928   -85282   -73917   -55223   -42191 
  -43579   -56936   -67063   -76702   -88030   -85133   -80905   -88584 
  -87689   -76711   -69352   -65932   -70193   -77537   -79033   -85557 
  -95386   -93376   -91737   -97094   -92593   -86655   -91289   -89795 
  -81028   -79282   -84221   -90838   -90109   -83373   -87399   -92198 
  -81552   -69780   -63274   -63328   -77010   -85099   -78355   -69873 
  -61518   -67163   -88695   -98285   -91646   -82922   -83701   -94570 
  -94344   -78497   -67458   -64874   -62815   -63917   -64436   -56654 
  -56689   -75114   -85418   -72416   -53222   -40502   -42080   -57886 
  -68064   -69350   -78281   -90259   -90117   -83870   -85768   -90702 
  -91870   -99358  -106189   -93692   -76098   -77841   -90906   -92464 
  -88388   -98612  -108064   -95481   -77112   -73070   -80698   -90587 
  -98196   -97360   -82760   -71201   -71973   -69120   -67846   -72759 
  -73527   -73151   -65948   -58105   -66212   -74271   -75176   -77581 
  -70387   -57326   -61177   -76090   -84298   -87633   -87666   -85043 
  -84738   -85839   -84942   -76963   -72411   -80350   -76742   -58033 
  -53319   -70636   -88904   -87978   -80373   -78590   -73626   -71864 
  -73917   -68303   -67998   -78298   -76048   -61092   -60829   -75465 
  -84638   -88076   -92059   -97567  -104814  -104511   -97073   -94536 
  -98482  -112202  -124046  -112328   -92171   -84092   -87538   -94896 
  -89802   -72276   -59424   -53495   -50476   -54072   -64604   -80121 
  -96076   -96844   -84670   -82051   -89218   -94153   -91017   -75810 
  -61681   -59179   -55426   -54132   -72858  -101950  -120968  -121281 
 -111518  -112212  -117567  -105719   -85819   -73017   -62325   -54129 
  -52670   -61264   -84358  -100730   -92730   -84100   -84262   -81626 
  -81901   -81070   -76758   -81876   -89079   -89467   -85618   -72388 
  -61789   -74726   -87720   -74630   -58577   -56628   -59282   -62176 
  -68355   -83714  -100429  -104758  -104630  -103828   -94023   -91925 
 -112372  -130894  -133782  -137506  -137400  -127178  -123637  -120371 
 -106471   -92516   -83477   -79266   -71810   -61673   -60606   -60836 
  -58974   -56594   -49192   -47254   -53968   -60806   -63458   -58384 
  -57707   -66576   -67236   -62506   -62441   -56925   -48438   -51439 
  -58432   -54777   -52189   -59674   -63059   -60651   -56589   -56050 
  -70162   -84195   -83374   -82063   -89540   -90049   -71107   -54440 
  -60565   -76905   -87399   -94120  -101715  -105194  -106521  -105497 
  -97737   -92836   -90961   -90148   -90875   -79555   -68932   -77546 
  -83424   -80122   -89622  -104638  -103906   -95457   -94139   -94059 
  -87029   -77639   -74664   -77060   -75899   -73224   -77211   -87108 
  -96160   -92823   -75315   -65546   -72802   -76022   -65145   -52363 
  -51079   -58189   -56128   -50121   -58043   -77796   -97892  -100299 
  -84456   -71779   -63101   -55547   -59628   -70524   -74687   -68091 
  -58010   -63670   -81028   -79335   -69176   -77564   -85198   -80770 
  -81031   -81369   -72686   -64359   -62236   -69348   -86346   -98728 
 -101555  -105628  -106797   -99424   -92187   -81467   -71383   -88852 
 -118022  -120231  -108402  -100811   -88519   -72241   -62392   -65912 
  -72102   -71936   -82521   -96148   -90144   -80736   -80500   -86802 
 -104028  -113140   -98767   -84505   -82124   -81724   -82485   -79701 
  -70962   -61924   -52470   -53231   -63316   -60214   -55741   -64173 
  -62804   -50666   -50437   -70205   -98517  -110200  -102759   -96508 
  -93455   -92628  -100148  -102433  -101860  -119321  -131670  -122364 
 -114758  -106339   -92699   -86360   -78356   -65052   -61214   -71408 
  -81419   -75878   -69399   -81920   -92456   -76972   -61385   -78347 
 -105641  -105853   -85241   -68921   -64694   -68160   -71595   -72792 
  -79332   -89498   -85271   -67022   -63886   -81203   -91304   -84630 
  -74430   -72181   -75070   -65117   -43077   -37484   -49655   -50935 
  -47980   -65662   -83791   -78391   -68415   -67131   -64617   -60357 
  -57580   -51545   -43891   -42697   -45736   -45261   -44513   -53993 
  -67711   -63887   -43488   -29674   -31845   -43131   -54328   -58330 
  -57051   -65929   -85129   -89410   -75213   -66484   -75775   -90864 
  -94150   -93475   -99690  -104907  -116495  -136121  -139542  -128908 
 -124198  -123919  -123708  -121474  -113239  -102186   -90567   -86314 
  -98423  -107935   -98577   -89081   -94474  -106982  -105412   -75304 
  -42543   -32285   -30920   -28972   -24298   -17568   -29535   -57002 
  -72129   -76343   -81052   -86945   -92979   -94743   -98038  -102494 
  -90537   -72273   -75582   -93806  -105378  -110211  -114448  -115287 
 -106116   -85344   -64663   -57947   -66862   -77326   -73838   -72520 
  -92713  -115296  -126280  -128669  -119608  -111643  -113483  -113254 
 -110697  -112453  -121487  -137304  -145276  -136310  -127323  -127354 
 -112571   -79447   -63643   -71753   -73974   -62511   -54515   -56155 
  -60304   -69190   -85792   -90012   -77731   -81525   -98856   -97559 
  -87280   -82555   -69920   -57751   -66862   -84618   -94335  -100489 
  -96646   -80713   -72735   -67910   -57784   -55606   -51108   -42607 
  -44664   -44879   -47699   -62095   -69024   -76175   -95388  -104284 
  -98694   -97362  -103013  -105352   -97876   -91277   -99168  -110833 
 -108187   -94471   -86185   -83224   -76590   -75192   -82161   -88207 
  -95350   -98872   -91948   -88254   -94987  -101958   -96917   -82042 
  -80713   -91512   -86657   -72933   -71347   -74556   -73219   -72431 
  -75780   -79070   -75685   -64889   -54753   -53751   -61310   -70638 
  -71469   -62631   -63730   -71558   -60551   -53021   -70047   -74563 
  -57211   -45134   -37386   -29964   -30134   -36556   -51796   -74339 
  -87413   -83604   -68114   -54899   -55915   -62864   -71239   -77001 
  -72100   -71890   -82723   -92834  -101525  -106677  -109714  -109984 
  -95342   -78746   -75386   -70640   -61223   -59900   -67014   -72088 
  -72436   -72671   -68319   -61253   -56745   -52729   -55340   -61407 
  -73246   -99496  -111950   -99941   -86818   -76661   -75523   -83805 
  -80778   -76630   -92974  -105447  -100273  -102243  -103237   -89179 
  -85283   -99539  -109429  -101140   -92241  -103276  -109922   -92847 
  -77242   -76900   -83219   -87944   -85320   -80511   -80561   -78872 
  -72727   -75226   -81669   -79026   -81610   -93561   -98926   -97806 
 -100296  -104390  -103415  -103162   -99160   -84569   -73737   -61765 
  -43935   -36138   -28143   -17875   -22991   -34877   -41494   -41322 
  -40752   -56027   -81141   -90765   -81830   -71918   -68856   -74956 
  -89885   -94876   -83452   -80815   -93877   -99611   -92337   -83052 
  -75509   -68602   -62336   -66509   -82495   -92909   -88938   -78848 
  -77818   -85163   -86701   -89456  -100684  -101383   -86891   -77421 
  -74364   -66610   -65638   -75111   -76677   -77949   -88452   -90825 
  -90124   -95102   -87961   -72474   -71936   -80445   -74765   -63618 
  -70144   -79537   -76820   -77735   -81946   -82448   -81646   -73772 
  -69431   -79747   -94207  -103685   -88676   -57981   -61091   -79390 
  -70376   -65148   -75541   -80019   -90871  -106421  -106602   -99220 
  -98045  -101502  -102506   -99094   -98176  -103728  -105264   -97503 
  -93737   -93320   -85858   -81218   -85376   -89781   -86953   -75340 
  -65569   -62040   -57488   -52940   -49351   -51957   -65668   -72018 
  -66044   -69639   -82788   -86229   -78618   -69948   -60374   -51628 
  -52380   -53993   -49114   -53485   -62162   -62102   -70163   -86529 
  -89118   -73838   -54812   -49364   -53331   -56118   -58479   -50049 
  -37995   -48906   -70915   -76300   -74648   -84280   -92480   -89610 
  -91272  -104044  -119288  -127678  -127851  -123986  -114142  -104365 
 -102343   -98952   -91743   -86940   -82539   -83558   -98655  -114474 
 -113189   -99154   -88258   -87461   -83845   -78619   -91318  -100090 
  -83837   -70058   -75278   -89224   -92647   -79790   -72411   -74692 
  -69823   -60635   -60099   -65438   -69662   -75606   -79513   -68123 
  -53550   -64142   -80433   -75791   -76762   -88298   -88126   -85168 
  -81322   -72397   -76908   -90813   -90104   -81228   -79891   -82283 
  -82672   -81402   -86050   -97744  -102598  -100691   -99866   -99936 
 -110135  -123010  -113389   -96380   -92677   -84477   -71891   -74617 
  -87426   -98024  -100264   -91547   -83147   -77203   -62969   -56821 
  -75807   -96033   -96380   -86274   -78659   -79991   -80975   -70771 
  -68245   -77908   -74074   -62679   -60658   -59914   -65110   -82251 
  -98645  -105763   -94119   -66348   -49054   -54907   -72509   -85880 
  -85779   -80873   -86053   -94474   -90489   -81336   -82661   -88319 
  -79920   -60714   -50499   -51460   -59206   -71749   -79512   -84273 
  -86239   -79536   -76158   -79199   -80330   -78737   -72126   -66584 
  -66334   -68702   -82568   -94848   -87122   -84507   -92607   -89248 
  -85523   -88194   -87787   -85241   -75069   -64685   -67057   -71217 
  -80698  -101418  -106767   -90305   -78079   -77292   -81874   -86725 
  -81294   -73566   -75509   -80769   -89703   -96021   -88292   -79778 
  -80654   -87642   -97260  -100168   -97394   -93610   -90059   -94798 
  -93737   -80077   -79348   -85128   -78659   -72103   -69052   -66796 
  -73645   -80831   -73881   -65603   -66081   -64281   -66371   -75289 
  -69291   -57337   -61199   -67061   -63894   -60559   -62631   -67035 
  -68366   -72632   -86613   -95656   -90678   -86837   -86208   -79274 
  -72669   -72885   -80022   -88642   -87214   -84238   -86454   -76734 
  -68669   -83122   -93087   -86012   -80643   -80161   -75211   -63086 
  -61797   -71366   -69138   -68192   -81238   -92225   -93294   -84881 
  -75169   -72700   -73537   -78021   -89251   -94747   -87097   -82163 
  -83936   -86202   -93569   -93135   -80461   -78583   -85132   -84411 
  -83231   -89241   -94587   -95581   -99621   -99432   -86113   -73322 
  -70355   -71857   -74416   -78135   -81394   -78875   -70492   -67108 
  -73203   -75724   -68704   -66648   -72207   -72435   -68794   -62374 
  -54112   -61199   -73210   -70988   -74140   -82605   -79083   -80153 
  -91812   -95507   -88981   -89569   -98019   -89322   -71809   -71613 
  -75143   -79321   -89665   -88321   -87116   -93258   -84208   -76410 
  -85591   -87920   -78757   -76324   -84357   -90531   -87095   -80680 
  -77490   -68751   -53816   -51993   -59065   -55132   -44435   -36972 
  -40910   -55016   -64427   -70679   -75735   -73464   -71572   -73784 
  -77240   -79026   -73502   -69013   -73577   -78533   -80931   -82368 
  -81228   -80615   -84187   -90081   -88789   -83038   -85895   -93141 
