Origin Time       2021/02/13 23:08:00
Lat.              37.7
Long.             141.8
Depth. (km)       60
Mag.              7.1
Station Code      IBRH12
Station Lat.      36.8369
Station Long.     140.3181
Station Height(m) 10
Record Time       2021/02/13 23:08:15
Sampling Freq(Hz) 100Hz
Duration Time(s)  180
Dir.              2
Scale Factor      2942(gal)/8224139
Max. Acc. (gal)   33.495
Last Correction   2021/02/13 23:08:15
Memo.             
[...]
  129649   126890   125058   125038   124734   124833   130635   137370 
  136370   132408   130084   125771   123125   125662   127184   127541 
  130905   132699   128898   123824   122897   127279   132266   131784 
  127988   126497   126388   127116   130767   132304   128341   126019 
  126650   125455   125346   126586   125896   127649   130821   128857 
  126701   128027   127318   126901   130597   132734   132305   133045 
  132568   130262   129852   130867   130688   129598   129103   129443 
  129092   126046   121555   120958   124726   126373   127222   131714 
  132811   129276   129637   130979   127695   124264   124663   128115 
  131800   132652   131477   130831   129078   126245   126131   125928 
  123603   124005   125936   127182   128864   127596   125869   129350 
  132070   129475   127441   129988   133755   134870   134353   133678 
  132999   133077   132092   127940   123826   123427   123572   121074 
  120991   125554   127394   125147   127866   136229   141025   140217 
  136746   129755   121377   119130   123881   126835   125671   127057 
  129593   127137   124067   127707   134700   137629   137979   136849 
  128899   120407   119911   121332   122913   127168   127111   122500 
  122196   123462   121305   121819   125359   126409   125979   126355 
  127342   126561   125393   129128   132737   127822   118204   114392 
  121606   131531   133636   132094   133924   137270   138759   136497 
  132780   133899   137397   134349   126204   121392   121374   122241 
  122550   124729   129319   131535   130395   129728   129163   129134 
  131075   129547   125982   129261   131214   124104   121332   127101 
  131198   130995   127683   124133   125658   128858   126986   123376 
  122165   122612   126015   130175   131086   130675   130150   129355 
  130617   132858   132313   130817   130522   127934   124903   126238 
  128175   127917   127080   126045   127511   132093   134489   130361 
  123917   124227   126542   122677   123083   132003   136412   133758 
  131673   131454   130594   128002   124303   119950   116527   119371 
  124236   121910   120761   128490   136432   138073   133807   128016 
  126436   127147   126657   127866   129870   127114   122532   123813 
  130408   136711   138566   133724   127468   127630   130048   127203 
  122764   121284   121339   125190   133027   136375   132390   127076 
  124468   124885   127224   128979   127445   124627   126249   131346 
  135005   137326   138141   136489   133224   129624   131076   137205 
  137544   130288   123222   121640   124902   127371   126168   123299 
  122962   127199   129678   127990   128047   129633   130603   131338 
  131290   133278   137208   137266   133840   130756   127051   123303 
  121792   121729   123610   126625   127892   130451   134954   133277 
  125663   122095   121919   119176   117373   119013   123174   128803 
  127670   121440   124714   131531   128918   125617   126543   126738 
  128355   129566   127260   124679   122503   122168   124507   128218 
  137187   145380   140047   131517   131168   127560   120587   122469 
  126368   122991   120667   125562   129027   124860   120823   123329 
  128071   131695   133255   129987   125502   127026   132478   134677 
  132362   130266   132359   133562   128452   125180   127662   127538 
  125825   126843   126054   125888   131854   138735   140887   136792 
  129779   126951   126443   123500   120900   121427   124575   128922 
  133141   135066   131791   125797   123363   124393   124148   121567 
  119056   121522   131865   142164   143811   139621   135872   135045 
  132282   125070   123990   129747   129984   127296   128864   130235 
  128317   123570   120110   123319   126642   126048   128255   130955 
  129173   128426   132800   136012   134164   134098   136490   135481 
  132536   128364   123700   123503   125244   124067   123350   125872 
  127213   124985   124548   129528   135652   136860   133434   130281 
  127255   124239   127267   133416   132989   128081   123842   120186 
  120040   124573   128974   130840   132198   133470   134842   137511 
  136347   130491   128989   129134   126623   128471   129762   125701 
  122709   117297   112244   118579   127897   130607   132466   134357 
  131900   127471   124071   122197   122513   123603   122802   120283 
  120540   124553   126079   125190   127650   130117   127624   123730 
  123858   129733   135529   133600   129316   132686   139646   140734 
  136135   129463   122472   119435   120390   119048   115631   114708 
  118220   125806   131199   132088   133645   134399   132709   132375 
  132474   130009   126307   126794   132996   137670   137143   133033 
  125815   121023   122476   124866   126486   128583   128078   124956 
  122432   121903   123128   124464   126333   129168   130555   132325 
  134284   132858   134950   138364   132015   128744   134090   131888 
  127438   129440   130856   132629   133077   128964   127646   128456 
  126585   123716   120865   121309   127433   132592   132047   129006 
  124445   121786   126235   130843   131638   133131   131145   127548 
  132960   140769   139935   134611   131074   130724   130747   127222 
  123601   123148   120397   116345   120807   127889   125934   122985 
  127248   133204   135228   132700   129778   126810   119724   115605 
  123336   134805   137538   133510   131153   129042   123175   121853 
  130779   137066   132024   122364   116810   122220   131107   131321 
  130130   132497   133710   135540   134202   129010   131544   136364 
  131105   124673   124217   122690   119512   119335   120174   121583 
  126716   130033   126434   124129   127392   129168   129178   133124 
  138589   140354   138157   132926   127650   125514   123780   122796 
  125274   125614   124170   127959   133191   133461   129772   126345 
  122407   116962   119618   130372   135992   135082   131863   128636 
  128872   130623   132850   137149   137523   129833   122044   119874 
  121157   125825   130842   133054   137540   140502   134084   129095 
  133697   136275   132867   131128   131234   133613   137362   133640 
  123195   113826   108521   110569   117432   121636   124094   123846 
  118039   118130   127940   132570   130167   129802   131010   134369 
  138584   135622   127500   120987   117898   118658   122161   127218 
  128807   122867   116498   116959   122058   126019   126867   129323 
  136297   140212   135568   129448   126793   125340   128100   137990 
  145505   138793   123572   118532   127315   134183   131645   130068 
  132653   128170   120168   123511   132827   135546   133540   131152 
  128285   126409   126692   127664   129145   130883   128965   124083 
  124787   130396   130881   128449   131136   135535   135432   132867 
  133095   133548   129327   124889   124491   124931   123348   121578 
  123892   129694   130499   123309   118372   120835   126090   131870 
  134578   132313   129465   129467   131724   132332   130945   129614 
  126932   124039   122733   122141   122156   123106   126563   130459 
  129633   128480   133077   134923   125790   116333   120438   134720 
  142793   136331   126280   121906   120060   120816   122671   121755 
  124490   131512   133434   132598   133737   132956   132170   131098 
  123353   115917   116615   120421   124552   126593   125230   128409 
  133690   131390   129050   133089   134036   128279   123572   123770 
  125636   126986   127384   126250   127666   132968   133100   126295 
  121965   119765   115553   117248   127260   134222   133632   130616 
  130142   134374   139324   139761   134680   125714   118106   116745 
  120845   128227   134716   131967   122781   121413   127390   129681 
  128497   125911   122434   124244   129465   130887   130959   132320 
  132397   128888   123654   125830   133609   135093   137536   144447 
  141183   131017   125030   124222   131326   137806   131356   124653 
  130395   136979   135681   130284   124650   123570   126774   129420 
  132598   135966   134543   130208   126895   122534   120900   126692 
  129959   124924   123267   129838   135013   138068   142599   139638 
  129933   126029   126177   127041   130565   130030   125347   124916 
  125394   123415   126138   132089   134276   135091   132668   123273 
  115716   115425   119468   126123   129695   126810   125146   129529 
  134798   136667   135722   133604   131743   130149   127916   126237 
  126090   124430   121023   121157   123741   122640   119947   121555 
  124983   124536   122376   120675   114767   107472   108241   117186 
  128953   136696   135820   134103   136755   138061   138443   140452 
  139500   133552   127870   129582   136740   139112   135244   132915 
  135484   138048   137034   135939   134284   132333   138037   146450 
  146171   141304   137143   133894   134839   135631   130206   128646 
  138296   149103   153540   153584   152690   151125   144553   134620 
  131018   133836   133941   131793   130819   127095   122662   121533 
  120124   120086   125016   130231   134411   137016   134223   132502 
  133921   129825   122835   118224   114403   112715   115086   118114 
  115342   108183   104259   103539   104256   107298   110559   115179 
  122301   125821   123558   122176   124395   125556   126049   129018 
  130381   127462   123689   122855   123932   118652   107750   104430 
  108700   110571   109792   107935   105079   104691   106708   111291 
  121235   130476   131951   128355   123955   122170   124186   127456 
  132085   138315   142539   142900   142096   141416   138904   136790 
  136409   130138   117876   113467   119615   125479   130700   137207 
  135454   126482   123350   125739   124062   118141   115720   116953 
  116779   118706   126023   135002   143729   151897   157761   161651 
  162999   158240   150577   148383   151966   150780   138191   127483 
  130135   134399   133654   136008   137578   129161   119403   120325 
  124225   120008   113305   111319   111465   111447   115545   128088 
  142353   148374   148284   144782   134689   126328   128727   133543 
  136899   141104   136120   123125   118493   121182   121743   121657 
  125739   136094   146898   148514   139679   125741   112792   106045 
  104653   101752    99311   105837   115811   116333   104836    89864 
   84260    91968   102413   105856   107817   118130   133292   144228 
  149193   151560   155023   157446   156388   158274   165434   172786 
  178140   178611   173318   163556   144717   120260   105453   105622 
  112675   119225   126099   134179   137832   136231   133361   128144 
  119932   113305   113323   118146   119580   116748   118208   127534 
  138202   141493   135359   124081   114025   113154   120636   124482 
  119281   109684   104452   111829   127928   140795   147081   152802 
  161239   166083   159167   141255   118712    95095    73496    57861 
   49214    50298    60764    70546    76446    82155    84612    83905 
   86302    96812   116532   134954   142870   150148   161040   162940 
  154318   144009   136557   134725   139592   149548   156605   152728 
  143365   138789   139854   140903   141146   146145   157674   170347 
  180642   187178   180620   155278   123823   105155   108048   123915 
  133986   126462   105973    89266    83536    78850    71529    67296 
   66722    72679    90559   115160   137204   152767   156824   147413 
  136942   136806   142815   148516   155237   164116   166950   156546 
  142306   139101   150403   170078   191056   209949   220326   216009 
  205275   195392   183382   171362   160813   150901   144007   139336 
  134762   128310   122393   125104   138049   151065   147456   124509 
  100008    84680    75857    73467    78563    90035   107708   126604 
  136042   136606   140894   148940   148761   137640   122088   113572 
  122612   140302   149547   150940   149794   146106   145822   151827 
  160627   169715   171980   163243   145968   119118    87415    64951 
   56802    56370    59850    68682    82509    97123   108722   118443 
  128623   136611   137338   132664   130501   131473   131197   131707 
  133762   133485   133440   134663   124541    96327    68197    60862 
   71471    86702    98869   102159    96510    90445    87239    83716 
   85924    99878   116388   130651   145088   152275   150190   147253 
  145588   147333   158145   173240   179377   172566   164928   164913 
  162076   150518   137624   121435   102064    97432   113875   132151 
  132248   111754    85355    68901    67313    75066    79856    80395 
   83735    82127    72296    71863    88179   107981   122237   132975 
  143999   156682   168531   176827   181186   181712   177647   167815 
  156531   153441   159198   159570   144922   126324   119103   121124 
  122203   121072   118270   114590   115457   118635   119354   118255 
  110312    98494   101850   123020   141754   145073   137365   130906 
  132138   131730   123272   120694   132104   140890   135124   123998 
  116432   114266   116321   121270   132456   141230   137174   135924 
  142986   138662   124301   117688   120903   124622   118921   107049 
  100562    95651    92547   101999   111605   108849   104488   100912 
   98284   108976   128380   137068   133081   127418   122721   117420 
  116044   120177   124021   125350   123422   117684   115059   119699 
  128991   142736   157855   165734   166666   172592   186367   196713 
  199548   202003   206378   209945   214240   220330   221935   211229 
  189179   166730   152636   142422   127643   113563   113505   126889 
  137772   135594   124227   112768   108218   110234   112317   111634 
  107283    97694    86595    78050    77831    96421   123313   130889 
  122771   126860   144745   155179   148984   137195   137026   146394 
  145334   133100   125524   122640   117158   110941   107536   109823 
  118274   124837   125481   128287   135395   139371   135171   119326 
   96812    85423    92484   107786   123479   134678   137546   137621 
  138771   137841   131525   112901    80392    50990    44358    56029 
   63927    64471    71969    82594    83627    84311   101889   136139 
  168671   184476   190954   199879   203862   191868   168860   147852 
  140768   149918   163860   174687   179948   173797   155691   128966 
   99574    80455    73581    68420    67026    76135    88765    99362 
  108098   107947    97956    91285    95724   108668   124887   138839 
  151228   168099   184794   186621   171359   150687   134703   129155 
  132098   133046   129115   127947   129315   128258   128524   132884 
  140510   155085   173792   180662   165233   135078   107076    96009 
  105765   125119   141446   154214   162607   160560   149007   129150 
  102235    81683    74819    75296    86035   110798   138414   158164 
  165553   159763   148655   138519   124410   106081    94699    93972 
   98398   106169   114628   120463   127965   136773   137754   133597 
  138653   157042   178144   192264   199388   196978   176199   144757 
  123924   112988   104037   109998   126187   125613   111159   102601 
  104133   117329   133193   135190   131228   129902   122191   113969 
  112140   108787   111879   126751   132930   128457   136290   160996 
  188218   202159   196350   183567   175578   166927   150912   131696 
  123232   130983   136431   123309    98104    77415    79637   103167 
  118619   115288   114997   127904   141399   145656   139190   125647 
  116089   119522   131120   139222   140973   139650   138592   145825 
  161649   168592   155892   132079   106998    88439    80967    77403 
   69853    58557    51197    58503    78082    93811    97927    98402 
  101622   103438   100722    95316    86710    76123    71996    80732 
   98082   113316   120106   120181   116402   114359   124515   146281 
  166557   176141   169665   149512   132691   127468   123626   121352 
  132244   152316   166496   167292   160621   156806   152793   140699 
  123939   106520    86995    67618    59167    74250   107929   136228 
  144320   139617   134960   131653   129119   136787   153685   169411 
  185878   200121   199814   180234   145100   114903   106652   107931 
  109229   115712   125729   135488   140659   137565   133087   132555 
  131630   126091   113759    99851    98537   113871   132602   139872 
  136142   137355   152167   168613   173618   171290   171778   171571 
  159904   138923   117544   103808   106056   117200   124324   127877 
  127148   118227   107913   112124   131784   142915   135865   128121 
  129438   131587   128279   124154   116656   101136    93791   104992 
  121516   138153   158859   177832   186868   178684   156444   138098 
  126894   110366    88747    77295    86300   104616   117934   128861 
  142751   157281   160188   143000   121691   111635   106559   101779 
   97989    91720    88812    96547   104598   104936   107248   120575 
  140198   154048   157542   159233   165392   168903   161692   146662 
  133398   127134   125236   127554   136237   143677   147607   157608 
  166770   162625   155775   155441   151875   141060   131017   126308 
  127683   136062   148059   154309   147438   133409   129263   139382 
  145308   135900   125454   126145   125709   112992   103300   107364 
  112325   110754   106226   103185   108079   119712   127630   128164 
  126900   126535   125051   118112   105891   104479   121292   136746 
  139340   134229   121734   106473   100664   105644   113111   120482 
  126025   122106   112418   107844   102358    88400    73507    65839 
   69415    80858    90601   101410   118845   132806   138354   145755 
  154159   152101   142808   139770   149212   160280   154604   137906 
  127654   119045   107254   103647   112588   126578   134879   133477 
  134044   146357   161973   173816   186104   194514   190501   175157 
  148774   119896   110176   119361   127623   132659   137246   132403 
  122138   120433   123878   119128   106759   103011   115242   130588 
  133181   118405   103913   115889   147787   169591   172551   169959 
  173362   180773   182040   180631   188686   195505   185396   168912 
  153882   135012   117741   105455    94400    90809    99989   111653 
  113309   104234    88063    72531    75201   102344   136372   156037 
  151267   130863   117699   118681   121929   120505   115492   114065 
  119587   124162   129004   139460   144117   135884   125859   119234 
  107433    89070    79909    85833    87528    83793    95439   113564 
  114239   100768    98547   120046   142221   144274   133712   120397 
  110384   108684   113599   118832   118254   115134   119550   130445 
  137039   138183   140235   144113   146508   142689   132891   123236 
  115110   109521   109914   112569   112822   115013   125030   141554 
  160606   176590   178653   163390   143043   132497   135298   141385 
  141853   139996   141662   145416   142214   131943   132592   148872 
  162869   166675   161985   144771   123074   113649   111233   105449 
  104367   110880   118983   127395   132355   129145   119790   113522 
  115103   115086   113645   122955   135427   140737   143842   140352 
  128312   122890   127495   130137   126481   124872   133154   139326 
  125811   107509   109709   120077   115423   103358   100715   105601 
