Origin Time       2021/02/13 23:08:00
Lat.              37.7
Long.             141.8
Depth. (km)       60
Mag.              7.1
Station Code      IBRH11
Station Lat.      36.3701
Station Long.     140.1401
Station Height(m) 67
Record Time       2021/02/13 23:08:20
Sampling Freq(Hz) 100Hz
Duration Time(s)  230
Dir.              4
Scale Factor      7845(gal)/8223790
Max. Acc. (gal)   180.432
Last Correction   2021/02/13 23:08:20
Memo.             
[...]
    6795    -3148   -14905   -26096   -28150   -14353    -3487    -9325 
  -13209    -5778    -1630    -5063   -10540   -16862   -19627   -18237 
  -17533    -9549     6035     7067    -9270   -18331    -8391     2493 
   -1401    -1617    14287    24416    17764     8600     8310    12140 
    9637     5971    15003    32644    39939    34350    31704    27097 
    1528   -29583   -32930   -12151    -2350   -12999   -15533    -8820 
  -27459   -62014   -73462   -66661   -60504   -48617   -25853    -2727 
    3110   -10111   -13385     6289    17683     7194     1890    12490 
   23604    24876    20092    30011    58521    66078    32899    -4023 
   -9733     6902    18306    18075    17302    12306   -10096   -41596 
  -58345   -56160   -48224   -36061   -20854   -18808   -32687   -40525 
  -33154   -25803   -20517    -7558     2481    -3657   -13651    -5004 
   21123    42793    50656    46553    32583    19434    11464      681 
   -9224    -7465     2361     3807   -13378   -30820   -25614   -15753 
  -24436   -28611    -6507    14106    11307     2932    -3042   -10023 
   -8349     2157    13423    20382    17069    10782     8753    -2185 
  -23437   -32729   -25402   -22801   -32254   -36267   -27056   -19275 
  -17113    -6265    11875    21722    17776     8519    10552    17672 
    5082   -14084    -7599    10492     5742   -14530   -23418   -18670 
   -6998     3875     3551     2928    10372     5479   -16011   -29353 
  -22289    -5902     5298     8268     8237     5281    -6133   -19070 
  -16638    -4989    -2262     2058    20748    32332    16785   -10404 
  -25122   -24862   -15072     1721    11020     3235    -5526    -7194 
  -12229   -17922   -19052   -22478   -24983   -22728   -27657   -31093 
   -9643    14365    11907     8027    15963     7192   -16286   -22086 
   -8827    -1625     -529    15234    33693    28377    12105     6651 
    5347     2238     4252     8129     5065      365     2544        8 
  -16926   -23913    -5667     9317     3052    -5776    -4409    -3905 
  -13070   -21168   -21244   -19225   -11402      464       55   -13971 
  -30005   -36518   -27672   -14758    -7923    -4004    -3418    -8590 
  -13717    -9123     1898     7464    16451    37689    53118    54033 
   47696    32529    13518      144   -13119   -22084   -14748    -9371 
  -17906   -18543   -14253   -21821   -26704   -25105   -29118   -27940 
  -12514     5143    15442    13867    -4099   -25008   -27318   -19245 
  -19471   -17818    -5317     2389    -2745   -12861   -19581   -19481 
  -14119    -3002     8572     8710     2990     6201    15379    15645 
    5134     2381    12361     9828   -12611   -29169   -28047   -16821 
    1937    21433    30987    29781    21654    14872    19354    30072 
   29833    15075      891    -7366   -15412   -19012   -21826   -34248 
  -41034   -29722   -17155   -13111   -11145    -5952     5092    16464 
   21498    19620     3315   -24582   -37376   -36221   -46853   -52515 
  -33075   -13759    -7083     -519    -1040   -19592   -39596   -36772 
  -14953      719     9860    34314    67278    80658    55962     2835 
  -25662    -5202    15283    11260    13562    26169    25654    20987 
   32767    46660    42302    27334     9670   -16328   -39171   -36410 
  -16895   -10424   -25733   -51601   -74089   -85371   -94587  -106469 
 -103582   -80619   -51787   -25682    -9709    -4446     5784    27642 
   50943    69180    82903    84947    61430    19561   -14316   -28899 
  -23417     2243    34331    56195    57811    36398    11940     8937 
   19010    23010    31803    57871    75933    57973    17961   -10370 
  -28918   -62910   -96399  -104789  -105290  -101904   -80558   -54789 
  -34130   -13853    -5760   -17698   -37091   -54702   -68623   -66351 
  -34323    13282    46560    58309    60727    62499    70445    82664 
   81360    60523    35082    15342        4   -16467   -34476   -41901 
  -31653   -15927   -13124   -27048   -40471   -45301   -48764   -40988 
  -18257     3311    22550    36219    36930    41427    51208    47723 
   40416    34179     9648   -19866   -20957     2513    26034    32618 
    9720   -34415   -71636   -87922   -84789   -66141   -44514   -34828 
  -36304   -32119   -13463    -1503   -11518   -10692    20787    45785 
   46249    49242    64320    66398    35021    -5138    -9213     9621 
     999   -24637   -24177    -6570     6308    15394    13228     2010 
   -9909   -31183   -48232   -39876   -24475   -24888   -37516   -45948 
  -39069   -33268   -45816   -50064   -24783     -519     1460     1163 
   14440    35550    52501    61360    64156    51934    21213   -14682 
  -47645   -62625   -44423   -15165    -1696      751     -558   -16526 
  -51256   -71226   -36850    32857    83593    94567    79093    55564 
   38946    37187    43044    42479    35788    25733     4317   -29353 
  -63425   -84489   -85224   -64422   -27456     5698     4229   -35456 
  -69219   -70232   -62475   -52353   -26590    -6513   -14985   -40289 
  -63015   -74181   -76287   -68636   -36583    13088    44255    45516 
   42946    51409    59221    54900    46067    61159    99430   109992 
   82354    57712    44243    30570    15159    -5549   -18180    -6752 
   16326    20799    -6799   -37203   -51456   -68048   -80194   -73646 
  -63202   -49626   -22987     2857      159   -37336   -74379   -76562 
  -55717   -44312   -50427   -53973   -37466   -11475     5572    17419 
   21200      853   -15287    13068    55964    62739    44058    45104 
   75960    97559    85415    67905    69390    76184    74225    62723 
   34603   -13186   -54229   -56471   -30153   -12135   -11045   -11607 
  -18773   -42763   -62565   -66698   -77388   -91768   -85226   -63925 
  -44851   -35598   -37671   -31815    -7095    17155    36373    56502 
   56822    28869     -432   -11826      102    35048    67000    68833 
   42020    -4386   -49717   -61314   -40489    -9450    22869    32860 
    4849   -30279   -52305   -73241   -85226   -63734   -14912    23418 
   29826    17702     5228    -4488   -17625   -31553   -24447    14397 
   50382    44185     7582   -18852    -9148    22944    33282    13284 
   -5362   -16186   -28769   -29524    -5328    37689    82256   102388 
   95899    81866    47050   -13505   -56457   -66717   -76365   -92599 
  -93040   -76724   -64245   -63899   -68438   -70956   -65600   -55128 
  -55688   -63082   -49920    -7562    49040    97654   118201   104098 
   68883    45022    48284    52601    42614    42873    58511    57168 
   28902      572   -10531   -15228   -20927   -20599   -25142   -43707 
  -47844   -19878    16792    36409    31965    11978   -14419   -53368 
 -106428  -151051  -163290  -138712   -83385   -16333    25795    25914 
   -3503   -44622   -66717   -54561   -26693    11765    57699    98628 
  139348   167390   157894   123442    88654    65419    58013    48267 
   17986   -12031   -12104     7141    10424    -8278   -22778   -32715 
  -67433  -122813  -161852  -164934  -145046  -128892  -111564   -61229 
   11553    61676    73479    53269    11232   -21381   -22843    -7971 
    9888    27183    41702    61063    80104    88435    83328    46477 
  -14650   -52813   -63414   -72908   -56176    17591   102525   131112 
   93519    25573   -17273    -6295     5491   -35823   -84415   -78402 
  -36817   -10885   -24860   -65415   -87316   -71425   -51036   -40644 
  -18966    14193    38491    54423    76318    89642    74846    45058 
    9940   -25870   -46927   -52953   -49389   -35703   -13221    11537 
   23090    17579     4985     4051    38372    81014    81282    55636 
   44005    47715    56972    57348    25093   -39729   -99893  -122647 
 -113035  -103654  -123319  -149775  -139299  -107052   -84707   -67099 
  -50514   -37831   -25419    -5244    37405    96742   137525   135823 
  106652    84358    77514    67555    55514    60454    75988    77109 
   57784    27635    -3836   -13460     4920     9090   -12930   -25501 
  -33635   -68748  -117009  -138287  -130561  -113879   -81314   -42727 
  -38350   -68122   -98316  -111087   -99098   -63767   -20434    20502 
   58036    85951    86850    56712    32725    48768    79821    89870 
   83462    68320    38076     4239    -5228    23085    65075    72897 
   39652    12490    10521     7808    -5652   -28252   -60716   -78649 
  -64293   -46164   -51584   -67257   -72949   -71443   -74798   -84469 
  -88481   -75882   -49900   -18763     9941    21037      797   -35525 
  -44559    -5066    61769   120896   142242   136017   143835   154966 
  124290    65981    30987    21352    -1352   -42557   -71149   -71579 
  -53747   -34676   -21205      881    32601    33358   -13180   -53766 
  -58877   -69067  -100282  -125535  -130796  -106787   -66529   -56690 
  -80303   -90985   -72199   -38873      -29    37615    69036    91231 
   96415    90653    98517   122851   132831   113232    90525    91031 
   93943    62032    13459    -8787   -16407   -39017   -62756   -58410 
  -22993     5599    -8896   -43015   -58244   -41457    -8996   -19901 
  -85344  -137986  -144219  -121390   -86860   -49349   -19808   -10242 
  -13290   -23183   -43865   -57719   -58253   -49607    -5422    60133 
   82903    72535    98041   151055   157146   113610    85970    92727 
  101206    79845    30034    -3214     9838    45223    64199    48118 
    1178   -63332  -130616  -178228  -175289  -121909   -77755   -78768 
  -85243   -65762   -29700    11308    43171    49185    26380   -12202 
  -45166   -52845   -30445      149     4175   -16374   -20664    -8584 
  -23326   -62289   -81045   -65908   -29897    20618    64076    76788 
   81101   103215   126261   125797    96526    52891    25213    20413 
    9364   -11870   -18180   -15803   -28140   -46311   -39978   -20549 
  -40821   -87733   -90533   -52984   -33704   -41601   -44938   -27967 
   -5544     3719     -729   -17841   -49566   -74198   -56231     -993 
   44875    59640    58118    50067    41905    39035    24106   -10500 
  -37847   -42780   -21775    28248    64606    57547    48550    49134 
   30935    11375     9302     9327    14064    24088    10350   -20240 
  -26817   -10798     4672     6253   -21805   -52501   -39779   -21212 
  -58662  -114469  -112503   -63019   -29255   -22970   -12510    18516 
   50183    41061    -6822   -47964   -65745   -58764   -19670    27167 
   44146    30847    19402    31301    57591    77735    76538    55000 
   35803    30773    14381   -20420   -31637   -10193     7695    14561 
   20409    21732    14166    -5448   -34705   -65619   -89410   -90097 
  -62158   -33031   -35595   -62394   -73599   -52558   -17123    19716 
   46959    44768    20102    -1696   -19565   -37736   -42673   -25107 
   12127    63406   110944   127870   117103   107762   102169    80815 
   39900   -13832   -70011  -105055  -101965   -79100   -64031   -53384 
  -29261     3277    20299    15655     2767   -14635   -32977   -37752 
  -27117   -10087     7989    17594     4903   -28059   -57129   -73444 
  -94579  -117796  -113868   -74852   -32995    -7970    24849    60455 
   58483    36948    35352    38631    29824    34854    73052   111092 
  117684   112792   109121    88553    39791   -30991   -89739   -96032 
  -65198   -44370   -30943     -571    38360    76968    90734    39729 
  -40185   -81068   -88974   -98829  -109946  -108970   -99488   -80644 
  -37829    15090    34269     3392   -45042   -76303   -87065   -82362 
  -65862   -46368   -17176    35252    88218    99585    71057    38988 
   15596     3080    18920    52694    74804    99054   141255   160359 
  131677    91300    64428    41420     6018   -47038   -90154   -94779 
  -77309   -69246   -72697   -67246   -49874   -37000   -33235   -42754 
  -74804  -105872   -99670   -70741   -55266   -45709   -24262    -8040 
  -15624   -29633   -13998    27612    47362    34044    24698    34260 
   48313    55371    54527    57080    66035    61078    41473    36437 
   37999    13967   -12517    -6660    11543    14496     8054    10115 
   15350     4662   -17905   -43842   -67895   -76404   -76727   -78201 
  -64386   -35218    -5147    28005    52947    48748    25749      712 
  -19704   -24606   -24597   -39617   -58939   -70961   -79548   -76293 
  -53505   -24391    -3591    13806    36263    53751    58758    54673 
   48663    60411    82837    89252    95755   106304    88017    49025 
   12708   -28344   -72990  -108190  -131170  -137161  -119585   -89950 
  -62569   -27103    10935    14658    -5448     -247    31429    53770 
   44266    15338     -174     1489     4517    11495    24831    31270 
   31442    45951    58486    28055   -22534   -40695   -24559    -4159 
   -8965   -38604   -59321   -62095   -63586   -61344   -47745   -28868 
  -14681   -14095   -25637   -33334   -20339    14416    50565    71759 
   81302    74598    47089    30176    46907    57969    32304     5269 
    4020    14891    18712    -5748   -50731   -79743   -88807   -92971 
  -90819   -87336   -91049   -87385   -61298   -22616    14581    48157 
   81951   110706   114551    86468    47077    25847    35972    54842 
   44578     4006   -24061   -11438    15946    15477   -19940   -56011 
  -61925   -52127   -52687   -63016   -72461   -64631   -39013   -32718 
  -54032   -59688   -39945   -29019   -35750   -44825   -46423   -30177 
    2030    33968    64913    97020   119087   137042   158039   156821 
  121853    78285    45900    26862    17463    13549     6683   -24447 
  -89039  -157418  -192788  -191799  -175456  -153758  -117393   -70241 
  -33928    -7731    23703    46623    39672    20426    17159    26414 
   38168    45576    30894     6230     4415    13964    16903    29752 
   45554    36543    13905     3935     9412    23596    41646    63062 
   79695    67508    23778   -16075   -28564   -39079   -74617  -110740 
 -110305   -74933   -32310    -3445    13802    31541    47560    45408 
    7098   -62002  -114574  -114478   -78183   -23252    35868    55726 
   29047     5189     -449   -12268   -30268   -41281   -46570   -44103 
  -23290    14980    61291   107063   136952   143438   132891   106054 
   62679    13643   -20197   -28128   -29482   -42068   -53925   -53387 
  -44871   -34167   -32281   -49265   -69556   -66914   -45530   -30844 
  -29473   -29710   -15155    15573    20532   -25242   -69155   -69658 
  -51892   -34373   -17687   -18175   -26501    -6420    33967    57167 
   61253    61501    58540    54022    53716    58973    69159    79245 
   86339    90857    75670    29872   -13983   -30003   -40518   -59278 
  -63742   -50859   -46291   -52483   -55026   -54290   -52470   -48514 
  -42777   -34373   -26959   -27247   -36686   -45893   -42093   -28080 
  -19750   -20995   -19359   -12425    -8743    -4226     9097    28279 
   46531    59444    68897    74723    60361    22588    -1393     5455 
    8946    -3786   -16742   -33716   -47799   -38159   -19249   -10430 
    -202    13867    13772     2789     3119    15024    27054    44112 
   64767    64863    32532    -3599    -7249    18806    43945    46874 
   30516     9455   -18291   -57159   -93139  -121363  -131859  -106984 
  -74873   -61581   -47043   -28135   -20563   -29544   -48512   -50517 
  -27276    -4025     7388    17005    39121    70326    88734    91978 
   89997    77010    52996    35240    28440    11520   -18971   -25560 
    6374    38136    38075    18488     6293    -7141   -53566  -119335 
 -157800  -153713  -119596   -65227      562    55031    72463    55092 
   33381    36323    57383    58411    28202    -6385   -22967   -15051 
    5567    21246    30208    33096    25787     1170   -44791   -94799 
 -130026  -140431  -108695   -43676    11076    31121    22646    -1560 
  -26126   -30558       21    49427    78339    75290    64384    65033 
   68960    53071    23793    16181    30109    29552    -1914   -46214 
  -69427   -54434   -22808    -8463   -12340   -10778    -3840   -12664 
  -36975   -50692   -41116   -21897     -577    19581    25500    12258 
   -9004    -8469    25340    48344    24821   -24738   -61009   -64192 
  -46642   -22904     6138    25029    26403    23080      811   -48227 
  -80630   -75107   -54685   -28140    -7699    -3277     8881    23518 
   18400    16834    31820    43919    46392    43749    39434    35317 
   34846    40986    49557    53040    43256    17226   -21325   -62356 
  -90938  -102386   -96979   -72311   -34668     3550    27400    27554 
   17359    11402     1279   -16915   -32934   -42055   -38232   -18621 
    9996    40744    57002    47625    22601    -8753   -36764   -56087 
  -72171   -69284   -29971    16181    33565    31538    27051    18266 
    8171    -1715   -13635   -18391   -13783    -7082      276     5926 
   10239    18226    24239    19020    11858    16694    23460    17259 
    1595   -16814   -30975   -33362   -32013   -35471   -35089   -30786 
  -26952    -9234    14084    13196     -834    -3858     -218     2007 
   -4738   -17999   -16580     3711    23257    20374    -6259   -26107 
  -17085     4452    10571    -4498   -25024   -37729   -32243    -4954 
   22775    26068     7497    -7801    -6620    -4954    -9105    -3632 
    6966     8838    14542    32383    35916    11223   -11164    -9310 
    2901     8499     2351    -8776   -15313   -19387   -25779   -33628 
  -38319   -33362   -21258   -12870   -12688   -14507   -12885    -9317 
   -1717     5748     1132    -9607   -16690   -17142    -1502    24004 
   32213    15870     3619    14477    22885     6386   -13254   -13583 
   -4908     3186    14111    20383    19650    21844    23037    19371 
   10926   -11844   -38350   -43904   -35629   -36219   -42619   -39325 
  -28035   -19680   -13250     1926    23665    36282    32841    17338 
    4758     6388     6679      -18     4228    16222    18576     8203 
  -11712   -35471   -50526   -48982   -39533   -34483   -28188    -7284 
   21313    34371    26553    19608    17560      321   -17793   -16609 
  -17764   -19603     -831    10462    -9296   -29579   -28746   -23634 
  -25969   -29538   -27891   -18804    -7786     5926    30100    49482 
   51487    50515    44000    18810    -4245     -152    14519    14064 
    9714    12762     4699   -17433   -34574   -39010   -36320   -41577 
  -54006   -47667   -25897   -15807   -13011    -5921     -637     5763 
   19485    31432    30491    15047    -6382   -14527     2050    22860 
   22318    13286    16353    18458     6808    -6500   -12237   -15180 
  -16906   -16506   -25880   -47942   -56165   -32634     4811    27071 
   26601    23175    28861    30503    18885    -1818   -18212   -11365 
    9428    16193    10759     5899      -28    -7825   -17240   -27538 
  -39333   -55173   -62356   -41716    -1466    20505     8977    -2354 
    6309    10702    -2997   -19696   -26740   -24791   -18513   -11940 
   -8338    -7580    -7122    -3308     7890    22219    29070    25918 
   16254      616   -16502   -23458   -15186    -2851     2802     6031 
    1624   -20845   -37490   -26790    -9643     5498    31371    53794 
   59610    54787    37027    12880     -580    -3784    -4162     -992 
    3650     1252    -8966   -14678    -7927    -1829   -10289   -23652 
  -32188   -44078   -59621   -63799   -51943   -34662   -23182   -23564 
  -30086   -32452   -33525   -32182   -11880    24522    48359    49346 
