Origin Time       2021/02/13 23:08:00
Lat.              37.7
Long.             141.8
Depth. (km)       60
Mag.              7.1
Station Code      IBRH12
Station Lat.      36.8369
Station Long.     140.3181
Station Height(m) 210
Record Time       2021/02/13 23:08:15
Sampling Freq(Hz) 100Hz
Duration Time(s)  180
Dir.              5
Scale Factor      7845(gal)/8223790
Max. Acc. (gal)   224.023
Last Correction   2021/02/13 23:08:15
Memo.             
[...]
  -17524   -13502   -11800    -3927     6988     8368    18353    34879 
   31845    15246     4014     2839     2808    -7128   -10647     3915 
   12345    10679    12259     7427     2089    10851    18839    17415 
   15631    17595    22275    19288     5759    -2828      -94     7302 
   10840    10833    18671    26100    16726     3067    -4033    -9715 
   -8421    -6204   -11749     2161    34897    40659    23020    16046 
   14671     9072     3504     -909    -2212    -4225    -3728     8406 
   14443     4849     2822    13178    19847    20929    20865    17860 
    9722     -606    -3955     1474     2878    -2349      156    13208 
   25513    34326    40221    31710     6794   -14065   -20790   -19710 
  -13786    -6982     9000    42786    59277    38866    21541    20526 
   12567    -1854   -10501    -7442    -1686    -5148    -4490     4106 
    9128    22986    43039    39457    23909    26690    28074     4618 
  -19931   -23676   -19696   -21263   -20139    -4703    18046    30987 
   35926    37751    24038     1486   -11574   -21182   -25945   -11373 
   13559    31791    41092    41779    32643    16116    -4479   -18994 
  -18601   -16831   -16555     4646    32082    31996    21874    25007 
   28120    21667    12118     9877    12465     3967    -8368   -13298 
  -19978   -19615    -5827     6320    22500    42097    43771    32138 
   19337     5779    -4409   -10077    -8340    -1266     2035    10840 
   26881    31048    25354    21254    13632     3492       21     -290 
   -5551    -7335     2849     6076    -5674    -2504    19219    26716 
   23346    30410    31796    18096    11105    10480    -2924   -17587 
  -10004     8052     9717      436     2431    11130    14663    21602 
   23778     8571     5248    21242    21919    13980    16528     9678 
   -8479   -18064   -18540   -13718    -4518     7908    29829    54812 
   60385    42213    16490    -1714    -8604   -13127   -18530   -15665 
   -3134     7724     9332    12826    23618    23599    15029    16980 
   21258    17304    12262     9968     5923    -1711    -2380     2643 
   -2971    -3954    14829    27472    26192    25338    18801     5328 
   -4091    -5659    -2049     2832    15134    31735    32922    23074 
   17710     9783    -6199   -19132   -21011   -17019   -11562     -951 
   12160    22532    30588    33405    32194    29010    18920     9732 
    6998     -700    -6646     3338    14067     6241   -13441   -23022 
  -12064     1956     5697    15930    32690    29398    11923     9764 
   21699    26827    21100    13416     8985     3879   -10088   -26014 
  -26230    -7977    15732    29600    31560    29673    26191    23445 
   18117     4037    -6405    -6905    -5348     3541    14831    11349 
    4472     7222    10471    13555    16564    11480     1074    -3527 
    3986    12399     9263     7323    14204    13913     7287    10677 
   18767    17366     6388    -4750    -6473      643     7570     8166 
    7560    17971    31225    27834    17289    14611    13748    12850 
   10380     2691     1749     7491     9956    16109    17786     2906 
  -10670   -13065    -8903     3110    14169    13000     3956    -2254 
   -1451     4469    16109    32705    49335    62294    63648    44485 
    9995   -22268   -40219   -42826   -31163   -14115    -5537     1332 
   20818    41523    44192    31567    17848     7770    -1362    -6922 
   -6502    -4779    -2452     1269     4392    11884    23298    26121 
   21562    20356    18195    11140     5965      793    -6939    -7311 
   -3221    -4179     3441    19904    24651    28456    40459    36981 
   20738    10469    -3855   -21465   -23157    -9336     5729    10674 
   13038    27406    35829    21103     2868    -3848    -2181     2590 
    6011    12704    18721     8927    -4202    -2146      378    -3465 
    1112    10462    16380    24632    30925    21917     3487      461 
   17741    27972    16425     4526     9671    13119     -383    -5806 
    9031    12093    -5807   -14041    -3565     9532    19822    26680 
   22524     9767     4333     7375     3308    -4565     5614    30190 
   41158    34875    22994     1854   -21652   -29392   -19255      967 
   17231    20182    20815    23280    18493    16191    23685    26512 
   25380    27756    23572     8444   -11464   -27737   -27711   -10328 
    9297    22931    28518    20923    10227    11064    14258     7288 
   -5377   -12835    -6423     3639     1853      174     7059    16276 
   31027    41484    40441    38665    24862    -1610   -12860   -13146 
  -21242   -31210   -32244   -17455     7045    22291    22743    21300 
   29517    34678    22334    11476    12055     7199      130    -1327 
   -6112   -11746    -9258      116    11816    22920    30337    32044 
   32248    28802    12654    -1209     6886    14597    -3121   -19286 
   -1313    27799    29477    18850    28480    37527    20861     8187 
   17685    17049    -2529   -12027   -10913   -12788   -10164    -2597 
    3055     4818     3885     9491    17875    19110    21482    22327 
   13968     9020     4021    -8105    -5236    12517    20521    20606 
   22057    20518    13080     8707    16291    19230     5783    -4521 
   -8606   -15647   -11223     6556    19265    20757    17116    18538 
   17142    -1229   -12838    -4293    -1090    -1625    10323    25953 
   31972    23403    16598    22507    16116    -5857   -13221    -5302 
   -5233   -16259   -17086     7974    39016    50291    45877    35467 
   18848     -641   -13176   -17626   -19257    -7798    16470    28233 
   17991     -859    -4104    15473    24699    16372    21263    29164 
   18175    -1728   -22003   -28988   -18573   -10744     2135    27291 
   39530    42593    49045    44244    34007    24970     2502   -23885 
  -38149   -42685   -36620   -19803     3522    22053    19973    14287 
   26743    35376    30596    29431    23768     8005    -4175   -13347 
  -20059   -14646     1475    17285    22927    22045    30558    42331 
   33855    14187     5805     1466    -4473    -5886    -8418    -8086 
    6262    23387    30838    32992    33497    27328     9328    -5502 
   -1736    -1320   -13818   -11680     2011     4303     1746     6173 
   23091    45141    43845    21389     9553     8831     3532   -11190 
  -28826   -27216    -8586     2353    14886    39625    54109    50943 
   41399    23102    -4482   -22127   -15399    -3248    -4483      263 
   18713    22167     7136    -1028      923     1451      334     2959 
    7672     7565     5520     9568    15718    18993    21784    21421 
   16841    12031     6259     5340    14939    25096    27423    21772 
   12178      924   -10605    -5159    14130    17215    13788    18482 
   11329     -592     1919     9578    10775     1995     -928    11454 
   11965     3516    11165    13204     -303    -3564    -3138   -18229 
  -32796   -25601    -6262     4577    13406    31600    36111    13367 
   -7538   -11105   -12922   -13193     -982    16584    32773    51351 
   65130    61203    42898    24937    13289     4517      745     2184 
    -769    -1642    12760    26850    26833    25228    27618    28236 
   30715    37874    36489    21705    15670    27055    30591    14737 
    2056     2749    -2255   -17462   -23677   -13009     4815    23346 
   40855    45169    33972    23865     9605   -15946   -28713   -22388 
  -10717     3484     7561    -3272   -12614   -21747   -36670   -40902 
  -21398    12316    37951    47872    53628    45003     9927   -25388 
  -45755   -55537   -48817   -36822   -28818   -12251     5857    17053 
   27387    28344    21667    19980    18125    19530    31043    41924 
   48936    50313    36212    13983    -1300    -7519    -8376    -7157 
     -87    13394    14276    -2517   -15753   -22339   -27382   -19916 
   -6027     1000    10060    22295    26221    22897    19327    20943 
   23067    12741     1489     4908     8402    13571    34855    51009 
   49997    45823    39621    32582    21748    -2569   -24586   -27275 
  -21937   -24777   -33193   -26948    -1524    19575    27160    34608 
   43106    42187    30038    11924    -7786   -22643   -23101    -7473 
   13513    29236    43602    65643    81886    72285    50885    37401 
   19907    -7186   -25672   -33890   -46741   -59522   -52180   -21176 
   12619    33212    54630    81681    80896    44919     7712   -27580 
  -74849  -111758  -113189   -88881   -57264   -12955    48725   105888 
  140413   150408   133643    89255    25828   -36130   -76785   -94004 
  -93826   -75843   -44536   -12879    13875    38061    64523    97618 
  122959   118987    88807    41958   -21319   -80524  -102735   -94803 
  -87995   -73359   -28161    20912    34281    24598    31301    49239 
   43838    23890    18550    22458    26547    35650    46653    56297 
   62669    58708    44460    29099    18609     8093    -7460   -18052 
  -12544    -1705     -384    -4672   -12225   -19687   -13266      785 
   14817    34391    41917    29473    13841   -13113   -50402   -66082 
  -58486   -48726   -37667   -17878    11475    44248    71343    88892 
   91960    74132    42330     7780   -23519   -40987   -41789   -35683 
  -24031    -4270    15542    24412    23741    29532    47255    59663 
   55510    36394    -1831   -54175  -101101  -134628  -148586  -130885 
  -87415   -28564    39619    95982   123180   121375    92184    49712 
   20696     8688     1459    -4419   -15919   -27858   -20306     -831 
   14478    29197    44120    62922    88353   100060    86714    57446 
   18189   -13186   -21510   -20359    -9504    23448    58864    79867 
   91420    81788    38533   -22569   -76499  -109248  -119083  -105676 
  -75091   -51111   -48097   -51235   -45088   -32178   -13282    21624 
   70935   115369   140589   142334   124472    98536    64227    18382 
  -21435   -39934   -42322   -33983   -12830    11947    25018    31213 
   44938    68624    94181   110960   121127   130983   119762    63343 
  -13809   -66519   -91524  -107212  -105590   -73278   -29878    -6269 
    1363    17629    49104    85934   109441   104512    70085    12839 
  -43578   -81179  -109891  -120540   -93711   -48860    -5954    34592 
   59551    59440    44471    22302    -2990   -22215   -30470   -27795 
  -18308   -14924   -19926   -18094    -3736    14297    26153    28891 
   30700    33778    20216   -24624   -85926  -134559  -160049  -163613 
 -136193   -72850    17945   119373   199021   233564   238937   231253 
  200437   148333    87640    23579   -31446   -70407   -91767   -87933 
  -73160   -65124   -48479   -18654    -1258     -886     -363      341 
   -5672    -9113     2852    23020    27616     9844   -13659   -28243 
  -20607    10655    36829    40092    32166    15799   -11381   -31448 
  -26723    -5863     9886    22175    45616    60007    41832    15045 
   -3466   -29228   -59506   -78370   -74659   -46772   -21909   -13703 
   -2798    10141    17397    21097    12004     -145     5420    20025 
   33377    43371    45577    52633    73980    96753   110933   113009 
   98462    65676    20275   -22141   -49380   -59421   -50268   -27498 
   -2581    22088    37353    33786    26455    21918     6868   -11500 
  -20692   -31488   -47842   -55270   -47131   -32611   -28626   -29871 
    2161    60651    78715    51879    36418    31860    10014   -13196 
  -19045   -17436   -20804   -25999   -24079   -17427    -7561     8380 
   17810    16897    26207    43229    44729    41004    49989    52219 
   29331    -6010   -29181   -28703   -24910   -31860   -31116   -22680 
  -22009   -18555    -1162    23036    47556    65812    66745    49894 
   30979    20200     9251    -3747   -10382   -12598    -9732       -2 
    8305    19348    42442    64848    65402    43810    24310    25304 
   35629    41642    53574    77353    94281    87550    64166    41783 
   28455    25666    31972    40981    45594    34631     4911   -33276 
  -75076  -108845  -123059  -128619  -116784   -61209    20649    86583 
  118272   121829   111211    88156    46553    -2697   -42354   -72688 
  -96249  -111121  -121248  -114964   -72048    -4703    57306   106309 
  145862   161609   139746    96306    51703     8159   -32651   -67099 
  -92924  -111956  -135930  -157671  -148737  -105590   -46209    17672 
   80044   139118   179971   180998   149384    95492    17988   -57991 
 -101067  -108631   -88754   -48806     3507    56856    90941    97019 
   89167    71205    24143   -41305   -71793   -57095   -50267   -67390 
  -70605   -54014   -40632   -18786    33258    97555   149226   188311 
  212795   216855   203169   165223    95670     7695   -77237  -145758 
 -188716  -194100  -162264  -112502   -68152   -52516   -63570   -71795 
  -70688   -64656   -40770     1147    47069    88268   116407   121957 
   99814    58896    23830    10856    14361    24948    41674    63076 
   76499    67932    40211     7954   -18867   -38835   -50701   -45307 
  -18955    10562    26009    30350    29351    27583    31369    37891 
   43849    51156    55482    44776    14632   -11091    -7766     6096 
    6546    10964    38699    64728    51819     3306   -56386  -116322 
 -157341  -154044  -112661   -58202    -1300    54616   101394   131004 
  131792    94198    35226   -18125   -63364   -96040   -95149   -63109 
  -24235     4176    18168    26755    36398    49658    72975   100697 
  119468   124044   114330    89337    43808   -20196   -86805  -140984 
 -168196  -155602  -106590   -29034    66595   155893   217705   243958 
  240914   217977   169618    95580    14715   -47046   -84407  -123241 
 -161774  -167244  -145320  -117927   -76351   -10100    65777   124017 
  152135   154824   138049   112486    80450    20164   -64777  -132939 
 -174955  -202751  -201972  -176592  -156967  -138908   -95389   -33943 
   23723    87076   152701   187964   193337   176621   127202    72517 
   39029     4247   -33677   -47533   -45982   -48946   -41472   -13977 
   11605    23017    27774    22547     3549   -19653   -47167   -73845 
  -77652   -52624    -3468    58614   100076   104747    91247    67959 
   35059     5892   -17566   -41019   -55840   -59991   -56508   -37490 
  -12437     1856    17994    44339    68276    90532   107530   101051 
   78051    56963    34870     1972   -39436   -77244  -102610  -105945 
  -75929   -19610    36308    68602    77076    71244    48772     6435 
  -43059   -79134   -97734   -99697   -63910     9239    77454   119138 
  135048   119969    90656    67289    44841    32722    48726    73781 
   81440    74163    48004   -14011   -87737  -131016  -140123  -116148 
  -62017    -4777    47852    90544    93928    62916    27518    -2582 
  -16028   -18802   -39657   -56944   -35830   -11549   -17401   -23514 
   -7034    21338    58464    98879   122709   124137   109489    78923 
   29434   -32062   -77766   -92168   -95413   -95931   -75980   -34749 
    4518    32198    58560    80438    89132    90648    92344    96627 
   84408    28867   -41698   -81606  -105232  -128958  -120145   -61896 
   14547    74907   114666   137610   128596    75146    -4380   -75374 
 -122048  -147845  -144082   -95354   -10719    75267   132486   161989 
  171417   149045    99847    42144   -30099  -103138  -133459  -125856 
 -115568   -94940   -52633    -6469    39459    83211   114552   140022 
  155434   150539   142929   136683   106867    47375   -26831   -99126 
 -149945  -169592  -158936  -114172   -41192    36864   102648   151299 
  180243   181839   147773    88318    25386   -34481   -91629  -128131 
 -120789   -81486   -53223   -51244   -44751   -17404     3983     7258 
   12622    20826    20312    18473    15238     3068    -8422   -14851 
  -24088   -29980   -19912     8384    50305    82397    78067    52362 
   27579    -4892   -42236   -62523   -56166   -30149    -3389    15464 
   36990    50151    33066     6392    -5607   -14006   -23463   -27236 
  -22785    -4541    12222     2594   -18046   -22249   -10868     6953 
   29988    64309   102864   116955   102610    84009    60416    21477 
  -15348   -30551   -22520    -4194     3175    -3762   -12143   -21402 
  -31298   -28013   -12087     1520    17290    41874    60625    71621 
   87528   101142   100483    87760    63826    25046   -25220   -72243 
 -101626  -116870  -125448  -113184   -67986   -12618    27695    57551 
   80797    85936    74588    61553    52705    50464    54090    43418 
    6030   -30009   -35167   -16389     8834    29803    47845    75840 
   98857    93073    69087    34188    -9734   -42063   -55679   -60004 
  -66398   -88064  -112419  -106656   -69199   -23164    23620    63859 
   77774    60146    28209     3314    -7082    -7614      120    16366 
   33516    40055    33826    16051   -17489   -52286   -54924   -22700 
    9749    19603    12355     7346    14466    13309    -4143   -13088 
  -12644   -14107    -6755     6431    16194    30466    42557    40869 
   41651    51565    50485    40841    35213    16764   -16031   -33087 
  -29768   -27652   -32248   -29276    -7364    20749    35598    45013 
   58699    59179    41936    32796    35672    19797   -19611   -45123 
  -45459   -44338   -32559     7150    48701    74996    97856   115133 
  112216    84100    43248     3323   -37346   -77369  -104625  -106824 
  -79636   -34935    10106    42734    57701    67231    78646    78256 
   67077    58255    37264    -8587   -54351   -82287  -100160  -101618 
  -75135   -27750    26744    68736    82097    77299    71379    56805 
   27615     3408    -7812   -16293   -18238   -15337   -22040   -30906 
  -27106   -14237    -2223     3080    10669    31777    42688    19078 
  -14285   -35677   -51791   -50679   -23703    11395    44604    69365 
   78478    76647    63603    39730    19071     4685   -15654   -40836 
  -48003   -23074    15816    50201    77268    92438   103342   111661 
   94379    49373    -7210   -65541  -106677  -119720  -113872   -99527 
  -85079   -61897   -10037    54438    99590   128348   145947   138105 
  108216    73816    37200    -7699   -54706   -88258  -102016  -100967 
  -93167   -79355   -50206   -11145    18848    43780    78831   113378 
  122763   100903    65907    32216    -6498   -48501   -74409   -79435 
  -74966   -59809   -21439    33216    74575    91494    99882    97417 
   73850    47073    23195   -10538   -39294   -46872   -44458   -34528 
   -8739    21004    33583    28813    23062    18671     7573      272 
    9639    23120    23877    17003    16721    20939    18929    17297 
   21311    15030    -4873   -24364   -38915   -40844   -23881    -7335 
   -2527     4086    11317     6733    -6166   -18133   -20002     3366 
   51597    95283   110633    98350    69859    41736    20078      989 
  -13680   -31639   -58648   -79469   -85320   -74498   -44496   -11740 
    4639    12802    32184    58098    70302    67621    60322    49616 
   36698    24062     3736   -21776   -29458   -20027   -15769   -17257 
  -14030      954    29223    53835    63578    68878    67593    49029 
   21708    -6813   -39164   -65156   -65238   -37494    -1286    23133 
   25915    11288    -7946   -20827   -17392      375    16673    25860 
   30519    25544     7214   -11830   -13020      153    12135    23341 
   32913    30215    18951     9124     3412     6933    17905    22896 
