Origin Time       2021/02/13 23:08:00
Lat.              37.7
Long.             141.8
Depth. (km)       60
Mag.              7.1
Station Code      IBRH11
Station Lat.      36.3701
Station Long.     140.1401
Station Height(m) -36
Record Time       2021/02/13 23:08:20
Sampling Freq(Hz) 100Hz
Duration Time(s)  230
Dir.              3
Scale Factor      2942(gal)/8224139
Max. Acc. (gal)   17.131
Last Correction   2021/02/13 23:08:20
Memo.             
[...]
   -6837    -5212      980    -5005    -8070     2997     9823     -637 
   -6967     2631     2319    -6980    -2762      531    -6723    -5667 
    -939    -3277     2346    12822     9147     1734     5675    10000 
    5795     3674     8865     9755     4911     3515      297    -4282 
    -874     3024     5506    11241     8402       -9     4095     8104 
   -2007    -5189     3545     3418    -3203    -3840     -518     3628 
    3198    -6178   -11618    -8371    -9331    -6767     5036     5001 
   -5146    -5069      658     4091     7728     5583     1142     3759 
    4039     3261     9971    12087     5489     2002     4727     7454 
    6042     1957     -332     1969     4375     1471      -35     5632 
    5738    -3766    -4368     4708     3667    -7771   -10925    -3438 
   -1647    -4490     -785      -71    -7263    -9589    -5698    -1104 
    1919    -2228    -5219     3910     9811     2497    -3003     1842 
    5374    -3061    -7503     2205     4402    -1575     -349     1922 
    4268     6677     1756      521     8704     6787    -4322    -1599 
    8368     5289    -4876    -6021    -1907    -2566     -568     1142 
   -4739    -1062     9594     6139     -652     3122     4089    -3746 
   -4564     6178    12214     8110     6362     9363     7126     3249 
    7607     7929    -2789    -2903     5282    -1231    -9531    -4247 
     504    -4712   -11367    -5570     9045    11358      828    -1755 
    5733     6579     1749     6670    15240     9105    -3920    -4421 
    2635     3850     -776    -2401     2481      244    -9375    -9583 
   -7609    -9344    -1405    10485     8997     -465      730     9169 
    9032     3834     -584    -7238    -8290     1294     5204    -1005 
    -538     3511     2870     4317     3034      -67     3091     4515 
    6646    13740    12341     4726     4745     6447     4351     3936 
   -1678    -8943    -1995     5694     3187     2389     1539    -3755 
   -7804    -7651    -4083    -1347    -3499    -6612    -3734      858 
    4758     9089     6902     7404    13736     8718     2658     4791 
    3103     5616    10098    -1551    -9973     4703    14916     3208 
   -5425     -503       72    -7003    -7015     4156     8320    -6775 
  -19338   -12865    -1074     3971    -1416    -7285      194     8048 
    3018    -1506     4571     5244    -4371    -5331     -508      738 
    2270      899     2763     7649    -1030   -10521    -4731     -895 
   -3407      494     2385    -4279    -3746     8455    13771     6135 
    3577     8924     6295     1379     5880     9529     6131     3813 
    6731     7257     2573     6600    14619     7862    -3272    -4638 
   -3138    -4213    -6216   -11553   -15103    -6126     2330    -2330 
   -7626    -6312      396     6471     2906       21     3021     2367 
    2933     4263     3591     7703     5980    -2760     1574    11146 
    7708     1902     1532     4785    12015     8611    -2025     1321 
    5703    -2174   -10428   -12829    -9108    -4823    -6039    -8811 
   -7221     -573     1750    -1922    -1543     2317     3495     1170 
    2381     7636     3890     -973     4058     1350    -4642     2192 
    4673        6     1765     4407     5730    11350    14314     3615 
   -3252     8024     9717    -2238    -6705    -9290    -8329      587 
    5147     4202     1181      918     5796     5680     3889     6242 
    3392    -4251    -7447    -3280      734    -1398    -1737     -554 
   -3888    -1906     5306     8052    11942    11705     1540    -1190 
    2631     -463    -6037    -9298    -6605    -1055    -6235   -11357 
   -3925    -3412    -8027    -2556     -167      475     6513     6651 
    6335     6490    -2438    -3184     6111     1337    -9454    -6369 
    1494    -1991    -9220    -1350     9651     1652    -4036     9792 
   11387    -5125    -7986      334     3192     3393     3503     3241 
    1171    -1101     2207     7462    10519    14511    15484     9977 
    7030    11038    13531     8247     1549      454     -808    -2022 
    3458     4068    -3117    -1591     5428     5350     1804     3291 
    7688     6448     3296     4592     6602     7345     7229     3576 
   -1976     2978    14848     9742    -3542    -1819     1676    -2246 
   -3975    -3009      760     3450     2343     1198    -2245     -850 
    5787      942    -9589   -12212   -13906   -16633    -8684     1703 
   -4931    -9413     2195     4114     -631     4297     7065      704 
   -4552     1671     2547   -11577   -14108    -5414    -2394      174 
    1910     3187     7793     8544     4461     1672    -2660    -7280 
   -3640    -2867    -8681    -3954       28    -7263    -8359    -2052 
    5096    11961    14257    15823    15966    12248    12483    11950 
    5188      378     3192    13392    14443     3353     3836     9570 
    7194     6999     9209     9483     6064      749    -1368    -3288 
    -419     5918      858    -4357     3283     7003     3349     5071 
    5806      595    -1657    -2859    -4838    -4552    -6914    -7209 
   -4291    -7531    -6648     3225     6669    -2458   -12595    -9410 
   -7784   -17259   -12193      124    -1437    -3141    -1567     -738 
    3981     6080     -426    -5379     1142     3284    -3715     4063 
   16852    10288    -1979    -2512     2222      132    -5398    -2654 
    7257    13095     8160     5112    13905    11615    -5522    -8607 
   -3420    -5508     -596     4889    -4051    -5541     6484     9148 
    5161     5004     7011    10600    11149    11978    14300     9304 
    8208    14908    12910     7734     8382     7533     7546    11375 
   10154     6416     6222     4843     2910    -3492   -12326    -4696 
    6300    -2137    -9512     -575     5104    -4048   -11520    -3515 
    4097     -314    -6655    -9369    -5566    -2407    -9576   -13965 
  -10813    -6540    -2257    -3861    -3307     3730     4271      214 
    -939     4257    12920    13697     7191     6106    12457    10647 
    2361     4984     8352    -2043   -11416    -2478     5834    -8326 
  -16156      228     5265    -8571    -9559    -1273    -3462    -6876 
   -3067     5410    13016    10816     7090    12141    15506    12355 
    6200    -1876      361     9571     6164     1467     3647     2663 
    6347    11028     9286     7568      837    -4899     -600     2960 
    2492     2781     2290      811     2263     1601    -3763     -396 
    7832     3491    -4467    -3152    -3326   -12780   -20054   -16405 
  -11186   -14139   -18262   -14274    -9645   -10716    -5319     5637 
    6504      820    -1131     -203     -994    -3852    -3967     1352 
    8839    12511    12376    14739    18085    12711     4649     6129 
    4399    -6588   -10955   -11203   -15107   -15070   -11819    -8695 
   -2047     5144     7735     6220     8862    15426    11927     4787 
    6208     7007     4365     3441     1755     -330     2278     9004 
   12012     9378     8060     9070     6569     2151     4016     9896 
    8048    -2519    -7425    -5012   -10692   -16575    -7005     2150 
   -2512    -5715    -2064    -5655   -10918    -4089     5124     3181 
   -1224     4213     7519     3366     1975     3253     7965     7171 
   -3045    -1877     6463     4175     -588     1433     7434    11612 
   10044     2783     -554     3279      459    -2431     -271    -7096 
   -9034    -2388    -3834    -6034    -5996    -6548    -5892    -3141 
    6165    11537     6983     4873     7861     8648     3534     4727 
   14157    11060     4851     8899     5719    -2050    -4841    -9282 
  -13356   -16708   -17350   -10449    -7296   -12371   -14727    -6991 
    1779    -2874    -3373    12907    19948    12337     7492     6471 
    4379     2843     4572     7211     6594     2122    -3199    -5393 
   -2286     1225    -2195    -7546    -6515     2573    15402    16313 
    6821    12390    25073    19905    11040    10114     6669     4140 
    5772     5344     -171    -6470    -6025    -1819     4239     9667 
    8721     8970    12702    18615    21100     7325    -3429     5547 
   13910    12567     8769     4639     1305      735     2147     3910 
    6016     1744    -8122    -9452    -4249    -1780    -6847   -18859 
  -19021   -10889   -13849   -11052     1763     3574     1036     3993 
    4274      992     1335     5722     5456     1459     4557     8302 
    3875     -654     1401     6513     1146    -9517    -3704     3356 
    -851     3219     8602     1831      465    12721    17466     6162 
    2882    17041    25663    20209    14264    12282    13068    15256 
   13761    10297    10196    10678     4595    -4179    -6555    -2529 
    1047    -2002    -1263     8012    10763     9632    12567    11298 
    2741    -2288      876    -1286    -9918   -10141    -2330     -171 
   -6621   -12550   -14285    -8124    -1706    -9633   -15279    -9454 
  -10243   -16416   -20417   -24295   -26590   -30098   -26585    -8016 
    1568        1    11804    18835     8426     8603    14107     8645 
    8652    10750      467    -9208    -5377     2416    -2994   -10304 
    -197     2905    -9000    -1752    11674     1744    -7489     2320 
   11743     9927     8791    12958    10971     2898     3915     6135 
   -9571   -20096    -8424    -3885    -7539     -893     2263     2479 
    9027     9153     9153    10953     1360    -2448     5734    10382 
    6709    -4789    -8075      384     3599     1509    -6446   -17028 
  -14879   -10490   -15172   -15217    -7789      903     3589    -3554 
   -5896    -2208    -2880    -4870    -6920    -6338    -1687     2731 
    5111     6561    12112    15256    10943     8117     9138    14990 
   19834    15307    10150    11859    15635    11103     3071     6608 
    7915    -6002   -15496   -10511   -10160   -24745   -30743   -15249 
    -842      541     -496     4558    15460    22669    20220    16798 
   13698     6280     3954     3531     -656     4774     7412    -5587 
  -10800    -3557     -436    -5071   -11209   -11522    -9840    -9360 
   -4984      849     2407    -6883   -21670   -20765    -5676     4291 
    3763      993     4761     7250     2154      -36    -5962   -19286 
   -9918    15088    14777     1502     2899    14060    22709    17113 
    6177     2566    -1985       22     9026     7263     6011    11024 
    9401    13960    26800    24715    16540    18856    20208     9821 
  -11140   -19353    -5119     -151    -7943    -5737     1097    -2560 
  -13585   -12937     4000    18256    16781     6613     3804     7389 
    5046      -78    -2270     -120     7049     9887     5761     7238 
   10373    -2789   -15853    -6312     2207    -2570    -4909    -9128 
  -10697    -2803    -3325    -5239     5829    15130    17820    16737 
   13570    15745    10260    -6403   -11674   -14508   -23750   -16650 
   -6579   -13830   -14975    -9018   -15134   -17609   -11097   -11354 
   -8973     -972     4363    11766    13363     9389     8756     4324 
    9382    25744    24582    16660    18349    15711     9073     -492 
  -10976   -12727   -17037   -24810   -19722   -10046   -11533   -21721 
  -22416    -3663     4665   -17614   -35249   -28015   -20142   -19076 
  -11286     3487    13648    14257    18265    26214    20447    11111 
   11983     9864     6158    16808    29542    25716    21070    21415 
   11504     8768    27001    41715    32605    10118     2164     8480 
    6859      267      298     1678    -2443    -1684     9990    12973 
    3306    -3379    -8646    -7862      886    -5530   -18856   -13474 
   -7809   -21790   -33451   -24970   -16189   -15961    -7140     4418 
    6961    14692    29000    30196    19606    15855    17496    11129 
    6841    17671    24467    13379    -1498    -6451     6705    18507 
    1629   -19140   -19955   -14496   -12333   -13757   -13878   -17645 
  -26596   -23086   -17626   -21305   -13629    -3211    -6037    -5151 
    4666    12679    13891     9845    10139    11144     1641    -5248 
   -3117   -10110   -17350    -2421    10791     2525     6739    27211 
   23714     8217     8307     2791    -3501     9514    13635     -534 
  -12216   -13548    -1186    12721    12513     2972      861     8819 
    5732    -8561   -12270    -5281      -64    -1468    -4314    -4032 
   -4284     2605    18929    21149     6586    -1742     2376    11452 
   14521     4488    -6664    -7078    -5535   -11213   -24081   -34134 
  -24187    -7005    -8702   -16551    -4968    19646    34859    36418 
   30736    26954    30811    25231     8599     6338     8910    -6991 
  -20024   -11880    -4954   -14007   -28034   -36240   -39050   -38492 
  -31324   -16694    -1548     5647    11597    19133    12436     5105 
   15813    20637    12737    10818    17339    26330    21725     4611 
    -178     -135   -11299   -17961   -12766   -11888   -19846   -21161 
  -11776    -2516     4499     1760   -11299   -10195     1512     3358 
    1135     4136    13504    16646    10517     9979    10640    10141 
   14003    10809     -966    -4368     1216     2421     -885    -7882 
  -14400    -9541    -4496    -4789     1568     6535    11596    24278 
   25324    16883     8946      598     7342    10147   -13275   -29143 
  -17992      881     8920     9362    15607    23851    27643    26080 
   19519    10563     3632     7307     6104    -6691    -2744     8251 
    8044     7863     5891     9984    17919     4164   -18018   -22689 
  -17798   -24200   -43028   -46619   -24136   -10669   -23755   -32764 
  -22500    -4473    12742    16588     9798    11545    17282    10821 
   -1393    -1007     9239    14470    18625    27814    36302    38962 
   29691    12939     9242    16374     6902   -15830   -20023    -6380 
   -3978   -14091   -12175     7302    20302    16228    17347    25099 
   24548    20961    11792      662    -3748   -14197   -19153    -3559 
    6718    -2315   -14490   -17605   -14175   -17520   -30026   -27963 
   -4229    13266    15781    11572     7607    23998    42757    31202 
   19419    23809    14918    -3299    -7171     1089     2154    -6361 
   -4688     5942    12565    10497    -8299   -19670    -2443     3801 
  -17328   -26455   -13220    -6990   -11542    -6754     1027     -799 
   -7380   -11709    -6720     -997    -5830   -12958   -22323   -30153 
  -16240     2049    -2690    -4357     8640    15714    20094    14721 
    4604    14519    15430    -5597    -2820    24622    29598     6766 
   -3724    13911    33188    28286    11647     8730     7211    -2373 
   -5973    -7676    -4557     -201   -15997   -22422      891     8178 
   -6972   -10017    -1709     4287      297    -7948    -2760     5768 
    2058      889     7457     6945     6701    14419    11429     3426 
    7811     8139    -5286   -22607   -31750   -23257   -13764   -18306 
  -20682    -5856    13984     9759    -8426     -194    19885    18794 
   15691    23167    17327     5537     8368     5439    -3755     3469 
    7223    -6420    -9634     4251    11433     8978    10648    12984 
    7896     1192     -595    -3681   -14706   -13875    11398    23643 
   10169     9900    23383    22900    12949     6457     1337    -4783 
   -8969    -9124    -4715    -2247    -7263    -9350    -8856   -15888 
  -20221   -17841   -17270   -14995    -8132    -1621     2972     9157 
   11118      105    -7634    -1308     4423     8534    12330     8338 
    1471     1082    11570    15063      -64    -7103    -2334     -907 
    -236    -5335    -8017     2177     6851     -882   -11364   -15588 
   -2346    16864    17751     7626     2822      272     3919    14404 
   15735    16001    27576    32722    32032    31995    16941     5027 
    5741   -16148   -41210   -30948   -20174   -30163   -29398   -14540 
   -9040   -12060    -1066    17390    13586    -1051    -5648    -6524 
   -3042     3083      530    -9633   -14018    -3757     6431     1918 
   -4274    -3647    -6573   -10339    -1251    11288    10628     4149 
    -237    -1040     9737    24775    30950    38288    47765    40451 
   28784    27268    13645     3218    16200    10400    -6525     5697 
   10102   -10165   -14377    -3048    -2922   -10358   -12820    -9559 
   -2216     4494     4754    -4261   -15763   -13811    -4442    -3142 
    1674    12738     6046   -14064   -14285     2744    10092     5994 
    2504     4695      936   -12175   -18855   -15298    -2258     5412 
   -5778   -11776    -4045     5452    13964    13358    15809    24009 
    7234   -17095   -17397   -10793    -8607   -14130   -28449   -28502 
   -7862     7817     6555     8607    21752    26191    22948    20206 
   13687    14449    15391     1189    -2952     5786    -3520   -16352 
   -3684    16834    23348    19438    12100     8172     6446     -160 
   -5768    -4693      329     4954    -4313   -19090    -4176    22025 
   18048     1895    -2365     6141    13545      862    -8796    -7547 
  -19209   -24622   -15437   -11176   -11250   -14666   -10798     2732 
    3618    -2902    -2311      156    -3154   -13795   -12499     3142 
    7356     5613    10804    12000     8615     8853    14655    21074 
   13244    -7997   -19579   -15444    -7888    -8667   -18023   -16274 
   -1958     3404      712      438     6041    17347    20996    15913 
    9936    -1564    -6798     2727     7137     1533      245     -859 
   -8533    -7399     2955     3264    -5194    -7236     3734    19395 
   24129    16159    10238     9977     6193     6416     8642    -4276 
  -11988     1092     7269     3554     4471    -2084   -11796    -8303 
    1647     9601     7585    -1510    -1773     4060     6613     1109 
   -7422    -6065    -2204    -2632    -7551   -19437   -15816     1437 
    -711    -5553     2087     1112     2713     9039    -1564   -11194 
   -8548    -9915   -10530    -7177    -6245     -514     4536     5522 
   16424    17570     3553     9150    17612    11943    21168    33210 
   26700    18152    13491     7114     1513     1784     1225   -13460 
  -25656   -18674   -15813   -25863   -29381   -19365     1462    17531 
   12843     3022     5703    13832    16764     9593    -2211    -4557 
    4058     8835     3774     7150    22481    22852     5792    -4329 
   -2296      298     -488      886     5302     6374     1051    -8753 
  -16245   -15323   -10890    -7395    -1953      -72    -5594    -2667 
    5213    -4984   -17969   -16271   -14211   -12116    -3285     3280 
    6045    12029    15078    15322    25536    30372    18740    14520 
   18913    16066     8843     4236     3510    -1548   -10590   -12571 
   -7342     -990    -5508   -15639   -11583    -5647    -3130     5121 
     766   -10292    -6289      132    -4077   -14605   -11769     7020 
    8835    -1555     6103    13161     -311   -13352   -11881    -7997 
  -10261   -11182    -5121     3396     7084     5578     8563    15568 
   17578    13639     3238    -2274     5684     8764      460    -9560 
  -16789   -16021   -11614    -8772    -1911    12704    27291    22326 
    4314     1340     8792    11538     8148    -1161    -4993      734 
    3434     2219      253    -5409    -6713     3716    11911     3690 
   -2979     9431    17382     8448     5830    14895    21767    22570 
   22593    27368    28845    16170     2455    -1350    -6701   -11603 
