Origin Time       2021/02/13 23:08:00
Lat.              37.7
Long.             141.8
Depth. (km)       60
Mag.              7.1
Station Code      IBRH11
Station Lat.      36.3701
Station Long.     140.1401
Station Height(m) 67
Record Time       2021/02/13 23:08:20
Sampling Freq(Hz) 100Hz
Duration Time(s)  230
Dir.              5
Scale Factor      7845(gal)/8223790
Max. Acc. (gal)   254.753
Last Correction   2021/02/13 23:08:20
Memo.             
[...]
   -2119    -1917    -4823   -13285   -12806    -7431    -8899    -2600 
    6848    -1294   -13149   -16513   -15539    -6810    -1475    -7103 
   -4606     5556     1479   -13144   -20308   -14943     3828    27279 
   36817    34867    41998    56652    56597    45482    43309    41997 
   30341    16657     4784    -5128    -9186    -6143      957     5760 
    4693    -1914   -10696   -18052   -26966   -29389   -14265    -6816 
  -24729   -34597   -19381    -1856     8819    12044      712   -14088 
  -10913    14820    41800    39432    14602     3757    10042    14621 
   16579    15164    12245    22422    34823    24123     2146    -6759 
   -4468     3746    21516    38812    35965    13543    -6561   -12966 
  -14967   -12718     4887    23376    15040   -10783   -20121   -12318 
  -10386    -6577    13069    25587     9012   -20772   -32163   -20515 
   -7641     7896    38318    52965    26955     1560     7555    11439 
     675     4772    20505    18744     2601     -989     6571     3843 
   -3249     3618    18886    20133     1714   -12425    -4826    10098 
   15101    16505    19940    11072   -11745   -24892   -19488   -11546 
   -6004     5879    17475    13049     -448     3666    22316    22507 
    8800     7236     6616    -3333    -4665     5028     8295     1224 
   -6550    -8739    -7209    -4689     2824    11356     8140      112 
    5155    17887    19903    11335     5104     5042     7815     9571 
    8135     7803     5125    -7591   -11082     5663    10669    -5729 
   -9008     8020    13385     2594     8251    29419    31716    22758 
   26889    24345     1055   -18970   -18079    -1058    11510     3939 
   -8386    -8002    -1979     2411     7488    15704    29211    42593 
   41536    21487    -2582    -7342    13463    33862    25193    -5598 
  -26666   -24358   -17868   -23197   -24399    -7634     3802    -5926 
   -8540    10800    24486    21176    17667    15449     9860    10303 
   18859    20498     -514   -31907   -36814   -17902   -13305   -15458 
   -1993     5470     1115     6940    19044    29255    43444    53110 
   42400    16792    -3172    -9286    -7053    -3862    -2702     1987 
    4423    -7376   -15816    -4303     9008     8920     2316     3820 
   20436    34388    26694     9630     3397     7082     8911     8348 
   13695    16279     4118    -3439     7003    13863    10457     7150 
   -4325   -18983   -14046     -472     -172    -2956     -190      747 
     737     4124    17024    35344    30476     3670    -5983    -4780 
  -22488   -27849     6027    28802    13960     7615    21475    19357 
    2578      -17     9853    10972     6407    16777    32196    26905 
   15372    17639    16339     1402   -18574   -35116   -35436   -28367 
  -30109   -24798    -5738     3878    -3581    -8776     4205    25107 
   27915     9678    -7908   -19832   -23171     2651    40189    42237 
   16224     2644     4293    11028    26007    40670    43062    36840 
   24055     3273    -8405     6118    31726    39762    27920    17347 
    7762    -9292   -10270     8152     7966   -17064   -32111   -26148 
  -22527   -25794   -18090     1908    18138    12532   -10625   -21668 
   -9967     3304     2686     1682    11192    14769     7726     5022 
    7728     9298     8638    13597    28728    32784    15923     4452 
    7609     9337    13178    30275    45935    41959    28854    25948 
   30937    30230    16661    -8448   -31976   -35275   -19137   -11804 
  -25482   -34005   -27546   -25551   -28610   -25435   -17267   -11724 
  -14413   -14420    -1561     8561     9273    19592    39559    43559 
   29301    18762    16906    14135    11551    21321    38068    38566 
   30281    34175    34715    19402     9877    20370    36124    33901 
   11630    -4002     3280    13433     9715     6374    13447    10145 
  -18893   -43019   -33793   -19961   -24715   -21235    -1520     4025 
   -9868   -21955   -26091   -23723   -16136   -11461   -14411   -22769 
  -26036   -12021    13875    36535    46591    40360    25780    14056 
    5946     6689    23225    42820    48809    41935    33138    27810 
   20158     9147     4949     8650    11578    12081     7587    -8124 
  -22411   -19249   -10123    -3645     8318    10358   -12927   -32441 
  -27885   -19630   -15176    -3609    11665    13529    -5158   -19448 
   -9803     2149     -427    -5540    -2463     4345     7202    13640 
   26879    25274    11662    22088    48824    48636    24687    12131 
   24580    52863    71301    64327    42781    17768     5308    13923 
   17385     1811   -16621   -24233   -15211    -1917     1309    -4446 
  -22879   -41543   -39361   -33554   -41623   -47970   -43953   -38284 
  -29165    -9379    10174    15831     7773    -5354    -6349      762 
  -10871   -24610    -1387    36873    45770    35170    32039    30705 
   26546    32946    49253    55860    40602    22000    26678    45720 
   56130    58773    58031    41897     7939   -18547   -20279   -21454 
  -41555   -49696   -29542   -19712   -34115   -40234   -25462    -7291 
   -1817    -5971    -6524    -8309   -12687      392    18824     9298 
  -16675   -28516   -22438   -16744   -23112   -18798    12059    41809 
   53131    58930    60251    49164    39920    47065    47637    19346 
  -15280   -28305   -21672    -8973     -469    -4403   -19728   -29560 
  -24008   -11111     3357    12343    12947    24706    49890    54747 
   26068    -5655   -11431    -3657    -8550   -19332   -24023   -30812 
  -24617    11200    37408    33370    37601    45006    25394    11329 
   26511    36725    22626     4672    -7431   -37461   -87890  -111002 
  -82378   -37538    -7086    11441    22682    34824    55690    72736 
   79640    84905    86536    80658    63960    29477   -12436   -39560 
  -43931   -39086   -42923   -51630   -56242   -63004   -66297   -54691 
  -40323   -31444   -13567    17134    44647    59756    66110    64287 
   47434    26130    26289    34592    15541   -17501   -31139   -32517 
  -39375   -36624   -15614   -10559   -34145   -38672      260    39881 
   47174    43016    47560    45092    30153    34134    71911   103358 
   86163    39025     5821    -5283    -6581     -911     7577    -4633 
  -47506   -73661   -47042   -16860   -22523   -14935    36580    75928 
   64793    38653    23905     7983    -2457    16679    47722    37871 
  -19206   -68168   -76804   -65337   -57812   -59151   -58963   -48555 
  -40891   -49767   -59128   -44365   -11400    16636    33797    44242 
   45847    37162    29667    48060    96811   131214   114280    78822 
   65515    59383    39981    23080    26107    33556    27669    23807 
   29955    23504     -928   -17381    -9913     3777     -857   -17518 
  -25176   -25119   -29587   -33693   -28223   -31460   -59254   -84735 
  -86377   -73988   -51333   -23337    -8970    -8399     1040    23388 
   40911    48011    51723    49744    25527   -13332   -22338    -2239 
   -4826   -31094   -46422   -51331   -49381   -25693    14994    49554 
   68403    82740    99774   100797    82119    86931   132896   170376 
  157420   100781    27009   -33382   -71933  -102136  -116897  -118968 
 -136622  -151281  -129091   -98679   -84121   -58437   -14673    30642 
   83691   136502   151656   123942    79852    33816     6011    15291 
   32598    16522   -33127   -91608  -116993   -76177    -9898    19160 
   16029    12784    20385    35472    49322    68235    95860   105609 
   90726    80671    70726    22280   -56639  -103705   -83461   -32493 
  -12063   -33291   -46742   -21041    11631    25047    27776    11407 
  -25747   -49663   -45369   -40728   -63400   -89361   -67350    -6470 
   35519    46597    53036    53029    39683    27149    18885    10589 
    1216   -15122   -30254   -24290     1394    30213    52227    57534 
   31428   -18168   -47085   -24231    35214   106525   167032   172100 
  105044    25452   -12094   -11669    13216    43726    58542    63397 
   56521    31041     8707   -21690   -91698  -143962  -116160   -70694 
  -82526  -127751  -140452   -95393   -49539   -58156   -73873   -46762 
   -6282    29216    71998   106123   112993   104922    91233    61335 
   16725   -17679   -21051      332    16815     3233   -30204   -46441 
  -28971     4425    30890    45917    70602   108486   123600   121462 
  139573   140552    73164   -17826   -66316   -74582   -71128   -73610 
  -91494  -106104  -106552  -112752   -97842   -31033    27789    39862 
   46218    52427    31668    -4271   -24025    -5736    33120    40065 
   26763    64678   128764   130746    87616    54022    18279   -14096 
   -9941    14553    21683    -1761   -50195   -79999   -44003      787 
  -27356   -75631   -76199   -67135   -63045   -26543    23604    44095 
   42639    43618    40112    12698   -33262   -64712   -52446    -5289 
   33806    25856   -12837    -7041    58440    93922    62344    18289 
   -2670    19413    80985   116079    91762    52070    34458    42645 
   61701    60720    24154   -24714   -54411   -58880   -46710   -28177 
  -13512     -345    14864    17447    -6644   -42870   -56466   -43953 
  -41295   -55827   -62421   -64504   -78308   -89002   -75605   -50411 
  -43545   -51456   -42773   -19276    -4309     4274    16241    36024 
   67724    97052   110014   123612   145723   147746   120671    90925 
   69456    55216    55919    62309    53188    27554     7105    18368 
   42283    15939   -54895   -94406   -86146   -64208   -42863   -40803 
  -62876   -67717   -37493   -10709   -21805   -62480   -89545   -77974 
  -56052   -41735   -17608     6735     4897    -1524    33102    86414 
   87118    34786    -4549     2516    32671    49009    47831    49280 
   56471    67086    91482   122659   129151    99898    58155    26595 
    3121   -34442   -82999   -89021   -44028   -38394  -105930  -145114 
 -108492   -76804   -73137   -33062    42751    90918    91330    80464 
   83187    84083    70626    55285    50568    35374   -10488   -56131 
  -85371  -119441  -148867  -154245  -140175  -105765   -45598    22963 
   76837   117686   144506   143572   131932   133272   131920   112294 
   81238    42971     3038   -40725   -98913  -149083  -157603  -134470 
 -101160   -52116    -1327    20413    37057    69776    80744    74876 
   84796    77751    40132    16505    13081     -112   -28031   -48024 
  -33015     9213    29241     5935   -15529    -1021    17293     6254 
  -20310   -31438   -17043     3796    21906    48949    74223    70870 
   36455    -8872   -37002   -25281     6961     5603   -39317   -80208 
  -81986   -35406    46873   111229   119449    96573    74576    42727 
  -17887   -82291   -98620   -38988    65056   113946    42512   -58891 
  -77238   -67968  -101919  -119298   -88732   -44683    -4090    20511 
   47524    97606   138582   152602   147896   124694    92435    52789 
   -5443   -74594  -120804  -101729   -29606     3485   -54510  -118301 
  -99046   -46299    -9671    45455    92157    86844    72176    65387 
   45945    23313      665   -32795   -75200   -99652   -82925   -64396 
  -86094  -100125   -55024     9177    47611    83789   139446   181283 
  178951   156593   137562   109209    82698    79407    69871    28413 
  -20679   -55540   -78592   -94429  -106459  -117270  -129254  -137072 
 -114103   -54866    -4410    24394    75024   133500   136829   104943 
   97158    86753    25567   -50079   -83019   -78769   -71782   -78289 
  -87826   -77989   -57075   -57678   -65099   -31908    23229    45670 
   51020    82568   123654   148567   180692   223476   227643   167292 
   61983   -59301  -155943  -188200  -170387  -150338  -152599  -180347 
 -174812   -72415    27886    41643    60178    78648    15784   -56299 
  -58638     5325   101548   161954   163169   123071    43719   -33292 
  -47615    -7458    32867    23191   -37096   -72752   -49117   -20333 
   -2906    28229    68243   108398   141278   153027   141627    90814 
    -710   -57183   -19722    51111    60382    -2984   -83149  -133956 
 -144292  -136776  -135221  -119495   -93837  -118677  -172022  -157852 
  -68454    31637   108234   162205   192190   181633   114945    11457 
  -46793     4511    91300    89822     3277   -73921   -90470   -49021 
   24706    75317    63491    11608   -40351   -54625    -3939    76046 
  136702   176550   192038   180242   156739   118156    48141   -47112 
 -121190  -124718   -78399   -50035   -63456  -100430  -139334  -134454 
  -78607   -48081   -49756   -28250   -12737   -22707   -20880    -5908 
   18538    63666   109830   108962    41774   -39556   -75998   -72608 
  -52196   -15331    24246    43744    41141    28406    28571    55231 
   95288   133897   152971   132730    82028    31603     7479    13451 
   35814    56208    48979     5092   -54288  -106895  -133014  -117566 
  -74263   -41852   -50873   -82148   -89853   -74243   -48913     2930 
   57073    52878    -7734   -70879  -109378  -115867   -68635    25944 
  109863   140271   135729   133427   134929   120429    85963    46566 
   23149    24109    43352    73912    91775    55447   -14046   -25695 
   20218    18775   -36792   -68484   -76084   -83606   -76589   -58185 
  -36127   -18316   -19822    -4772    63906   125188   102458    18651 
  -61230  -105208   -98487   -61952   -46205   -43044   -32378   -74962 
 -164124  -170033   -93102   -46716    -9396    64181   121690   142920 
  137609   112457   107477   138342   181421   213556   206591   151008 
   75601    20472    13444    39380    30450   -63907  -197286  -261632 
 -214307  -117015   -53869   -51162   -54156   -17385    23101    44282 
   54480    39546    24598    35303    33241    13286      257   -19575 
  -54693   -93048  -116702  -104407   -62382   -24474   -13934   -19095 
   -7965    30198    77422   121346   163875   196519   206874   198922 
  174283   130802    80848    27476   -36585   -89048   -87589   -31563 
   -2366   -72620  -151487  -110158   -35009   -44702   -61030   -33376 
  -16457     2296    37895    43394    10131   -25868   -55629   -86537 
  -98636   -76437   -37991   -18574   -40860   -65483   -37485    13706 
   39287    67405   131278   192954   200148   156377   107489    93445 
  104001    85359    29366   -11564   -18102   -17474   -26801   -34344 
  -19211    12204    33804    40020    36792    13959   -35768   -86760 
 -106141   -97313   -87334   -83762   -70961   -53997   -59417   -73449 
  -54214   -10265    14023    15322    25782    43730    28441   -20777 
  -39047    10072    74603    92472    64719    18643   -24601   -39798 
  -13844    39976    82124    82502    72862    87901   104291    99976 
   86622    78139    64739    33993     2326   -29197   -75141  -108788 
 -101210   -64527   -36115   -51838   -80553   -49800    15915    38908 
   30700    25350    10327    -7439   -14515   -12089    18559    63455 
   66012    27348   -12604   -50800   -77009   -68065   -43895   -33234 
  -34809   -38024   -20977    37601    93410    76549    18422    -6474 
     548    23022    61867    86379    77390    60739    58862    65643 
   56648    16798   -31091   -53060   -48797   -43711   -53644   -56756 
  -14350    54780    81437    59043    53374    69465    51336    18520 
   16471     4541   -50301  -100175   -96369   -59957   -55026   -82408 
  -76472   -33627   -11218   -11029     4553    20209    20332    48533 
  100896   116814   100959    90558    77572    45484      267   -44868 
  -86138  -120266  -124074   -85457   -40949   -31804   -39847   -14364 
   39600    65530    58495    67261    94937   100103    73650    41929 
   20455     6596    -1661    -9189   -22443   -30603   -20740    -5293 
   -1497     1047    21101    52119    71234    61753    41723    60085 
  102402    82458    -9726   -84373   -87534   -45592   -14994   -35355 
  -90197  -133273  -140910  -102913   -33484    10210    -1107   -14581 
   25313    83579   102757   105200   121689   123341    97969    69915 
   42566     2284   -57126  -118088  -128829   -75393   -37114   -62907 
  -83779   -51484   -10126     7491     4224    -3846    17521    62148 
   88009   100098   118449   117076    73869    15217   -23649   -29913 
   -7636    21386    40166    47355    24063   -24459   -32420     5616 
    6376   -30692   -20920    28062    38357     6199   -16279   -14266 
  -17572   -39714   -50375   -31504   -19071   -47749   -83112   -67315 
  -16416    10409     7587     9532    29756    53091    62365    64297 
   71508    76700    71863    60300    44616    28219    11253   -19619 
  -52793   -37817    13275     7384   -63674   -90950   -34996    31353 
   69448   100700   124330   118015    79462    31110    -3380   -22874 
  -35779   -37401   -25242   -26419   -75633  -146083  -152059   -74047 
    2288    36761    63493    61400    18115    -1406    18196    48145 
   78906    77749    34206   -13157   -53422   -86809   -81637   -41787 
  -25578   -47598   -57406   -24938    27557    68513    86067    86196 
   81168    72022    58511    52038    52504    47889    30126     1610 
  -13840    -7388   -14296   -47298   -62957   -38699    -5764     6875 
   -2764   -16860   -12989     1371     8573    16522    29224    34307 
   27040    12733    -4083   -27463   -56138   -70183   -58201   -33129 
   -3550    29322    47020    47015    62577    90019    85145    47152 
   10269    -4594     9225    40575    72088    93406    82443    26855 
  -34801   -61993   -69769   -78352   -80632   -80033   -78671   -70850 
  -67743   -54943    -5962    32026    22968    27274    54222    44293 
   16509    10701    20194    50018    88152    96998    85224    80415 
   60234     2542   -49993   -46321    -5329     7676   -24949   -55860 
  -61203   -64635   -67533   -37964    17703    40042     4595   -45728 
  -69793   -52309     4556    63447    84798    65873    27317     9119 
   37898    79816    86103    49788    -5096   -43411   -44753   -19542 
   11335    28260    22060    11350    11491      170   -23418   -12691 
   26109    32439     3600   -17174   -12217     7979    22577    25647 
   23433     4253   -28266   -37158   -13132    20865    42888    32771 
    3562    -7435    -2191    -3029   -14683   -39564   -62837   -50916 
  -12191     4943   -10975   -24598   -16426    -5865    -2955    18285 
   60682    85321    80369    60056    28048     6237    23768    64885 
   89214    83471    56030    17174   -18211   -44212   -48203    -8367 
   28603    -3229   -57592   -67059   -59371   -61148   -50056   -27157 
   -6312     9054     5243   -13554   -23808   -13454    21452    58018 
   59875    32445     1993   -20985   -26372   -10073     4666     1906 
    8907    40730    60426    44957    24622    33181    56913    57412 
   28084    -9949   -35796   -43719   -52041   -66702   -59860   -22596 
    6307    11296    31270    64822    65931    43175    36821    53937 
   77890    79617    41083    -4455    -6774    16788     4810   -37409 
  -47999   -25960   -33045   -76407   -92132   -53894    -7144    12181 
   22748    50145    77626    73863    50801    36420    18963   -15556 
  -51579   -73897   -71577   -45625   -29319   -37535   -29759     4742 
   20371    16850    23195    31309    51826    90698    96387    55429 
   19363    21550    46892    53657    33435    20586    17012    -3267 
  -29416   -40996   -46954   -52659   -50187   -36730   -12950      873 
