Origin Time       2021/02/13 23:08:00
Lat.              37.7
Long.             141.8
Depth. (km)       60
Mag.              7.1
Station Code      IBRH11
Station Lat.      36.3701
Station Long.     140.1401
Station Height(m) 67
Record Time       2021/02/13 23:08:20
Sampling Freq(Hz) 100Hz
Duration Time(s)  230
Dir.              6
Scale Factor      7845(gal)/8223790
Max. Acc. (gal)   88.869
Last Correction   2021/02/13 23:08:20
Memo.             
[...]
    1559     -247     -749     4183     4432    -5925   -18040   -21149 
  -19932   -19575    -8982    10303    17450    10303     2648      992 
    4056    -1576   -19927   -28107   -20602   -17578   -20232   -13899 
    1788    14177    15502     6696    -6997   -19097   -24858   -20127 
  -10304    -7242    -6134     3624    14250     7844   -14918   -26631 
  -15229    -3121    -3327    -4210    -2150    -6164   -11695    -9454 
   -9957   -19090   -20930   -11738    -2710     5248    11408    11707 
    5290    -9728   -18092    -5069     1566   -16406   -30308   -26832 
  -15932    -2782     -243    -2273    11059    19511     8754     -596 
  -13509   -35642   -39415   -16499    10701    19152     5269    -8121 
   -7879   -11792   -27703   -35058   -25027   -15098   -10071     3389 
   18555    16399     5215     3789     1707   -12233   -18492   -12120 
  -18825   -34068   -27912    -9892     1431    10806     9497     1576 
    7009    10993     -811   -13682   -20650   -28873   -33060   -18651 
    4249    15168    12519    -1310   -19035   -26955   -19842    -1109 
   15560    15732     -545   -18706   -23707   -21317   -21560   -16171 
   -2317     8158     8707     2508    -7543   -17540   -15384    -6092 
  -12395   -21632    -7796    10638    11398     4641    -2482   -14219 
  -24094   -23323   -15082    -1694     9783    -2257   -28023   -27703 
   -8217      224     7024    15310     9190      600    -2975   -16070 
  -30622   -31992   -22723    -6268     7237    15734    29867    30726 
    1044   -30132   -42919   -45242   -30221     -973    17598    23892 
   18721    -2106   -16758   -22991   -31567   -23367    -1748     6378 
     980    -8523   -14152    -4791     5211    -1844    -6227    -2087 
   -9714   -16602    -8090    -2859    -6667   -10673   -17024   -15797 
    2809    17535    13424     2273   -11053   -25334   -25968   -12066 
   -1744     4419    15348    14415    -8800   -25625   -22057   -18715 
  -18139   -12467    -9101    -8599    -8907   -12206   -12802   -10037 
   -5821     -176    -3823   -11973    -5520     6048     2138   -13107 
  -21780   -15203     1367    10839     2149    -2540     9074     7890 
   -6583    -8583   -10656   -22376   -24966   -21899   -21878   -12935 
    1876     8509    10906    15379     6486   -22959   -39258   -28891 
  -23353   -22019    -5548     5220    -1578    -5240    -2941    -1750 
    6029    15013     9030    -1537    -2120    -7337   -19600   -15634 
   -1472     -379    -3416    -2478   -10778   -22607   -23566   -15950 
   -3123     9595    13126     9290      726   -15552   -26877   -17782 
   -5189    -9244   -17018   -14926    -6675      299    -5140   -17971 
  -20240   -17069   -12992     2196    15763    12784     3635    -5335 
  -13346   -13968   -11227   -10669    -6705    -2898    -7881   -13227 
   -9408    -2061     2704     5848     6555      368   -13971   -26400 
  -23095   -10142    -4167    -2701     3897     7674    -3257   -16029 
   -9845      338   -11488   -29332   -25830   -10781    -3462      824 
    6463      973   -16380   -26599   -20390    -6987     2627     5184 
    4291      481   -10802   -20352   -14578    -4379    -7815   -16686 
  -11325    -3615   -10925   -10627     5278    12771     9587    -1425 
  -17039   -16677    -7074   -10447   -14169    -7534    -4417    -7515 
   -8121    -3628      814     -507    -4604   -12332   -24000   -19481 
    1842     8383     -945    -5787   -11265   -20077   -16104     1987 
   14746    12334     1559   -14586   -29150   -23830    -5795    -2886 
   -5383     5487     2359   -20912   -23738    -8352    -7510   -12987 
   -5609     6139     5806    -5336    -9456    -2712    -3140   -14283 
  -14326     2656    12533     4058    -9352   -19116   -21312   -17181 
  -15207    -7114     7407     4376   -12294   -24667   -32741   -22561 
    8514    27048    18964     1036   -15072   -22875   -17617   -12205 
  -18196   -20021    -7165     4502     5464     6150     8757     2758 
   -8626   -16518   -20216   -18256   -13101    -4293    10157    13817 
    -774   -12067   -11511   -11348    -7412     -422    -8546   -18967 
  -15607   -14087   -12191      137     8013     2031   -11755   -22410 
  -20510   -11620    -9216   -11730    -6567     5498    12461    11488 
   12739    15302     -264   -26067   -33975   -30330   -22338    -1051 
   10858      579    -4024       78    -4989   -16691   -26141   -26530 
  -21092   -14261     4677    23078    14058    -7084   -20432   -31719 
  -29609    -9275     5699     9981    12005     9896      492   -11898 
  -18535   -18081   -10052    -1846    -7894   -15946   -14046   -12148 
   -7269    -3249   -15373   -25461   -17317    -7882     3080    21003 
   19560    -6856   -23476   -15232      467    13721    21725     9429 
  -19683   -35796   -32991   -26593   -13552    11406    27338    14914 
   -3848    -4619    -7172   -21718   -25805   -21092   -25357   -30159 
  -19720      481    16105    20115    10390    -8181   -24830   -27356 
   -8251    14719    17167     2462   -17531   -29978   -24696   -13323 
   -1748    10177     6261    -8317   -12167   -11959   -10994     2938 
   15693    11749     2080    -8461   -20444   -26345   -24100   -18063 
  -15542   -18107   -19700   -17787   -10872    -2625     3658    11619 
   12749      -48   -12853   -14732   -11901    -8947    -2359     -167 
   -8005    -9691    -7190   -13948   -14234    -8228   -12661    -9910 
    7042    17672    21822    18933    -2732   -23294   -19271   -12783 
  -23633   -33724   -31205   -18972     1686    18438    19375     6901 
  -11098   -18428   -10184    -6656   -11896   -10870    -8883   -16870 
  -21675   -10327     4290    11736    15161     5737   -16680   -28026 
  -22111   -10397     4556    11994     5246    -5275   -23511   -45287 
  -41995   -12005    17136    22828     6840    -3908    -6635   -16614 
  -16214     -475     5575     1443    -5094   -16425   -25882   -32358 
  -30904    -9437     6677    -4055   -10498      569     4914     -460 
     704    10038     8245    -9343   -11295     3716    -5019   -28593 
  -29663   -19953   -16286    -8293     3001     5792     2731     2350 
     764    -4384    -4500      699     3161     1273    -1312    -5498 
  -14624   -21770   -20753   -19010   -15534      877    16883     9185 
   -7404    -6535     3223     3006    -6231   -13410   -14642   -11443 
   -6259    -7758   -12452    -4330     6916     1761    -8108    -7993 
   -9108   -16579   -17655   -12657   -14373   -21478   -18601       75 
   16505    16256     9828     1263   -13085   -21821   -21224   -18530 
  -14322   -16915   -28549   -25303    -5661      329     -635    15152 
   21003    -4032   -25006   -20403   -11754   -14029   -10687     4614 
     596   -21546   -22011    -7310     -344     6332     9319      378 
  -10216   -16148   -18667   -18301   -16106   -10665    -4889    -2809 
     594     1647    -6304   -12753   -11542    -6195     3445    12151 
   12494     5343    -3970    -9686   -13886   -21490   -21358    -5096 
   11805    12598      405   -10064   -16081   -19152   -11516      949 
    5711     -733   -14700   -18337   -12087   -11993    -4403    10805 
    7912    -4947    -9184    -7398    -2263     -776   -10199   -18211 
  -16020   -14651   -15649   -10710    -5606    -8343   -16170   -22378 
  -21224   -11722    -1829    -2380    -9741   -14987   -20974   -20974 
   -5267    13365    25126    26177     7009   -17339   -25369   -28864 
  -34408   -21496     4837    14038     8037     5390     1649    -8731 
  -18111   -17140    -8588    -7636   -11048    -2654     9389     6783 
   -6498   -11495    -9207   -16943   -23402   -12361    -5802   -15805 
  -17332    -5105    -1965    -3473     6654    15380    13570     7649 
   -1804    -9894    -9612    -4257    -2112     -947     9518    18958 
    8328   -14494   -28842   -30240   -25255   -15593    -2542     6593 
    5216    -3643   -14850   -30192   -33183   -10686     1054   -11651 
   -9310     5910      684   -12796    -8448     3620     2879    -6862 
  -16475   -24634   -23124   -12721    -3906      241    -1945    -4514 
   -6285   -13871   -13878    -1298     5027      954    -4369    -6743 
   -4387    -1649    -3273    -2930    -2658   -12062   -16632    -7539 
   -8541   -20239   -12563     7078     1732   -20487   -18898      364 
   -1711   -18711   -19533   -10856   -10037   -11245    -3086    12325 
   15782     2490    -2840     6141     8290    -2031   -17859   -30862 
  -28331   -17972   -11263     3971    22474    21666     7001    -3397 
   -6269   -10081   -21685   -29555   -19619    -3202      606    -7109 
  -10935    -5287    -3141   -10596   -13629    -8406   -11847   -22383 
  -16062      -54    -2806   -18640   -24548   -17020    -9946   -12151 
   -9738     2636     2119    -9433    -4386     4834    -5977   -17790 
  -16141   -13532   -10206    -4255      147     8779    17263    14640 
    7462     1398    -7574   -18168   -25050   -28267   -31816   -32266 
  -23211    -9377     1332     6237     5360     6039    10554     6686 
   -4961    -9841    -5606    -1019    -4375   -12414   -15241   -12291 
   -7886    -6227    -4793     1347     1759    -6473    -9736   -10912 
  -12752    -1934    12710    14399     9131    -2004   -19703   -30057 
  -31931   -35991   -35938   -21868    -3804     3898     1323     -711 
    1246    -1636    -6509     -692     9266    10135     8486     5582 
   -8440   -18516   -13879   -10828   -12749   -18230   -26411   -21460 
   -7790    -2913      386     5981     2484    -5040    -5455    -6338 
  -14817   -19307    -9603      395    -6012   -16187   -14107    -5516 
    1644      913    -7530   -13402   -14133    -7065     5698     8634 
    4429     2920    -5583   -17830   -10864     9456     8577    -9614 
  -12182    -9875   -20676   -27510   -25591   -23002   -20113   -17259 
  -11068    -5351    -6493    -7977    -3925     4448     3707    -8600 
   -4315    14081    13927     -191   -10705   -19230   -25078   -20880 
   -2741    17551    18099    -3323   -27758   -35503   -22677    -7736 
     978    11539    13745     2998    -3221    -4553    -6323     -249 
    3937    -4333    -9385    -9911   -13420    -5641     6524    -2030 
  -18287   -20578   -17659   -12116     3607    14454     7734    -5637 
  -12217    -5703     1165    -6399   -10102     3025    11662     7713 
    5753     4132    -6600   -17296   -19025   -18262   -21363   -28641 
  -34163   -29211   -16895   -10693   -18558   -28578   -22356    -8812 
     -28    14296    26107    21230    15049     9945    -5989   -18173 
  -14477    -4693     1136    -1351    -8770   -18511   -28969   -26342 
   -6308    10291    12553    14482    11847   -10588   -27456   -19222 
  -12860   -13810     1944    19479     3426   -27595   -27949   -10323 
  -10319   -11271     4660    17587    22300    25767    16363    -4210 
  -12675   -10758   -16089   -19286   -10249    -3384   -10935   -24074 
  -27014   -22453   -15304    -3068     4688     5998     4171    -6102 
  -13286    -3796    11149    16510    13872     7847    -8993   -35580 
  -46807   -28308    -7319   -14319   -35422   -41412   -33704   -25654 
  -16623    -7353    -5121    -8950    -5537     8556    11168     -191 
    2056    12676     7726    -6363   -17552   -20413   -10427    -1340 
   -4024    -5378    -1686    -5643   -13768    -9540     1495    -2122 
   -9402       62     3728   -10903   -15610    -5436    -2466    -7331 
   -5926    -2577   -11842   -22091   -11641      938    -5937    -7812 
    3744     5032     3986     7901    -2285   -16181   -22094   -30343 
  -28286   -16799   -17352   -22684   -23291   -15183     1433     7195 
    5787    15518    23722    13618   -10377   -26894   -21964   -18535 
  -28332   -25010    -8388    -1371    -5698   -13968   -16895    -6929 
    5729     4248    -5503    -6727    -5202    -5664      234     4041 
    2393     7576    11911     3815    -7001    -8695     2893    18611 
   17662    -3368   -29546   -46165   -41247   -21637    -9231    -8095 
  -11435   -19295   -27325   -27780   -13065    19511    43621    32755 
    4750   -18216   -36580   -44649   -36738   -23058    -9813     8775 
   25926    25064    14033    11037    11574     7561     1829    -3933 
  -12117   -29084   -44230   -31145    -2717       67   -24277   -46161 
  -52716   -52594   -47622   -23344    18601    47667    46602    36394 
   34785    28317    10210    -5931   -16598   -21074   -16353   -21744 
  -46332   -61345   -48627   -19379     5737    12464    10713     5058 
  -12233   -20997    -6843    15647    37282    48138    43465    38661 
   29643    -1026   -31432   -35463   -28771   -32769   -44139   -41891 
  -20104    -3570    -3065     1871    16116    12490   -17116   -38769 
  -30433    -6862    10326    10957     4988     8661    13833     2484 
  -17323   -26180   -26451   -25177   -15244     1170     6589    -7943 
  -28605   -32031   -14359     1728    -2436    -8151     5314    12233 
   -4711   -17122   -15354   -14980    -8256    12823    30623    28066 
    3792   -22287   -22928   -11894   -19881   -27891   -16106    -5548 
    -585     4171     -950   -14296   -32660   -49405   -50761   -35864 
   -4391    25771    28594    22902    20638     6228    -5062    -1551 
    2817     7226     4922   -14485   -29833   -22985    -6193     2037 
  -10906   -37439   -55393   -62352   -63950   -58126   -39946      414 
   41615    43657    15701    -9748   -17420    -1702    28641    64126 
   86289    63761    16690    -9472   -24417   -44818   -51813   -40633 
  -32265   -38551   -45139   -28680     2695    16972    11445     7620 
   11367    12966     4072    -5362     4278    23279    23890    11550 
   10816     7546   -20844   -41127   -24889    -7310   -16333   -35112 
  -48184   -50179   -38801   -25814   -11670    11387    19105    -1840 
  -17813   -14858   -11164    -3361    14631    32333    49531    60502 
   45837     8814   -26446   -44201   -47448   -51432   -47661   -12692 
   23167    17200    -5494    -8718     -535      247    -6307   -15364 
  -32945   -47875   -41385   -27496   -23538   -24786   -17431     3366 
   14571     2566   -13689   -25520   -28445    -7408    26607    44946 
   41931    29918    15957     2396    -2405     3088    -1306   -27078 
  -51340   -51150   -35970   -23179    -6160    15766    14310   -12260 
  -33737   -42660   -36273    -8757    22331    41605    42122    24081 
    3059   -16551   -29245   -20702    -4527    -2511   -12625   -25513 
  -38304   -46788   -35920    -1248    28907    29307    13545     1408 
  -14661   -31635   -23114     3024    20254    32819    32463    -1628 
  -39224   -45705   -39375   -36774   -30287   -19873    -8434     2643 
    9261    17940    35139    40405    25463    19889    19134    -3260 
  -26400   -33205   -31522   -26036   -34647   -51163   -47297   -35199 
  -26928   -14110    -9458   -13926   -12671   -15973   -20667     -264 
   32679    46804    41881    18544   -19111   -34399   -16659     -868 
    3451    13522    29616    35633    17671    -9536   -22553   -33073 
  -49501   -54085   -48894   -44446   -33910   -19479    -8969     -573 
    2521      174      369    -1809    -6646     1553    19090    36786 
   55370    53662    24584     -472   -13547   -29443   -41197   -42657 
  -47632   -59238   -64552   -54583   -28098      828    17793    31463 
   40162    26985     4257    -1520    16738    42545    48473    26527 
  -13406   -49034   -54769   -45524   -47094   -46641   -32151   -14391 
   -1202    10964    24638    31959    28136    19337    10320     2390 
    3630    14740    16409     9324    12259     8868   -22246   -65053 
  -90575   -77680   -37956   -18981   -37646   -51561   -30164    -5012 
   -7848    -8486    19129    43839    50164    52027    40571    16988 
     778   -12198   -26168   -30141   -23820   -16603   -21123   -37993 
  -36892    -5813    16594     9404    -4893    -9526     -268    23660 
   42561    30365    -5378   -32119   -35503   -23014    -4949     4307 
    -625    -5950   -12676   -28147   -27945      820    23888    10890 
  -18287   -27494   -28023   -40400   -37976    -6932    27673    42942 
   29814     7348    -9304   -38458   -61690   -38988    -2805     6104 
    6948     1435   -15581    -6824    23812    36163    33424    23249 
    6107    -2947    -5297    -7182   -10156   -22837   -35056   -32833 
  -33814   -53708   -66989   -41183      216     6763   -11280   -11007 
    4021    12008    15255    19437    23969    25442    16175     5911 
    7912    -3388   -40464   -65303   -70420   -76823   -62806   -20586 
    7555     9725     9973    16308    26802    41508    52713    40072 
    5020   -13452    -3099    12807    21705    13065   -11344   -24231 
  -22693   -31792   -44350   -39414   -32312   -31762   -18161     5390 
    5886   -24663   -40451   -23063   -12592    -1992    29459    43027 
   33750    23691     2529   -12132      481    10752    -2382   -27043 
  -46259   -52168   -52178   -43812   -14301    18411    27889    22862 
   12746   -14148   -45287   -48300   -21903     9320    29741    37980 
   30388     7364   -11130   -18516   -29259   -34141   -24694   -26092 
  -36629   -24889    -9062   -17383   -13930    27954    69284    69421 
   30372    -9591   -12869     4968     5988    -2178     3198    11322 
   -2524   -43777   -81330   -78501   -45500   -16013     1996    12895 
   12235    -6964   -36829   -38808     3219    40471    40090    20333 
   -4004   -17227    -6025     5783    -2087   -16521   -34315   -60440 
  -76716   -68922   -44224    -8151    33076    61931    58206    22180 
   -9088   -12744    -3676    16804    38790    30628     -174   -17668 
   -8029     5823    -1081   -17220   -28960   -44342   -63960   -67046 
  -41507   -10315     3464    -3200   -21043   -25604   -12745     1583 
   24019    48610    41933    13851     8662    24858    26920    11839 
    1989     -803    -7858   -24972   -50012   -62089   -52759   -44631 
  -40081   -25276   -11747    -7442    -2623     7126    22995    40338 
   50916    45576    18528   -12706   -35340   -47676   -31808    -4352 
  -11356   -37056   -37710   -20757    -6135    -1425   -19762   -40949 
  -30515   -10411    -9687    -7395    13255    38970    55027    43308 
    1039   -27604   -12826    10662    14458    11049     6872    -2566 
   -9787    -1375    11504     6189    -1676      156   -10133   -25116 
  -25768   -21828   -20220   -26029   -38758   -42857   -38345   -24165 
    1609     8568    -5757    -7537    -2246    -5944   -10997   -10064 
    2251    16347    17979    12090      171   -13817   -10785     3372 
    5776     4344     7481    -5092   -36406   -55750   -42140   -16483 
   -9736    -9736     3090     6193    -7893    -8240    10494    26501 
   27859     9405   -28327   -63117   -62433   -24148    15063    20629 
    4278     2907    10921     5954     3410     3809    -5433    -2015 
    -442   -36217   -61585   -35239    -2124     7896     7553     5482 
    9452     8348   -13181   -25716    -8194     9120     7007     2624 
   12691    25783    13032   -14442   -15874    -4133    -9651   -19556 
  -24440   -17408     3784     5815   -15010   -30673   -43029   -53936 
  -50647   -31484    -4159    17578    24166    14998    -4816   -15654 
   -5452     6559    -1385   -19149   -18681     -710    15159    24659 
