Origin Time       2021/02/13 23:08:00
Lat.              37.7
Long.             141.8
Depth. (km)       60
Mag.              7.1
Station Code      IBRH12
Station Lat.      36.8369
Station Long.     140.3181
Station Height(m) 210
Record Time       2021/02/13 23:08:15
Sampling Freq(Hz) 100Hz
Duration Time(s)  180
Dir.              4
Scale Factor      7845(gal)/8223790
Max. Acc. (gal)   249.627
Last Correction   2021/02/13 23:08:15
Memo.             
[...]
   10775     3549    -3358    -7890   -14976   -16741    -3497    15508 
   21685    16830    18958    24403    16619     4962     3705     2802 
   -3728    -4419      726      980    -1431     1217     7172    11762 
   14833    15106     9058    -3373   -16112   -17976    -8357    -1026 
    2076    14170    30527    32000    26096    25523    17408     1297 
   -5668     1815    10651    -2617   -25879   -19861      249    -2720 
   -7722    13343    37909    33550     9117     2289    15827    14801 
   -7911   -23643   -12121     9562     9441    -2760     4588    22743 
   22527     1906   -12490    -1715    10266    -1151    -8685     8853 
   19425     5296    -2818    11888    25972    15387    -8428    -6519 
   17328    16582    -1102      360     8818     6134    -3219   -11948 
   -7057     7946    10404     7709    11322     4044    -3404    10543 
   26482    26743    16563     8899    14970    15904    -5406   -20100 
  -11399    -3092    -5483    -7627       82    18671    32178    26474 
   11129     4554    11029    13651     -988   -18273   -19082    -6431 
    4608     8622    12374    19442    26389    28429    23041    16204 
   17705    17131    -6355   -31824   -26601   -13656   -18671   -22634 
   -9945    12353    28198    29207    29793    30839    14169    -2015 
    1568    -3453   -21232   -17065     3539     8565    -1364    -5692 
    3284    12480     9045     6994    18782    25286    15880    10002 
   14046    11568     3711     3550     2965    -3786    -3210     4887 
    5780    -4719   -12359     2214    25470    25331    13971    20718 
   33403    24563    -2698   -17674   -11016    -6983   -11344    -9034 
   -1032     7992    22316    32911    26666    18117    23521    26464 
   11207    -5009    -2982     3775    -4951   -17289   -14158    -7862 
  -11695   -11504    -4048    -2369     -642     8236    15514    17783 
   16961    14728    15766    17099    14600    14539    14415     7406 
     369   -10258   -29778   -34362   -17077    -6227    -3381    11830 
   35483    50029    41764    17572     1860    -9456   -29727   -38086 
  -23496    -4571     7924    15853    25500    34618    31568    22396 
   17616    12669     7155     4402     3593     2469    -4291   -11658 
   -6662     3042     1714     -182     8905    13284     6667     3577 
    5711     7758    13254    18369    13235     6882    15364    24962 
   13239    -5128    -7149    -4033   -10883   -16702   -11287    -3242 
    4459    21836    41276    38584    19624    13672    18331    13724 
     306   -12641   -13621    -4515    -6412   -14621    -7191     7501 
   11746     9086    11442    20181    20995     4441   -11361    -7884 
     202    -1645      -85    12114    23134    22238     8378    -6982 
  -10959    -7065    -6907    -4207    12571    25300    20645    20035 
   26742    19948     2247    -8629    -9005    -8980   -10822    -3713 
    8203     8475     -137    -2123     6744    17089    21459    22936 
   22478    20117    20926    19591    10585     1170    -7962   -18068 
  -18646    -7848    -3230   -10960   -11684      380     9063    13015 
   20278    26819    25887    16583     7206     4471    -1348   -11942 
  -14754   -13494   -15493   -12699    -2259     8129    13132    13309 
   18031    28093    22828     5644     7433    20274    15016     1534 
     565     3753    -2625   -13518   -14601    -1701     7530       67 
   -7099     1300    14611    18918    17524    16904    14249    15106 
   23431    24395    12556     -139    -4511      117     4344     -936 
   -5563     3946    16150    16877    12445    10636    11217    10197 
    5660     3007     2413    -3040    -9316    -9913   -11912   -15815 
   -9112     7654    18951    17693    15169    21336    26233    17454 
    2531    -1470     3636    -2587   -20945   -26636   -12271     4014 
   11493    15495    22616    28752    28549    29853    31891    23789 
   12609     6131      261    -5895   -13895   -23321   -26846   -21277 
   -9724     4955    18532    23326    20206    19851    24571    27796 
   25201    16295     6636     2744     -147   -10852   -26464   -34951 
  -27747    -8714     7672    12568    14574    23549    29866    22508 
   11831     9332     8017    -1782   -14504   -16609    -5603     6358 
    9590     9005    10849    11915    11210     9918     1578   -10478 
  -12609    -8240    -1120    13234    23521    25072    25579    18451 
    7462     8637    12114     7643     7171    10643     7041    -7419 
  -26707   -25601     4446    27635    23201    14688    16735    12884 
   -2110    -6775     5300    12997    10073    16121    31499    29844 
    5873   -16033   -19768   -16043   -16362   -10112     6585    17919 
   20213    18855     7970    -7947    -7927     4797     4938    -2138 
   10192    30488    24691      163    -9435    -2592    -2493   -12575 
  -12506     4132    18484    23018    26690    25421    16453    12702 
   12129     3115    -8441   -16233   -20864   -17685    -5857     7024 
   13423    12568    15769    31567    46043    47214    41601    25654 
   -4120   -28134   -33029   -28379   -27299   -28011   -15853    12135 
   35040    37848    33066    29554    22662    17527    15907     6299 
  -15871   -40555   -49966   -39977   -25963    -8943    18823    45604 
   59533    54058    31892    15336     5817   -11443   -23172   -18010 
   -9965   -12592   -24262   -26808   -11269     4240     7720    15187 
   39171    57276    45717    19516     2380    -5715   -14623   -23463 
  -19854    -2758    10593    14493    18877    20925     9684    -8066 
  -13074    -5814    -6615   -11345     6489    39017    44273    16995 
    7219    34217    44875    10569   -15569    -1316     2681   -26530 
  -35005    -9616     1771    -7825    -9736     4668    23504    28524 
   26287    35066    39166    24182     6068    -5699   -15144   -24849 
  -30813   -20433     3083    15884    16993    26391    40042    38804 
   24227    14709    13954     8719      569    -1266    -5377   -16440 
  -22631   -19847   -13749    -5784     4843    14345    17852    20861 
   26815    24505    16667    17637    17957     5756    -7161    -9224 
   -8606   -18546   -26480   -13171     2176    -2725    -9482     2984 
   22249    24803    16644    26414    47590    44528    19926     3835 
     180    -9107   -27893   -41202   -45003   -44115   -33951    -8297 
   25054    43252    49438    69722    85691    62091    18162    -9023 
  -17027   -24044   -41322   -47216   -17520    13516    14133    11677 
   15462     7932    -1806    -3534     1927    11919    14612    11558 
   14319    13613      140   -10473    -2901    12363    12152     -904 
    2932    23344    28198    13209     -133     -758     3253    -4580 
  -22561   -32751   -31795   -30294   -30492   -22054     4106    40374 
   60939    55105    46105    42105    26040     1740   -17743   -29207 
  -25883   -10833     3269    16954    31522    40031    41616    41121 
   38453    22701    -6093   -21582   -13976    -7245   -15309   -26740 
  -21767     1398    12737     3476     8764    37253    56910    49677 
   28529    19597    20434       10   -31236   -37574   -31075   -33737 
  -31599   -13567     5341    11321    13867    20853    19414     7624 
    2378     8870    16598    19341    21169    22574    16551     3210 
   -9562   -18927   -26896   -30545   -24803   -12712     1183    13655 
   20317    24595    26682    21828    15022     6916    -5084   -14419 
  -14523    -5892      874     4104    10296     8093     -286     3200 
    6818    -1879    -8769    -3780     5367     2872    -5721     2451 
   16983    15523     7695     4430     1231     -157     7809    18893 
   17879    11219    14435    15607     1703    -9969    -8499   -10416 
  -20198   -19591    -5613     4639     5817     5567     6575     9583 
   17570    27406    31571    33033    37804    37665    27519    14893 
    1200   -11133   -12891    -8313    -7915   -11240   -11283    -3196 
    7740    14812    17830    14872     8106     8033    17286    22343 
   19072    26168    41058    34909    10863    -2439    -6133   -19380 
  -34677   -36952   -28836    -9603    16345    33891    41463    38009 
   22628     5697   -14234   -35557   -37536   -18439      915    10719 
   14391    16437    17130    11018     2806     4371     9464     9956 
    9814     9443     8189      129   -20228   -39711   -51802   -59076 
  -51073   -30657   -11812     7191    26663    45023    61616    62442 
   46908    36105    34281    31908    30620    31888    29471    19330 
    3765    -7916   -13381   -20567   -21816    -3975    24942    53685 
   75027    79624    71606    60243    46155    32136    19570     6376 
   -4982   -18621   -39056   -52812   -53584   -52770   -48838   -36375 
  -24354   -16212    -2840    23052    49110    52091    39781    42700 
   60928    63757    34740    -6949   -34591   -54400   -86470  -115630 
 -111950   -81492   -49361   -19503    10750    33737    48936    58133 
   53863    33683     9364    -1555     2215     1588   -12514   -25452 
  -23697   -16806   -20742   -31201   -36236   -35661   -28200    -6552 
   22319    41341    58503    93301   126397   126658   100800    65346 
   21691   -26555   -67833   -91362   -97117   -89630   -68796   -34531 
   11099    57526    97139   132634   149003   130740    93958    51333 
   -3473   -58020   -88438   -95623   -87980   -64269   -29581    12887 
   61670    98744   113435   114392   100888    68921    34520    10810 
  -14574   -45382   -60786   -55003   -48620   -55086   -58450   -41690 
  -22404   -19461   -16452     1177    16888    13385    -1575    -7090 
    2080     9300     6959     7555    18496    30839    30415    16316 
    5930     3564    -5580   -15207   -13333    -9428    -5962    -3406 
   -5896    -3392     1447      329     9624    31052    43596    46935 
   48770    41129    16264   -22196   -56419   -63227   -43614   -18927 
    9194    50554    90915   107658    99084    79157    54016    21212 
   -8480   -19172   -10662     3226     7333     4635     7647     8868 
   -5563   -28428   -44460   -50804   -52282   -50014   -35425    -2227 
   32113    49621    56145    52902    32200    -1633   -37770   -64296 
  -73408   -71053   -67144   -62463   -54008   -34163     8301    60332 
   86265    70735    33450     1984   -17273   -30025   -32760   -25844 
  -16559     4124    44381    81313    94235    93518    86154    66555 
   39163    10480   -14712   -32112   -46643   -59201   -64288   -64312 
  -65172   -70393   -79813   -86842   -74827   -33700    15599    51525 
   77761    94517    94861    78624    52996    31977    13390   -17073 
  -50757   -70942   -77301   -73986   -57468   -23183    22981    71111 
  112166   139484   153428   150940   131325   108039    88560    61029 
   20322   -12422   -24656   -33551   -48909   -55155   -40274   -20821 
  -18458   -25558   -21753    -5532     6237     7940    11472    15257 
   13504     9549    -8451   -43648   -70821   -84717   -95929   -87023 
  -46620      718    34695    56706    72580    83089    78212    53765 
   24100    -4401   -34858   -53161   -40707      249    47835    77938 
   88487    94023    89436    55286     -945   -49914   -78071   -93064 
 -104388  -106103   -78910   -23048    31521    63084    76387    82790 
   81387    63606    28918   -14854   -55372   -81542   -88395   -76030 
  -61852   -61384   -47719     6002    72455   117072   132618   113159 
   67389    22522    -6336   -12742    -6269    -7750    -8245    10643 
   44236    81110   104781    97927    64693    20171   -27452   -65164 
  -75744   -57238   -26520      348    29600    60891    68747    53203 
   37162    24175    12085     2502      125     6488      635   -24962 
  -44466   -50652   -56027   -63977   -76590   -85101   -75205   -50504 
  -18292    14100    32028    36008    44945    64706    79866    82135 
   78879    69847    50596    25436    -6007   -41157   -61501   -61678 
  -55233   -42387   -24057   -14755    -9548     1632     9078    10740 
   13913    17967    20231    19391    18338    17882     6889   -13073 
  -12002    15257    20422   -16340   -45744   -38615   -27692   -33118 
  -24696    17844    60347    65049    48659    47804    65075    79010 
   74551    59085    51200    46138    25197    -2826   -19651   -31239 
  -44455   -53056   -47393   -14870    31203    57052    68686    85315 
   85612    51665     3549   -33272   -54020   -70171   -90621  -106953 
 -104631   -85314   -63412   -43101   -18492     6284    28786    49981 
   53890    41733    37211    35742    16437   -22164   -62272   -81009 
  -79223   -79446   -77457   -46292     9675    63431   106081   138684 
  158175   163891   152979   123183    82939    37139   -11183   -49158 
  -75178   -93752  -102336  -109552  -111365   -83818   -31099    21816 
   56284    66784    77815   103391   109467    78001    35095    -5054 
  -45497   -82668  -112190  -121343   -91862   -27602    43781   104885 
  160479   203404   218840   212105   179944   110502    20196   -70308 
 -146384  -183276  -185036  -176593  -145812   -78930    -9501    30339 
   56554    95095   129363   124272    80692    23923   -27152   -56531 
  -61766   -58198   -52965   -50494   -63339   -87679  -101079   -92145 
  -67491   -41062   -31475   -32945    -9369    39598    70394    62461 
   31699    -4050   -40123   -67995   -63946   -20243    40371    96846 
  144397   187016   224145   243866   242096   224703   190345   130505 
   40934   -62560  -154184  -221032  -254435  -256139  -237698  -183433 
  -83492    27734   120991   188030   222547   228440   215013   181967 
  121155    40830   -30769   -80824  -118457  -153428  -185804  -200033 
 -180522  -132484   -69425     -604    67209   125658   155569   152307 
  144026   137184   104870    47159   -12830   -63402   -93496   -99777 
  -98501   -96931   -86864   -70175   -52559   -27939     5178    32740 
   33752     4973   -17925    -7079    15904    29612    41604    59117 
   77434    83779    69689    42504    15828    -3663   -11874      830 
   25967    30871    11006    -9439   -28861   -53249   -73780   -86628 
  -90641   -84215   -68573   -36301    14316    68220   110512   129239 
  124135   109345    86927    50360     4279   -47807  -109266  -166401 
 -189433  -175078  -141080   -81238     7034    95268   163279   205999 
  224299   227800   215730   180009   118435    40186   -37349  -115774 
 -192416  -236968  -247465  -244003  -204449  -102880    25046   128632 
  203547   251124   258333   248250   240124   193702    93881    -6724 
  -86215  -164162  -212463  -199446  -167227  -139561   -83718   -22238 
    4482    27820    55964    58746    55232    58746    48185    29953 
   19156     6021    -7827     1436    20694    12808   -10509   -24624 
  -36589   -51410   -63668   -69052   -65703   -55669   -40095   -16131 
   19367    57481    84051    95037    83330    48161    10331   -15310 
  -27533   -27832   -25543   -29855   -34871   -28167    -9215    19126 
   52575    74563    84607    93776    93865    89129    86044    60392 
   14484   -11757    -8942    -8707   -31422   -55179   -56446   -42354 
  -24279    -6828     4976     7064      140    -6345    -1142     8932 
     774   -23598   -41731   -52840   -56103   -46947   -42824   -38958 
  -10828    28621    65391   103015   121354   111204    98428    89749 
   67649    41593    32321    20146   -14669   -51143   -75107   -85498 
  -78849   -67119   -48236   -10285    23963    38063    46908    56906 
   69145    80950    73093    48419    27623    -1204   -48220   -89050 
 -111603  -118137   -99735   -58901    -7118    51678   102145   126671 
  131082   119863    81380    15037   -65685  -140765  -186426  -193351 
 -164616  -102617   -24615    34985    63954    79439    87631    85791 
   79309    60142    29704    22157    39937    47163    43730    53698 
   76157    94049    91288    62942    20515   -20065   -48606   -59881 
  -55332   -42709   -28092   -18011   -13514    -4449     9103    23795 
   47181    69336    72378    57721    22855   -28460   -63175   -69932 
  -82262  -115878  -141640  -126659   -63715    20194    91531   148045 
  188689   202763   198013   174772   122403    52392   -18289   -85861 
 -147599  -197259  -222875  -214157  -179921  -134455   -82536   -25763 
   40818   112828   160083   162306   138287   112182    76476    26979 
   -7225   -18264   -35901   -65248   -76472   -58671   -37129   -20390 
   12465    51869    75165    92099   105385   103106    90936    74979 
   44633     -737   -39140   -59841   -68072   -67309   -69503   -72500 
  -55445   -27398   -11611    -3389    11996    32410    43302    41349 
   42152    50130    48712    36981    24406     2970   -28985   -55831 
  -60739   -34449     3996    17849     5377     -394     9281     7125 
  -13994   -21458      433    21528    18871    12091    21471    38114 
   46309    45389    49141    55044    37725     -754   -26927   -30319 
  -28448   -26850   -20821   -20727   -28436   -25574   -11685     6107 
   34160    61334    69885    66272    58583    44651    29427    22505 
   22214    12989   -17639   -57420   -80931   -86786   -90606   -88389 
  -69687   -40814    -6166    36706    79335   110689   130277   136444 
  124102    97633    67613    39163    11214   -20823   -56339   -77688 
  -75838   -69051   -66448   -61381   -50033   -28737      839    40235 
   86015   109548   101420    87691    74343    42817    -4884   -49771 
  -86964  -115905  -127338  -114432   -79200   -36536    -3018    23215 
   51256    72262    72084    57180    35622     7456   -11128    -7801 
     580    -3388   -18612   -24074     1304    24051     6416   -12839 
   -7746    -8492   -18230   -24725   -26230   -13748     4121    14418 
   31989    58704    67608    60670    61928    58842    34075     9486 
    5096     4622   -14658   -45245   -63483   -60945   -41647   -13184 
   14049    32710    40119    43789    54587    60492    41350     8660 
  -13342   -26927   -40533   -47198   -48533   -46977   -27741     6770 
   34719    52215    68008    82275    87505    75247    41061    -3869 
  -38747   -61688   -80546   -87396   -71282   -31664    20744    65626 
   93024   108368   109204    88352    54028    18720   -12405   -30516 
  -31568   -30771   -36983   -39361   -35316   -26345    -2057    29390 
   43659    45438    49936    49968    42700    34553    24980    18814 
   14770    -3083   -32914   -56569   -65060   -55331   -36431   -30739 
  -38241   -42052   -41574   -31284     -625    37115    66519    85783 
   97405   103064    92851    59418    14874   -27471   -67756  -107325 
 -125656   -99173   -50735   -20074    -6322    11067    45395    88196 
  107751    98836    80705    56373    30214    12096    -1765   -20505 
  -47131   -71676   -76179   -61446   -47518   -34245    -7624    25019 
   54022    77750    86443    75601    52566    24318    -4702   -29628 
  -45530   -49671   -40444   -26401   -24807   -28263   -14129    13572 
   37042    43617    30952    17177    11499     4386    -2411    -4091 
   -7273   -16040   -20452   -11141    -2043    -5157    -4980     3634 
   10806    28309    56412    66834    59895    53909    37558     1786 
  -32532   -45866   -38065   -18697     4920    28624    41524    37355 
   27664    20530     8819   -11249   -28458   -28544   -16754    -6269 
