Origin Time       2021/02/13 23:08:00
Lat.              37.7
Long.             141.8
Depth. (km)       60
Mag.              7.1
Station Code      IWT009
Station Lat.      39.0187
Station Long.     141.4031
Station Height(m) 150
Record Time       2021/02/13 23:08:14
Sampling Freq(Hz) 100Hz
Duration Time(s)  194
Dir.              E-W
Scale Factor      7845(gal)/8223790
Max. Acc. (gal)   263.952
Last Correction   2021/02/13 23:08:13
Memo.             
[...]
    6223    24790    34021    21250    -3473   -18339   -10273    11437 
   19665     4961   -13906   -19267    -6920    15967    32178    28390 
    8476    -7894    -4095    10593    13845     2097   -11307   -13473 
   -1220    14000    20278    15770     3446    -3983     3029    11161 
    7429     -645    -2924    -1066     -830    -1899     1266     9328 
   16348    23222    27870    13864   -14682   -31949   -29169    -6126 
   30160    51027    39218     8016   -17047   -19302    -8044    -2193 
   -5350    -7404     4302    26100    37085    26586     4056   -12808 
  -11977      279     6686     1189    -6571    -4125     9693    19620 
   14922     7963     8957     7342    -2670   -11072    -8151     6566 
   17926     8691    -9690   -10629     7473    22782    19903     4396 
   -7415    -6647     2531     9799    10161     7619     5618     5240 
    9401    13520     8511    -2340   -10409   -10219     -764     5935 
    5086    10457    23063    29978    23321     2934   -17217   -19822 
   -3437    14829    14601     1053    -7156   -10307   -12127    -6770 
    7919    30237    47814    37066    -1142   -33507   -35446   -11670 
   15792    28545    28213    20920     3304   -17157   -22948   -10694 
    6030    10482     6431    13122    27797    30113    14135    -2979 
    -207    12758     6380   -22894   -46990   -34581    10021    42662 
   39032    22397    19395    27558    25030      225   -29316   -38461 
  -19280    14129    28853    11651    -9293   -10341     2897    15781 
   17767    10017     1435       83    10285    20657    14702    -1351 
   -9085    -3937     3782     3979    -1321    -3225     2673    13054 
   20147    21165    17010     4594   -13649   -25438   -18669     6026 
   27635    25000      907   -19508   -11578    15333    30986    28169 
   15839      720    -9810   -13740   -12503    -6743      585     8702 
   15846    18810    20004    17186     3073   -15464   -19431      394 
   30284    45785    32644    -6315   -44718   -47572    -8654    41235 
   57250    24182   -24347   -46695   -27143    15507    41262    36007 
   18049     3937     -399     1328      171    -6527   -14593   -15001 
     542    24428    35627    21809    -7128   -22671    -7446    16942 
   20135     6115    -5193   -11381   -15421    -8677    14141    40929 
   48816    23877   -17822   -42874   -37631   -10743    19685    32375 
   29816    30199    28246    12522   -12424   -35835   -38684   -12829 
   19217    34591    30959    17917     5787    -7231   -19705   -13039 
   15952    39661    31495     -110   -22357   -25766   -22774   -13872 
    4284    27114    42381    36221    18682    12032    12051     4745 
   -6808   -17208   -25278   -26473   -18712    -3265    18760    34569 
   30416    17031     7412     -540    -5937    -8560    -9474    -1417 
   14338    25293    28023    22599     3928   -20931   -33340   -23263 
    4980    30497    30385    10709    -3844    -2555     8438    15169 
    9717      -93     -687    11844    23750    24007    15853    -2764 
  -25150   -29166   -11418    12492    24912    16349      643    -4641 
   -4630    -8642    -8194     7776    29835    36688    22636     4550 
   -4556   -10303   -18661   -28495   -27205    -1561    28761    37984 
   30964    21960    21883    27696    18534    -7022   -26022   -30090 
  -25876   -10704    14002    31040    31387    19080     2037    -7639 
   -8105    -4405     5938    13127     4081    -6034     -645    10373 
    8159    -9223   -17469     1548    31159    43681    29431     2008 
  -15761   -16740   -13140   -13941   -10427     8550    30773    27279 
   -2450   -17983     6799    46799    55281    13678   -42709   -59502 
  -25874    19215    36320    27271    19946    22885    21655     5482 
  -18983   -34875   -30982    -5414    30514    51452    38329    -4301 
  -46035   -47335    -2798    44984    55699    31229     1543   -10463 
   -9769    -9695    -9104    -2582     7258     6411    -7723    -8671 
   13543    35723    36027     6297   -29709   -34411   -11897     6959 
    8716     6930    22979    51102    59290    26653   -28364   -62109 
  -50858    -4332    42515    49000    13713   -22600   -20881    17521 
   47020    36957     5038   -21747   -23506      949    17883     5668 
  -16889   -26315   -13770    14554    38826    41844    23598      -86 
  -10943    -4608     2519    -6681   -19612   -12052    11483    29785 
   30589    12691    -9433   -19681   -20474   -17721    -6710    17130 
   44109    54990    40462     7457   -24426   -35992   -22135     6242 
   21547     9541    -6863    -1946    24980    47808    36447    -1362 
  -33318   -40271   -21281     4973    19874    27754    32617    24682 
    5902    -6023    -4722     -630    -1540    -2725     4093    13317 
   12580     3852    -4633   -10878   -14598   -10795     6581    24777 
   21624     4938    -2205      901     6853    12564    13282    10049 
    1472   -15669   -26617   -14991    16051    44801    44824    20031 
   -1651    -9316    -9937   -16623   -31974   -34592    -9774    29424 
   59134    60083    31437    -6756   -34690   -43972   -29320     5470 
   36715    45134    32904     9907    -6189    -8756   -13770   -19201 
  -11608     3032    18333    29609    27357    13003    -3487   -10696 
    2084    25026    28487     9636    -2023      598     2683      -98 
   -9371   -17714   -11961      953     9049     9201     3609     -486 
   -5046   -10149      990    28286    41426    23442    -4178   -13818 
   -4854      228   -14424   -25941    -4858    31398    52694    53419 
   33049     -140   -23666   -27658   -21207   -12937    -4171     6648 
   22188    35881    33674    13049   -15705   -29563   -11360    18553 
   29555    15626   -11811   -31834   -25645     6423    41598    47790 
   12024   -38759   -57051   -27796    15870    39534    37180    22658 
   13319    11664    10494     6318     -187      145    10045    14651 
   12892    16120    17463    10773     1620    -8487    -9385     5864 
   15093     1204   -24300   -41075   -33400    -5390    23338    39391 
   37164    22368     9514     2783    -2817    -4903     5331    24790 
   34269    19010   -13576   -38988   -40135   -21747     4077    28825 
   45073    51186    50260    40405    15684   -18075   -39127   -35646 
  -17618     -232    11520    20217    14855   -10921   -26742    -8249 
   25142    39784    20206   -18578   -45883   -42871   -10435    29525 
   49966    47556    31167     7187    -9698   -18986   -32769   -37966 
  -24069    -2316    19070    29799    28837    27221    22046    11835 
    1981    -5800    -6204    -2737    -1464     2992     7757     8930 
   13819    17297     4608   -20949   -36431   -23909     8619    35704 
   33825     1372   -30681   -28489    10284    54727    67934    45821 
    9848   -24297   -43224   -40641   -24953    -2288    23692    48934 
   68301    68088    40400    -9798   -65121   -88858   -56745    12352 
   75361    94458    61528     3975   -37134   -36556    -8703     9613 
    5518    -3835     2295    28004    50903    45482    15928   -17508 
  -36211   -27614    -5404     4016    -6246   -23846   -30133   -18241 
    6743    38180    60481    54292    12636   -44570   -74653   -58118 
  -17582    17351    35807    50085    70050    75074    49453    10592 
  -20341   -32854   -27661   -15607    -1102    13230    18484    12622 
    4631     6966    20200    25650     6339   -26185   -40293   -28393 
  -14732   -14393   -14146     7009    38469    43910    21496     4996 
   15569    41478    41428    -1907   -45817   -51653   -27560      283 
   13922    18469    25030    27112    19741     9420     6465    13432 
   12199    -5105   -16876    -6150    17928    28368    12843    -6590 
   -8931    -2093      970     1437     1016    -2204    -3828      274 
    4738     1760    -9539   -20302   -12803    21219    58422    64662 
   32854   -18343   -61726   -70205   -34399    25929    74031    83552 
   62168    33482     3445   -25149   -38095   -33601   -19980     -589 
   19313    40429    60077    48039   -10601   -72141   -87089   -56612 
  -11287    23444    41004    55178    69090    61268    23885   -28923 
  -79471   -98151   -67871   -13559    35658    64451    57808    22221 
  -11753   -21517   -11869     -772    10424    25903    33778    27518 
   18180    13271     9648     7303    13169    27251    33508    15190 
  -22539   -55024   -61738   -38593     1416    29625    29948    20862 
   20086    24062    25513     9105   -23240   -31178      255    39939 
   59779    49927    18786   -16861   -46512   -60308   -53343   -25104 
   20150    53233    43773     4515   -25930   -29277   -17871    -9005 
    -205    22319    53507    69982    56600    17136   -27117   -53771 
  -54522   -26946    20490    61786    75023    55865    17487   -16187 
  -31409   -24641     5447    38340    41948    14827   -21034   -47710 
  -52930   -38493   -16679     9589    37797    57435    58837    36714 
    3558   -17767   -21131    -7888    11990    14493    -6156   -34230 
  -49719   -39810   -13263    17323    44317    54572    48189    36710 
   20391    -2583   -26925   -37539   -18419    11635    19728    11422 
    7021     8530     4807   -15082   -33947   -22141    12646    34329 
   18847   -18177   -29257     4916    48528    57812    32320    12044 
   17788    21609    -1428   -30045   -26869     8324    36877    34743 
   14081    -7786   -15515     -747    16521    12515    -7619   -18501 
   -5586    12316    10667    -8380   -27279   -24997      317    19977 
   21583    20514    24590    31847    31827    13065   -10821   -19603 
  -18274   -16966   -10767     2686    15350    18022     2452   -22268 
  -27541    -7383    15704    27415    27746    22597    16610     4386 
  -12596   -15429     7422    40639    50523    17778   -36852   -73248 
  -69303   -29770    25087    70016    86011    72762    45670    17451 
   -6451   -20659   -21016    -6696    13562    20910     4869   -25647 
  -47937   -42700   -12970    19765    37508    40512    40329    38507 
   21828   -13328   -47580   -62804   -56976   -32522      515    26219 
   39056    37760    24363     6948   -12376   -27727   -30488   -22230 
   -1290    27114    42661    37713    15214   -16698   -32616   -15950 
   23056    60142    68847    44972     3063   -44491   -77683   -77149 
  -40308    20475    73642    87210    55979     1642   -32896   -15823 
   32348    61341    47229     9996   -16175   -19037   -10692    -7171 
  -13401   -18022    -6092    19487    38102    28266   -10104   -46804 
  -46192     -886    53757    73774    54830    16256   -27363   -62001 
  -77306   -63196   -14474    43063    72846    69985    51871    30955 
    4594   -35424   -77290   -91655   -56535    19494    93359   130272 
  124337    80578    17500   -40629   -80314   -96194   -85099   -38850 
   37723   103945   120876    89064    25072   -50287   -99975   -98127 
  -54147     5304    53839    76743    72022    41150      406   -23935 
  -30568   -33970   -34141   -29560   -20278     1394    26693    36070 
   31750    22867     7402   -15260   -36774   -43274   -26689     1777 
   21982    35143    55098    74656    76203    54025    14011   -29143 
  -61758   -76945   -65479   -20256    46017    99299   107628    70530 
   18288   -16518   -22071   -16075   -24290   -40487   -38445   -17666 
    3472    14126     4577   -23897   -41142   -25516     7213    38952 
   59119    47059     1942   -41898   -55109   -35464      233    29019 
   45342    58074    63944    54861    28104    -9787   -36321   -47132 
  -59799   -65834   -41833    10019    60737    76111    50391     7854 
  -31309   -51856   -40844   -10368    22852    55507    72469    60080 
   23414   -25369   -63846   -65307   -21759    33615    54047    36366 
    9031     2928    31816    67178    75351    56074    23738    -6795 
  -29004   -45701   -50583   -36212    -9332    17693    34765    43857 
   45877    28629     5344     -465     -102    -6729   -21392   -42958 
  -47206    -9261    49069    79230    62779    16232   -31649   -55451 
  -49519   -25118    -5331    -5381    -7797     6604    27561    31870 
    9508   -19376   -25286    -3821    35549    73156    73016    26217 
  -33106   -61751   -35777    16715    38965    20943    -7784   -19720 
    6862    52845    64358    30936    -8927   -24406   -19357   -10341 
    1262    14168    22243    21713     2128   -33932   -59223   -54005 
  -24331     8916    31533    53356    82675    93822    59123   -15196 
 -101953  -163406  -166457  -117296   -46241    28748    94306   140204 
  151267   106714    29940   -34146   -73265   -81720   -60131   -26214 
   15529    58233    73209    49542    10697   -15126   -16857    -9656 
  -16453   -23757     3207    59602    99755    79617      913   -78013 
 -105842   -78640   -19161    39035    82040   116486   125941    89001 
   18177   -58518  -112774  -120151   -80501   -13396    52344    85773 
   81064    50236    10665    -7692      888    10535     8741    -3958 
  -27637   -53662   -68480   -56667    -7187    59171   104301   106843 
   55691   -25747   -84076  -103342   -87948   -36618    28123    80703 
  102420    72828     8226   -47974   -74110   -69962   -49397   -25740 
    9121    57573    99408   112745    80924     8954   -64552  -103843 
  -99681   -58191     2706    65618   123484   163108   159549    94687 
  -19418  -138226  -204747  -179763   -76341    54769   165871   212820 
  181036   103761    -2964  -134974  -240487  -272057  -224775  -107248 
   45044   168839   220168   190327    92919   -17965   -80796   -91470 
  -53636    24891    77553    71872    41889    -7820   -78501  -133204 
 -145179  -104569    -8209   110667   198167   212931   139390    18206 
  -84321  -127168   -92329    -6038    76293   119087   117702    96479 
   65549    15765   -38484   -73311   -74337   -49248   -29057   -35299 
  -55020   -46719     -931    44532    66248    62873    42506    24607 
   14747     -225   -25321   -49000   -55703   -34713     8418    49478 
   71267    70879    40842   -13786   -63528   -89671   -88142   -54741 
    -631    50558    79330    71834    28420   -35691   -96053  -116226 
  -75433     3408    75154   112229   116899    97070    58044    14870 
  -21014   -52247   -77315   -88480   -79853   -36883    35903    95465 
  112293    87961    35851   -18588   -53492   -66205   -56965   -25780 
     -55    -5332   -23658   -35506   -35122    -9396    35904    72692 
   84036    66942    26724   -12375   -22931    -5979    18751    37189 
   37998    18729    -4279   -18947   -33008   -56687   -76387   -59081 
    6014    91889   150889   143305    73800   -16849   -88524  -113146 
  -87492   -45040   -20479    -5296    29164    83790   124883   109597 
   39565   -34171   -75932   -72941   -32173    -1890    -8392   -23350 
  -27847   -26619   -22384   -12114     8710    36320    61446    77533 
   76809    58710    31816    -4842   -44689   -56029   -20150    37828 
   71016    66274    49335    30578     6054   -22378   -62228  -107253 
 -123134   -90508   -22582    49500    94439    99866    74170    45044 
   33824    25972     5306   -25942   -57400   -63871   -42286   -19151 
     -93    10446     -511   -15156   -16075   -12943    -9526    -1771 
    7480    20054    43106    68716    83749    94163   101609    90919 
   59200    10451   -52847  -110578  -135850  -116704   -61692     7396 
   73485   118571   115457    60218    -4484   -31189   -17589     1277 
    -669    -4621    18017    54541    75946    57169   -10292   -74822 
  -73985   -21712    19595     5671   -57626  -113809  -115950   -71157 
   -3252    65349   108974   119290    97542    48352   -14327   -76766 
 -118368  -116905   -72806   -13294    26832    41017    51517    61967 
   60752    57763    57705    43352     9821   -25791   -45219   -39727 
   -9324    24540    31341     8074   -22783   -38389   -38950   -40390 
  -43684   -37377    -9003    39603    71975    59285    22243   -11479 
  -27108    -7588    35946    68118    72543    48944     5656   -32402 
  -42862   -22836    14443    40166    34777     8453   -20362   -39758 
  -42439   -25343      638    23284    49581    76088    84473    69610 
   37544     5421    -7384    -2953    -2644   -21413   -51767   -68296 
  -47910      332    46511    69585    57446    17228   -24179   -45307 
  -44606   -32661   -13856     9328    28304    43270    53138    34867 
  -14540   -58750   -73213   -53893    -3238    61237   112787   123919 
   76738    -8133   -72056   -74109   -21859    40537    60642    26951 
  -27484   -59513   -41818     5259    36655    38666    23896     2844 
  -28661   -76648  -117192  -107489   -33767    70625   155344   184839 
  144043    48980   -53997  -122261  -145473  -142146  -113756   -35270 
   76910   172428   217836   179574    60637   -69938  -150793  -155866 
  -98046   -39862   -10362    24097    70699   100515   104723    93479 
   69133    32854     -332   -24297   -51564   -84879  -109834  -107001 
  -66723       22    76400   143216   172606   159290   112911    24602 
  -84024  -156982  -177753  -156771   -99256   -21593    62915   134345 
  149080   111267    71631    36730    -4691   -48232  -101117  -143249 
 -126558   -44201    60559   135696   152973   115892    60454    32211 
   32474    15487   -44224  -108750  -125514   -88875   -27996    28503 
   61134    59050    32100     -774   -37346   -61443   -41862     7153 
   40316    43332    36613    38406    45280    44940    27164   -13232 
  -62614   -89954   -75284   -23010    45524    97380   110509    95058 
   69554    39511    10119   -13402   -30817   -43303   -55215   -61377 
  -48504   -20530     5412    16016    12868    14060    27156    41709 
   46125    25045   -18709   -44848   -30145    -1032    10585     1038 
   -9655      935    32448    57144    45372     1250   -32328   -19788 
   24236    55896    46356     3586   -30017   -20009    26761    71961 
   72389    19921   -55136  -118477  -145362  -126145   -68463    15186 
  111196   187678   202840   149554    53107   -57483  -133845  -135907 
  -88022   -35734    -1937     6454    11358    30811    44757    35287 
   12128    -4839    -3797     8364    14793    16367    13543   -13517 
  -55965   -82904   -79776   -40760    11038    43185    54016    47326 
   35756    44652    65321    60436    20904   -21655   -37918   -31738 
  -21909   -19900   -23662   -15109    14677    44161    47730    28237 
   10577     5949    -1152   -23418   -46813   -46253   -13691    35910 
   73629    73330    40068     9532     2801     3585   -11595   -37431 
  -48254   -33099    -4186    13032     2941   -17861   -21760     1521 
   42604    78217    79721    32136   -45909  -111156  -125589   -80080 
    3127    86435   138719   146547   109679    41773   -38464  -109651 
 -134732   -90718    -4739    74090   122499   132070   103692    70370 
   44637    -4023   -80453  -145239  -149624   -81311    14858    85692 
  111738    94169    49759    15183    10130    11321    -7947   -37609 
  -48801   -30843      722    28887    52371    61179    43225     7854 
  -40373   -87273  -101094   -76902   -20440    55289   111515   132718 
  132861   101441    22281   -72825  -137654  -150034  -100105   -15218 
   49995    77377    85541    83293    59948    19629   -20659   -54441 
