Origin Time       2021/02/13 23:08:00
Lat.              37.7
Long.             141.8
Depth. (km)       60
Mag.              7.1
Station Code      IWT009
Station Lat.      39.0187
Station Long.     141.4031
Station Height(m) 150
Record Time       2021/02/13 23:08:14
Sampling Freq(Hz) 100Hz
Duration Time(s)  194
Dir.              N-S
Scale Factor      7845(gal)/8223790
Max. Acc. (gal)   194.351
Last Correction   2021/02/13 23:08:13
Memo.             
[...]
   -2401    17901    25475     9166   -17782   -32159   -30026   -22882 
   -5571    27724    46710    25929    -7310   -21084   -20314   -11711 
    6021    19415    16240    -1769   -26786   -36266   -14593    13452 
   22453    22275    19971     4631   -20599   -37381   -33988    -9693 
   23228    42606    34393     2137   -32665   -42637   -21705     9845 
   29346    31209    16650   -14887   -40976   -33548    -4514    24271 
   46988    48217    16471   -28911   -56014   -51746   -25843     5950 
   32135    45623    40690    17618    -9063   -22289   -23211   -23087 
  -23201   -22445   -22071   -14442     9845    43252    60183    38986 
  -11645   -50356   -48670   -26107    -9099     8897    37255    51648 
   28224   -11626   -37172   -43549   -32632    -9980    11693    25193 
   31815    31318    16044    -8109   -19975   -18172   -16609   -16503 
  -11688     -449    12870    19558    19880    20028    13956     -309 
  -12182   -22883   -33436   -26952    -1610    16772    10797    -5563 
   -5283    12893    26584    28256    20571    -1368   -28270   -36898 
  -24414    -8689     1876    13351    24506    23375     6490   -13482 
  -21278   -15333    -2226    11465    12537    -1536    -9946    -2205 
    6515     7755    10525     9050   -12893   -41107   -44153   -15439 
   26346    58409    63013    32567   -18547   -56112   -54936   -18172 
   30349    55614    33196   -20706   -60700   -55638   -14542    30526 
   52316    35332    -5324   -31899   -32455   -16275     6710    19877 
   19958    19531    18859     4113   -30167   -59948   -51321    -3775 
   47228    64432    41071    -2808   -44074   -60685   -36517    17232 
   61037    62559    18635   -43019   -70594   -40859     9171    39240 
   48049    35426    -7581   -54059   -59152   -17768    31795    46899 
   24160    -1934   -11526   -15928   -17949   -10755    -5343    -5734 
   -1637      972    -1764     1949    13324    21531    17806     5418 
   -4699   -12020   -15350   -10277    -6804    -6023      630      932 
  -12005   -18354    -3261    23614    38334    23292   -10949   -29907 
  -20395    -6328     1063    10732    16352    13111     4811   -10648 
  -17832     -854    14570     6203    -6871   -17548   -33281   -28736 
    7956    42120    52184    39463     4356   -31336   -39626   -27483 
  -13003    -2682    -4903   -16267   -17116    -1979    17289    27739 
   19504     2405     2146    17820    24150    10747   -13541   -36028 
  -45061   -29339     4571    26937    23121     6149    -7705   -10270 
   -4306     4135    11695     9270   -10251   -31363   -23737    12128 
   36744    29251     7075   -12575   -30651   -44556   -36526    -3100 
   30742    36799    16056     2390     6192     -149   -20075   -32228 
  -25269     2400    30609    32737    21960    23357    19608   -12409 
  -50795   -62884   -44772    -7788    36957    76831    88442    49580 
  -20889   -72220   -76921   -47478    -9940    24984    46861    30445 
  -11399   -26403    -4689    17285    16858    -2083   -23268   -26296 
   -5223    26867    52874    50145    11056   -34225   -56713   -55642 
  -33939    11261    57919    58483     8745   -30030   -17888     9486 
    2740   -31772   -45928   -15884    26848    43902    38789    30577 
   14968   -16958   -44658   -41233   -15958     7561    22594    27085 
   21350     8118   -10968   -22619   -14007     6193    19803    13242 
  -16011   -48686   -52172   -21581    12611    35550    48235    38065 
    5586   -29052   -43341   -19171    25863    47723    30226    -7422 
  -31966   -26616   -11935    -9035   -12105    -9871      517    15257 
   25598    20358     1857    -7840    -1651     -116   -13273   -26387 
  -25686    -8113    25535    55073    45854    -2895   -51937   -63221 
  -27257    28764    62912    55834    15718   -34902   -65669   -53863 
   -7011    36166    48428    37075     6647   -33759   -50445   -33952 
   -3735    23028    29749    15569    -4098   -19758   -27687   -27517 
  -19900    -3167    24502    54461    58529    21559   -31742   -69106 
  -74235   -37482    32958    90772    85406    22885   -41057   -61425 
  -37174     -464    20883    27600    22693    -1057   -30808   -41827 
  -26171     6377    28239    15620   -11884   -14158     6959    19068 
   15858     8626    -6165   -26985   -30327    -2438    32355    38743 
   17212    -5111   -16463   -25128   -30908   -17508    11186    25093 
   20385    19653    21582     9354   -16266   -40640   -46911   -26994 
    3171    17517    18250    21060    17984     5611    -5765   -19634 
  -32514   -30514   -14889     4270    19155    28570    29636    16691 
   -1189   -13880   -18334    -9273     4275     9177    10386    13012 
   11847      558   -16119   -21505   -16413   -15102    -5468    21595 
   32622     7364   -21172   -22979    -6041    11380    18918    18581 
    8815   -23492   -60583   -64478   -31864    18524    65685    81221 
   52662     3592   -36737   -62573   -69309   -42805    15282    71436 
   78178    28595   -30959   -58260   -48401   -22383     2983    30983 
   48253    28043   -13301   -32211   -19300    -1742    10092    21043 
   12155   -20336   -47058   -46955   -15010    26698    37031    11443 
   -9402     3180    27345    29421    10856    -9892   -26067   -35957 
  -23696    18431    53580    44849     1713   -44003   -56204   -25872 
    8656    20891    18227     1327   -23841   -29069     -814    40281 
   57248    34422    -3434   -31595   -42279   -28794    -3811    12020 
   16668    16676    20352    20834     4060   -18775   -35779   -44469 
  -30836     8514    52019    68260    39680   -13849   -50171   -47240 
  -20903     8448    40748    58430    25524   -44564   -89854   -78795 
  -29947    32737    81808    83481    41485   -10786   -47223   -48154 
  -18110    11720    21587    14628      572   -15391   -25752   -23338 
  -16741   -10577     9266    40969    56029    37376    -2623   -37659 
  -51443   -48019   -28100    10354    41600    39233    10357   -14300 
   -6023    14918    11470    -2447   -13182   -28557   -34426   -18122 
   12903    35727    24696   -10794   -40039   -42834   -15546    13460 
   14366    -1491    -5157    12417    30856    27256     6381   -10883 
  -11350       95     5633    -4325   -22156   -31791   -18655    18488 
   61485    76477    45181    -5914   -43460   -56259   -40606    -9539 
   14127    22121    14386    -1383    -8499    -3503    -1406   -10650 
  -16991    -4521    16120    23530    12468    -8881   -27634   -35171 
  -24321    12965    52074    47569     1513   -43102   -53299   -23880 
   16714    31746     9956   -26439   -36987    -7372    40451    76621 
   75514    29695   -39966   -92530   -94865   -58108   -18161    15111 
   44443    59562    61528    55053    26345   -21196   -53809   -49990 
  -24286      346    22470    38367    30480     -211   -34169   -53469 
  -48466   -22329     8877    21762     5362   -21807   -27679     -517 
   34468    46990    40945    26183    -3376   -36310   -43019   -12127 
   25699    38092    37924    31283     3145   -31363   -48181   -41087 
  -19572    -2037    12310    24125    18900     3346   -11334   -26989 
  -36200   -27585     3442    43147    62691    54704    32886     -302 
  -46306   -86219   -87164   -36796    29994    66121    68091    54311 
   17872   -43776   -91687   -88888   -41897    19357    65819    81429 
   68241    37054    -2309   -41197   -64285   -62043   -45812   -20818 
   21905    68391    79824    39459   -21049   -56174   -53979   -30798 
     270    28725    36684    19417    -4279   -15302   -10021     -912 
   -2070    -5838    -1132    -8588   -43348   -71371   -59560   -16351 
   31486    56732    51190    26397    -9126   -38079   -37601   -14767 
    5377    15742    26339    42515    59329    66658    50773    14759 
  -19487   -47075   -75593   -93872   -77917   -19753    52092   101952 
  123870   110349    44158   -56535  -138808  -154677  -100510   -18264 
   51445    83409    63028    11704   -26846   -29970    -9907    -2531 
  -16525   -21757    -6334    17352    35085    34238    12434   -19323 
  -36634   -27337   -11253      -28    16181    27658    17158     5289 
   18258    37639    36126    17821    -3639   -22905   -39264   -50568 
  -42561    -3969    43004    58442    29921   -13752   -34038   -26266 
  -12117      155    14326    26118    19118   -16206   -48774   -38966 
   -5844    11087    18310    31993    36236    13242   -20838   -32896 
  -19649    -6462    -3048     4465    18879    18495     1294      737 
   19819    21857    -1066   -20814   -17586      596    12860    13514 
    9224    -1071   -16309   -25243   -15777    11705    29852    18048 
   -6579   -28890   -42121   -28123     7777    35055    39838    25331 
   -3144   -27889   -25809    -9606   -16356   -39205   -36594    -5282 
   26050    48658    65545    68769    44127   -11592   -71057   -96645 
  -72819   -13491    43744    73743    73588    40335   -11519   -50610 
  -59335   -39486    -7427    26563    63508    84549    61292    -2492 
  -65411   -85159   -66725   -44262   -23831     5628    33338    39600 
   23557    -5267   -28954   -20613    14412    38453    31792     -859 
  -35762   -38337   -10523    18177    44739    64925    48536    -3551 
  -45882   -49041   -27162    -1347    27907    55333    62241    42319 
    4970   -29101   -42678   -37222   -14546    16406    23487    -5100 
  -34032   -24943    16731    50445    54083    38658    12978   -22266 
  -58174   -78586   -74434   -50765   -16677    21425    53435    65060 
   55313    28081   -21330   -74583  -103542  -107215   -84191   -28201 
   42939    98246   114430    85606    27841   -36776   -84709   -86833 
  -39147    24996    65769    65858    36666      141   -20896   -14312 
    1158      133   -17868   -40537   -51717   -31561    18474    66384 
   78290    42611   -18782   -61300   -59440   -25562    12999    35167 
   29500     5221    -3568    17347    44545    58244    49152    11020 
  -41509   -78206   -80666   -53225   -15248    14272    31754    45758 
   48092     9279   -56330   -79420   -35008    36652    87547    84106 
   33724   -25116   -65874   -78707   -64897   -24012    37057    80817 
   76599    37539    -6913   -49401   -85428   -77862   -12579    53354 
   67975    40741     5421   -14103   -20767   -32782   -41913   -27380 
    4904    35029    51235    44882    14724   -16502   -26680   -17972 
    -175    14663    16052     3944    -9882   -14322   -23468   -45563 
  -46036    -1011    58584    84184    54766    -9045   -63169   -79267 
  -61152   -22804    27159    69437    78192    43969   -20823   -71155 
  -64763   -16892    32653    57597    43339       58   -36212   -36695 
   -3719    42176    74175    63132    -1748   -85109  -125039   -99292 
  -36055    27357    66826    68685    29182   -23400   -48064   -45573 
  -42844   -40795   -13406    40890    76817    65785    27240   -18430 
  -58834   -75995   -55556     4560    72879    93025    44184   -29133 
  -64544   -48100    -8386    26620    39650    26555      513    -9664 
   13069    41377    40315    10955   -28111   -59085   -71251   -62532 
  -28470    25789    80431   112542    94431    24444   -58720  -115704 
 -117126   -59397    10998    45690    44555    34381    28355    25239 
   25402    20007    -1937   -35549   -72723   -89858   -53800    18810 
   73438    82278    51235      770   -39733   -45184   -17544    21250 
   57134    69422    31788   -34844   -77899   -76248   -41062     2172 
   22443    16653    11668    12063     8089    15149    29772    23220 
    -704   -19407   -25238   -29274   -40622   -36455     1432    57284 
  105989   108097    42796   -41997   -93895  -103878   -69421    -4060 
   57030    87049    64386     1854   -43818   -42751    -5035    37704 
   39372    -6951   -63898   -91316   -59232    20198    89688   107464 
   69784    -6235   -83359  -123493  -111777   -50769    27920    70610 
   50009   -16158   -69194   -60866   -10874    41014    74372    71794 
   33397   -16382   -44266   -38163   -23147   -12069     8143    31240 
   36238    11330   -25018   -24987    18936    58704    52578    -2004 
  -62486   -80477   -51628    -5570    28057    45407    54288    49823 
   31627     8145   -17894   -45131   -58718   -45011   -24336   -18434 
  -11457     5753    16093    19762    25479    22585     3469   -26230 
  -48438   -39029    -4464    26905    45921    45297    13189   -31244 
  -64339   -84087   -67747    -4909    51204    63809    51954    32339 
    9111   -13802   -26785   -16974     4409    11550    -2637   -20218 
  -22423   -14754    -1205    20106    30933    20742    -4055   -30748 
  -34618    -9153    25447    50080    51756    30928     6733    -8822 
  -15866   -10143    -3073   -10224   -13124    -1053     9424    18652 
   29258    35302    48498    64604    45554   -14901   -64466   -63728 
  -35187   -15668   -11672   -16335   -26291   -30712   -13575    22087 
   50143    51748    44721    50080    44844    -4818   -88739  -152826 
 -149774   -79601    17362    85608    87745    29500   -43167   -77908 
  -54978     6412    67540    98639    85885    30759   -33837   -72558 
  -91922  -102697   -86432   -35004    41334   123269   171736   159524 
   89513   -16633  -115599  -172220  -172559  -108895    -4765    94143 
  150160   132968    58815    -2536    -9825    20429    48074    39437 
    2400   -37323   -74092   -94483   -72906     -117    98454   162735 
  139006    29265  -107681  -202050  -204277  -108885    23934   125929 
  163426   110373    -6212  -102462  -132707   -85703    11508    85349 
  119808   117105    39305   -79254  -159618  -170384  -108488   -10150 
   62534    87543    85537    70718    52154    43669    22869   -25559 
  -65975   -77587   -62310   -19375    38718    97514   136248   112965 
   20637   -79173  -116145   -72346     4465    46962    36239     -545 
  -40401   -70826   -63211    -7527    46629    53029    21807   -17548 
  -51217   -71770   -59625    -3407    73965   129579   124482    56550 
  -35048  -113979  -153496  -123553   -28629    70168   116587   101997 
   41423   -31496   -86112  -116417  -105374   -39015    57761   138123 
  150861    92429    21409   -28772   -66573   -96030  -100870   -55209 
   16721    56039    54226    35448    19391    18122    20675    25735 
   41893    35417   -13871   -60463   -70020   -51526   -20443     5344 
   18952    27238    32170    39128    39972    10031   -40012   -65974 
  -47650   -10125     8656     -919   -16221   -12723     9174    34362 
   50118    38585    -6274   -56737   -77292   -54548    -8290    25010 
   34472    31774    11410   -31216   -57283   -33762     6916    20507 
    8465      627    20541    61036    86956    64837    -1390   -67251 
  -90169   -59174     3561    52596    52004     3727   -57456   -93096 
  -83743   -24325    65049   135099   150383   104282    10484   -92449 
 -154272  -140267   -61349    35384   111775   139072    92620    -5587 
  -85484   -96233   -52709    -7107    22832    53476    67344    25440 
  -58020  -116580  -105892   -38893    41345    99530   124784   110160 
   49927   -31942   -90296   -97436   -67687   -29016    14936    56087 
   67995    40041    -8976   -43429   -57836   -75921   -84169   -58083 
  -16596     8770     7510     2312    30082    81129   104703    84623 
   47534    11909   -27838   -75720  -108899   -91349   -24011    41899 
   66568    44741    -8232   -42761   -29929     6027    42849    73791 
   97398    93750    38273   -46867  -123441  -153775  -103883    -4800 
   73529   105565   100573    68326    22765   -19916   -51988   -77881 
  -91922   -71529   -16005    42419    69639    61281    39964    25623 
   24096    22165      -27   -33895   -41355    -6952    21697    -6120 
  -71176  -121200  -129517   -97676   -37481    39960   115601   145075 
   93930     2891   -50733   -34758    22419    48423    10120   -42948 
  -67859   -58801   -11842    54664    93478    81885    45478     5765 
  -34427   -54205   -44574   -20271    15763    45073    43394    23942 
   -2367   -44165   -94227  -117074   -80866    -3565    74002   126373 
  135162   100575    41106   -30478  -102678  -150155  -145781   -85430 
     -10    65249    91833    88381    72831    52435     9718   -43776 
  -62172   -51524   -48983   -38961    -2049    33034    53433    69507 
   71710    53103    15599   -38956   -85899   -89403   -45630     4283 
   23306    17531      685   -14922   -15016     2042    39491    73454 
   64324    11722   -68609  -135129  -138836   -93282   -25084    54395 
  108827   116737    89272    37143   -16156   -38506   -24814       13 
    6922   -13369   -47151   -56883   -12154    53271    80595    62089 
   20574   -26572   -64208   -75963   -44868    23654    84989    92647 
   39772   -35707   -78435   -65965   -19066    32954    70282    71243 
   16256   -64100   -98710   -58509    14314    49086    24640   -11491 
  -21119    -9807     6924    14728     2405   -27461   -59096   -62473 
  -12403    70394   129290   124773    59802   -24214   -77541   -90231 
  -81826   -57975   -19180    25207    59350    67636    56779    38314 
    7515   -24084   -38435   -47560   -65578   -80920   -67350   -16038 
   38840    62104    54734    31815    20075    34480    40500     8449 
  -43001   -82879   -86155   -44425     8121    29374    32120    42701 
   39162     5386   -22445    -4116    51183    93804    85985    27508 
  -49662  -100732  -100719   -50676    24710    78179    75072    23444 
  -32810   -48234   -20834    13598    31517    28032    -3426   -58838 
 -107469  -105965   -44162    32788    81079    95948    79083    34724 
  -19317   -70101   -99265   -81179   -39627   -28140   -33151    -4749 
   62105   140247   181160   146560    56628   -47611  -133612  -166482 
 -132594   -52783    41805   113633   119379    50377   -54583  -133942 
 -136652   -69043    12708    64567    83168    77738    49971     5225 
  -42610   -70754   -57303    -7217    39591    53158    42097    14558 
  -23082   -45108   -41087   -22146     7200    39021    55926    50703 
   25209   -20466   -75208  -107052   -78903    14926   120455   168064 
  133505    44103   -39914   -82574   -92877   -80395   -52609   -13994 
   24750    26173   -14727   -45526   -30472     6817    32881    50957 
   62635    49700    17485   -14767   -44868   -63772   -62330   -56174 
  -42711    -8270    25091    43942    55938    52710    25705   -21960 
  -66754   -68184   -21564    36490    80935   103418    89075    38481 
  -23580   -79385  -111545   -98207   -44427    22284    73299    89260 
   75274    48999    11194   -35392   -61827   -59960   -53065   -38638 
    -742    46376    74530    69776    35276   -15654   -63764   -91073 
  -90072   -64103   -20206    38161    97125   121554    84491    -8294 
 -113895  -166688  -125172   -17618    71240    96890    83851    47815 
   -5656   -52300   -64697   -29790    21026    43561    38943    32371 
   30920    11711   -37647   -79581   -72276   -29427    -3373    -8915 
   -7962    17747    59113   104341   111709    51800   -39275  -107551 
 -122732   -84215   -27236    14944    55008   101304   110168    55183 
  -25915   -81384   -89775   -57073    -5903    39583    70676    62725 
   -4756   -69785   -64347   -11114    34426    40150    19826    15642 
