Origin Time       2021/02/13 23:08:00
Lat.              37.7
Long.             141.8
Depth. (km)       60
Mag.              7.1
Station Code      IWT009
Station Lat.      39.0187
Station Long.     141.4031
Station Height(m) 150
Record Time       2021/02/13 23:08:14
Sampling Freq(Hz) 100Hz
Duration Time(s)  194
Dir.              U-D
Scale Factor      7845(gal)/8223790
Max. Acc. (gal)   87.232
Last Correction   2021/02/13 23:08:13
Memo.             
[...]
  -26026   -25203   -27457   -29589   -29002   -26987   -26233   -28135 
  -29335   -26551   -22507   -22453   -28097   -33370   -32355   -27770 
  -24665   -25890   -29153   -28904   -25582   -22798   -23056   -27515 
  -31772   -30094   -24892   -23869   -28669   -32917   -30813   -24871 
  -22422   -25104   -28483   -28719   -26816   -26626   -27526   -26927 
  -25801   -25593   -27519   -30819   -30524   -25416   -22385   -26084 
  -31390   -30395   -23673   -21371   -27957   -34630   -32751   -24799 
  -20931   -24845   -30751   -33574   -29486   -21072   -19338   -26716 
  -33666   -31598   -23234   -19815   -24494   -31163   -34906   -32979 
  -26661   -21455   -21270   -26072   -31351   -30889   -26217   -23896 
  -24548   -26465   -28482   -29882   -31488   -31128   -27830   -24386 
  -22434   -22879   -25330   -29701   -33775   -30014   -21424   -20947 
  -27378   -30788   -30379   -28607   -25539   -23483   -26021   -31860 
  -33594   -27733   -22431   -22816   -23762   -25644   -30352   -31742 
  -26659   -21115   -24343   -32904   -33376   -26681   -21469   -20865 
  -28933   -40123   -37133   -19380    -8151   -17948   -38105   -43869 
  -28872   -15024   -18767   -32023   -38434   -31068   -19824   -18719 
  -29455   -39398   -32397   -16116   -14939   -29431   -39189   -32354 
  -18735   -15449   -22860   -32734   -37778   -31441   -21134   -19843 
  -28486   -38082   -36663   -23153   -13775   -20236   -32562   -36502 
  -29818   -20632   -21918   -32624   -36204   -25722   -15439   -22450 
  -37084   -40670   -32879   -19386   -11367   -18079   -32382   -40859 
  -36212   -25636   -19723   -22175   -31495   -35831   -26686   -14875 
  -19044   -37470   -45307   -32551   -14929   -12012   -27611   -39403 
  -30908   -18608   -20467   -31288   -35494   -27885   -22246   -27846 
  -32617   -28544   -24150   -26191   -30547   -29828   -24961   -22755 
  -26223   -31221   -27556   -16344   -14756   -28136   -40805   -37515 
  -23777   -18792   -24694   -29812   -32211   -31364   -25173   -19332 
  -22597   -32786   -33249   -23040   -20456   -25331   -26912   -28618 
  -33940   -34658   -26025   -20466   -27810   -35118   -30377   -22918 
  -22472   -23480   -22138   -26127   -34086   -32854   -24119   -21698 
  -27299   -30435   -27214   -27436   -32069   -28934   -22037   -23037 
  -27905   -29471   -25438   -20582   -22145   -26354   -31198   -35224 
  -31496   -25339   -22539   -24297   -32940   -37038   -28945   -18242 
  -15554   -25910   -39714   -39544   -24849   -13041   -18704   -34555 
  -38994   -26666   -15225   -19248   -31005   -32848   -25344   -22187 
  -25339   -31236   -34811   -28968   -22558   -25181   -29046   -30433 
  -28497   -22594   -23305   -29848   -32354   -30850   -25980   -24615 
  -28656   -26663   -23751   -28637   -32432   -27816   -18755   -20051 
  -34986   -41482   -29775   -15786   -15300   -26538   -33785   -31557 
  -26006   -21554   -24760   -33629   -32578   -22896   -22233   -28749 
  -31808   -30273   -25145   -22962   -23279   -23367   -29521   -34743 
  -30861   -22642   -19161   -28796   -39174   -32271   -15854   -12291 
  -29403   -43935   -34275   -15527   -13814   -30736   -42900   -34690 
  -18511   -12421   -21821   -38375   -42361   -22778    -3334   -16767 
  -45202   -46060   -21564    -6760   -20235   -42796   -46121   -32734 
  -17693    -9842   -20343   -41496   -44188   -24898   -12299   -22079 
  -36408   -33189   -21934   -21556   -25735   -26287   -27949   -29763 
  -28657   -26847   -27162   -31646   -32246   -23839   -22221   -30349 
  -31075   -23633   -19905   -23720   -27909   -26415   -25745   -30248 
  -33798   -33164   -31699   -30372   -25390   -19603   -23527   -33575 
  -32786   -23361   -19719   -20839   -22366   -25814   -31934   -34488 
  -26773   -23063   -34321   -40344   -29037   -16826   -16542   -24236 
  -31695   -35473   -33330   -22593   -13653   -20822   -34587   -35203 
  -24966   -20133   -25415   -31762   -33142   -34468   -31017   -16951 
  -12916   -27878   -40491   -39729   -31306   -19988   -12243   -19291 
  -33840   -33674   -22100   -21421   -35750   -42160   -26412   -12602 
  -22495   -41631   -43318   -23032    -6558   -14061   -33563   -41494 
  -31445   -16301   -13597   -33347   -52434   -36467    -8433   -12559 
  -39267   -48907   -26950    -4268   -14033   -37605   -39186   -21890 
  -14733   -26566   -36009   -31957   -26747   -26021   -27414   -30123 
  -29322   -23746   -21751   -27120   -33061   -34410   -29866   -22523 
  -21915   -27067   -26622   -21945   -23382   -30555   -33964   -30392 
  -26187   -25204   -24857   -26877   -31796   -30156   -24074   -25191 
  -30507   -33462   -28571   -15091   -12021   -26852   -38245   -34123 
  -24024   -19565   -24852   -32613   -32344   -26673   -22632   -20275 
  -21114   -32370   -50261   -45993   -12226     8725   -12264   -50321 
  -60324   -33809    -5015    -2204   -24591   -45721   -38377   -15183 
   -8017   -22688   -44686   -50436   -30057   -13153   -21325   -34550 
  -34743   -25482   -18913   -21519   -25223   -29724   -33956   -23647 
  -10827   -18646   -40633   -52598   -38021   -12353    -7487   -27546 
  -45561   -36996   -10983    -1680   -23186   -50839   -53476   -24844 
    5359    -4032   -41188   -55058   -33106    -4317    -1993   -29459 
  -52407   -46759   -22291    -5490   -12980   -31155   -41673   -42431 
  -31382   -11331    -2924   -19298   -44586   -51522   -28096    -1100 
  -10620   -46079   -57433   -26127     5873    -4996   -42314   -63302 
  -47753   -13659      255   -16996   -44666   -51300   -22932     3910 
   -8654   -42245   -53898   -28404     -417   -10554   -41049   -48855 
  -31108   -12870    -8769   -19963   -40018   -49707   -34743   -11817 
   -5683   -18995   -37751   -44234   -36749   -27062   -20389   -22253 
  -31360   -35483   -30744   -20255   -16619   -30474   -42394   -31874 
  -13323   -10651   -25733   -40429   -37274   -20869   -12063   -22670 
  -43366   -49194   -28259    -4078    -6930   -36629   -60831   -46126 
   -7415     5602   -17737   -42425   -41781   -25326   -17513   -22441 
  -32458   -40134   -33795   -21506   -22453   -29311   -28753   -24715 
  -21685   -24814   -33747   -33195   -25929   -27043   -31056   -29450 
  -26485   -28061   -27675   -24236   -26605   -29967   -30889   -25768 
  -16966   -22316   -35710   -41951   -35687   -16704   -11524   -32887 
  -50338   -39060    -8730     2924   -25312   -58943   -52185   -12901 
    5825   -17088   -43140   -43653   -29380   -14845   -11284   -23989 
  -35919   -31187   -23872   -26704   -27935   -25471   -30654   -40387 
  -37758   -17489    -6841   -24806   -44528   -38788   -13749     2425 
  -14805   -49411   -62461   -39685    -2246     1877   -34578   -55734 
  -40960   -14839    -1001   -19782   -49095   -48352   -23001    -4082 
  -14114   -39758   -41709   -19985   -11807   -29563   -46233   -33787 
   -3902     1865   -28366   -55155   -46678   -20159    -9278   -22581 
  -38489   -36801   -22046   -13563   -24688   -38854   -33019   -21444 
  -22794   -31668   -38437   -31926   -20425   -26407   -36915   -30709 
  -16406    -7993   -16949   -38483   -43395   -27298   -15608   -19701 
  -32944   -38898   -28591   -16591   -15527   -24235   -33916   -31032 
  -24229   -31974   -40103   -30181   -17420   -17417   -25110   -32090 
  -25038   -13028   -24443   -43565   -41361   -24198   -15237   -29443 
  -46522   -41246   -21277    -7024   -16738   -38622   -37237   -16930 
   -5865   -11576   -31063   -46911   -44092   -36769   -37227   -33990 
  -16395    -2311   -17685   -46881   -48294   -16861     6889   -11608 
  -51678   -62140   -33404     -400     -130   -38502   -70352   -55910 
  -12663    17373     5489   -31777   -49797   -36994   -15105   -12614 
  -35926   -53642   -43263   -23719   -22079   -37689   -43787   -21697 
    3281    -2431   -26106   -40702   -32301    -8382   -10295   -40575 
  -52034   -38875   -24790   -23163   -34923   -37482   -24221   -14482 
  -15967   -26422   -29155   -15075    -8766   -22129   -40999   -43865 
  -26130   -19718   -30330   -32094   -26172   -25209   -34597   -40575 
  -25498   -10983   -17227   -29533   -34480   -28557   -19082   -17838 
  -21135   -28556   -36918   -30005   -17686   -21598   -34985   -42300 
  -41986   -38905   -29988   -11477    -3418   -20495   -39229   -38853 
  -20074    -4558   -24194   -62847   -69959   -29766    19002    19507 
  -31853   -76226   -63451    -8407    28066    12109   -35043   -66644 
  -52714   -11961    13251    -2697   -53063   -87323   -61608    -8638 
   10241   -16681   -50056   -41995   -10003    -7063   -25174   -34210 
  -26094   -13498   -27684   -54805   -51236   -23079    -2363   -11473 
  -47148   -62579   -32965     8671    19746   -20101   -66771   -55169 
  -11426      480   -22349   -46300   -44504   -23400   -17038   -29087 
  -31869   -26703   -29212   -27442   -25205   -36344   -33643   -12316 
   -7929   -27481   -47101   -39228   -13340    -4097   -12826   -27333 
  -40857   -43011   -31596   -18835   -24907   -46843   -49395   -20761 
   -1626   -19126   -43737   -47287   -30962    -6656     1061   -16541 
  -43286   -57672   -36784      124     4187   -25618   -48028   -40409 
  -24125   -20520   -24309   -28694   -28024   -26703   -24926   -13902 
  -16128   -34014   -36927   -30875   -25778   -24433   -33548   -38427 
  -42426   -44979   -21517     5732      783   -27139   -46731   -38192 
  -20136   -19124   -27865   -36213   -43610   -33934   -10245    -6841 
  -27365   -45327   -42603   -21172    -9468   -23160   -36721   -30429 
  -21308   -28151   -41947   -41188   -22470    -9202   -14470   -27557 
  -43237   -49189   -31352   -11716   -16667   -33590   -35158   -18146 
   -4001   -16133   -46400   -57237   -39321   -12987     2405   -15417 
  -52366   -60762   -28917    11935     9759   -39565   -65892   -44496 
  -16341   -10947   -31024   -46900   -33579    -7341     3111   -16707 
  -46974   -44204    -8897     2099   -35942   -73685   -57689    -7075 
   11595   -20065   -55649   -52976   -22358    -6478   -20237   -35847 
  -32472   -22651   -17477   -19161   -31013   -42414   -44437   -38256 
  -29151   -24448   -18528   -14116   -20065   -20123   -10091   -11288 
  -32296   -55493   -48843   -17983    -9433   -31355   -48806   -40375 
   -8899    12827    -8988   -49323   -63042   -38074     3192     7452 
  -35802   -63594   -47858   -21505    -6208   -11963   -34246   -45393 
  -33747    -7852     1790   -30415   -63508   -50689   -15813    -1823 
  -15026   -33432   -40725   -37782   -25479   -11311   -10872   -22779 
  -31045   -32563   -38676   -38452   -16326    -3397   -27573   -59119 
  -55911   -22369     -463   -11028   -34187   -42979   -30505   -10856 
   -8374   -26111   -38200   -32497   -16992   -10752   -27795   -46564 
  -45391   -30973   -25104   -37944   -45230   -32526   -10369     1838 
  -19593   -51345   -50618   -20811     8414     -363   -39856   -53676 
  -36464   -19252   -16684   -31114   -41042   -37975   -32665   -21648 
  -11163   -12907   -21967   -30528   -33501   -20224    -1412   -13602 
  -48415   -60114   -33091     2820    -3449   -49719   -70262   -36366 
    -201    -8239   -34854   -44599   -34792   -12089     -533   -19846 
  -47691   -52474   -27356    -3007   -22137   -56690   -47841   -17605 
   -7485   -15087   -31114   -28069    -6569   -17037   -47147   -49567 
  -27811    -3442    -8448   -44170   -53514   -25251    -8565   -19893 
  -36693   -40354   -29477   -17363   -20336   -36913   -43158   -32121 
  -24490   -23290   -21165   -23040   -24840   -20903   -20163   -28356 
  -34923   -30384   -23858   -24713   -29641   -29853   -21197   -18846 
  -27055   -25024   -15989   -18740   -30591   -41624   -42844   -30635 
  -19967   -23718   -34237   -40555   -33609   -12955    -5540   -22985 
  -38264   -43826   -41801   -25357   -16835   -25706   -32472   -34520 
  -29841   -20333   -17783   -19951   -23669   -28475   -28732   -19637 
  -13335   -32406   -56624   -44378    -9143     -877   -34870   -65001 
  -45800    -1818     7477   -31932   -63293   -43933    -4294    12001 
  -18864   -67959   -63086   -12403     7635   -22095   -54649   -47657 
  -13320     6922    -1822   -28763   -54027   -53501   -26077    -2492 
   -6864   -29635   -41863   -31363   -19033   -24502   -29737   -22311 
  -32437   -54294   -44705   -14412     5008    -4224   -46853   -72528 
  -43654    -4526     1912   -20745   -52172   -52768    -9980    17258 
   -8359   -53341   -62371   -14804    17834   -18829   -63229   -55081 
   -8656    12023   -28283   -71216   -58870   -17000     1054   -16999 
  -38697   -39737   -27031   -10596    -4276   -20787   -46160   -55660 
  -39422    -7797     7249   -13135   -39958   -46396   -33687    -6243 
    3802   -27494   -60500   -51911   -12048     5205   -27178   -64373 
  -56385    -9786    12792   -22858   -63364   -61024   -20941    15917 
    -893   -46508   -58253   -32792    -4261    -9512   -47196   -65827 
  -41980    -1036    17122   -10794   -50403   -51557   -14866    16301 
   -2119   -56045   -87478   -69395   -15403    26609     8486   -47497 
  -75209   -47082     2920    19647   -12625   -53588   -56671   -26581 
   -1256    -3503   -35725   -68617   -56883   -10939    13757    -7392 
  -50398   -63408   -32881    -6126    -8777   -31392   -52883   -43384 
  -10759     5351   -17967   -60959   -69761   -29365    15981    23718 
  -16564   -70081   -77163   -23569    37219    28035   -53379   -99426 
  -43478    46872    64239   -17420  -108205  -109663   -27741    44367 
   28096   -47925   -89361   -59810    -6393    13784   -11202   -52874 
  -69851   -49589   -17469    -3011   -27324   -65477   -59476   -17635 
    4558    -7641   -30616   -38712   -28463   -20652   -20297   -17728 
  -28107   -47895   -40598   -11160     4870    -8208   -41304   -59190 
  -42449   -13892     -980   -16206   -47559   -62830   -40668      538 
   11793   -16389   -47547   -52145   -26781   -10266   -23006   -33184 
  -30419   -23673   -22507   -29369   -23372   -12063   -20067   -38627 
  -42927   -22250    -5680   -16996   -30126   -37459   -53130   -51553 
  -21251    -1248   -14773   -41539   -47329   -28838   -19160   -31371 
  -39668   -29120   -19623   -15662   -10878   -26026   -48482   -43914 
  -21512    -5653   -13724   -32332   -32131   -28312   -41717   -46882 
  -20277     1620   -17729   -43765   -39765   -15805    -4521   -28734 
  -55429   -52083   -36046   -16872    -4916   -14392   -32668   -38871 
  -20683    -1089    -9738   -39270   -55015   -27488     1147   -14647 
  -41959   -50144   -33178    -8168   -10627   -27895   -31959   -32981 
  -45736   -51564   -25281     4954     1409   -28760   -58711   -54282 
  -23758   -15634   -29108   -41801   -44913   -26527   -13521   -25527 
  -27897   -19812   -20547   -17713   -22565   -39239   -33315    -7685 
    1651   -18234   -43403   -39187   -21668   -23386   -26252   -22167 
  -27183   -32991   -35253   -29511   -15754   -21906   -38759   -32197 
  -11696    -9927   -36421   -51440   -28294    -3973    -8953   -35004 
  -60467   -65013   -42700   -12415    -9386   -31719   -43119   -31336 
   -7356     2128   -16756   -34565   -33983   -28796   -28324   -31351 
  -26114   -17045   -28416   -49823   -45126   -14686     5436    -5652 
  -27672   -33470   -28772   -23811   -18265   -23845   -37912   -44501 
  -40011   -21321   -11464   -30852   -44139   -37520   -25651   -13085 
  -25010   -42144   -32467   -25347   -16605    -7936   -32319   -54422 
  -44151   -15961     5125   -16217   -48805   -45013   -24244    -7015 
  -12182   -38766   -43618   -24479   -10138   -11973   -31823   -53353 
  -58288   -42284   -19453   -17640   -27955   -27033   -20777   -14775 
  -22235   -44421   -51571   -42742   -32124   -23579   -27893   -34820 
  -31086   -29632   -31465   -30624   -27924   -16457    -6527   -12078 
  -31371   -57118   -51331    -6006    18642    -1271   -36706   -52776 
  -31342    -4089     -318   -15901   -44069   -46724   -12735      410 
  -23036   -51034   -55553   -33049   -24961   -38961   -39183   -25704 
  -15574   -22882   -41812   -33918    -6508    -5394   -29421   -51351 
  -46742   -11669    11653     -145   -26300   -42844   -35314   -25081 
  -28719   -28456   -25456   -20970   -15465   -24063   -34647   -30905 
  -15921    -8962   -27595   -35496   -13265   -15400   -55696   -75384 
  -38709     5131   -10270   -49674   -54387   -31958    -7823   -18098 
  -49908   -51714   -33944    -9701     5952   -18401   -45154   -40107 
  -22330    -9810   -26939   -54120   -43025   -18339   -15223   -21751 
  -26153   -25681   -30476   -41887   -31109    -9035   -17745   -37841 
  -33227   -17763   -15222   -27803   -39822   -35679   -25157   -28482 
  -40335   -43147   -33565   -17922    -6516    -5393   -18675   -42246 
  -49026   -33955   -23012   -22316   -27330   -29095   -18837   -17447 
  -32849   -36678   -19380    -9346   -25104   -41199   -37011   -24236 
  -17855   -30597   -44205   -27313    -5404   -13116   -36949   -53465 
  -41314    -5289     1356   -24543   -37874   -40142   -27202    -3086 
   -9069   -31764   -43568   -40135   -13910      845   -16957   -34291 
  -32918   -21771   -22816   -37705   -46661   -44196   -27083   -15172 
  -26778   -30141   -16405   -11577   -20480   -38095   -44022   -27009 
  -16054   -18851   -30380   -52035   -48482   -17911    -2162    -5904 
  -30607   -62047   -57306   -30167   -15075   -15369   -28356   -32800 
  -24781   -24019   -29077   -39806   -44950   -30366   -20935   -29924 
  -39216   -36359   -19399    -9675   -29489   -51359   -38896    -9795 
   -3971   -21236   -34037   -28614   -12604   -10735   -24587   -34338 
  -37579   -26634   -10673   -17701   -30619   -28189   -23724   -19329 
  -13983   -19556   -27769   -27490   -27962   -27000   -26858   -32246 
  -22663   -14142   -33878   -51876   -42003   -13401      972   -21176 
  -39325   -25490   -14511   -23804   -40964   -49639   -40811   -31221 
  -24474   -17119   -24484   -31332   -21506   -19125   -30778   -46557 
  -47050    -9301    14439   -20960   -59675   -58240   -26175     3095 
   -7631   -35723   -35897    -9255     8322   -17350   -64841   -73606 
  -33034      920   -14250   -48643   -50539   -19089     5308    -1008 
  -29609   -55378   -49160   -20900    -3591    -9112   -35965   -51732 
  -37979   -24104   -21211   -33902   -54801   -39656     4195    17598 
  -15734   -56153   -57750   -28551    -8658   -10446   -33782   -55857 
  -47657   -30503   -22462   -13846    -5186    -6315   -21235   -32957 
  -37777   -35002    -7531     5660   -29887   -60547   -50160   -22663 
  -10883   -30191   -44383   -27781   -17583   -27286   -33193   -27189 
  -14339   -12560   -27156   -37125   -38938   -38257   -32188   -28768 
  -35640   -46118   -44729   -28186   -13135    -8835   -15313   -32335 
  -45501   -40891   -22211    -6103   -17980   -43131   -34950   -10484 
  -14916   -34217   -40606   -31244    -7933     3836   -14551   -32300 
  -36942   -36545   -25978   -22053   -27530   -24148   -22659   -28636 
  -28116   -24867   -25197   -27999   -36336   -32393   -15905   -23836 
  -48721   -61330   -54687   -24914     2731     1174   -20164   -41524 
  -34781     3211    18509   -16459   -54194   -51721   -18968     8058 
   -2215   -42238   -69508   -56768   -15195    15869     6987   -32355 
