Origin Time       2021/02/13 23:08:00
Lat.              37.7
Long.             141.8
Depth. (km)       60
Mag.              7.1
Station Code      IWT012
Station Lat.      39.3209
Station Long.     141.1378
Station Height(m) 64
Record Time       2021/02/13 23:08:19
Sampling Freq(Hz) 100Hz
Duration Time(s)  228
Dir.              N-S
Scale Factor      7845(gal)/8223790
Max. Acc. (gal)   280.461
Last Correction   2021/02/13 23:08:18
Memo.             
[...]
   13641     8278     4203    -2623   -14476   -26200   -33365   -36205 
  -32829   -21384    -5252     7477    10561     8116     8789    13392 
   17902    20193    17753    10471     4590     2828     1036    -1456 
   -5008   -14840   -29859   -42327   -48906   -48429   -38434   -22405 
   -9571    -2959     1364     5402     8048     9159    11163    12391 
    7075    -2295    -9822   -17022   -23197   -23603   -21070   -19479 
  -14156    -2521     9815    18723    24294    26333    26195    24632 
   17355     6276      984     1259     1175     2343     4826     3442 
     353     -423    -2169    -2290     2760     5198     3202     2934 
    2972      642        4     4052     7454     2658   -10147   -24216 
  -32575   -33509   -30829   -27513   -25328   -23554   -16845    -4657 
    7973    18273    24088    23249    18968    20405    30235    37025 
   28760     5348   -20764   -34819   -35271   -30775   -28599   -30418 
  -30819   -26188   -18558    -8722      619     6250     9055     5906 
   -8349   -26894   -35010   -28620   -14380     3325    20622    31968 
   36292    37459    41701    47190    43588    31557    19075     5215 
  -11707   -26249   -34150   -36138   -34987   -36265   -42534   -46962 
  -41848   -25186    -1399    18643    27687    27113    21277    16399 
   15857    17015    18789    20436    19292    15500    10639     8140 
   11159    16868    19535    15148     3366   -10096   -15844   -13968 
  -14544   -20482   -28819   -37207   -40047   -33970   -21861   -10551 
   -6999   -11128   -17336   -19913   -13675     1791    20187    37318 
   50893    52735    41409    26647    11974    -2047   -11566   -19411 
  -28973   -34878   -34406   -30801   -23422   -13531    -7429    -5329 
   -6596   -13679   -20378   -21041   -20579   -19992   -17442   -15942 
  -12750    -3287     9009    21444    32805    37504    34605    31855 
   34218    38389    39486    36545    29245    15434    -5408   -31226 
  -55908   -70853   -72304   -62981   -48687   -31676   -11813     6011 
   17837    26295    36205    47679    54785    54211    46016    30238 
   11101    -6569   -22187   -34604   -40786   -40250   -35563   -26566 
  -11479     5085    18014    27886    33060    29712    18662     4429 
  -10284   -27668   -47590   -63113   -70830   -71679   -62179   -41049 
  -14593     9108    25128    36590    45527    47382    44911    40703 
   32119    24829    21042    15133     6642    -2992    -9698    -8753 
   -4450     -538     5393    12546    19727    26230    27020    22518 
   19560    19472    20028    18948    12224      186   -13887   -30971 
  -46823   -50792   -42530   -29018   -13439      731     8621    10775 
   14620    23490    30663    30628    21567     1710   -22897   -43749 
  -60835   -70918   -66920   -56099   -49974   -46433   -39717   -30478 
  -21389   -11159      784     7948     6600     1957     1987    10145 
   20197    25246    26342    26165    28327    36158    44803    47729 
   44535    35911    24202    14234     4857    -7312   -19600   -31074 
  -42861   -51298   -53462   -49077   -37585   -20660    -5266     2292 
    4934     8009    14389    27234    43841    56473    60404    55163 
   43775    29253    12164    -5767   -19750   -26190   -27633   -31907 
  -43618   -54772   -54256   -44921   -35897   -30651   -30921   -34186 
  -31113   -19588    -7476     1151     3365    -5216   -16136   -15701 
   -5429     6102    16073    23352    28188    32159    35576    41863 
   52061    58388    55848    47453    37666    29292    22542    14901 
    2909   -12325   -27012   -42780   -58391   -66283   -65881   -58792 
  -42761   -24344   -10783     3757    21699    36490    44440    41898 
   27128     7080    -8483   -13892   -11206    -5169     4828    17095 
   25370    29330    28223    16837    -1842   -22049   -44240   -66036 
  -83579   -96631  -102591   -99856   -90354   -73508   -49457   -21708 
    4702    25286    41777    55466    60940    58796    54886    48713 
   39150    26308     8295   -10535   -22341   -27004   -27064   -22944 
  -15272    -3146    12717    28868    42792    53141    60654    63417 
   56362    40065    18895    -2916   -22113   -40034   -55534   -62332 
  -58465   -43213   -16548    12407    31866    41400    51112    64305 
   77093    88125    90310    76616    48402     7076   -39594   -75929 
  -96939  -108550  -110901  -105745  -102186   -97819   -85734   -67648 
  -40555    -3477    29524    50001    63157    67192    58938    42496 
   14116   -21929   -47023   -61615   -72843   -72531   -63595   -55019 
  -36648    -3724    31160    63711    96573   122804   133782   129547 
  111607    82989    53293    26694    -1996   -36516   -74424  -106986 
 -124357  -126322  -118839  -100521   -72449   -43320   -11530    25022 
   58665    86190   104170   107943   103134    94630    75886    46777 
   21659     3048   -17712   -37948   -53910   -62353   -57073   -47584 
  -48108   -50784   -43534   -31332   -17965    -2150    12347    24952 
   33650    31191    19311     5649    -8623   -23207   -33176   -37818 
  -42361   -46618   -45380   -38360   -25920    -6880    15082    37993 
   63188    86120   100592   106145    98475    66688    18149   -22627 
  -48652   -68960   -88345  -109595  -131479  -143878  -142051  -129061 
 -103115   -63724   -16839    29049    71022   111943   139442   143175 
  135425   120950    97429    70471    39730     2833   -34623   -66283 
  -89262  -101777  -106452  -108741  -103964   -80759   -38313    11433 
   53418    79996    94007    98026    90764    74304    50342    20461 
   -6458   -24493   -36586   -41339   -35025   -23888   -14553    -4342 
   10939    33249    59913    81153    89719    82908    54399     8401 
  -29771   -48134   -61732   -74563   -80604   -88713   -99746  -103727 
 -104037   -99520   -79123   -45685   -12789    11929    33864    56806 
   72085    78132    78044    66060    44856    22545    -4052   -35484 
  -62711   -79107   -84724   -83783   -77495   -61688   -35233    -1417 
   32998    57157    68724    75205    78599    78115    76349    70000 
   51349    21840   -10038   -39789   -65766   -82829   -84699   -70947 
  -46863   -17948    15373    52434    83323    99721    99343    80229 
   51124    26670    12974     7750      363   -16128   -39066   -67578 
  -93139   -98394   -82455   -55580   -18050    21479    41662    44562 
   43314    33878    18258     1294   -23382   -49474   -64250   -66957 
  -59557   -46504   -33905   -20187    -3659    13567    33455    55011 
   72297    84973    90082    76948    44739     7376   -23684   -46649 
  -58627   -57511   -53327   -56359   -61483   -58521   -47228   -33133 
  -20484   -12425    -4110    13851    37685    58114    74795    85518 
   86649    82009    72513    54480    28992     4575   -10693   -21967 
  -39218   -64559   -91597  -106497  -103863   -91149   -74791   -61246 
  -54641   -49939   -39534   -19855     8864    44257    80334   106494 
  113202   104612    95953    89660    78714    65469    49377    23526 
   -9706   -40296   -60963   -74173   -84295   -90018   -91899   -85708 
  -62494   -26352    11175    41737    58700    59158    42628    15913 
   -6141   -21856   -43096   -69471   -87043   -91616   -88126   -70380 
  -31180    20652    70949   113510   145740   160613   159177   145346 
  108325    51675    -3231   -54909  -107562  -148589  -168839  -174050 
 -169685  -149284  -107142   -53451     -364    51067    96693   129824 
  154295   172594   179803   169300   134545    84708    38402    -2413 
  -38551   -66544   -93981  -119279  -128376  -122343  -109979   -92813 
  -72563   -53688   -33593    -4122    30044    52758    55458    37083 
    -635   -46616   -83801  -101929  -101864   -92037   -78850   -59297 
  -26350    20502    69404   108302   133313   140756   136204   127498 
  107709    75659    37027   -10386   -65700  -120511  -161275  -177277 
 -170365  -147085  -111454   -68219   -25266    16038    62418   112025 
  155630   187062   204700   207959   188194   143307    90991    44821 
    7954   -19684   -49883   -90039  -127813  -147679  -142389  -117258 
  -83319   -46028   -15797     1579    17635    33781    42390    44734 
   36709    13216   -18729   -48358   -71888   -93098  -109027  -113093 
 -107647   -93209   -67929   -36742    -5381    24290    53563    81240 
  100579   110821   116764   114995    99353    74235    50499    33435 
   21220     6264   -18090   -44285   -64335   -77583   -74301   -52659 
  -28017    -7716     8197    14678    10466     2207    -5660    -5387 
   15070    45532    61167    57512    45175    29641    16457    14796 
   21713    27905    37170    50094    53042    36447     1873   -40512 
  -81178  -115994  -136768  -141579  -142620  -144161  -139286  -128591 
 -115908   -93895   -56745   -17842     8962    31989    56871    70105 
   75467    90647   107816   114687   116233   112668   102577    94325 
   87235    68797    34874    -5543   -41706   -69699   -83763   -84208 
  -91027  -107928  -116187  -108089   -76235   -18416    38032    66725 
   78266    87841    86875    85487   100850   114038   108106    83322 
   44582     7090   -17288   -28657   -36323   -42121   -38129   -27810 
  -20425   -22613   -35147   -50126   -60403   -66496   -79716  -103958 
 -128892  -154111  -179855  -192558  -183039  -153295  -108832   -54924 
    -595    44910    85864   127318   163714   195451   221887   231913 
  223350   201560   163152    99455    15313   -63872  -123099  -165900 
 -184844  -180314  -171964  -159366  -130384   -91138   -52906   -12006 
   40937    96403   143607   186078   214257   221625   221518   210718 
  181603   144547    99661    52604    18945   -14170   -56212   -97011 
 -135186  -165123  -178964  -180940  -178634  -170460  -151864  -134254 
 -121286   -99832   -72157   -46280   -21718      978    20020    35201 
   51640    69768    80492    83273    83749    82483    80595    80234 
   77036    56479     8615   -52524  -101957  -128156  -129203  -105304 
  -72068   -55113   -62175   -78327   -82134   -61453   -19720    26993 
   66220    98282   111438    95152    73757    67647    73286    90536 
  115992   135990   133308    95408    40150     4268   -13617   -37962 
  -60029   -76580  -105370  -129367  -129285  -114675   -87357   -50923 
  -16730    17621    56393    96601   135561   164243   170739   156911 
  123911    66629     3392   -38934   -63455   -83791  -101493  -121439 
 -147274  -171225  -185658  -181660  -154280  -115218   -77668   -44246 
  -10816    25007    56026    78633    98081   112892   118558   118520 
  118422   119149   115955   102204    75861    41029     5130   -24888 
  -47507   -60334   -58012   -52508   -58753   -66916   -70467   -71606 
  -61113   -45397   -43841   -50396   -50367   -45446   -40042   -36499 
  -34068   -23885    -2921    22761    51318    82080   105097   113333 
  116587   118046   105020    78011    46974    13871   -16324   -36112 
  -48362   -65318   -92180  -117215  -130061  -130732  -117994   -94637 
  -70556   -46521   -14773    21405    47837    60569    67718    73120 
   79456    91579   103314   101209    76095    32516    -3133   -12480 
  -13447   -25277   -42580   -60285   -73437   -69930   -55227   -44070 
  -38499   -37006   -38473   -39629   -39861   -41754   -40915   -26813 
   -1340    23550    41103    49221    50923    54877    63436    67838 
   61638    48370    31584    10049   -13913   -35162   -55314   -76040 
  -88037   -83860   -66066   -35282     2998    32030    46295    55788 
   64582    72014    82582    93181    92388    75381    45262    13443 
   -7508   -20606   -37821   -58303   -72300   -77059   -70432   -55027 
  -47883   -54735   -61334   -61784   -60045   -51657   -32833   -10494 
    8023    17501    16337    14674    26407    52667    81025   100417 
  107457    96510    62112    14926   -23589   -47518   -67801   -81576 
  -76886   -62093   -44726   -19305     5707    22707    38053    48394 
   47503    40624    30770    12596   -15534   -44011   -63140   -73693 
  -77491   -72927   -61192   -41511   -11443    23710    54930    78115 
   92888   100977   106756   109652   101700    78316    42785     6909 
  -16166   -31064   -48999   -65249   -75042   -78321   -69084   -51941 
  -39457   -32850   -27391   -16401     4747    29594    48535    56589 
   50064    25713   -13666   -51250   -70344   -77770   -81656   -71281 
  -48949   -27525    -4237    18600    35726    53557    70600    82071 
   85191    70372    37083    -1669   -33521   -55101   -71481   -84601 
  -94131  -102512  -101817   -78837   -35236    14763    56122    85102 
  104095   106818    97502    89305    76447    53601    24823   -11836 
  -52277   -90684  -125459  -144787  -138739  -114799   -88169   -64027 
  -39151   -19545    -6517    12276    37608    65519    99577   132406 
  152972   161154   153382   124457    83883    45724    15449    -8893 
  -36823   -73604  -110764  -141316  -161291  -160984  -137249   -97382 
  -51827   -13728    12633    34811    54353    68018    78017    88102 
   99203   107933   111230   105808    82949    43112     2643   -26709 
  -47745   -63228   -68855   -70106   -79166   -94047  -109374  -123921 
 -133486  -137721  -137583  -133093  -126346  -112973   -86603   -52189 
  -22704      186    29266    64296    95106   125753   157833   185827 
  212099   230972   234146   228776   214683   185970   150408   112552 
   74869    42747    10304   -25483   -67170  -130127  -208591  -269023 
 -293573  -295969  -287251  -250215  -177858   -91714   -12672    45238 
   94437   150789   188073   205988   229925   238727   225051   201476 
  146693    66186    -9693   -80944  -144131  -188698  -215538  -221724 
 -212958  -198972  -178775  -155467  -130177  -104025   -86081   -71736 
  -53862   -41261   -34620   -22526     -869    22908    37146    38593 
   31738    25278    32967    56018    83543   111631   134111   144697 
  152085   163510   176166   184735   176285   137624    79537    31036 
   -1263   -33635   -64655   -86796  -112756  -141957  -153023  -139877 
 -104140   -49800    -4035    15658    28534    42364    49831    66734 
   90131    91785    76721    54263    15442   -23215   -39170   -41046 
  -40585   -33513   -24166   -23746   -29349   -37817   -49108   -57250 
  -63342   -72293   -83820   -97738  -112882  -125774  -135159  -144346 
 -153798  -153436  -125232   -66210   -11794    13277    39042    73633 
   87759   100799   131060   149577   159538   173105   171872   154664 
  121522    68327    28256    25099    29573    20598    10011     -448 
  -12386   -17092   -16794   -18029   -19109   -18646   -16125   -10249 
   -1540     6320     6211    -3299   -14543   -20115   -15940    -6886 
   -5290    -9216    -5560     5539    17128    28831    39748    45632 
   42317    29509    12272    -3650   -14160   -21149   -32575   -51394 
  -71582   -86482  -100514  -120320  -136632  -143320  -149627  -154546 
 -145153  -108646   -44103    14813    45257    78729   115966   118577 
  110251   120453   128957   133282   128017    96275    51109     9706 
  -15233   -26688   -43973   -65350   -90601  -119426  -127082  -107558 
  -74725   -36416    -5701    14821    37512    58494    68137    73414 
   77728    80454    86373    85811    71389    51930    26974    -2808 
  -28798   -50741   -66501   -70646   -64906   -53068   -35410   -10519 
   18308    44811    69406    93231   108112   108487    98263    76252 
   40713     4534   -23384   -52400   -84983  -109080  -122173  -129404 
 -126576  -105606   -63676   -12005    28580    56732    82063    97391 
  100897    99887    84233    46323    -2212   -48510   -87462  -120676 
 -144169  -150655  -146106  -133951  -106354   -64222   -19975    16059 
   42835    60763    66252    62143    53574    36736    13381    -3906 
  -12370   -21682   -37006   -53223   -63836   -67103   -63684   -57456 
  -50774   -39572   -20818     6451    38759    66567    87578   102840 
  108778   111175   117540   121149   117668   111588    99478    71976 
   32904     -739   -24810   -50600   -74628   -84107   -84218   -83502 
  -79104   -69291   -55622   -36648   -10349    15202    27788    30812 
   30277    20799     5046    -9529   -25980   -44127   -58276   -66299 
  -67639   -68107   -74470   -80518   -75635   -55826   -22882    12202 
   37231    59157    86637   105246   107774   104080    88936    56107 
   23090     6717    -3397   -21953   -40535   -56126   -77186   -91358 
  -85545   -65402   -35417      386    32934    58392    78187    91675 
   97308    94686    82593    61874    37837    17157     2064   -11078 
  -23701   -35708   -47902   -55071   -53377   -43719   -20885    16075 
   50431    64540    60718    49216    31239    12868     1109   -12833 
  -31810   -48776   -65574   -81930   -92265   -98581  -103931  -103671 
  -91434   -63320   -20293    22194    47444    62961    76378    75794 
   63661    53545    42935    26819     4726   -22597   -53862   -88010 
 -115314  -123808  -108369   -70672   -25527     6192    18835    25938 
   36296    46730    58483    67127    58876    32942      207   -27286 
  -38874   -34607   -22176    -5109    11866    23031    31298    38385 
   41953    44930    45924    37166    19404     1717    -6951     -101 
   18040    31625    32575    26229    20711    20892    23618    24216 
   22045    15107     4122    -7855   -19529   -26894   -28351   -27319 
  -25668   -23504   -19980   -14357    -6921    -1526    -5548   -15240 
  -19346   -22073   -29859   -33466   -31332   -31514   -27233   -12642 
    4815    22810    40242    53800    65071    74155    81103    83623 
   70725    35932   -11176   -51606   -77714   -98034  -111294  -112328 
 -116496  -130688  -142684  -151467  -157127  -146317  -105906   -44076 
    2943    18465    28455    44932    59872    82482   108869   118945 
  113701    94894    65932    48841    45816    35086    11344   -15728 
  -43171   -65707   -71288   -58068   -34371   -10446     9011    28065 
   44774    52609    55620    60781    66852    69233    64609    53229 
   43528    43677    52204    63968    70939    66112    55717    48926 
   47051    50696    54310    46782    28860    10165    -6640   -26242 
  -50770   -80030  -114305  -146865  -171088  -188466  -194175  -182115 
 -158284  -123820   -76843   -33943    -8232    10924    31876    53248 
   77215    99735   111019   109009    93285    61111    16060   -28312 
  -62827   -95366  -122095  -123786  -111916  -106652   -95422   -70094 
  -42581   -14802    17751    50369    75197    91255   100611   100719 
   93123    84788    75640    67394    66510    66290    59278    54197 
   56371    61240    67197    70356    64655    53318    42237    32408 
   22368     6397   -18897   -49670   -84678  -121336  -148440  -161782 
 -168532  -166075  -144001  -108776   -77140   -54719   -37413   -19965 
   -1696    19012    48629    80712    98124    94975    75622    44905 
    6598   -30082   -52679   -62241   -66588   -66102   -62953   -62051 
  -63992   -64341   -51692   -19354    19599    47106    62719    72690 
   75227    73766    76059    78120    72365    58135    41057    30411 
   30277    36401    40602    38928    35748    34983    37494    40595 
   37457    27249    15456     6933     2250    -1877    -4770    -7142 
  -14208   -23789   -32485   -40818   -47085   -54607   -65988   -72586 
