Origin Time       2021/02/13 23:08:00
Lat.              37.7
Long.             141.8
Depth. (km)       60
Mag.              7.1
Station Code      IWT012
Station Lat.      39.3209
Station Long.     141.1378
Station Height(m) 64
Record Time       2021/02/13 23:08:19
Sampling Freq(Hz) 100Hz
Duration Time(s)  228
Dir.              U-D
Scale Factor      7845(gal)/8223790
Max. Acc. (gal)   64.485
Last Correction   2021/02/13 23:08:18
Memo.             
[...]
   -8538   -14573   -12649    -8976    -4353     2539     5236     2016 
   -1250    -1208     1737     4414     3240     2074     5298     5732 
     761     -762     3778    12495    20923    22447    21610    21402 
   15962    10804    12382    11121     3526    -1044    -4498   -13508 
  -19828   -16325    -9625    -2331     9103    18909    21180    20588 
   21833    23836    22231    13830     -924   -16784   -22859   -17413 
   -9902    -1722     6211    10123    16799    23861    19477    10161 
    4168    -1698    -6480    -8563    -6714     -777     2382     4148 
   10795    14686     8334     -480     -369     7188    12293    13736 
   14791    15718    18110    18303    10365      730    -3087    -4556 
   -7051    -8163    -2046     9961    16050    16102    19622    23854 
   21060    14283    11079     9429     7194     7623     4961    -4602 
  -12081   -12383   -10268   -10218    -8541    -1229     6018     8179 
    9024    11485     9641      508    -6172    -7381   -10991   -12872 
   -6488     1148     8527    18640    22809    18580    16105    15360 
    9764     4606     6872    12865    16147    14721    11645     9132 
    3807    -3154    -4342     -394     2523     5632    12474    18759 
   17701    11213     6681     4963     4540     4731     1810      453 
    6274    11295    10519     7935     5671     2540    -3287   -11088 
  -14071    -9525    -8176   -11836    -7514     3666     8398     6153 
    5971     7769     7699     7797     4290    -4600    -7925    -2795 
    4556    12371    16578    14474    12854    14812    15106    12021 
    6443       94      317     7878    10012       94   -12483   -19218 
  -19499   -11992     -627     7292    15323    26647    35317    38712 
   35959    25138    14983    13000    10231      950   -10041   -18539 
  -20436   -16278   -10609    -3932     3022     8430     9910     4401 
    -261     3549     2073   -12164   -18690    -5634    11909    21344 
   26396    29812    27075    19776    14594    13564    16679    19210 
   13648     3975    -2910    -9012   -13990   -16748   -19418   -17358 
   -8274     2332    13645    22464    20779    12353     6413     2964 
    -942    -4708    -8163    -9301    -3152     6062     9343    11149 
   19205    27595    30234    31469    32364    26914    13238    -4143 
  -20061   -28206   -23232   -12301    -5957    -3735    -4699    -5498 
    1275     9695    12958    16079    18547    18862    22592    24606 
   18054    11092     4118    -8270   -15167   -12668   -12430   -13664 
   -8573     -820     6658    14764    17119    11835     8051     7481 
    1192    -9436   -13977   -13149   -10214    -2484     6874    11801 
   12609    13323    10860     1390    -3289     -272    -4013    -7743 
    2918    16610    19634    16114    14511    13860    11647    13054 
   16044    15696    18640    24183    25813    27415    27801    20410 
    8644     -984    -6072    -8783   -14689   -21863   -21787   -13529 
   -3226     1283    -4787   -14750   -18692   -14652    -5205     2527 
    2853     1948     8208    19392    26469    25363    20628    17392 
   13197     5617     2118     3916     3349     5501    14434    19480 
   17848    16703    16623    13527     7477     3701     6089    10347 
   10058     8363     9412     8912     7125     8424     7889     2524 
   -1287    -3280    -6145    -6999    -9721   -16206   -16380   -10112 
   -5260    -3522    -4707     -862    12051    19687    16314    13242 
   11622     4283    -5162   -12509   -16622   -11016      718     9196 
   14342    17041    19399    19021    10679     3200     4792     8154 
    3813    -2169     3196    12386    14376    17032    19607    14715 
   12613    17595    18010     9725    -2095    -8260    -4440      236 
    5113    15803    19886    14636    12055     4783    -8704   -14427 
  -16893   -19309   -11261     2582     9787    11416    12889    10328 
    2141    -4716    -8900    -9402    -3937       -1     1680    10752 
   24074    32100    34754    31068    18759     7796     6309     4070 
   -7457   -20349   -23934   -15815    -3233     6334    13383    15993 
   13689    14125    14554     8608     2045     -970    -2253    -3844 
   -3726      846     3832     3388     5664     7723     3812    -2808 
   -6461    -4672     3198    14843    22114    18686    11492     9383 
    5980    -3978   -12972   -21398   -28933   -21622    -4098     4679 
    7554    13493    19607    24167    22184     7130   -10606   -17720 
  -13593      831    17228    19124    11396    14258    26217    33160 
   31762    22026     9760     7657    14769    17841    13429     8297 
    4460     3160     5304     7191    11399    15957    10532    -1155 
   -6648    -5340    -6504   -11319   -10714      294    15302    21216 
   15415     9144     6658     2008    -3484    -5584    -8781   -12297 
   -7850     1683     6037     4396      708    -7524   -17236   -18396 
  -12704    -5162     6488    20754    32151    38950    39082    29351 
   16471     8460     2273    -4621   -10376   -11780    -5692     1664 
    3866     5464     7936     7609     1823    -8197    -9528     -141 
    3292     1308     2679     2353      -51     -534    -1151    -3566 
   -4417     2421    14839    24298    30979    40362    48197    45454 
   36001    24960    10195     2134     4980     3318    -1765     -791 
   -1506    -5923    -5760    -4792   -10806   -18334   -20823   -23101 
  -25357   -19899   -10204    -3416     2111     6142     7695     9364 
   11130    14208    17424    16343    17340    21871    19820    17172 
   21288    20900    14941    13158    11449     6268     4263     3989 
    -333    -4621    -7472   -14389   -22496   -26671   -24921   -17431 
  -11473    -5651     5794    15013    16389    14103    13670    17579 
   23772    27939    23842    13194     5544    -1264    -7622    -2166 
    7614     7083     2631      706      996     6675    11624     5599 
   -2199       81     3765     2901        1    -6257    -6918     1489 
    5753     8043    15091    19406    22889    30368    33228    28701 
   21234     9088    -3117    -5456    -1439     1409      611    -4706 
   -7159    -1906     2309      309    -1698     2263     7446     5539 
     -32    -2586    -1309     4189    10336    14224    18154    18746 
   13250     6353      -40    -4251    -3005      514     5448    18905 
   36458    42556    37419    29465    18432     8253      673   -11487 
  -25882   -35013   -34882   -22736    -5475     7399    17902    28582 
   32494    27351    18284     5213    -8419   -15996   -18887   -17822 
  -16384   -17177   -12984    -7862    -4504     7776    18814    18233 
   20059    22167    12544     1638     -781    -1136    -3435    -3592 
   -1975     -645     5297    16537    27145    30856    23008     9097 
    -379    -2647     -264     5127    11608    16910    21964    24437 
   19171     8214    -3446   -13869   -22199   -25598   -23114   -17698 
   -7951     5053    14202    19491    21519    14342    -1894   -15553 
  -15851    -5834     4738    10115     9957    13591    26958    35989 
   28385    14519     7763     7823    10590    12426    10820     8920 
    8356     6006      372    -8306   -18295   -26451   -31618   -33608 
  -29583   -18638    -8860    -3046     5451     9265     2666    -1491 
   -4279   -14278   -16888    -2527    10237    11245    14065    19419 
   17733    17590    22176    23596    25324    27407    28224    32382 
   33594    25386    13814     5829     3013     6458    14119    12688 
    1486      152     4044    -3925    -9100    -3127    -2970    -4369 
    2232     4903     4577     8648     7893      670    -4302    -6103 
   -7329    -4132     5277    10600    10852    17621    25150    21254 
    9630    -2184    -9895   -11142    -8467    -7165    -7225    -2948 
    2069     3846    12047    20509    16305    12101    12348     7663 
    7437    20413    32042    28279    18897    13343     4112    -8406 
  -15545   -17652   -21057   -24551   -21323   -15129    -6727     7518 
   17143    18490    15691     6832     -233      942     1324     -650 
    4476    13028    15986    17955    22264    24387    25535    31236 
   38603    40980    42342    43953    34457    14881    -1441   -16460 
  -33889   -42610   -42816   -44560   -42180   -31422   -21637   -14358 
   -3717     6316     9440    10917    14393    16837    20056    19639 
   12594     9894    10270     6677     5008     7330     8440     5764 
    6322    13738    15344     8453     4828     5915     7226     7873 
    6158     3929     3693     2516     3411     6697     7776    14813 
   27175    32728    34018    37299    41724    41658    32378    20194 
   11445     2080    -7334    -7958    -4306    -8494   -18021   -28131 
  -36421   -35483   -26716   -17066    -7753     -947     1628     2852 
    5100     6243     5553     8985    17227    21932    18592    12452 
   13192    20579    23016    14797      232   -16839   -32320   -37104 
  -27611   -11450     2751    12702    20811    25567    22358    13095 
    1071    -9891   -14727   -16721   -16811    -7250    11983    29197 
   39424    52290    62399    50535    25240     7599    -4002   -17140 
  -27112   -30757   -32159   -30175   -21081    -6462    10759    25938 
   34727    38946    40798    37582    26559     9836    -7410   -19417 
  -20956   -15560   -13046   -16098   -20538   -19422   -12534    -7213 
   -3404     1836    10424    23701    35683    43360    49096    49751 
   41553    26574     7678   -12780   -27622   -30971   -27930   -24892 
  -19445    -8205     8864    28000    38129    33488    23931    16956 
    8415    -1507    -6756    -7871    -9497   -11125    -8842    -2482 
    5699    15030    19178     9217    -5479    -9772    -9092    -9811 
   -5748     1524     5545    10272    19453    25434    21910    14808 
    8964     1725    -3592    -2116     3245     7944     8703     8203 
    7668     1691    -3827    -2207    -1391    -3100     -515     1899 
   -3269    -9702   -10258    -7561    -2443     5121     7186     1421 
    -587     7890    20329    25928    22102    16837    13802    12775 
    9050    -3279   -10251    -3462     3245     7527    14708    20279 
   20831    17678    12742     9269     7958     2776    -5861    -8278 
   -5479    -3334     1864     7308     1209   -11421   -12922    -2720 
    7454    12262    10760     7472     5711      518    -4911    -5950 
   -9335   -13671   -11765    -6772     -302     9304    16622    20787 
   26234    30256    33232    39966    47295    47865    36572    17874 
    3389    -4957   -12606   -22049   -31118   -31729   -19813    -2575 
   11319    18273    20237    24491    31217    29821    16929      508 
   -9784   -12830   -15037   -13505    -4187     5479    10847    15033 
   19398    17281     5132    -7978   -19826   -32709   -34734   -23889 
  -14922    -9254    -2496     3739    14137    26866    31315    28777 
   25154    22342    22702    24271    20788    12560     4973    -1598 
   -2442     6513    12459    14426    27550    41882    40057    31195 
   22216     4267   -15326   -21514   -23668   -31522   -34639   -28111 
  -17481    -4831    10489    23193    24123    17604    15055    15539 
   14378    12120    11076    11800     9042     2269    -2228    -8888 
  -22108   -30808   -26755   -15846    -6864     1078    14476    29988 
   40991    46894    45527    34750    14673    -9574   -27291   -37056 
  -41501   -36892   -23134    -4060    15099    29809    40886    45547 
   41357    34290    21452     1225    -9749    -8699    -5103     5730 
   19684    25192    27337    31418    32071    25077    12414    -1324 
  -13570   -21614   -24025   -28726   -39058   -42070   -32836   -21487 
  -15360   -14774   -10039     6870    25099    33571    34828    32678 
   31900    35220    32869    17940      132   -10732   -14824   -14949 
  -13356   -10489    -7128    -4789      452    10417    17613    16811 
   11659     6864     1821    -5923   -15512   -20518   -16860   -12016 
   -9810    -4225     5913    18495    29232    32557    32475    32811 
   30036    26504    23693    17020    10508     8505     5868      554 
   -2920    -1587     1499     3511     7904    13240     9504     -777 
   -5738   -12528   -27874   -35542   -31896   -28553   -22970   -12721 
   -1937     8819    17552    24925    34123    41704    42134    34789 
   24376    17065     9516    -2940    -8316    -3372    -2598    -1235 
    9595    18252    23441    31176    32046    25315    21757    20133 
   16360    12209     8769     5204    -1655   -10582   -17388   -21582 
  -19957   -14793   -17405   -27305   -31263   -24841   -17887   -12758 
    -542    12411    14921    16108    20205    16646     8503     3348 
   -2826    -9015   -10077    -7514    -2166     5975    15682    29832 
   42034    37885    25817    22192    21766    17714    14121    11082 
    4448    -2012    -1648     4050     9248    11442    14607    18207 
   14089     4581     -666    -1823    -3368    -3794    -1202     1777 
    1084    -2708    -2627     2471     3287    -7524   -24150   -33782 
  -36282   -38113   -34149   -22123   -11581    -3755     7888    20484 
   26742    27625    29860    32726    28977    22194    22227    25583 
   27066    29066    25816    16627    12081     8878      249    -8136 
  -10828    -8275    -7333   -10045    -5678     5602    10517     7604 
    3447    -3123   -15557   -29261   -37831   -38261   -26465    -3789 
   18107    31984    45507    63153    72585    65219    47308    27436 
    7940   -10687   -21143   -20275   -14912    -9120    -1586    10432 
   23581    31201    31600    22057     7402      -13    -4972   -14364 
  -20983   -24059   -23279   -17494   -13267    -7373      831     4050 
    8214    15735    19464    17645    11520     6925     7392     8029 
    6669     4716     3885     4675     5321     4996     4232     5448 
    6957     4785     3109     5884    13606    24106    27727    21528 
   13891     6897    -4013   -15610   -20532   -19772   -18573   -18131 
  -17471   -15966   -11205    -4691    -1371     3458     9999     9856 
   10339    16838    20849    23635    27916    31276    34136    33043 
   29015    27805    25154    15761     5281     1244       10    -2089 
      39     1107    -7109   -11672    -1668     8116     8156     8735 
    8536     2197     -824    -1753    -5609    -5055    -3685    -6386 
   -7547    -8152    -7618    -5100    -7542   -10223    -3179     8685 
   18496    26788    33222    36898    38172    36381    30388    19712 
    8318     2272     1367     1795     1336    -1849    -6706   -10095 
  -13099   -14762    -9783    -1116      881    -4857    -6060     2029 
   10018    13756    13587     7588      838     1220     6389     7240 
    4294     6563    12495    14563    11780     4422    -3460    -7642 
  -14235   -22377   -20528   -12629    -9351    -3568    10149    19296 
   19877    23230    28143    23441    14519    13822    17208    16858 
   16345    14311     4460    -5347    -8349   -12339   -16260    -9433 
    5836    19812    32140    45991    54845    50642    38565    27684 
   14304    -6025   -25551   -38805   -43629   -37756   -28247   -21242 
  -16526   -14860   -12425    -5329      464     1648     2236     -606 
   -6694    -4428     4234     6874     6525     9590    13443    15979 
   16258    15975    17396    16596    13166    12343    13653    13250 
   10392     8422     9281     8220     5447     5408     5292     5621 
    8839     8781     4399     3026     4176     2016    -2076    -4536 
   -5975    -6440    -5393    -6151   -11130   -15921   -16951   -13096 
    -899    14157    22773    28453    34218    37567    40443    39426 
   28437    14413     2845   -12507   -26215   -26754   -22196   -18852 
  -10505     -808     7160    16513    21273    21092    25099    28096 
   20146     8436     1809    -2442    -4017      364     5625     8629 
   12355    16228    19423    21878    20250    12221     1441    -3704 
   -2481    -3522    -7071    -6538    -1802     1574    -1894    -9157 
  -11842    -8444    -1100     9011    18149    21109    17140    12546 
   10767     6238    -1416    -3649    -1644    -4634    -8934    -8949 
   -9343    -8511    -3235     2525     6511    10102    16252    22707 
   22364    15560     8768     1102    -9478   -15256   -13464    -6698 
    5040    15857    23545    33204    40410    34326    16567     1935 
   -3181    -5917   -10793   -15773   -18287   -16220    -8006     2227 
    9873    15573    16857    15349    18291    21709    19731    15543 
   10508     4661     3302     6397     5526     -931    -6416    -2552 
    9969    15661    13289    15971    17101     8027     -217    -1285 
   -1811    -3921    -3366    -1116    -2241    -6196    -9450    -9595 
   -4887      668     2088     3873    10334    18384    25016    23858 
   13065     4710     2214    -1544    -5678    -6694    -4423      292 
    5155     6748     2397    -6222   -11603   -10781   -10682   -13504 
  -14909   -14230   -11700    -7165    -2485      333     2983    11029 
   24196    35425    44313    53735    58639    57361    54145    44878 
   29020    16243     5347    -8289   -15731   -10361      903     8606 
   11929    14790    16447    15002     7762    -8553   -24699   -32418 
  -38973   -42518   -37316   -33779   -33662   -26188   -14878    -8465 
   -4457    -1035     2641    12059    25913    37525    45404    50174 
   47880    33697    12425    -4426   -13023   -16341   -15981   -13528 
   -7983     2112    13979    27186    38703    40991    36055    30816 
   25031    16906     8218     1375    -2245    -4691    -7292    -4892 
      58    -1000    -2092     -130    -2313    -3009      -28    -3312 
   -8775    -6593    -1817     -625      403    -1182    -9111   -12448 
   -7558    -2991     3545    11618    12776    11237    12058     9838 
    5078     2872      463    -4483    -6423    -5229    -7149    -7222 
   -1983    -1718    -2824     4310     9634    10268    12233     9373 
    3183      646      352     3316     7998     8802     6862     7465 
    8428     2955    -1988     1745     8876    17431    24873    26712 
   28405    30501    27105    20781    15924    12515    11840    15507 
   20233    21803    21033    19426    14233     6288     1651     -699 
   -4259    -5674    -3777    -1188     1217      184    -5869   -10474 
  -12050   -15712   -19885   -23198   -24891   -19714   -11070    -3973 
    3635    10953    16853    19719    18724    17568    14636     9643 
    9593    14462    18844    22333    24193    20092    13194     8376 
    2609    -2220    -5398   -10230   -10521    -5108     -122     4799 
    8583     8293     6519     6008     5945     5950     6373     4708 
    2155     5401    11060     8757     -600    -9031   -12791   -13937 
  -17952   -23863   -24111   -19429   -13672    -4378     4592     9402 
   15805    22424    25655    29821    33301    31932    30203    31567 
   31492    26519    20630    17253    15172    13718    12150     8888 
    3785     -251     -444      195    -1119    -1458    -1395    -5935 
  -11520   -12133   -12228   -16329   -21145   -21739   -19207   -18688 
  -17340   -11187    -4145     2273     8397    12690    16726    20939 
   22189    20197    18585    18026    16529    16171    14673     7592 
