Origin Time       2021/02/13 23:08:00
Lat.              37.7
Long.             141.8
Depth. (km)       60
Mag.              7.1
Station Code      IWT012
Station Lat.      39.3209
Station Long.     141.1378
Station Height(m) 64
Record Time       2021/02/13 23:08:19
Sampling Freq(Hz) 100Hz
Duration Time(s)  228
Dir.              E-W
Scale Factor      7845(gal)/8223790
Max. Acc. (gal)   171.961
Last Correction   2021/02/13 23:08:18
Memo.             
[...]
  -13189   -22262   -26107   -25276   -19811   -10085     4982    19407 
   23087    19526    17099    15677    14112    11762     7734     4279 
    3210     3499     3692     4988     6345     1413    -9038   -16729 
  -17221   -11473    -6500    -8178   -10878    -7222      558     8571 
   17378    24256    25213    21440    12883      900    -8428   -15194 
  -21891   -23280   -16353    -6520     3904    16073    27159    34184 
   33945    26500    18014     8151    -5343   -15637   -16632   -13201 
  -14638   -18616   -17428   -12648    -7630    -4345    -4085    -3408 
   -2593    -5098    -7936    -8932    -8542    -2689     9344    18874 
   17707     7195    -3242    -3842     5385    15364    19877    16191 
    5800    -2373    -4754    -6868   -11340   -14910   -15770   -13448 
   -2506    17647    36038    43572    41103    34955    27749    15539 
   -2586   -15734   -14516    -7109    -2135      684      317      429 
    2918     1540    -1684    -3276   -10579   -24457   -33520   -33895 
  -29107   -17239    -2492     6327    12071    17095    16530     9277 
   -1621   -11893   -19149   -23855   -24030   -16735    -5478     3588 
   11504    22563    35056    42331    39696    30423    21247    11635 
   -4163   -26005   -43910   -48196   -41357   -31958   -20947    -5630 
    9732    21370    32181    42803    51462    58109    59676    52299 
   38157    22797    11870     8518     9053     8422     4120    -5601 
  -16409   -21250   -21852   -26357   -36309   -42375   -38685   -29763 
  -17149      433    17932    30204    34160    28321    18904    11982 
    4600    -7496   -23282   -36366   -38913   -29808   -14895     1089 
   17280    30323    34111    28505    18176     5701    -9086   -23616 
  -30990   -29851   -25398   -20225   -15118   -11272    -7515    -2101 
    5508    15697    27475    37291    39839    34196    26977    20511 
    9417    -6061   -17113   -14982     -807    11743    12009     3900 
   -5400   -12660   -13829    -9421    -5269    -2571     -351     1702 
    4287     5112     1937    -3087    -3260     3288     6100     -253 
   -9038   -14827   -15884   -14288   -12229    -7500     -882     7516 
   20132    30310    32861    31545    24965    13288     2991    -5505 
  -13882   -18962   -18037   -14966   -14455   -14538   -11026    -2169 
    6840     9138     8108     9903    15519    19727    14007     3338 
     561     5081    12750    22887    27329    22291    16264    13520 
   11572     7493    -1296   -13761   -25222   -31243   -33745   -36863 
  -34875   -22640    -7905       97      889      766     3532     5694 
    4629     2133    -1143    -4538    -4834    -3115    -3651    -5189 
   -5316    -4513    -2203     3601    14355    27325    35326    31428 
   14615    -3936   -13404   -17913   -20290   -15755    -5888     4303 
   11595    13089     9598     5000      934    -3963    -7747    -5120 
    2110     6232     5714     6754    13351    21158    24977    26461 
   27245    25398    23689    23963    19737     9645     -656    -8507 
   -9652    -2239     4496     3542     -490     -376     4861     9551 
    9508     7254     4835    -1850   -13767   -22738   -24000   -21702 
  -17123    -6083    11140    27729    37484    38169    30423    16690 
   -1036   -20262   -34778   -39073   -35391   -28962   -20829   -14311 
  -14102   -14582   -10085    -5968    -4552    -3306    -4842    -9440 
  -12476   -11214    -4228     6276    12430     9836     3503     -819 
   -1015     4299    12324    19086    24844    28931    26349    14017 
   -3435   -20133   -33816   -41652   -43364   -42616   -40122   -34928 
  -26549   -12069     9686    33033    52720    72665    93807   105873 
  102010    79564    39201    -3750   -33554   -50822   -58885   -56409 
  -47815   -36240   -16263     6651    17157    14354     8455     5994 
   10381    21813    30327    25172    12607     1649   -10546   -21155 
  -22361   -17200   -11014    -3326     7601    21861    34303    36819 
   30836    25234    20169    12856     7244     3915     -402    -6536 
  -15623   -28931   -42917   -49376   -47106   -42147   -33304   -19147 
   -5800     3758    10332    18107    33116    50442    59491    58941 
   49924    28363    -1815   -26828   -43021   -53859   -55228   -46596 
  -33839   -18098    -1876    12205    26758    36927    37474    33489 
   25562    14883     8152     1915    -7339   -12299    -8472    -1070 
    3339     4033     3686     7952    17274    21527    18096    12596 
    9429    11905    13127     6377    -1833    -7747   -13266   -17451 
  -20949   -25450   -28127   -23321    -9605     8473    25818    38558 
   43443    39240    30323    24281    21293    13339    -2941   -17655 
  -24911   -32813   -40994   -44833   -49060   -54688   -60825   -65205 
  -60648   -46182   -25521    -2380    19444    39089    54363    58452 
   48581    33887    22621    12553     4355    -2138   -13872   -26735 
  -32393   -32549   -25463    -7396    15346    32278    35973    28684 
   18231     2972   -16225   -27564   -31981   -38735   -40161   -23222 
    8546    42237    69275    83133    81105    68115    49573    33161 
   24956    16976     4288    -2727     -294     5267    12316    20204 
   25654    26005    19978     7604   -11317   -29999   -38218   -40656 
  -45577   -48824   -48223   -45619   -33793    -8754    15890    30341 
   42033    53586    60974    65407    63645    48521    21590    -5408 
  -24032   -41586   -63111   -78603   -86071   -89838   -80414   -55794 
  -30951   -11207     9001    31425    50859    59707    53369    31676 
    5049   -11866   -18199   -22233   -26558   -27882   -20367    -3048 
   10253     8996     1961    -2058    -2948      774    10068    19751 
   27156    38542    55341    66607    58546    26906   -13462   -39415 
  -45110   -41651   -34420   -26115   -22742   -14840     7676    31870 
   47117    56889    61576    61636    57393    42573    21093     4432 
   -7072   -12114    -7844    -2505    -1136    -3890   -14719   -26387 
  -26172   -14926     2839    20962    31406    35212    33667    28782 
   26632    23426    16532    11844     6751    -1200    -4171     -897 
     791    -6381   -24502   -43132   -50714   -48381   -38372   -23753 
  -14056   -11017    -8641    -6682    -7376   -13051   -26235   -40248 
  -46877   -48500   -46782   -38570   -24270    -5896    17620    46319 
   69014    69229    47457    21485     5425     1545     4545     4078 
   -6843   -23615   -38207   -44860   -39899   -27353   -13382     1950 
   20644    39873    52267    55849    53176    45731    37512    30395 
   21101     8581    -3441   -13825   -27040   -41073   -45474   -36163 
  -20262    -6390     3306    11140    20568    32096    37855    30281 
   15943     6932     5313     6697     8270     8954     9481    13801 
   22204    25505    20205    16765    19957    20915    14328     5211 
   -4383   -18307   -35947   -54220   -68447   -71350   -64588   -51553 
  -29154    -4067    15093    33048    50897    61510    62586    52768 
   32265     9116   -12050   -30458   -41404   -44285   -42398   -39668 
  -41000   -43282   -40086   -29833   -12388     7379    25249    42072 
   53257    56567    55991    49239    32405     4822   -29026   -54882 
  -61674   -52188   -35826   -18365    -2470    10268    27936    53608 
   70783    72284    66455    56660    47815    44724    42745    37902 
   28115    10139   -11331   -28312   -43561   -58860   -67149   -66426 
  -54540   -29405    -1470    19869    34238    41910    42957    37264 
   25319    11367     5344    12862    21799    20923    19005    24133 
   32379    40331    44733    40880    28190    11043    -6747   -23533 
  -34277   -42260   -56849   -68704   -69041   -65052   -55764   -40528 
  -30265   -28008   -29351   -30137   -24009   -10970     2787    12590 
   15354    16865    21757    24024    26304    29963    24837     9184 
  -13038   -33216   -40470   -38137   -31780   -22257   -15295   -11227 
   -3103     7007    10922     8529     3703     -603    -1687     -446 
    3793    13223    24779    34570    41273    43816    39040    25654 
   10061       98    -1020     5664    15890    26744    36574    42338 
   41407    33471    22499    12970     5152    -1846    -9756   -21293 
  -35552   -46164   -44498   -29304    -8544    11032    24445    29992 
   31302    26867    15847     6721     7042    16838    25428    19224 
    -436   -22464   -39937   -47274   -43298   -38207   -39685   -41863 
  -33799   -13270     6525    13549     8687    -6276   -27114   -41048 
  -42611   -44389   -54687   -62518   -63414   -59975   -38383     6882 
   54260    86617   106947   120382   125806   124119   117386   101888 
   73387    35584     -985   -26566   -43650   -63340   -83245   -96622 
 -107383  -112530  -105761   -86012   -55347   -28047   -12313     2763 
   22881    42425    59165    77915   101217   121321   127942   121895 
  109588    89681    62613    34946     6305   -25848   -60994   -96525 
 -123668  -136248  -134773  -120523  -100500   -84604   -70001   -50988 
  -34665   -20406      942    24637    45821    66610    81891    87033 
   88831    94371    99948   103590   108094   106195    89338    61461 
   35160    16309    -6920   -38696   -65703   -87933  -111747  -128020 
 -128302  -114031   -88624   -56616   -21948     9375    29801    42961 
   51690    50082    45203    44776    42623    37967    31888    23022 
   17177    13810     8294     7025    10191    11595    12943    11034 
    3384    -7296   -25523   -46681   -63914   -85260  -105719  -110732 
  -98756   -66696   -18512    23427    52130    79736   106613   127840 
  141014   136262   111133    75736    39428    10093   -12008   -33555 
  -55999   -78028   -95164  -101433   -99755   -91195   -74941   -61450 
  -54954   -51517   -52793   -51162   -33745    -4915    21756    41332 
   55863    62297    59833    61960    74258    87259   100585   114354 
  117536   104035    74706    36888     7927    -4738   -15138   -28957 
  -35433   -39048   -46273   -51921   -61576   -75007   -82768   -82479 
  -66005   -32634      588    22258    32308    33093    31467    41381 
   62195    71564    63783    53258    41395    28544    25720    28067 
   18820    -2975   -29066   -56778   -82204   -98286   -99760   -89031 
  -80196   -79914   -77866   -64322   -37088     1478    47299    93309 
  131841   161495   178764   177167   154388   111618    61715    21818 
   -9772   -40540   -63814   -79955  -100264  -120024  -128696  -127080 
 -120177  -116619  -113678   -94703   -59784   -21215    12390    33831 
   45662    50819    49160    48556    47204    39375    33939    35479 
   39043    42691    50955    65429    72886    64912    49161    29913 
   12263     5972     5016    -6459   -28962   -51599   -71101   -87160 
  -91134   -78106   -55081   -27232     3217    31951    59128    81002 
   90212    89711    82318    65450    40788    15120    -5004   -17570 
  -21535   -19313   -16679   -14322   -17513   -31761   -43673   -41594 
  -32174   -21987   -16727   -21753   -27108   -16868     8356    31888 
   45486    54209    55324    46948    40671    40111    36242    24112 
    2076   -25755   -41323   -35019   -21895   -17406   -19919   -18670 
   -7226    10257    25137    28348    17338     4054    -3053    -8105 
   -9568    -5714    -5016    -9132   -12920   -18922   -28399   -37623 
  -47564   -56452   -54194   -32721     6031    47646    74120    78108 
   62614    36649    12592    -2624   -11754   -19488   -22102   -13495 
    -187     5898     3538    -2917   -11384   -16244   -10936     2339 
   15051    23361    30682    38477    48533    63381    74945    76048 
   70089    58155    39374    18204    -4075   -33655   -68643   -97398 
 -115533  -124190  -124360  -118368  -103951   -76407   -36312     8722 
   46259    69282    80358    82455    76825    66357    54102    43225 
   32698    17798    -1575   -25336   -52323   -72925   -78036   -68897 
  -55844   -47642   -44437   -41411   -29265    -2272    31896    62237 
   84511   100306   111591   119628   126712   126748   112334    91897 
   74266    55661    32258     7319   -14422   -34510   -54615   -69037 
  -76306   -82730   -90335   -92522   -81830   -61615   -39415   -14666 
    9969    25654    29864    25624    20062    18810    17298    12297 
    9471    11192    10326     3704      186     1552    -2081   -10354 
  -16596   -23472   -31830   -39584   -53978   -75222   -89723   -90455 
  -78151   -56857   -30723      527    30492    53927    74692    84508 
   73190    48277    17234   -11719   -24533   -24904   -21118    -4251 
   25247    52080    67684    68472    58807    55760    64914    70285 
   63705    53185    39646    15277   -20864   -57780   -86341  -108954 
 -122936  -122393  -113443   -99819   -78478   -50835   -18779    16159 
   50313    80573   105829   127957   146600   153814   143702   123611 
  100238    66738    22779   -19074   -53584   -83172  -106763  -120754 
 -124260  -118199  -101461   -77863   -56821   -37490   -15977     1849 
   16930    34591    50990    64628    74349    73164    59232    37924 
   16121    -3233   -18327   -23722   -21976   -23040   -25871   -20943 
   -8564     3788    16965    28734    28468    19446     8419    -7129 
  -19984   -26404   -35375   -42919   -47181   -56685   -60084   -51672 
  -44118   -29130     -190    30888    62930    93803   118563   134939 
  132406   119047   113413   107161    92857    72708    41280     4405 
  -35812   -88300  -137895  -165584  -176751  -178804  -172304  -159873 
 -140209  -106105   -61242   -20833     9232    32560    51221    67213 
   81179    91633   100545   109219   111046    98350    73276    44235 
   16900    -2608   -11142   -18744   -35588   -56197   -66129   -61712 
  -52380   -37698   -14434     8208    28441    47687    58905    62691 
   61015    48367    24183    -5726   -31164   -41594   -37056   -25014 
   -9780     6096    16201    19095    26304    45037    65520    76950 
   76060    57861    25096    -3692   -20709   -34060   -39700   -32941 
  -26927   -25386   -22450   -23136   -26650   -28533   -34276   -41968 
  -42719   -36103   -25377   -15184   -12744   -17814   -23627   -26766 
  -25184   -17092    -3338    12928    25266    31256    34604    37295 
   41014    41727    33941    25101    16672     1543   -12264   -18316 
  -23658   -26360   -21091   -11848     -263    10662    16623    25228 
   39529    49797    52212    48470    39267    28880    21286    12876 
     287   -13224   -28084   -48405   -72492   -93947  -104386   -99050 
  -78425   -44902   -11198     9366    21649    33093    42689    49916 
   52398    45837    33656    26832    29855    35147    35186    27166 
   12077      189     1493     9805    13045    15689    24663    25876 
   14810     5751    -1410    -5620     2127    15400    27029    35799 
   39263    40435    40209    39773    45342    50976    48876    44397 
   35796    14689   -12807   -36749   -57362   -76059   -93541  -111315 
 -123606  -120112   -97140   -58669   -15672    18835    42403    58085 
   66474    73514    83779    93152    99808   101299    90460    65834 
   32162    -4063   -39923   -75851  -102853  -110046  -101749   -84171 
  -54913   -23957    -9308    -3395     7804    17367    25222    35657 
   40818    41607    38369    22870    -2122   -29922   -58210   -82737 
  -95577   -92160   -79455   -66571   -53144   -32904    -7792     9008 
   10956     3489    -5012    -7298    -1502     7519    10813     4214 
   -2425      297     9590    22678    36772    46180    48508    42705 
   34095    32373    36329    40787    45565    44694    31702    15016 
    2897    -6461    -7261     2254     8133    10191    18740    29118 
   38230    48826    52952    47949    43555    43175    42566    38776 
   34619    32902    28107    17230     4156   -13328   -36813   -55930 
  -66241   -74941   -79606   -72574   -54656   -29652    -7226     1715 
    1337     -120    -2685    -2258     5030     9124     3946       91 
    3947     6943     4116     2270     1246    -5065   -10065    -7322 
   -1830     2875     4479    -1405   -12415   -19431   -19741   -18115 
  -15552   -11796    -7090     1449    15036    31109    39495    31666 
   14651    -4795   -22509   -29848   -29285   -30073   -34896   -39364 
  -34025   -18709    -1614    17625    39496    55480    58691    48961 
   32871    20393    15672    18631    30019    42796    43875    28960 
    1416   -29168   -49955   -57558   -55903   -52235   -48567   -38179 
  -24574   -12711     4153    24486    38072    44564    50865    54837 
   46674    27201     7740    -5583   -16420   -27110   -29731   -21440 
  -12625    -6075     1999     6100     4110     2585     3379     6390 
   13630    23826    32296    29177     4749   -29332   -47236   -43059 
  -26647    -4920    13153    24310    33652    39469    39904    39982 
   43827    50974    53732    47001    37328    29268    19947     4291 
  -20498   -47557   -70410   -87496   -91816   -82229   -66708   -48780 
  -29420    -9045     9702    20671    26505    32871    35631    34719 
   36116    35534    30832    29274    28476    22620    14696     7893 
    3635     3862     8548    14494    16380    12425     8283     8401 
   12434    20474    24605    13382    -7171   -22416   -29207   -29759 
  -23584   -16009   -12943   -10416    -7631    -8930   -10890    -5849 
    9225    26724    32829    26179    16641     3307   -16637   -31105 
  -39775   -55617   -73241   -84349   -93128  -100314  -100049   -86637 
  -64308   -40892   -12028    21169    42452    51556    62235    71639 
   73246    69552    58147    38715    21209    13293    14080    18856 
   23808    27642    27926    23788    23152    31529    42742    52173 
   58704    55823    40471    19450      926   -12371   -22495   -29920 
  -32490   -29002   -19076    -3565    15033    32741    47023    58124 
   64276    61847    49781    31707    12463    -5861   -20741   -30788 
  -36918   -37918   -35398   -34323   -33091   -26109   -14515    -3014 
    4588     1956    -8248   -14416   -17289   -20922   -21010   -19762 
  -22852   -27309   -28123   -24152   -18607   -20792   -35633   -51915 
  -56627   -50461   -36400   -16684    -1433     5100     6619     1321 
   -6274    -5779     -804     1071     2278     5547    10755    18755 
   29628    42714    53956    58247    58765    60381    61047    59255 
   53271    37987    16988    -1202   -18295   -35920   -46383   -47541 
  -44274   -35208   -19575    -5684     -529    -3222    -8523    -9821 
   -1911    12081    19915    14292    -2080   -21049   -28545   -21508 
  -13527   -10021   -10103   -13914   -11221     5221    27660    46387 
   57447    58639    49851    37552    25266    12253     2254    -6863 
  -18895   -26744   -25685   -18644   -10250    -6502    -8176   -11213 
  -14759   -15244    -7626     2450     8532    12951    17726    22094 
   25153    27653    30535    34122    41517    49621    51993    51089 
   46207    33624    17672     1356   -16237   -31102   -36965   -36682 
  -37251   -38232   -41185   -47684   -49576   -44119   -36092   -27859 
  -21502   -14567    -3753     4519     3181    -7786   -24745   -40626 
  -50113   -53790   -53811   -51768   -47910   -41418   -29377    -8397 
   17860    43480    67165    85573    92724    89067    82333    77421 
