Origin Time       2021/02/13 23:08:00
Lat.              37.7
Long.             141.8
Depth. (km)       60
Mag.              7.1
Station Code      MYG002
Station Lat.      38.7262
Station Long.     141.5109
Station Height(m) 79
Record Time       2021/02/13 23:08:09
Sampling Freq(Hz) 100Hz
Duration Time(s)  282
Dir.              U-D
Scale Factor      7845(gal)/8223790
Max. Acc. (gal)   179.995
Last Correction   2021/02/13 23:08:09
Memo.             
[...]
  -31584   -15066   -20040   -27103   -20370   -26153   -32933   -30272 
   -7107    24445     -598   -50534   -49918   -19396     3281    -3979 
  -39460   -56716   -32624    13165    34381      133   -45993   -53653 
  -27229     4704     2664   -29631   -40482   -40456   -44563    -9243 
   21498   -18053   -56170   -29398      290    -9377   -19273   -37905 
  -61090   -26555    12818     2523    -1493    -6525   -35625   -43110 
  -26396   -13279    -6358   -16649   -32055   -24902   -13346   -14300 
  -30493   -48147   -23904     7203   -13514   -43695   -37146    -3967 
   21483    13941   -27373   -86022   -97050   -20925    53963    32521 
  -36421   -62438   -51991   -19075    25963     9956   -49536   -58446 
  -27437    -5078    -1783    -7888   -14748   -30069   -27044   -15417 
  -34022   -25888     6521      814   -14112   -28354   -38380   -20636 
    -488      603   -30559   -58982   -35537    -8754   -12831   -23947 
  -29334   -20062   -12239   -26076   -32410   -12052    -1786   -13185 
  -30095   -41974   -19429    15442    15242   -16298   -56952   -48427 
    3383    10975   -13709   -35405   -47552   -20650     3327   -14430 
  -35819   -30512    -1451      220   -29739   -25995   -15164   -30881 
  -34315   -28993   -20343   -12318   -27741   -28818    -4568    -6593 
  -19970   -21579   -30203   -13290    16335   -11584   -54697   -56131 
  -42029   -25760   -14856    -7302     9832    -2737   -50168   -76018 
  -46489    21833    39970    -7041   -36439   -55606   -58730      373 
   39100   -12892   -63964   -48000   -24055    -7059    18374    13481 
  -13441   -43285   -73631   -49985    16854    36661     2976   -41642 
  -75143   -53130     2293    12933    -4064   -21872   -45574   -42199 
  -13521     1791   -12714   -27261    -8997   -14324   -58483   -35669 
   37277    20887   -54873   -65734   -31761   -17236    -9223    10633 
   11103   -29162   -68538   -69059   -27371    22962    24525   -10462 
  -44730   -60964   -26406    22561    13649   -39738   -66561   -43100 
  -17432    -1047     6697   -12552   -19387   -15040   -23769    -7975 
    4468   -30504   -52280   -27749   -10886   -16517   -24613   -38859 
  -37443   -17428   -20609   -19923    -1021   -22916   -29196    18414 
   -1190   -64520   -48695    -6232    -6651   -12618   -14162   -28780 
  -27841   -11920   -15630   -23792   -24798   -22218    -9640   -16362 
  -36751   -26109   -11457   -19650   -27652   -30086   -26875   -25443 
  -20353     4565     6106   -20646   -34059   -43279   -31838   -10269 
  -23249   -28293   -23841   -29592     4087    21751   -29079   -44076 
  -13591   -25658   -28320    -3038   -34546   -48647     6470    10492 
  -30389   -41956   -43492   -25523       74   -10026   -20983   -22491 
  -35118   -23280     -877   -17212   -27718     3299     1790   -50494 
  -63495   -29720    -3538    13857     1593   -40435   -45538    -6060 
   23051     -837   -50202   -59671   -34553     6664    27149   -21413 
  -63074   -42853    -9556    18669    12241   -39626   -63094   -37588 
   -5089    19592     9223   -37301   -52348   -12908    26808     9385 
  -54438   -81132   -31348    32140    27052   -31237   -51549   -37480 
  -35776   -13142     2590   -24433   -13282    10069   -42800   -83502 
  -32127    28672    20756   -32112   -80277   -79704    -4048    75402 
   59304   -50816  -147322  -105329    32089    89325    15732   -81928 
  -95260   -24241    35294    13533   -48554   -68609   -39737    -1090 
   22399     1197   -46626   -45126    10490    30257   -24943   -71898 
  -62645   -36170    12202    36900   -28255   -73595   -26029    12010 
  -10297   -35645   -35513   -20540     8000    -1329   -52351   -47042 
  -12609   -16595    -7431     6084   -25128   -46853   -28206   -24767 
  -24943    -2655    -8905   -23468   -24189   -40563    -7129    49894 
    2473   -71853   -66727   -37959   -13798     4344   -12888   -52548 
  -57302    -1309    25127   -19699   -40536   -31464   -31851    -8672 
   15689     2088   -21837   -50085   -62137   -14602    29879    23291 
   -8218   -70738   -88059     2454    68891    20984   -63551   -85461 
  -32782    14616    20993     1085   -56963   -95929   -35719    54943 
   44591   -51888  -100977   -53264    14728    25844    -9818   -29821 
  -32957   -50080   -44595   -14620   -10073    -9196    -3653   -14939 
   -6534     9391   -17977   -57092   -50384   -12953    -7796   -18459 
   -5645   -11292   -21932     4531      -16   -61230   -74185   -20317 
    5872    -7055   -15607   -13184   -21988   -38720   -24754      851 
   17139    25023    -7445   -48091   -50125   -36853   -10233    28385 
   14636   -67095  -105930   -29220    61142    48929   -32757   -87682 
  -69799    -6463    23434    -9936   -48635   -35175    12218    16846 
  -31259   -52647   -27598    -3524    12303     7773   -38973   -60018 
  -23237    -6403   -22283   -45823   -79859   -70452   -20306   -12808 
  -18983    -6057   -25740   -37669    -5235    -7074   -42499   -28942 
    8775     3146   -27981   -52968   -43725     5721     6582   -51956 
  -66202   -26555    20799    24837   -33678   -69175   -50426    -6772 
   36661    19689   -21186   -26395   -33735   -42483   -31500    -5571 
   17266    -9057   -57792   -65180   -40826   -16456   -14480    -9801 
   17228    -4762   -69574   -70139    -8113    27841    14180   -10725 
  -47204   -95628   -73062    19523    60058    37413    -6458   -78904 
  -98639   -16934    42850    30379    15626   -20177   -87862   -80785 
   18877    77045    30950   -49642   -88632   -39627    37586     7030 
  -89742  -102195   -22747    45229    35492   -10720   -41681   -57672 
  -49702   -29805   -17570    -1648     2158   -12059   -27244   -61528 
  -69430    -1775    41999     4733   -41227   -50522   -35365    -9157 
   18913     8943   -29928   -32651   -23098   -36755   -30461    -7587 
    1622    -3069   -49140   -96471   -63022     9547    49561    39297 
  -17736   -65820   -43372    10847     8463   -41003   -63034   -37469 
   10449    29114   -11335   -53704   -54017   -31795    -6327   -19016 
  -49574   -14330    15615   -29111   -37164      733    -7832   -24048 
     596    11712   -25913   -61484   -62159   -41681    10245    51202 
    3898   -73799   -70837    -5483    30979     2276   -46799   -52724 
  -30223   -26415   -22320    -5293     1636     -737   -18802   -43526 
  -45230   -38130   -23039    13174    31045    -7785   -67575   -64555 
   -5441    22079     1107   -35290   -56145   -46102   -17084    10291 
   -4006   -50458   -62438   -30524    -7743   -31236   -57114   -41962 
  -15684    12494    17378   -38016   -64530    -5815    23363   -19962 
  -29793     1958    -7821   -24543     1483    -1736   -49048   -43109 
   16127    22450   -33818   -63459   -47374   -23164     3605    14958 
   -7516   -36217   -36508   -15503   -19600   -34900    -8997    18122 
    3083   -30527   -62606   -51000    12351    38434    -4680   -53241 
  -69680   -45166    25089    79500    28165   -66947   -82728   -60381 
  -45559   -16008   -11268   -13863    -2178   -34002   -65272   -52467 
  -46303   -29431    21351    42466     1979   -44506   -48382   -22752 
    6903    21209    -4440   -38410   -25961    -8803   -26401   -36875 
  -29450   -34689   -56902   -46043     9714    14875   -39488   -54271 
  -31349   -17691   -23400   -41728   -19535    22933     4052   -41940 
  -55479   -31893     3697     1691   -23742   -34026   -29763   -28051 
  -57551   -53800    32898    72270    18018   -39106   -77838   -60536 
   19631    39533   -38812   -95944   -46354    30707    24162   -21008 
  -32792   -32630   -26258    -7191     3577    -7059   -43245   -58480 
  -11380    35047    24534   -19184   -48095   -35197    -7045     1225 
  -16136   -40346   -32451   -13824   -29228   -22492     8154   -26447 
  -65902   -35058    -6826    -9285   -16725   -19684    -4523   -10963 
  -52015   -52922   -10440    -7030   -40358   -45927   -41881   -54720 
  -49216   -21859     7977    26684     8765   -37687   -62419   -46989 
  -33470   -28794     -118    20692     2629   -24753   -45549   -37041 
   17217    38530   -22531   -85338   -82107   -22431    35259    44111 
   19479   -43995  -115982   -91253    10588    68407    36470   -47112 
 -100998   -74031    -6274    21448   -10894   -37944   -22129     1725 
   16386    14172   -36383   -91563   -75420   -18106    37145    51163 
  -14134   -66380   -60135   -49211     1672    46606     1000   -35631 
  -37979   -62143   -45426     7732    42865    45846   -21431  -100106 
  -93460   -28981    36779    54753    -4201   -71413   -80515   -32927 
   42456    62881   -15140   -93387   -81074   -17517    23456    13813 
  -24529   -48139   -35788    -1327     6910   -11071   -26252   -65400 
  -75855   -11291    34005    43256    15765   -85050  -124517   -37154 
   33704    40073     4947   -72122   -90745   -14454    38537    28763 
  -20447   -72604   -39764    28499    19484   -22040   -49742   -58541 
  -35097   -13065    10918    11859   -49864   -70665   -22079    -2532 
   -5412    -5796   -27734   -30811      155       51   -22185   -14829 
    -317   -12607   -47308   -61682   -31666      336    14690     6862 
  -30036   -42988   -28053   -36624   -47733   -26717    13471    23938 
  -14299   -45937   -60376   -67844   -17413    60203    48675   -58687 
 -127728   -68253    29299    50892    22825   -16055   -55976   -43220 
    3740    12352     -758   -13770   -31005   -25571   -23589   -46777 
  -16490    51922    30716   -60027   -93067   -52126   -10828     9298 
   20287    -5938   -41755   -45064   -36477     9618    32535   -68823 
 -149767   -73399    57784    93322    -1591   -89934   -60903     8037 
   34260    15985   -26237   -43958    -8451     7523   -53437   -92398 
  -37538    27157    14014   -54028   -87161   -49800    38148    84126 
   -7770   -97380   -49546    22312    24754   -36130   -93091   -59871 
   11005    38017    21420   -30603   -68893   -69264   -67636   -27027 
   41728    15661   -83079  -102610   -34808    22079    43414    29435 
  -24128   -66239   -54155    -2625    50066    46336   -19684   -60835 
  -54535   -49829   -32509    -8109   -27211   -54569   -31677     -741 
   -7514   -24363   -40462   -57871   -43587    -5849    -1237   -19799 
   -8608    22620    27754   -15353   -53145   -26987     5609     1233 
  -16123   -41438   -40213    -2825     7425   -20031   -36397   -36174 
  -31943    -8943      949   -25651   -23010    14654    19723   -23114 
  -84422  -101526   -34383    53573    64746    -5637   -74564   -85180 
  -38504    16702    22815    -1661   -25475   -41817    -3233    66110 
   55285   -41185  -132750  -130258   -14027    82663    46213   -35490 
  -63231   -66887   -43690    32448    58684   -13782   -78081   -85969 
  -47395    22863    60463    33381   -41809  -104684   -74979   -11928 
  -14210   -24613     7512     1539   -60654   -62303    12136    52062 
   34684     1675   -49626  -111522  -104558   -20155    42454    58729 
   19818   -64570  -106714  -103604   -45058    73230    94473   -25668 
 -125675  -104411   -29203     1011    10035    17791    -7493   -32772 
  -47407   -54916   -33120    -7568    -9649   -46363   -61823   -19234 
    6860    14430    18095   -26801   -64393   -64648   -44388     3784 
   -4356   -61249   -42726     6905    -1960   -43012   -65601   -38437 
  -15504   -39915   -26473    26558    29987   -20525   -86648   -80268 
   30874    98448    43033   -39627   -73795   -71424   -51255    -3460 
   24300   -12775   -40856   -17971    11568    13720    -7485    -7825 
  -11832   -57742   -76000   -53851   -26080    20945    38847    -5130 
  -48321   -71265   -85442   -52191     -464   -18389   -49503    -8707 
   30283    -6029   -75270   -72092    29007    88735    24246   -57557 
  -62403   -30419   -13680   -15831   -21116    17531    72785    44143 
  -42210   -78398   -59760   -46063   -38415   -18752    12116    56304 
   45801   -50517  -104641   -66733   -29033   -16641    -9324   -29565 
  -66129   -61258    -8436    21007   -32823  -106103  -102708   -50485 
   13944    79120    59035   -44825  -107352   -75519    17845    73596 
   16862   -72827   -96233   -20167    87489    62309   -61377   -94763 
  -46145   -10002    21285    37917    -9701   -68512   -36487    28459 
   -2245   -86620   -91023    -3539    65298    41939   -23749   -51885 
  -32373    16402    44736   -19646   -94479   -65418   -23816   -19044 
   21772    40154   -18256   -65294   -81052   -83771   -22243    45153 
   26605   -27904   -68223   -63417      283    41204    19576   -25149 
  -57132   -47112   -33052   -49005   -16976    58999    45781   -63135 
 -138516   -97552     2289    54052    62797    33790   -33538   -35036 
   14065     7497   -34813   -75525   -67806     3262    19217   -22539 
  -34226   -46033   -39737   -15068   -31864    -9805    41323    -5703 
  -62221   -14108    34400     8444   -22015   -39456   -63983   -59503 
  -29937    -2454    19440    19944   -16170   -83841   -97854   -16803 
   23137   -22181   -40960   -20691    -8615   -14393   -44302   -51422 
    1757    27978   -32147   -97474   -92865   -30460    15904     4843 
   14193    40084   -16735   -78983   -72455   -54031    -4730    61946 
   52604   -29778   -92574   -51283    41424    37243   -47733   -67274 
  -12706    30858    37311    -3370   -49827   -40012   -15028     4810 
   14528   -27611   -54986   -33693   -25577   -24923   -30302   -18814 
   46838    54815   -49291  -142071  -158645   -81643    78163   168385 
   85135   -69699  -140919  -101649   -45773   -12317    14774     6758 
  -26289   -22709    -2583   -25589   -43055   -14651    -6751   -23926 
  -17713   -11103   -29674   -29884    -8305   -22295   -22212    25246 
   16499   -59471   -99625   -46457    44230    66891    23089   -35550 
  -80708   -55611    13716    23467   -13039   -36525   -60315   -48412 
   25110    31517   -75614  -147155   -99931     6257    60077    12703 
  -60416   -88160   -57928      965    24834    -9728   -51850   -38925 
   -1244    11342    17432    18392    -2647   -40585   -45662    14678 
   50838     8903   -32533   -42643   -48006   -19938    22924    -1194 
  -62121   -77738   -44369     2079    23703    12600   -13517   -31074 
  -26889   -39667   -76168   -53939    39630    84566    13397   -81970 
  -81580    -5256    24482   -26523   -84670   -82196   -26485    -8189 
  -28867    -5857     8353   -27137   -33253    -7222    -1112   -19596 
  -42469   -37361    14048    59455    14067   -73965   -76882   -21236 
   -9602   -24459   -11784     8807    10386   -16164   -76808  -123618 
  -92431     6363    87092    68816   -23476   -91334   -70513     3323 
   25704     2837    -3532   -34938   -68917   -33616    22169    38375 
      86   -66008   -71487   -19919   -13093   -22351    12653    -4864 
  -80275   -89715   -51821   -21033    19314    20228   -38929   -72727 
  -66004   -37162    21446    28749   -25790   -47626   -36741    -2243 
   49103    37592   -39946   -84929   -56633    -8264     1794   -19971 
  -22451    -5431     -972    -8750   -32575   -44288    -4812    17159 
  -26960   -39845    24266    64562    -3905  -116217  -107019     7257 
   55594    36389   -11890   -83825   -73549    -4526   -10783   -51641 
  -30843       28   -24132   -29336    -2106   -16749    -7472    29590 
  -23464   -89816   -54939    22277    49353   -31625  -134551  -112382 
  -29916    19030    55737    63266    33887   -23118  -101796  -136744 
  -80885    32491    98367    38186   -73113  -104286   -43745    12251 
   21922     5386   -42519   -76607   -37926    24768    25797   -20842 
  -34092   -32130   -34315     1264     1210   -49694   -49815   -41176 
  -66899   -47140    18154    52078    30943   -20853   -63705   -59607 
   -9633    42292    55444    25220   -25034   -77161   -97171   -34084 
   56698    58086   -17076   -81328   -80153   -12777    29515      896 
  -21298   -15163   -19438   -22195   -29605   -62205   -63790   -10789 
   12480   -17428   -25161     1548     4668   -27693   -57643   -69148 
  -64562   -32791    17606    30572   -27942   -85482   -78722   -34587 
   25860    25786   -71477  -113769   -51868     5684    25866    21574 
   -1918   -25377   -15511    -2384   -48482   -77211   -24621    32466 
   45239    14226   -26331   -44410   -56632   -36153     8351    14292 
    6172    -7628   -37085   -34639   -21425    -8074    41982    50924 
  -30041   -99674   -79058    -7349    39850    39433   -16947   -95072 
  -86931     3376    41956   -19503   -85957   -69892   -24069   -13898 
    4912    30461     1764   -42857   -44518   -32017   -19804    18430 
   25062   -43337   -71571   -28069   -25725   -33458     9181    12498 
  -39158   -81846  -101509   -43181    54849    41355   -38745   -59219 
  -28476     5030     1377   -20105   -13741     1644     8446     4615 
  -17842   -47683   -60137   -51680   -39888   -10110    12939   -22738 
  -54167   -31014   -14721   -39638   -50888    -7470    30834    22477 
    2417   -12776   -32822   -57342   -53234   -13347    -1549   -40505 
  -68528   -41042    11628    23361   -17354   -42515   -17965     1073 
  -16152   -23097    -9053   -23534   -39865    -5179      203   -60706 
  -64712    -4031    15140    -6550   -29155   -34786   -23066   -14372 
   -9266     3465    35122    31267   -44658   -77733   -41088   -19103 
    9992    27172    -7688   -29573   -45037   -40937    36121    38254 
  -74281   -99619   -37818    -5003    13266     9313   -33829   -66451 
  -65799   -50951   -23103     6268      108   -20461   -18422   -18725 
  -16011     8356     8513   -27681   -57673   -53833   -24329    -9012 
   -7469    -1969   -13201   -33555   -48702   -66328   -65873   -39853 
  -20657   -13058    14918    46529    26450   -16676   -44608   -84045 
  -74935    19678    68551    19954   -44853   -73745   -30990    36967 
   22670   -39583   -66915   -58644   -19834    19620    16703    -7225 
  -16146   -17228   -36162   -64482   -57118   -15601    11641     6831 
  -12530    -3553     2906   -78856  -138954   -37123    95889   102608 
    1815  -104033  -109360   -27340    42191    51113   -10160   -95211 
 -106186   -29830    30389     9163   -36566   -55607   -38813    23571 
   49615   -32921   -92512   -16776    44856   -34184  -113119   -61013 
   42492    60519   -28233  -107527   -81012    18203    68462      -68 
  -87370   -86980    -9427    77989    58669   -64609  -126658   -75473 
   17695    81217    55561   -24903   -85915  -100936   -50193    20425 
   17971   -28819   -34163   -20065   -30569   -36795   -25169   -26451 
  -29713   -16070   -19317   -41893   -48563   -25516    17622    40586 
   19880   -28561   -59074   -26703      727   -31122   -42195   -31868 
  -22438    36300    46550   -56259  -109161   -57819    -3337    37058 
   53396     9346   -40115   -48242   -40949   -25774   -19323   -16449 
   13119    -3813   -72879   -80647   -54969   -28939    35937    43171 
  -39807   -79101   -32692    36829    55320    -8297   -96446  -133488 
  -70587    30356    33582   -21053   -32896   -38911   -37640    -6700 
   -7360   -32308   -23426     9984    16619   -23843   -39225     -376 
   -2403   -55372   -82985   -69510   -12906    46218    28836   -40271 
  -89945   -87590   -21965    45152    48859    16864   -27704   -64574 
