Origin Time       2021/02/13 23:08:00
Lat.              37.7
Long.             141.8
Depth. (km)       60
Mag.              7.1
Station Code      MYG015
Station Lat.      38.1049
Station Long.     140.8699
Station Height(m) 3
Record Time       2021/02/13 23:08:07
Sampling Freq(Hz) 100Hz
Duration Time(s)  300
Dir.              N-S
Scale Factor      7845(gal)/8223790
Max. Acc. (gal)   307.917
Last Correction   2021/02/13 23:08:06
Memo.             
[...]
   10675    18422     9992    -1698      992     8237     9632     7615 
    1416    -2654     5070    17734    25965    24329    11966     3233 
    3990     5269     4581    -2635   -12823    -4572    20089    31904 
   20432      569   -10041    -3472    10646    16934    11839    -1439 
  -12715    -7555     9352    19813    19562    15805     9139     -653 
   -2037     5152     8498    13933    22468    21320    11608    -5389 
  -21180   -12993    15341    33704    24417     2035    -3576    10496 
   18783    12987    11776    18635    18041     9632     1586       36 
    8336    12858     7905     8519    12399    11496    16376    24105 
   18681     4419    -8910   -20181   -17577     4920    24634    23369 
   10790     1873     2119    11263    20189    17325     7472     1902 
     916     -666    -4367    -3893     3046    10415    16588    21940 
   27441    32798    28425    12208     3180    11361    16081     4010 
   -7323    -3649     5300     3771    -2566     4735    20638    29232 
   31108    30381    30866    33643    22635    -7307   -30769   -29567 
  -10756     5915     7473     4463     5121     3238     2257    10407 
   29281    48172    48293    32908    20437    14523     8680    -3013 
  -13728    -9082     4186    13983    23600    29678    23943     9352 
   -3331    -5582    -4835    -4932     3123     7443    -2424   -11209 
  -11923    -2571    15078    15164    -8729   -17548    11330    51440 
   66800    41679    -3819   -25483   -12725    12117    30095    24113 
    3314    -2551     9238    28296    44389    35220    -1988   -31071 
  -26725    -3905    17768    21662    -2247   -23506   -11642    10424 
   11793      708    -1030    10936    30642    45202    35064     3518 
  -20038   -18910    -5833     -855     1938    19467    37457    35081 
   20748     8904     -110   -10069   -19827   -27060   -26596   -10675 
   11835    23284    24723    25651    21809    10206     6941    15927 
   20812    19218     9953    -9540   -18206    -6389     3659     -429 
   -6696    -5256      738     4635     3060     5328    20451    34526 
   35687    28755    16545     1752    -9680    -9537     7423    30987 
   42414    29205     2470    -7627     8208    31322    40629    28416 
    7180    -6866   -13165   -15799   -10206     2826     6169    -4644 
   -9633      429    17582    29851    27391    23680    32394    33798 
   15620    -6458   -18288   -15168    -7076    -6161    -1687    10122 
   10133    -2906   -14922   -20933   -13259     8025    26094    30755 
   22326    14292    23997    38205    36012    20675     -780   -14122 
   -3704    16031    23760    16740     1439    -8495    -6855     -317 
   10011    20623    26991    36923    46881    44406    36124    31931 
   30808    31037    24698     1954   -21232   -14508    15133    26622 
    5753   -23170   -40784   -49438   -51687   -40228   -13473    15441 
   24351     9119     7726    41860    68166    58433    39324    28668 
   28588    38750    44829    39259    20769   -11043   -34487   -36400 
  -34483   -27878    -4386    11966     5448    -3237    -8683   -13876 
   -1908    29215    57492    66788    53310    26050     3005    -6925 
   -7450    -9202   -19071   -31202   -38502   -35050   -16603    10210 
   32317    36304    26558    26933    39012    43698    42460    43081 
   38904    35275    37253    19758   -20779   -41258   -21874    10836 
   26622    18759     4966     1749     3775    -2119   -12683   -16309 
  -17755   -22208   -21168   -18296   -19971    -9182    18824    36865 
   28979     7865    -1355    17421    48328    65030    61932    47583 
   33862    16490   -12305   -25733    -7121     8550    -8976   -45387 
  -69210   -61210   -25278     7628     8116    -8596    -7273    10889 
   16475     1570    -9456   -10145   -20827   -31727   -18522    11325 
   37957    43677    23920     7248    19144    41581    48670    46638 
   50121    55495    45738     9487   -29667   -33948   -10430     8185 
    9229    -8058   -29425   -35091   -31087   -23342    -5539    11784 
   22076    35143    46338    44049    28466     7391    -3713     3595 
   16272    21459    22266    21537    18283    20264    32016    44597 
   44000    18611   -13486   -18860    -9693   -15719   -33467   -47841 
  -50550   -46194   -40513   -23171     4349    22716    26975    25844 
   24115    26207    33172    34743    35907    54692    81031    96101 
   91453    53495    -5455   -42950   -38691    -9983    10628     5803 
  -13689   -27147   -22994   -10323   -11813   -30865   -45160   -35723 
   -1351    39810    60274    49462    19618      249    17298    52485 
   69568    67023    56423    44857    41634    42894    40338    32756 
   22418    21363    32598    39258    29027     4765   -18461   -21745 
    -812    20316    12663   -16846   -41308   -47151   -32116    -8619 
     124   -14763   -36337   -35569    -5819    25621    32582    17416 
    6664    19291    35953    29259     5479   -14029   -18786    -8203 
    8436    22145    35452    47194    53665    60432    63748    57991 
   55661    57923    51642    41840    34249    18060    -5567   -24386 
  -42059   -57171   -55991   -53959   -65901   -62540   -25945    18904 
   38276    20108    -5096      321    24501    30204    12183    -2789 
   -2282     6093    16479    12405    -6192    -8934     8522    31893 
   50348    49341    42186    43552    31051     3960    -8783    -8831 
   -8407     1001    19198    37207    46126    28561    -7612   -26077 
  -16078     3339    14342     9845    -3005    -9938    -9705   -14230 
  -26391   -36009   -40243   -42306   -32319    -4082    22692    31807 
   30923    26156    21695    20326     7653   -10273   -12235   -13676 
  -17913    -8005    -7317   -23641   -26419    -8788    24914    62058 
   68573    31276   -21903   -42989   -16371    15743    17513     -106 
  -11249    -4914     8386    17707    27214    41053    49435    41440 
   35170    48514    53314    29678      738   -18643   -27441   -20952 
   -5154    10218    22411    32049    41372    43405    33986    30735 
   36825    28690     5379   -14823   -28514   -35753   -34792   -24563 
    2936    40286    54290    35556    19674    26927    31237    11689 
  -17423   -34965   -35510   -33227   -43742   -55655   -45594   -11738 
   23215    37338    30959    18478    19402    43270    69805    74447 
   59618    41250    24872     9543     1607     5239    12294     8424 
  -13999   -36418   -24416    19423    44150    20650   -13953   -17537 
   -5821    -7592   -14404   -13184    -4826     6335    10048     7541 
   15083    32093    40879    39868    39997    42795    47983    49659 
   40274    31502    26495    11094   -14648   -42075   -53127   -30881 
    3393    23398    31141    30875    31915    52087    82736    92927 
   73697    42020    17136     7118     4854     6921    12189     5914 
   -8822   -10490    -3739    -4924    -6832     -521    -1115   -16676 
  -31819   -45216   -65202   -81063   -81004   -65557   -42707   -26694 
  -25710   -32273   -31977   -15265    14129    36817    40142    34823 
   33887    38745    46676    59212    77673    85347    70170    54074 
   52204    52510    51142    45566    28402    18632    32934    44329 
   27094     -650   -15473   -24516   -37686   -47444   -46300   -36377 
  -25326   -14293      669    11230     9443      650   -18191   -45511 
  -51476   -25894     5155    26414    31264    23774    29884    44236 
   41674    40224    53473    54491    35525    17612    13794    24262 
   36163    23761   -16613   -40408   -19091     8070     9099     3065 
   -1336   -13161   -22292   -24480   -33390   -44818   -41192   -25704 
  -19018   -27319   -36413   -34955   -21006    -2300     4278    -6605 
  -19515    -8830    31452    68639    79759    74768    56012    31406 
   24916    27271    15639     -400   -14943   -34655   -45353   -45196 
  -55321   -63917   -47729   -20831      395    15187    18239    16721 
   27915    50241    74104    86705    79617    74267    81029    78108 
   65194    56641    44248    21656     2123    -3685     3033    11237 
    9593     9004    19932    19657    -7491   -42969   -72486   -91546 
  -84778   -50391   -17336   -11848   -25443   -28547    -7476    26655 
   55811    66374    59760    55393    61670    66449    64986    59425 
   47468    33781    23573    10885    -2617    -8482   -13879   -23556 
  -31727   -40379   -38664    -7776    26219    18763   -18040   -35870 
  -15940    25336    58662    66282    61241    63058    72403    82328 
   81423    62968    47511    51140    48058    20009   -10955   -27495 
  -30952   -31355   -45337   -66208   -61009   -20372    14845     2110 
  -39694   -56718   -32540     3411    22437    24372    21562    23512 
   37547    56893    60197    49369    50985    57210    38835    10686 
    5248    20721    30773    18962    -2273   -14688   -14625   -12372 
  -31095   -66934   -82804   -69168   -46870   -31039   -27263   -35885 
  -48362   -37089    12305    61330    73441    60839    45349    38099 
   40991    36616    14089    -8409   -16675   -15973    -7462     5011 
    8785     8611     9290    -4376   -23515   -19957    -1948     1158 
  -15608   -29462   -21186    -3222     4473      319   -13221   -25138 
  -13073    23600    57130    69018    66171    61422    64272    71356 
   67259    49562    25338     3217   -11383   -30545   -50360   -41206 
   -2142    35760    48068    33669     8580   -15934   -33440   -32713 
  -15651    -3102    -3977    -3978     5665    16773    22127    20841 
    6007   -21429   -34623   -15159    25033    62695    77561    67366 
   43823    18724     2596    -4989    -8307    -6187    -5541   -15515 
  -29805   -32136   -23296   -22927   -30720   -24212     1246    27256 
   42279    48656    44732    27608     7670     2760    19202    42315 
   52817    45597    28935    17304    18207    24640    26284    20243 
    6920   -16017   -44685   -65333   -68268   -58203   -49204   -42422 
  -25103    -1729     8634     6228    13621    43623    78996    98726 
  107111   115541   120177   113359    94603    64922    26950    -8946 
  -32351   -44296   -47008   -35037   -13065     2124     1228   -12916 
  -24024   -23187   -27653   -35633   -15565    37170    91524   113552 
   97659    74937    70667    79714    89179    90765    79901    55341 
   19271   -15456   -34408   -45667   -63204   -78420   -83853   -90776 
 -106309  -123137  -123867   -97980   -64238   -44829   -33805   -18829 
    2104    24209    37534    44679    58171    73465    80060    80747 
   78359    70664    57206    35826     6544   -22947   -45654   -57038 
  -59313   -66748   -81868   -91372   -92863   -87223   -69569   -44464 
  -15125    24973    68881   100319   124744   155445   182767   196055 
  193355   159922   105283    76551    82398    86868    77592    60496 
   32360       22   -22248   -32734   -37611   -45338   -59806   -69885 
  -69689   -73741   -87064   -95289   -87210   -63437   -33801    -4509 
   22808    39055    39356    32611    30258    35587    41396    32009 
   -4068   -53829   -93424  -111846  -106725   -86578   -60195   -23187 
    9508     7780   -15310   -16942    15634    67996   119588   149400 
  155250   147667   133519   118068   100338    83708    69098    40995 
    4839   -23022   -48315   -66403   -68850   -67506   -69766   -80053 
 -107701  -144779  -166954  -160154  -128854   -84354   -45044   -26021 
  -15893    -3296     8216    33424    80273   123701   151254   166382 
  161041   138299   116328    96210    69088    34287   -12492   -64999 
  -97317  -104909  -108822  -111742   -96550   -68621   -49721   -34804 
  -12388     6612    19144    36360    57218    70168    65462    44539 
   20817    -1991   -27633   -44170   -37932   -11421    28281    66914 
   75921    53246    38017    42759    40244    23496     5551    -3844 
    4176    25488    45090    51086    38110    19836    20991    45542 
   76999   105256   128440   141241   142628   139658   140907   145374 
  135639   100155    48944     5941   -14666   -30037   -51885   -66332 
  -72492   -77909   -82286   -88433   -88182   -66969   -32327      726 
   24278    31615    30408    30427    21374    -3117   -30704   -48579 
  -58941   -72416   -88785   -96581   -86850   -64089   -42253   -29432 
  -24572   -19191    -7144     2458     1804     3782    24254    56546 
   76698    66152    22813   -39017   -90316  -107603  -101467   -94254 
  -80535   -52042   -26585   -17433   -13135    -2254    10022    14824 
   14517    20282    39579    68895    93849    96241    74499    53612 
   57828    81071    98683    96718    78491    57609    49203    57055 
   72540    88624   105692   122080   128440   113177    75921    33727 
   -1358   -32042   -54645   -65807   -71801   -69171   -52884   -29149 
   -4291    14636    25290    34138    40258    36860    19105   -17752 
  -65394  -100857  -116391  -128383  -146394  -162818  -174318  -180364 
 -174256  -156668  -133971  -104668   -63463    -8789    50398    96639 
  122273   134655   145621   161320   175842   183594   190876   201734 
  211860   218978   222484   219744   209699   195729   180948   165416 
  150503   135756   118255    95574    62883    21454   -21003   -63991 
 -104947  -133525  -149122  -160404  -172921  -187056  -201513  -217653 
 -235106  -254391  -278594  -299762  -306653  -296266  -262955  -203328 
 -132690   -80095   -55888   -29889    18507    68716   117585   177539 
  231981   273252   311176   331466   321425   303062   297459   297522 
  292860   277674   235352   164056    94266    41810    -9219   -66461 
 -121058  -164170  -192896  -209979  -215694  -215202  -222743  -241687 
 -261615  -266955  -244308  -197711  -149570  -121855  -115597  -111364 
  -90215   -50161    -7821    20163    32301    37150    49657    78178 
  110782   133042   142619   141617   139043   146728   157944   155637 
  136792   115932   116289   143603   180875   217518   249359   268699 
  270009   256045   243781   241320   240447   242897   245952   239086 
  229208   221181   205665   180145   149600   114745    73371    31151 
   -2253   -27819   -51069   -74321  -103268  -142060  -186181  -227419 
 -256890  -271953  -279429  -281236  -276440  -274388  -280235  -286738 
 -288962  -286036  -277295  -262870  -241559  -214806  -188720  -167579 
 -150182  -130874  -104134   -70726   -37303    -8214    16725    41802 
   81356   138542   182866   201285   226010   265275   295901   311755 
  302603   263988   228318   206802   175104   138163   107889    65358 
   16355   -12394   -26520   -42280   -65909   -96495  -124318  -141057 
 -145154  -144625  -147989  -153007  -157905  -160566  -149602  -118335 
  -74895   -32327      487    18432    20359    14273     9952     5269 
   -3025    -6515     3861    32525    79242   128609   159821   167548 
  159776   149019   144045   143621   140768   126292    92955    42411 
  -10659   -50392   -81013  -112413  -135585  -138955  -126412  -111576 
 -109642  -120568  -126555  -122704  -118125  -115861  -118655  -125512 
 -126671  -114528   -90836   -67726   -54797   -48131   -40508   -34890 
  -34790   -31618   -20051    -2446    21647    50205    77939   101592 
  121680   135895   133339   115369   102157   105501   121603   143247 
  166494   187173   195632   186803   163556   134438   109564    90184 
   82705    95008   117305   142318   168242   187204   197284   199079 
  184129   145462    98698    66137    42979    20399     2205   -20835 
  -59764  -107747  -151343  -181943  -198324  -200550  -189533  -173917 
 -166264  -172243  -187469  -207230  -231176  -256197  -275026  -275597 
 -238333  -156621   -59525    11398    40833    42414    37486    39818 
   53485    80136   118524   155745   178663   186101   184333   189625 
  213582   241281   255514   258157   245060   198099   114930    27414 
  -20046   -17093     4433    12066     2439    -6598    -6628    -4851 
   -7265   -26400   -70285  -116927  -142958  -151478  -154626  -161265 
 -176210  -194144  -205514  -206641  -196420  -175290  -147106  -115623 
  -85533   -58131   -22021    34280   105401   168944   201167   211083 
  230860   260136   275946   279393   282888   284193   280288   279477 
  281361   272947   251472   223844   196164   170437   142923   112221 
   80026    47669    13455   -27321   -69655  -109503  -153349  -194016 
 -219221  -231742  -232930  -222401  -211068  -208627  -211133  -213682 
 -217347  -216267  -203305  -179631  -148157  -115609   -85666   -50934 
   -7312    41323    84728   108924   116845   123701   127322   119425 
  109671   106702   103090    94109    83409    72706    66869    76256 
  100920   128866   148046   143212   109260    71104    48537    34919 
   25454    15696     2197   -12267   -37870   -73037   -98653  -119294 
 -143390  -159545  -166723  -178459  -198127  -218400  -236395  -253839 
 -268030  -273235  -264608  -238370  -197622  -154629  -117077   -80916 
  -46082   -19373     -135    17548    39560    69209   101834   132255 
  158888   178530   189562   193077   188739   177844   163468   143375 
  116669    94027    84862    84149    82042    73426    55981    31414 
    5042   -17485   -28108   -21609    -2295    19862    32935    28979 
   10662   -12577   -29925   -31131   -15776    -1359    -4375   -15732 
  -21348   -26215   -30761   -23242     3308    50132   101758   134419 
  144879   144085   143802   149038   158202   174822   193645   201633 
  198884   183810   156276   128355   101236    74067    54405    40292 
   29123    23761    19276     8122   -12935   -43900   -78169  -112934 
 -151900  -188009  -212468  -229656  -244938  -258580  -273021  -284879 
 -276496  -235375  -173635  -121856   -98635   -90850   -80596   -61411 
  -31063     2319    33046    64409    92095   110668   123090   128294 
  118912   105875   108082   118177   129350   143796   140103   105984 
   66692    49175    57620    75955    86096    86840    83521    76050 
   68447    65938    65214    65470    70075    76270    83928   100866 
  128123   155463   173138   176700   166772   147430   119811    88333 
   62708    41523    21481    10015     5163    -3555   -17535   -34564 
  -54222   -74204   -92187  -112340  -136655  -153261  -152913  -140053 
 -122781  -107584   -96232   -87660   -73484   -38051    14563    61585 
   94147   122013   153139   183748   210570   235056   252934   257392 
  245916   216379   168276   113895    73800    49623    20240   -22322 
  -61735   -91276  -120715  -148270  -163509  -168135  -169317  -170623 
 -176416  -188527  -200196  -201820  -191295  -173631  -154349  -137486 
 -123981  -112695  -102709   -91758   -79918   -69491   -56632   -40181 
  -27444   -15948     3508    32236    69431   106213   127053   136377 
  150098   164477   167883   165640   169330   179296   184149   169402 
  131588    81808    34106    -4812   -34511   -56716   -76412   -96164 
 -111997  -116322   -97190   -57241   -30704   -41104   -66609   -78975 
  -71737   -51065   -29643   -11812     7433    29643    52207    71107 
   87018   104484   124160   142167   155738   163675   165335   166704 
  169638   164701   147056   113030    59840     1849   -47733   -93623 
 -136918  -168081  -181969  -184470  -188516  -201696  -222087  -243448 
 -257084  -261037  -262419  -263015  -257277  -245123  -231450  -215676 
