Origin Time       2021/02/13 23:08:00
Lat.              37.7
Long.             141.8
Depth. (km)       60
Mag.              7.1
Station Code      MYG011
Station Lat.      38.3052
Station Long.     141.5044
Station Height(m) 13
Record Time       2021/02/13 23:08:03
Sampling Freq(Hz) 100Hz
Duration Time(s)  151
Dir.              U-D
Scale Factor      7845(gal)/8223790
Max. Acc. (gal)   94.325
Last Correction   2021/02/13 23:08:03
Memo.             
[...]
  -37250   -44832   -42724   -28935   -25941   -37180   -42691   -32987 
  -12522    -7133   -31336   -53970   -55401   -51320   -48975   -40635 
  -30015   -33621   -41035   -35646   -39442   -46503   -37544   -44848 
  -47528   -13869    -8199   -27908   -29025   -42839   -48436   -29587 
  -30717   -43528   -47206   -47590   -46471   -35687   -24391   -32742 
  -38225   -30689   -31099   -38936   -43177   -35549   -32787   -42920 
  -45387   -44832   -46120   -43811   -45940   -46221   -26443    -8368 
  -26038   -37708   -24881   -38728   -52330   -35357   -23319   -19039 
  -20871   -30534   -35382   -39468   -42601   -34905   -24753   -38731 
  -56693   -36024   -16799   -31108   -42507   -49032   -53212   -36791 
  -22612   -25697   -29866   -38877   -49933   -41002   -23284   -27992 
  -43800   -43194   -41006   -38624   -25191   -36254   -58218   -47179 
  -31968   -33569   -39564   -38524   -33357   -44818   -45134   -29191 
  -39528   -43580   -29617   -33943   -35330   -35074   -44909   -32837 
  -19886   -39075   -48851   -35097   -39056   -45908   -30364   -28466 
  -41843   -50492   -61005   -42171    -9111   -26952   -45225   -14193 
  -12383   -52558   -56903   -38821   -41025   -38149   -24725   -30466 
  -35691   -20904   -30958   -50909   -33862   -27490   -42515   -38524 
  -36558   -45072   -39226   -25749   -31085   -40649   -29253   -37795 
  -55884   -32879   -33407   -66586   -49442   -16623   -24732   -44070 
  -45401   -28578   -14800   -20048   -38318   -57055   -55236   -40217 
  -37635   -39789   -39548   -35997   -28244   -31040   -35032   -21031 
  -13332   -32611   -51582   -43730   -22388   -32517   -65064   -56565 
  -35175   -43505   -39915   -17122    -8654   -34866   -64497   -39145 
   -7429   -24875   -39420   -33427   -39973   -55040   -43853    -7014 
   -8662   -57339   -74012   -35144   -18941   -56907   -60898   -23832 
  -20915   -30867   -40374   -52220   -25833    -3923   -35621   -63039 
  -45609   -20918   -25890   -40432   -37165   -36683   -40670   -43140 
  -54974   -41771   -11288   -13999   -38777   -54934   -45358   -30366 
  -33019   -31541   -37154   -61943   -59917   -31012   -31035   -49130 
  -38047   -28031   -47198   -47941   -26982   -28556   -37242   -28594 
  -26654   -36987   -31569   -26912   -50495   -57141   -24435      -66 
   -3546   -34383   -72531   -73400   -52245   -30300   -12195   -35158 
  -67756   -57249   -36135   -24437   -11951    -6945   -17784   -38148 
  -43173   -40279   -55046   -59323   -43605   -36305   -34284   -36991 
  -37355   -15219    -7562   -38812   -52929   -34086   -28468   -33000 
  -32269   -43368   -48552   -32158   -18651   -12799   -27616   -69172 
  -82444   -59067   -44520   -37704   -26997   -11835      -32    -9590 
  -33758   -57346   -57497   -38546   -36806   -39000   -33170   -24651 
  -17620   -31922   -41512   -43672   -62220   -51308   -13482   -14058 
  -41897   -38649   -15433   -22258   -42650   -55309   -67883   -66596 
  -55965   -43054   -29493   -26835   -30415   -34210   -31297   -37208 
  -59404   -56862   -28425    -1328     8029   -23352   -54468   -37605 
  -24867   -45297   -53754   -43664   -36316   -31638   -33349   -42299 
  -36117   -17481   -27886   -47533   -23897    -7221   -55904  -102760 
  -76910   -33651   -27430   -26626   -30771   -35306   -18895   -22464 
  -36189   -15140    -5346   -35799   -47587   -46921   -73263   -74083 
  -54502   -58324   -40270    -9175   -16935   -34321   -38325   -33655 
   -4545    15225   -19441   -58252   -53134   -49296   -68550   -56725 
  -13614   -16521   -56764   -52130   -36153   -51378   -39260   -28887 
  -49682   -31122   -20765   -62025   -64044   -38695   -37947   -28838 
  -30550   -47272   -22762     8122   -11531   -37142   -28694   -27689 
  -42816   -27056    -2602    -8800   -25596   -56407   -78945   -44069 
  -16065   -35883   -37845   -36207   -79801  -104751   -56820   -10535 
  -15275   -27468   -34506   -42834   -42265   -27363    -9313   -11423 
  -11700      183   -22783   -57630   -53896   -44803   -46631   -35613 
  -24209   -31330   -42518   -45486   -43860   -35873   -32336   -28154 
  -17509   -20498   -25235   -41110   -68639   -67027   -63756   -57342 
  -22472   -16321   -29671   -41748   -85325   -79909    -3917    28348 
   11371   -18786   -59499   -75737   -71672   -58351   -24997   -21508 
  -48307   -26588     -151   -41196   -76291   -63043   -59463   -54114 
  -11156    -2636   -30812     6939    45963    -4970   -50768   -48340 
  -48566   -39684   -19543    -4637     5671   -11442   -34982   -33191 
  -29412   -31094   -41769   -48489   -38377   -43762   -63482   -76108 
  -59445   -31757   -50441   -56319   -10986    -6276   -50900   -74278 
  -53558   -17683    -3049   -17498   -48081   -57082   -52820   -66494 
  -53879   -25613   -45404   -72860   -56089   -43989   -64805   -55020 
  -23247   -39298   -63093   -44871    -5624    25277     5921   -53377 
  -69107   -22203     5491   -15097   -31099   -42155   -59931   -57051 
  -42898   -44718   -53415   -48591   -37773   -23893   -13436   -21490 
  -20615   -25373   -68470   -79521   -32270   -16121   -38365   -35699 
  -39885   -62166   -36537    -9061   -36040   -46090   -40193   -75259 
  -87948   -37611    -4968   -16949   -28366   -45615   -85827  -112341 
  -74272   -13086   -15792   -30368     2949    10320   -16002   -18103 
  -28854   -52901   -39787   -11334     3325    -3095   -36493   -70618 
  -80900   -53264   -18657   -17404   -23674   -31675   -43110   -27017 
  -14162   -44490   -58822   -25813   -21655   -55333   -65970   -52540 
  -33165   -27739   -50244   -74398   -78074   -62839   -36293   -18797 
  -23976   -31530   -29852   -26169   -27984   -56315   -74471   -43328 
  -20078    -3018    16232   -26126   -66483   -59778   -76939   -60253 
   16339    28602   -12833   -33509   -52598   -55277   -38684   -31595 
  -18396    -7371    -7065   -14318   -45310   -69643   -67879   -59225 
  -35055   -22330   -50940   -77394   -67698   -27981    17589    26056 
   -9251   -34722   -30804   -31288   -46880   -72867   -80005   -48369 
  -32417   -42375   -27685     1911    10809    -8375   -38105   -55046 
  -68288   -80217   -54718    -8025     3966   -13729   -33844   -39028 
  -43518   -69105   -77720   -65799   -54268   -40431   -45149   -34015 
    -191    -9749   -32884   -41490   -54216   -44775   -29556   -25556 
     -52    20939   -10357   -50224   -54349   -71621   -81151   -33149 
  -12430   -35910   -32286   -22203   -28497   -27122   -27837   -51655 
  -52771   -16079   -18304   -44131   -44740   -57893   -66002   -56284 
  -69519   -73813   -48447   -27437   -18733   -22272   -43294   -58176 
  -29087     5254   -17188   -57419   -64158   -48246   -28013   -14265 
  -26014   -46635   -37694   -25890   -21234   -15515   -41762   -47555 
   -4950    -7676   -42784   -28463   -12363   -37872   -47830   -39380 
  -44550   -33246   -15570   -33100   -53361   -49049   -41948   -45208 
  -42394   -15460   -11063   -51715   -66413   -40799   -32148   -36536 
  -26433   -43873   -75450   -41809    -9074   -35953   -33650   -18501 
  -48438   -57815   -40401   -43308   -34306   -18146   -24098   -18847 
  -29505   -74272   -78462   -44545   -27965   -17309   -16688   -55443 
  -73240   -42226   -38367   -47063   -31363   -23321    -3685     8145 
  -43164   -70175   -25566   -17604   -48084   -53042   -52378   -41527 
  -30319   -41893   -36444   -19047   -18663   -23188   -43359   -76856 
  -61565    -5247    -9007   -48231   -37679   -28151   -36387   -28163 
  -53007   -85056   -42099    10616    -9263   -33049   -12893   -15921 
  -27255   -13726   -51691   -95551   -66958   -47823   -35537     5108 
   -3657   -50754   -70767   -78109  -100311  -103111   -40733    25957 
   33411    13980   -20159   -54346   -47196   -44814   -77641   -77986 
  -45184   -15869    17297    30331     3605   -40451   -56007   -39834 
  -57959   -88141   -65797   -30310   -29446   -57916   -67632   -37640 
  -22802   -33436   -42209   -58232   -69485   -48961   -18161   -22414 
  -33021    -3273     5867   -35453   -65654   -67082   -51807   -31881 
  -12154     1838   -17520   -40513   -45790   -76912   -91361   -40078 
     126   -14314   -43287   -66380   -73190   -42570      923    -1377 
  -16023     7994    12199   -25547   -54696   -57754   -50558   -46712 
  -36655   -23660   -40829   -80454   -74875   -28324   -23253   -47262 
  -45354   -36559   -35985   -41088   -58602   -61415   -33980   -19718 
  -24926     3245    22306   -30249   -52196   -11515   -29565   -84046 
  -67261    -5123    15199    -3982   -22221   -62411   -93588   -77969 
  -78127   -65823   -18832   -29052   -54850   -35476   -27255   -25434 
  -10736    -3493    -3777   -13161   -11032    -9121   -57979   -90904 
  -52880   -37921   -51317   -19791    -5356   -43572   -58387   -49909 
  -50727   -42427   -37729   -54206   -58671   -27237   -15396   -55682 
  -74498   -49378    -6706    31039     4371   -36706   -29938   -35824 
  -38232   -13338   -23080   -61191   -80612   -74393   -60596   -38207 
   -5915     4860      472   -32675   -92407   -64744    11516    -5012 
  -49519   -48513   -38433   -12665     4093   -45978   -87737   -41233 
    1522   -16954   -28524   -18238   -17065   -27203   -20877     4893 
   -7940   -56544   -71200   -60342   -63435   -61778   -64949   -66109 
  -14253     4149   -59155   -66154   -15745   -19753   -50206   -47498 
  -27669   -15488   -13041   -27135   -48397   -50157   -46024   -48228 
  -34302    -5927    -8326   -36393   -22869    -6493   -39750   -53218 
  -31041   -16316    -6332   -14625   -68393  -114388   -81864   -36648 
  -57190   -68320   -13716    33574     9640   -53088   -89249   -98224 
  -64675    25266    49200   -27522   -69226   -47783   -38254   -51251 
  -54090   -44190   -35656   -38419   -56982   -61236   -39904   -44325 
  -68017   -53588   -24432   -13274   -17797   -32024   -19820   -13189 
  -50106   -51383   -17788   -28073   -58926   -74008   -62569   -24614 
   -8953    -4946    18789     7506   -42303   -68967   -68231   -46673 
   -4444    -1300   -52830   -71662   -32228    -7751   -27302   -45193 
  -34160   -19485   -41462   -77403   -50527      460    -8494   -38090 
  -53185   -57744   -46908   -42462   -47175   -62259   -60351    -3073 
   14882   -39163   -52929   -29357   -17325   -17028   -45411   -52105 
   -3222    11526   -28930   -41744   -26732   -19290   -10134   -38835 
  -92048   -48024    35864    23916    -8351   -36724   -81745   -53100 
  -14854   -29635   -41049   -64146   -66040   -47239   -71429   -83744 
  -34530    22384    27230    11311   -16502   -75128   -86108   -78414 
  -91885   -43533   -11982   -41288    -9159    36508    -7106   -76461 
  -89696   -63938   -58792   -58869   -28759   -22455   -30981      299 
    4348   -40219   -73187   -93172   -74952   -18175   -10895   -28553 
     417    17508   -11708   -60319  -106382   -91084   -29916    -4287 
   -8338   -32678   -65296   -56305   -48710   -78418   -79870   -29562 
    7542   -26029   -99501  -131630  -101576   -67956   -43937   -14627 
  -10539   -12193   -14145   -38221   -49995   -70336  -108006   -82154 
   -2974    35991    22049    -3237   -40211   -68540   -31961     -495 
  -30966   -27217    -9427   -29960   -22412   -13371   -31764   -41575 
  -60388   -54830   -20240   -42992   -77714   -69337   -83030   -78395 
  -25683   -37392   -87421   -76584   -56371   -70769   -74961   -56563 
  -50367   -51444   -31878   -17864   -46134   -77664   -52721    -8139 
   -1796     -751    25272    17207   -41623   -46955    12870    16347 
  -24063   -18447    -2859     7223    18438   -30823   -81807   -58761 
  -34981   -20966     9140   -12915   -71429   -79594   -62795   -64561 
  -57937   -42516   -36655   -34236   -32539   -34083   -48712   -52872 
  -38218   -63909  -100395   -81600   -44713   -11766    12368   -20397 
  -87870   -98824   -51914   -22869   -29994   -37010   -14141    10237 
  -19288   -70170   -74524   -37867   -14121   -28318   -41215   -25678 
  -14408   -17278    -5127     6304    -6060   -21951   -49844   -84252 
  -69232   -16953     6596    -6326   -24957   -39667   -55063   -65902 
  -64385   -72071   -84748   -54805   -20218   -40489   -67097   -49138 
  -10450   -13918   -49615   -25324    21243     3738   -18199   -21516 
  -56627   -81989   -48054      214    -8630   -58830   -57042   -12744 
  -10519   -32412   -33524   -17319    -9092   -53184   -95295   -56166 
  -15838   -18304   -12731    -3947    -2550   -33292   -77950   -72485 
  -64316   -71313   -42260   -17336   -12399    -1883   -11394   -41185 
  -77203   -72353     4726    48328    22376     6227   -17645   -74109 
  -68601    -3896   -25855   -78286   -40149   -15304   -46876   -56695 
  -41334   -32105   -39208   -40254   -40647   -58872   -38897    13738 
   20128    -6635   -42357   -78113   -62280   -26786   -34574   -47957 
  -48672   -58557   -58178   -53281   -58653   -56710   -44340   -29246 
  -30276   -35460   -13039     4340   -29812   -83101   -80705   -49264 
  -49833   -53374   -41485   -28156   -37628   -52717    -9784    28020 
   -5956   -33586   -53504  -101850   -83670     9031    56393    37681 
  -23317   -96643   -82229   -14226   -26396   -59682   -36946   -21498 
  -33756   -53280   -81511  -109367   -98764   -38935      685   -12154 
  -37775   -48621   -37042   -16534    -3651    -1104   -10142   -25024 
  -48010   -75917   -55914    19693    49104     6041   -37125   -91035 
 -135453   -81153      641     -149   -45908   -45671    10204     1077 
  -70529   -70530   -52848   -71359   -52162   -19882   -24694   -42920 
  -43810   -24911   -23093   -39939   -25581   -20027   -66330   -56943 
   17797    28799   -29550   -86155   -72667    -3769    -2122   -50820 
  -39398     2374    -3321   -39941   -60538   -62217   -42138   -14466 
  -12681   -16285   -29964   -70494   -65194   -16470   -30087   -86883 
  -91739   -71805   -69965   -46786   -24270   -29203   -17069   -18879 
  -59449   -54575    -8467     7160     6772   -17166   -66869   -74309 
  -41064   -12201    -5836   -33941   -49697   -26046   -27895   -53050 
  -40879   -21937   -46566   -73295   -58310   -39657   -36004   -40022 
  -66665   -64127   -10963   -13749   -76014   -80399   -34126   -16734 
  -22195   -26465   -55254   -74318   -30010    -7985   -44163   -49685 
  -27020    -9841     6808   -17898   -61096   -29434     6069   -41859 
  -64233   -27673   -25276   -52824   -50148   -21620    -8526   -17697 
  -42061   -64022   -63590   -70996   -86103   -62791   -22485    -8079 
  -24154   -52216   -52081   -44745   -58052   -41527     1231    21747 
    2292   -37910   -47398   -37305   -17662    -1138   -37243   -42880 
    -170   -22586   -59431   -52817   -42583   -31846   -36663   -32683 
    1431   -16135   -72018   -66972   -24333     1968    16528   -17899 
  -81469   -52802     2706   -40969   -81877   -60578   -39953   -24108 
  -15718   -35846   -68405   -68932   -44544   -30766   -25964   -41619 
  -53369   -36296   -37508   -47830   -35023   -24869   -30726   -40967 
  -31779   -27279   -66399   -90504   -65997   -29443       35    -7780 
  -42997   -49927   -29731   -24916   -30497    -9431     4401   -16785 
  -40004   -68791   -80898   -43826   -15233   -29629   -34244     -294 
    5412   -53751   -73681   -15900    11156   -17419   -43175   -51349 
  -39830   -19422   -16652   -18453    -9319   -20263   -54962   -76867 
  -79733   -70200   -50174   -32624   -36431   -55833   -49813   -32597 
  -49547   -64921   -51112   -39941   -25583    -5605   -26819   -65373 
  -44990    -5359   -22383   -44037   -46989   -80196   -79344   -16413 
   12191   -10517   -35847   -47823   -60193   -72189   -58023   -30322 
   -9531     5617     2624   -13984   -28682   -56228   -76013   -47094 
  -24633   -32398    -4315    12082   -32738   -54503   -51736   -58561 
  -29511   -10700   -47675   -59976   -28309   -28993   -72630   -95050 
  -85104   -47891    16198    13675   -48710   -48392   -42472   -79155 
  -62583   -18648    -3222    -5517   -41943   -68688   -57337   -50734 
  -47031   -51844   -60575   -28838     7843    -4463   -34531   -34703 
   -1088    -3445   -66587   -74537   -30485   -36502   -46211   -39911 
  -58718   -80237   -89752   -59908     7526    23923   -28695   -53796 
  -23446   -25740   -76411   -86821   -46823   -25529   -16465     9655 
    1212   -37335   -43271   -40051   -54742   -63256   -50785   -31819 
  -42523   -67200   -51304   -21458   -26410   -40795   -47120   -38924 
  -15182   -10777   -15799   -21153   -39731   -44914   -39577   -55521 
  -80161   -62694   -11538     7906     2589     7442     3165   -30217 
  -71734   -73966   -41305   -23850   -27596   -53207   -80185   -52320 
   -9223   -17976   -42588   -35176   -15021   -15757   -26809   -31828 
  -31954   -12945    -2632   -35506   -52115   -38507   -52473   -51287 
  -10773   -15022   -51156   -57645   -64559   -64879   -29374   -10644 
  -34358   -60363   -61373   -37277   -22212   -18709       82   -16524 
  -54260   -45439   -60579  -104288   -82255   -33925   -31369   -56501 
  -66237   -45053   -23457   -34874   -43934   -23121   -17973   -17244 
    7777    -8151   -63323   -56833    -7587   -16208   -35260    -1344 
     602   -46190   -65327   -59274   -55119   -56895   -55092   -19465 
   26690    22937   -25026   -57100   -41177   -19071   -27449   -44575 
  -56578   -45378   -11311    -3910   -18789   -26352   -40915   -50302 
  -42134   -47891   -51213   -26369   -23283   -51925   -77176   -86595 
  -40809    23121    11400   -34466   -59178   -66721   -49283   -51501 
  -61877   -17983     -619   -55468   -74035   -40914   -38321   -42554 
  -19892   -22619   -50402   -63691   -62569   -55580   -46530   -35642 
  -29870   -27151   -27908   -51583   -67413   -54341   -46030   -25049 
    4182     1593    -1094   -13554   -51958   -45327    -8156   -10323 
  -41602   -59224   -41613   -22651   -32020   -43117   -31148   -11516 
  -12256   -17151   -18156   -36189   -54191   -51857   -32448   -28795 
  -49419   -48570   -40848   -46113   -42731   -46924   -53863   -49226 
  -54429   -55296   -34662   -36468   -55676   -32526    -9590   -37821 
  -60347   -49640   -39291   -30411   -13589    -3389    -7011   -23728 
  -38465   -41666   -43421   -21332    19658    25077   -14710   -63857 
  -79258   -58329   -41674   -39969   -40143   -52699   -69997   -49141 
  -14281   -27453   -48367   -26257   -16914   -38560   -39594   -42244 
  -58588   -50517   -38672   -44076   -50236   -41243   -31554   -37535 
  -44641   -65352   -77669   -50805   -28512    -7356    12842   -18847 
  -67143   -76862   -50811   -23257   -49387   -85558   -39239    11299 
  -32648   -71532   -35901   -19160   -34796   -28744   -38187   -56282 
  -27064    -7013   -34169   -25899    -7407   -65136  -102228   -64756 
  -40038   -20595     2448   -11495   -25456   -31388   -62453   -78460 
  -50841   -12047     4874    -6480   -23457   -56578   -98080   -78070 
  -28111   -26250   -37110   -15920      -48   -31167   -60214   -43298 
  -30213   -32375   -39534   -63867   -63597   -42056   -36147   -27868 
  -33293   -44516   -19288    -3775   -27114   -45817   -46565   -35928 
   -9310    13929    12251   -15419   -56683   -58186   -20852   -12549 
  -31475   -54886   -63432   -40571   -38056   -60404   -50993   -37395 
