Origin Time       2021/02/13 23:08:00
Lat.              37.7
Long.             141.8
Depth. (km)       60
Mag.              7.1
Station Code      MYG017
Station Lat.      37.9763
Station Long.     140.7818
Station Height(m) 35
Record Time       2021/02/13 23:08:06
Sampling Freq(Hz) 100Hz
Duration Time(s)  267
Dir.              N-S
Scale Factor      7845(gal)/8223790
Max. Acc. (gal)   215.233
Last Correction   2021/02/13 23:08:05
Memo.             
[...]
  -12549    -6658      403    -2389   -11669   -15318   -11951    -7470 
   -3817     -928    -2683   -10035   -14931   -13328   -12193   -14184 
  -13132   -10285   -11510   -12420    -7666     -575     3846     2184 
   -5526   -11619    -8067     -236    -1070    -9197   -10308    -1216 
    6076     3449    -2999    -3275     2124     3566    -3622   -11383 
   -9780    -1885     3253     3744      280    -5478    -7344    -4441 
   -4027    -9400   -15288   -12960    -3253      359    -3048     2782 
   18261    26222    24182    22712    19373     5876   -13568   -33907 
  -52898   -59188   -48990   -36499   -28220   -17518    -5807      720 
    6824    16418    20952    18095    17583    17833     7159   -10103 
  -20549   -25124   -29327   -29332   -21392   -10604    -4918    -2574 
    1960     2300    -7643   -17822   -16417    -8009    -4001    -3654 
    -546     5355    11581    16880    20785    20858    15271     6918 
   -3609   -17768   -33712   -48265   -54997   -48741   -34846   -22146 
  -11520     1046    12198    12864     7084     9364    17000    13371 
     348    -4997    -1061    -1576   -11186   -18909   -16984   -13765 
  -17659   -22063   -20956   -19534   -18823   -14627   -10285   -11029 
  -12954    -6806     6727    14467    11426     7568     7275     4133 
   -1190    -4222   -12463   -27992   -34203   -25076   -18002   -23573 
  -28354   -18684    -1661     9896    13413    11433     4548    -6600 
  -13082    -6251     4031     5201     3955     5956     3049     -129 
    9880    20440    12758      287     -608     -634    -5921    -5886 
   -1725    -2579    -6887   -12010   -15816    -9329     7001    19772 
   26497    32684    29911     8085   -21103   -36697   -37650   -37238 
  -32611   -14380     3753     7018     8935    19603    20841     8702 
    6347    15435    14265    -5252   -28995   -37323   -30441   -22300 
  -16490   -10238    -3076     4185    12777    21729    20731     5863 
  -13324   -26412   -25830   -17867   -17894   -24580   -28317   -24833 
   -8743    15574    26777    14395    -1486    -3007    -1452    -7314 
  -13189   -13404    -9868    -8758   -13336   -16160   -12954    -9232 
   -6925    -8696   -22847   -36273   -21879     4504     5368   -10000 
  -13899   -10980   -17435   -28876   -27880   -15021    -7888   -10804 
   -9489     5266    20652    25227    27797    32053    28972    15161 
   -4113   -17572   -20524   -23148   -26376   -18405    -4791     1081 
    6667    18215    19785     7533     1556     5213     3319    -3056 
   -5387   -11038   -29791   -50577   -51282   -35100   -24182   -19426 
  -11657    -2155    10971    21590    13759    -5645   -19003   -29381 
  -43611   -53037   -52346   -49239   -43245   -23542     6455    26604 
   27530    22512    23357    24089    17219     5803    -6768   -21512 
  -32386   -30732   -23862   -20023    -9667     6961    12244     6995 
    5738     7506     4386    -4294   -14802   -24490   -32713   -33689 
  -25704   -23122   -27418   -19692    -4175     1363     7619    24291 
   32105    22944    11848     3808    -4386   -10287   -15830   -22954 
  -23707   -13768     1582    17415    28062    26615    15539     4302 
   -3532   -11155   -19569   -22019   -11816     3524     7437    -2038 
   -9489    -6022     3562    14100    26724    42719    52111    42452 
   19607      676    -9980   -22877   -39167   -46722   -45422   -41700 
  -26284     6457    33890    34987    23121    15681     6889    -4934 
   -4839     8730    14947     4372    -8409   -13857   -14690    -9952 
   -1491      787    -7249   -16640   -15057    -2828     8808    10339 
    2484     -411     4486    -1501   -17116   -18453    -5644    -2424 
  -14605   -26485   -27167   -13034    10319    19818     1831   -25772 
  -40992   -46236   -52489   -53867   -42809   -25978    -7234    14774 
   35087    41887    26223     -193   -18712   -28773   -29748   -17493 
   -5432    -5495   -11677   -14694    -9809    -3061    -4577   -11622 
  -16803   -18320   -17308   -14852    -7326     3650     8411    10681 
   13320     -302   -27234   -35980   -21045   -11716   -14351    -2610 
   24794    39114    35664    34595    34391    20223     3483    -2708 
   -8548   -17199   -19693   -12093     3200    16224    19417    14760 
    7877     6061     8186     2527   -14361   -30870   -35849   -32405 
  -29315   -27857   -23139    -9855     5620     6980    -6177   -19919 
  -29817   -36213   -34923   -28251   -22369   -16726   -11184    -8077 
   -9104   -17960   -32159   -40788   -37967   -23770    -1741    16629 
   24318    25408    19147     4456    -7861   -13354   -21269   -32327 
  -38661   -41079   -42250   -39127   -30713   -18445    -3547    10137 
   15962    10621    -1024   -14056   -26550   -30144   -21945   -16378 
  -19392   -16519      697    22470    34142    30680    21365    18091 
   19826    17728    13082    13863    18357    21150    23530    29448 
   40147    49134    48255    39553    29870    19263     4675    -5688 
   -4482    -5624   -15780   -22360   -24005   -20287    -5508     6142 
     -16   -12058   -11485    -3469    -8854   -25039   -28894   -16777 
   -4374      764     4824    11481    14693    12422     8954     4629 
     225     1594     9046    15498    21142    30912    38279    32022 
   12727    -8594   -25101   -40305   -59603   -80693   -86097   -61561 
  -27301   -10632    -7758    -7177    -9873   -16310   -23195   -29215 
  -32208   -27901   -22176   -26886   -35336   -32121   -19931   -10937 
   -9475   -11794    -9418      816     9683    10381     7042     4695 
    4495     3906     2010     4064     9817     8370      205     4017 
   17633    11369   -14008   -26007   -22808   -28370   -46762   -64755 
  -71363   -68052   -65055   -59089   -41740   -23380   -14168    -6812 
    6656    22705    31078    25701    11260     1401     7550    23259 
   32881    36594    43282    50909    54745    57210    60944    58653 
   42819    26442    23245    22972    13123    -2556   -16029   -27210 
  -38954   -52150   -63776   -63892   -51448   -38831   -31476   -25196 
  -16488    -7954    -8155   -19167   -29879   -32736   -33681   -33115 
  -20129     1451    10957     5158     2590     6338     2142    -3454 
    6643    20906    20920    15542    17001    20008    20268    20058 
   13207    -7711   -30519   -36148   -27063   -17385   -11445   -11766 
  -19836   -27045   -28441   -30723   -39761   -49532   -47638   -33505 
  -16290    -3365     -234     -295     7896    16676    14673     5711 
   -1152     -664     1652    -3218   -10245    -8209     3057    12499 
   10960     3393      388     5417    17207    26343    20807    10335 
   13446    22140    18490     7207     2462     6210    12826    18100 
   22161    27367    32443    32975    24196     5293   -15344   -24954 
  -19018    -7971    -1668     5899    19199    32094    43765    52702 
   49019    30184     7558    -5125    -8822   -11777   -11769   -11948 
  -22079   -34819   -38342   -36900   -38207   -39676   -36082   -30916 
  -32771   -40171   -43298   -45195   -55687   -69631   -77824   -80723 
  -80327   -76779   -70742   -61349   -47989   -35657   -33347   -41913 
  -47939   -43448   -38743   -40404   -40798   -33606   -19957    -7344 
   -2016     1919     9720    15507    17293    18246    15354     5286 
   -9067   -19071   -13574     4229    16614    19307    22900    31145 
   37874    35398    26883    26592    36406    42155    38531    35278 
   39534    44853    39702    23944    11205    11191    17294    21273 
   22368    16964     9281    13265    25110    31428    33208    36057 
   39370    42295    47814    54554    56039    51008    37563    11534 
  -20594   -46746   -60393   -58403   -42709   -27418   -29388   -47551 
  -67706   -86070  -104136  -114785  -116301  -113714  -104044   -83762 
  -55601   -23036     8087    32405    49316    55768    51059    48157 
   55632    57044    40836    28382    34701    43074    41897    41914 
   51555    62830    60836    43421    28062    23872    22195    22484 
   26473    25477    16040     7713    10461    19545    24305    20398 
    3942   -21051   -39981   -49675   -58491   -65707   -65859   -61785 
  -58691   -57553   -54182   -42911   -25708    -9410      718    -1351 
  -17172   -38475   -56627   -67080   -69512   -70059   -68558   -58666 
  -45378   -36034   -29160   -23359   -16920    -7750      129    -2039 
  -26346   -70714  -103466  -104260   -93012   -85924   -78160   -68859 
  -56292   -42618   -36522   -32277   -27830   -33408   -44815   -49950 
  -49577   -49126   -43758   -31780   -24707   -23149   -14557      480 
   10975    14735    19526    31946    51046    68704    75061    73129 
   74044    76743    72881    60546    47366    43703    50247    59049 
   65500    72504    82031    91881    99809   101000    91790    73720 
   46491    10845   -24925   -52022   -66043   -65538   -55406   -44246 
  -34654   -26099   -20430   -13771     3057    27969    47702    55626 
   57141    60046    61774    51881    30645     7884   -12676   -28692 
  -33697   -29101   -23723   -20903   -17768    -7163    14935    37844 
   46275    35889    13468   -11368   -34601   -53852   -64219   -67134 
  -69865   -77457   -89206   -91473   -69190   -27147    16086    42704 
   50782    54703    58880    57628    50043    33490     7267   -21381 
  -45566   -61033   -65981   -62202   -52986   -40649   -26885   -16186 
   -8565     7593    37224    66577    81920    85522    88815    95021 
   95673    87964    84103    90639    91770    70908    31619   -12546 
  -49669   -73467   -90936  -110052  -121621  -123354  -130353  -140220 
 -139689  -131766  -122026  -113412  -109599  -108140  -107770  -107905 
 -101210   -84716   -63706   -41924   -21315    -3856     6997     4243 
  -12310   -31240   -44748   -56528   -68850   -79234   -89910  -100884 
 -106166  -106583  -108144  -108364  -100354   -84797   -64789   -38938 
   -5466    31893    63120    83613    99466   112671   114716    97128 
   61561    26786    13448    15172    20158    35777    54618    60772 
   66730    81287    88344    80455    66707    55217    46311    39596 
   39966    47800    55495    58901    62652    72112    86776   103303 
  115960   120518   122798   129786   135832   130910   115541    98149 
   80952    55124    19365   -10843   -32046   -54604   -71625   -71649 
  -55420   -24065    12968    36895    44856    49901    52926    43397 
   25647    12827     4968    -4610   -12383    -8947     1085     2828 
   -5922   -18110   -34069   -54808   -73249   -86702   -97912  -101510 
  -94875   -87002   -81611   -76302   -73832   -75957   -77571   -72415 
  -59667   -45057   -32298   -18030    -2870     6500     7105    -2845 
  -22088   -41373   -55048   -64735   -70772   -75343   -87534  -111410 
 -136711  -147572  -133748  -102273   -72144   -45183    -7242    41808 
   90913   130280   144907   127907    90922    49412    11973   -24403 
  -58102   -73944   -73981   -76573   -85158   -94265  -101056  -101339 
  -94413   -77556   -42628    -2019    18847    23442    27422    28301 
   24997    20345    11376     3026     -243    -5709   -15607   -26495 
  -38770   -52515   -65915   -76507   -83646   -89114   -94254   -99631 
  -99515   -81869   -46720   -14445    -2998    -8380   -21030   -40645 
  -63046   -80522   -90377   -88383   -76712   -63358   -45873   -25088 
  -10374    -5193    -9833   -17959   -19610   -14818    -3250    19850 
   51324    81596   104913   125517   147945   165053   171459   172578 
  171022   165789   161468   163123   168848   170599   160666   141129 
  121753   102205    71690    34956     6243   -19001   -45850   -66523 
  -83543  -103597  -123900  -144535  -165962  -175058  -150214   -79498 
   17143    90306   114613   122751   146865   168523   175902   188563 
  198464   186857   166301   152064   149677   154411   155241   157408 
  164698   167931   162646   147295   124337    97526    64989    29482 
   -3572   -34542   -65076   -93521  -118435  -142622  -165154  -181265 
 -189648  -186391  -169874  -150726  -138640  -131052  -121605  -108309 
  -94482   -85287   -78440   -65400   -45287   -23541      753    24698 
   32607    23476    14534    10382     8808    10450    10558    12216 
   23082    36961    43815    41845    34005    21645     3036   -22601 
  -53806   -84306  -104764  -118003  -134086  -149129  -156381  -159972 
 -163564  -168135  -172285  -172145  -171563  -174950  -177178  -172206 
 -156487  -127851   -88840   -48115   -16152     3755    14681    17086 
   12298     8205     9949    14910    19188    16938     1576   -25702 
  -56640   -82684  -101591  -117491  -131789  -139896  -135564  -115565 
  -82327   -43595   -10142    10581    17232    11106      291    -4634 
   -5856    -7541    -4945     2624    11880    21483    30971    42550 
   56111    67356    76372    85850    95054   103621   110961   116984 
  126647   139291   144458   136513   119155    98208    79429    68045 
   64192    65865    74121    84198    88697    92735   104257   122858 
  143881   159613   163584   153600   133902   119688   121247   127342 
  123190   108486    87601    65325    49161    39474    29668    15863 
   -1070   -13736   -15206    -9034    -1872      653    -5050   -12069 
  -13575   -15261   -22119   -30352   -35758   -37692   -37967   -39519 
  -42017   -37507   -16322    16387    36454    30133    17054     8733 
  -13734   -44383   -62264   -79779  -103478  -123249  -143270  -166880 
 -190876  -211704  -224950  -230863  -229828  -221184  -206294  -185202 
 -157562  -126326   -96110   -68860   -44379   -21980    -2182    11481 
   17108    15395     5240   -15880   -47278   -80130  -105547  -124314 
 -136320  -136837  -128474  -118860  -112256  -109329  -107958  -106586 
 -106855  -109818  -112783  -113092  -109871   -99301   -77049   -44914 
  -10049    19872    42624    63478    87291   111040   131457   150997 
  167196   175355   179462   179253   164778   135464   104329    81058 
   65134    53271    44118    40054    42869    49283    59316    72152 
   78370    77927    82498    93744   104535   112135   115731   114147 
  108891   100479    89523    81745    79347    76701    70789    62445 
   49657    30489     9699    -4973   -11641   -11693    -4787     5017 
    9343     6394      935    -4189    -9148   -13757   -14908   -10924 
   -6342     -936    14288    38747    53917    45743    28408    20166 
   13242     1597    -5136    -9466   -22044   -42911   -64849   -82003 
  -95943  -111129  -126045  -136385  -141897  -144032  -141671  -135741 
 -131907  -130212  -120243   -96481   -69634   -53084   -44181   -31164 
  -13397     2435    15400    26071    34724    44446    54325    59059 
   57820    52933    45311    35496    22747     8461    -3388   -14507 
  -27631   -40568   -51624   -61141   -70640   -80257   -88353   -95860 
 -101619  -102069   -97819   -87300   -67190   -40215    -9656    19538 
   36004    32956    14038   -10100   -27423   -38550   -50924   -61376 
  -65349   -64912   -62280   -54194   -35397   -15209    -9517   -15313 
  -20071   -21965   -22334   -18574   -14473   -14407   -10752     1501 
   15237    28259    47665    72796    94501   110457   121894   125741 
  123750   120405   112827    98994    80296    51827     8270   -38518 
  -65904   -76862   -91288   -98008   -82595   -61628   -39660    -7723 
   25941    51001    63244    62883    55848    46826    38283    28788 
   17612    10038    11101    23375    40057    48150    50206    55877 
   60193    58519    57865    58332    52540    37926    13923   -13154 
  -29771   -34443   -34330   -25647    -5101    15624    28458    40543 
   58149    75189    81043    74966    62564    42304    16005    -1638 
   -4772    -3415     2195    19553    38535    44433    39001    30933 
   26501    25425    20977    11901     1845    -9607   -21979   -32563 
  -42442   -53191   -64493   -76222   -86641   -93341   -97825  -103252 
 -108839  -113606  -118027  -119915  -120185  -121556  -118933  -108630 
  -96299   -87289   -83585   -85255   -89205   -94296  -101191  -105655 
 -104287  -102760  -105205  -107050  -107110  -107053  -103098   -94695 
  -86063   -75039   -57515   -38245   -24058   -15296    -9661    -5633 
   -1568     4510    13482    26284    44113    61956    69226    61497 
   45320    30543    22531    20652    22420    27924    36015    44906 
   57169    72535    83474    79014    54699    29367    26844    38016 
   44332    52533    65893    75363    82587    82637    64557    35968 
   11016     -751     1148     6210    10855    19492    34337    53275 
   69149    77857    79127    74121    68172    60336    45139    26511 
    6577   -19531   -45690   -58511   -56658   -51088   -51741   -56704 
  -59880   -63811   -68989   -67871   -58536   -45891   -35118   -28948 
  -25141   -20811   -15334    -9211    -4245      217     6253    12650 
   21934    41800    69510    86560    72326    29214    -8117   -19454 
  -25130   -31914   -22763    -2948    14029    30299    45986    58198 
   68172    75231    78464    79737    80550    81649    81454    75701 
   65731    59088    57996    60222    67749    81297    93746    96931 
   87397    61234    20002   -14913   -26435   -29030   -34869   -35364 
  -36346   -47256   -57102   -64091   -74170   -82220   -88576   -95539 
  -98629   -94367   -80700   -63217   -52509   -50109   -53773   -63537 
  -76832   -90794  -102747  -104166   -86512   -56868   -33556   -22014 
  -15769   -17047   -27623   -36096   -36174   -32938   -30646   -31237 
  -33280   -35407   -39544   -41918   -38068   -27311    -8722     5616 
   -2118   -26252   -44532   -49576   -52944   -60512   -67386   -72747 
  -77815   -79578   -70889   -45146   -10593    15576    32941    48898 
   58409    60023    55837    35698    -1394   -36020   -55170   -68214 
  -84310   -92437   -88874   -85511   -79911   -67626   -55873   -45497 
  -35198   -24962   -11913     4999    28005    54213    74505    90053 
  106145   118430   124119   129466   136404   138111   130036   110328 
   74908    29357    -7272   -29964   -50734   -65888   -69128   -73584 
  -80126   -77901   -73533   -75922   -83492   -89284   -80288   -51584 
  -18574     1710    10212    11855     4553    -5098    -9578   -14378 
  -17356   -10933    -2573     1863     6396     9706     9551    10883 
   18211    27513    31563    30975    30889    32310    34103    36234 
   39633    45932    55298    65948    78063    92329   104210   109659 
  111277   110409   104880    97630    94296    93846    89733    74032 
   42132     3947   -20582   -26839   -25527   -21107   -17566   -22712 
  -35075   -51642   -72222   -91328  -104467  -110619  -108510   -98838 
  -82849   -62278   -41813   -23140    -4484    11745    22121    26821 
   25694    16853       95   -22038   -46456   -68207   -81076   -84541 
  -82240   -76528   -70835   -67377   -64093   -61123   -61277   -62811 
  -60997   -53877   -41908   -25964    -7473    10265    23317    31774 
   40609    52635    63780    68794    66248    59341    54248    52327 
   51449    53096    56725    58595    59621    62382    64297    60327 
   47243    24196    -5886   -36930   -62378   -79278   -91206  -100581 
 -105528  -106056  -103518   -98316   -88689   -72914   -54333   -38267 
  -27733   -23787   -26226   -33407   -41381   -45859   -45372   -40014 
