Origin Time       2021/02/13 23:08:00
Lat.              37.7
Long.             141.8
Depth. (km)       60
Mag.              7.1
Station Code      MYG011
Station Lat.      38.3052
Station Long.     141.5044
Station Height(m) 13
Record Time       2021/02/13 23:08:03
Sampling Freq(Hz) 100Hz
Duration Time(s)  151
Dir.              N-S
Scale Factor      7845(gal)/8223790
Max. Acc. (gal)   296.164
Last Correction   2021/02/13 23:08:03
Memo.             
[...]
    2019     3701    -3827    11761    20713    -2258    -5640    10701 
    2776    -8378     2234     9714     3395    -2751     5368    11240 
   -3684    -4104     7372      141    -1192     6311     5798     7461 
    7654      967    -2650    -5647      -83    16463    12795     5563 
   17381     7820   -10380     -928     4178     1312     9898     7537 
     997     8253    10989    12452     9555    -8992    -8938     3009 
   -1058     6408    11121     -467     6438    14850    15738     7581 
  -18740    -9390    11033    -5254    -1694     8559     2290    12889 
    6606   -11925    11504    20528   -16537    -1687    24070    -5070 
   13743    20633   -19160    14179    19750   -17424    12063    16289 
   -1031    11973    -5020   -11358       95    -9875     9070    15441 
  -13852     8565    24756    -4121     8600    14359    -6789    11124 
    6135    -6609    27724     8209   -29088     9903    19533   -10920 
    2367     4504    -4081    17872     1155   -22419    15853    22927 
  -14288     4041    28638    -4696    -3867    29319    -2342   -28903 
    9620    28722      305   -21647      656    22852    -3003   -12117 
   14233     9008    -6079     7153     7900   -10362      417    22311 
    5055    -6937    14773      945   -24991      471    14305     4066 
    7560    -4637     1229    30815     9121   -13359     8182     1702 
  -10231    12613    10602      133    17321     6305   -15782     4207 
   14025    -7449    -5645    10500     3179     1216    10050    -2046 
   -3362     9960     9013    12950     -904   -16279    19525    18215 
  -19804     9818    15273   -21811     3762    15812    -2926    10671 
    4737    -3647    13593     7595     -446    12695    11556    -9424 
  -13417    13211    19234    -5491     3985    15147   -14332    -4927 
   16760    -7144      994    12996    -9189     4148    12857     4872 
   20015     7519      712    22009    -7389   -24440    23896    22725 
  -13911     3777    13954    -5798    -7442      137     8955     4129 
   -1941    17545     6134   -16340     7299     4986    -9910    12826 
    7960    -5416    11897    15014      430   -14779    -8209    20108 
    7632   -10272    15946     3117   -14493    18104     2714   -17269 
   15601     9360    -4608    18373    14324      479    11341     2620 
  -23449   -11935     6010   -21203   -19168    35764    25389   -19090 
    7179    28652     7943    -4923     2701    22839     3781   -10130 
   21294     8969    -7871     4810    -3943    10369    20066    -4418 
   -1717     4035      540     5541     3958     7565     6651     5842 
   18149     6269   -10876     7132    16730   -14351   -32250    -9764 
    5211     4291     4770     2604     8457     8734      240     9936 
   15495     5030    10281    20212    10084     -118    -1549    -2536 
   -4486   -12756    -1387    19294     1811    -1907    16861    -5780 
      81    28081   -18535   -18204    39588     3354    -3681    34021 
  -28368   -29016    36618      568   -13277    18296     1729    -1571 
   12897     1497    -2786    22196    11163   -14831    23377    22033 
  -26553   -17906   -12653    -9648    10307    -6940       35    15624 
  -17162     7065    48065     5564     9971    44389     -403    -5017 
   13074   -11356    12089    15356    -7207    20904     3111   -24321 
   15020    16676   -29772   -17205    34974    18765    -8341    22717 
   11489    -7901    22802     2666   -12015    26099    10706   -18403 
  -11044    -1533    -1085   -19425    -2398    24953    -7758    -7199 
   23272     4056     2165    22960    12141    -3403     1760     1657 
  -27927   -22331    23379    10575    -6135    18488    15537    11260 
     726   -14658    18674     4685   -50176     4345    63576    10600 
   -5629    23178   -15446   -24904     7098   -18195   -15461    24829 
    1699   -11720    26711    19923   -13344      166    20379    14677 
   -7511   -21932    17814    45470      845   -17944    15256    11475 
  -28358   -17151    22311     6054    -1198    23815     5817   -15797 
  -13738     4291    26275     8199     9753    15292   -17230    15252 
   30036   -35642   -21159    28009     7055    -7277     -608    -3318 
    3318      247   -21370   -13851    21115    27476    10231    12680 
   20723    11588    16001    29011    10134    -8054    -2614     1918 
    -753   -20251   -23481     1863     4153    -1034    22489    39712 
   -8806   -46033    19738    42113   -21871   -27093    14335    28510 
   -3341   -10350    48217    18343   -53268    20752    70756   -25884 
  -63925    12764    45972   -10617   -31588    22270    33342     6033 
   -4529   -22149     6211    42082   -11119   -37297     8878    13821 
   -7723     9448    21284   -12810    -9819    48155    46907    -7680 
  -27679    -1136    14057   -17309   -13635    30852    23286      715 
    2409   -12027   -25955    -9369    15148     7616   -13896     2173 
   18897     8707     7570    -1755    -5755    14499    17884    17112 
    5258   -11527    17159    32849    -1942   -36466   -26350    10266 
    7531    11010    27565   -12649   -26470     6624     8024    19743 
   43160    19793    -3348     6400     -170   -22123   -24011   -10611 
   -9405   -19647    17790    74895    46637    -5108     1555    -2536 
  -21265    -5112     -851    -8434    24121    35954      332      183 
   25575    13389   -23606   -50869   -37405    13350    28070    -1036 
    5435    25701     5570    -5389    18508    31514      463   -28463 
   -4403     6675     5395    33912     4504   -34838      962    14312 
     506    18995    30433    -3685   -16461    37635    17610   -66096 
  -39722    20933      531   -21767    28776    59860     8787    -8160 
    4575   -14273    -5938    -5836   -30175   -10548     8190     3246 
   15731    12771     2582     -333   -31662   -25536    12668    -4999 
  -14370     8240    29735    59655    32148    -8159    19508    19255 
   -2317    -3928   -34246   -11950    41310     1096   -23257     2062 
  -32410   -54893    -6647    34285    23971   -10671   -15510    13512 
    3464   -39116      552    50801    13567    35179    91235    33426 
  -24300     6440    26696     6812    16696    18990   -31382   -18713 
   26169   -25586   -48411    21172    36475    16463    42711    20538 
  -37717   -29837   -57731   -76061    27689     4153   -92267    49036 
  142137     3789    -2948    92631    31376    -8750    36236     1174 
  -21238     1532    -9386     5196     7888   -11935    20591    17031 
  -51582   -60706   -11079   -15606   -42788    13647    72299    31029 
  -33793   -15900    68875    78744   -10585   -31341    30152    30206 
    4606    29937    18856    -2560    27201    -4453   -49138   -21471 
  -36699   -69039   -26275    45122    66775     6339   -11415    36760 
  -29538   -92052    36146    97322     -934    24732    55487   -59618 
  -29656    40791   -70276   -36216   125605    71205   -33276   -34132 
  -59607   -43831    38907    47737    11786    12733    13443     -908 
  -12430   -42992   -51844    24096    62016   -12939   -33465    14185 
  -15966   -63170   -39198   -21713   -26060    37478   127032    73899 
  -74079   -77539     2592   -31824   -55852     2974     5995    -8868 
    1761    -4440    11538    -1868   -45025     2317    79398    74390 
   11858    -9034    29178    39567    45133    54021    28723    43405 
   52240     4760     5636    -2623   -92527  -120128   -65898   -42651 
    1291    42184   -12067    -1684    90875   106191   102091    77415 
   26612    57584    62876     3458     6608     3021   -51339   -52292 
  -24618   -56687   -88065   -45696   -16789   -26681    -4051    -4888 
    -714    86132    83012   -18557    10922    60573   -32472   -59427 
   43864    76110    59069    83110    52828   -14392     4021    45858 
    4795   -38279   -24682   -59665   -87597     -654    14697   -58577 
   16638    97742   -10131   -55278    62919    61518   -60218   -37643 
   54422    39195    18131    33219    -5277   -71270   -66249   -12051 
  -37511   -64044    13414    32587   -15188    11422    63080    52972 
  -19413   -44209    31175    62761    31190    28250    14010   -17324 
  -20259   -16978   -31310   -76608  -119662   -79019     -611    18936 
   45158    72918    -2254   -20757    96469    87316   -21983    13286 
   46784   -33056     4480    72636   -25523   -10492   120170    31039 
  -40189    46113   -88263  -214197    48307   195505   -21521  -108226 
   -1695    27459    17725    27880    50080   112078   122268    10639 
  -70676   -33933   -15763   -58063   -58487   -17022     2172    28637 
   57620   -17759   -83147    27572    68790   -64918   -48280    70821 
    3330   -44568    88519   118423    41318    43735   -13676  -105409 
  -51379   -12750   -67421   -36300    42622    32451     8398    53202 
  116533   117379    10335  -116777  -136701   -79870   -31498   -25693 
  -56447   -22840   104747   118471     6280    38484    82354   -76323 
  -92437    84975    22493  -134497   -24484   115784    49858   -40482 
  -14058    22939   -21864   -32497    53258    47285   -71307   -71213 
   14597    11496     2015    37906     6812   -44450    -6118    23322 
   -1254    29619    48186     4368     8629     5259   -34769   -15618 
   16410    30755    51833    66402   100575   100278     -824  -102909 
 -129336  -113348   -65434     2637    40192    31213    15938    32313 
   53928    52878    63529    40491   -46318   -41951    17849   -29759 
  -20733    80442    53717   -17409   -15707   -23538   -26941   -15738 
  -14675    41814   119365    86116   -10955   -45166   -39699   -29911 
  -21870   -34703     8521    95581    75020   -17880   -53296   -47860 
  -37143   -15078    -5508    -5032    15580    36240    26761    -9155 
   -6632    27446   -40720   -75347    77436    80624  -105179   -42720 
  115501     3427  -105692   -31941   -25440   -55140    14166    38736 
   29257   112858   152101    66460    12174     2169   -63252  -131249 
  -98373    39368   120483    50198    28390    75389   -45504  -164628 
  -34366    57522   -28603   -44421    -2848    14204    45196     8669 
  -53916   -40848   -45740   -61689   -11049    14524     1668    15430 
   38426    66172    23197   -52366    27634    94203   -17219   -72223 
  -13934    24279    56650    88214   100877    91809    35407   -13591 
  -35276  -102714  -144447   -61407    57726   122214   124125    85826 
   82201    69140   -70283  -165838   -43695    64381     8600     4349 
   75077    -1020   -88689     4074     6582   -97505   -50707   -22017 
  -24432   114374   149655    21928   -14469    -7452   -60898   -51574 
  -20958   -81553   -32071   128538   104211    35364    92044    15457 
 -142915  -103169   -25852   -66020   -17217   128194    81949  -126014 
 -121015   103131   139915    -2988    40714   125350   -34634  -145656 
  -45824    -8094   -28939    11680    16267     9315    47891     7902 
  -81641   -59058    13630    42747    50912    24858    -1760   -34084 
 -108184   -45995   109884    56455   -43760     5764     8599     1856 
   44867    -4082    -9517    64039    20071     7395    89395     6328 
  -99906   -14019    14813   -37516    31868    52663    -3159    85769 
   93287  -132362  -186395    -7940    70048    53565    25813    -5520 
   70787   136525    10613  -109012   -21357    76900   -26877   -73685 
  133915   177839   -57132   -94514    38504     4469   -65589   -31487 
   20293    71693    32613   -80643   -21845    99409    54423    -3503 
    -930    -6420   -22874   -52918   -17733     9013   -71313   -26966 
  127172    44266  -155133   -59219   169200    67653  -151591   -48235 
  101075    13595   -29172    20237   -47775   -68404    93279   139179 
   -8918   -61510   -35954   -17817    85660    29315  -211536  -115653 
  186403   129212   -53064   -24499   -31093   -74228    -1131   -12802 
  -65434    55186   114120   -37913  -101310     6462    21409   -75987 
  -60220    30183    10130   -24329    32049    57596    34311    40362 
   35270    -8005    12461    91022    32196   -52061    44011    31545 
 -125369   -96192   -34192   -44906    65167   133898    39694     5692 
   77630   101488    47283     1166   -14569   -72064  -143418   -57353 
  122596    87586   -76727   -31590   107202    78356   -24507   -22488 
   50677    35518   -59715   -64832    13381    38961     1914   -36331 
  -63950   -82074   -16806   125672   141862   -18150   -81148    80314 
  175972    80599    27531   -27789  -138694   -66602    21492   -65250 
   -8189   151124    92927    16314    74862    41619   -71882   -99727 
  -73425   -46256   -59692   -69190    62741   134136   -38747  -111468 
    8995   -14374  -118168   -91426   -76794   -74085    51445    96789 
   29181   124943   211659    23252  -146967   -71845    40313    33296 
   -7260    29543    69755     7184   -64781   -76137   -63140    23822 
  142936    65858  -157106  -144375    97183   164678    30636   -90306 
 -181564  -133273    35754   -25999  -167583    -2965   139484    -5921 
 -100473   -22312    46641    65603    53665    -3916   -55879   -10741 
  142296   246198   116187   -84901   -79660   -13208   -27904    27630 
   62353   -36211   -16344    97438    10027  -101227    18427   141210 
   82327     3149   -33550   -94846   -27518   147507    98104     2795 
  147879   135785  -108772   -97837    65194    14241   -48737    60968 
   54210  -126130  -122195    40693   106882   139833    54214  -225225 
 -306898   -64035   162576   168384   -24857  -168531    14308   214513 
  -21523  -287667   -93255   173257   125830   -32354   -48115    19376 
   -3337    -3480   120224   114215   -38206   -27391    48093   -90212 
 -115198   214111   290671   -40729   -84176   130458   100299   -10520 
  -20163   -65635  -110932  -147152  -199693   -60045   233267   274934 
   18808  -130565   -24316    -8449  -183323  -143029    63059    -5151 
 -116837    86566   217390    21624   -68199    72296    55837  -106033 
 -109413   -17355    -6268   -26973   -15075     -656   -29852   -63655 
   -5852    82925   123819   163687   131367      750   -31762    53638 
   50971   -68212  -128745   -65742    12285    36396    -6627   -74718 
   -7600   100507    -4733   -81835    62476    64542   -55818    60620 
  154049   -12541   -62410    38246   -69819  -190711    17694   228418 
   72617  -181971  -174167    30231   139452    19981  -116243   -17317 
  170914   159472    52967    31558   -25957   -41141    91091    97603 
   43322   119450    53813  -105483   -97494   -97937  -148126   -48415 
  155553   198136   -37501  -171333    36382   107497  -114975  -125701 
   85175   109065   -10281   -74271   -20518   125529    68235  -151320 
  -88013    54068   -52903   -89131    24090    50593    80424   149582 
   75161   -67059   -74250   -87863  -191479   -86169   149997   146448 
   43379    15547   -69823  -144159   -45802   169493   262344    55476 
 -167702   -53450   139499    36678  -180513  -148716    49752    52647 
  -87720   -55327    29128   -32385   -25801    62020   -55008  -179763 
   33566   251669   114494   -88531  -137601  -113992    18135   126208 
   75921    61098    29224  -124842  -156085   -53890    36451   105457 
   70627    23446    69585    21111   -40369    86571    87353  -119720 
  -41219   216827   124475   -93637   -38477    74830    -2110  -150057 
 -169443   -42145   108787   127460   -84171  -244162   -52515   112857 
  -13389   -20186   178956   180310   -42164  -105097    51850    43241 
 -143171   -94651    88786    53848    -8762    38624   -29014   -93933 
   -6616    11329    13805   132429   134767    49447    65869    36717 
  -12930    71354    60516  -108739  -132684   -22420    28239    51167 
   66428     5686   -75223   -40429    26730   -31160   -80214   -15842 
   41746    65308    69381    16120   -28894   -30747   -72519   -71120 
   79224   136861   -29122   -94498    50352    86406   -66946  -154498 
  -97953   -48942   -59574    -1358   182806   245376    30037  -109158 
   34561    75945  -132370  -143951   122148   140061  -107391   -79374 
  183485   139899  -207007  -281524     2470    78040   -93775     5321 
  258727   192238   -23716    -1267   140394    74027  -119635   -88940 
   45817   -37774   -93252    51424    62572   -45212    -6947    11113 
 -119678  -146214    38592   189355   153160   106101    55537  -160672 
 -245604   -18489    97525    20422     9551    -2632    -8216    74200 
   63969   -33043   -10875    48519   -57970  -163667   -24711    93981 
   26518    64490   100001   -63352   -99794    37660    78065    52316 
   42866    38184    39544    18706   -43920  -102312   -29922    88739 
  -10093  -128017    12198    70779   -41256    72945   181124   -32370 
 -151582   -51973   -20185    20495   100624    45835   -29531    15238 
    1116  -110268   -64091    62685    -4693  -110602   -51628    43179 
   33478   -30680   -22449    46938   115757   130823   -40277  -230717 
 -102799   117410    47432  -101379   -36718   124059   216452   171393 
   -5274  -123265   -68079    24781    59724    41361   -19662    24298 
  108406   -78065  -184380   139548   223503  -121936  -149399   106975 
   58463  -116079     4706   184179    68535  -111134   -78127   -43008 
 -109024   -36834   102459    54313   -16143    45235    10385  -101140 
  -37551    32749   -36645   -12101    74775    65279    53152   -17300 
 -154047  -120010   -19600   -46318    -8816    98977    57465   -32530 
  -20074    39465    77143    26103   -41223     9761    64017    64864 
  107523    89793   -10864   -15148    45481    25737   -49770  -108761 
 -107761   -11242    76269    26468   -60058   -56809   -13456   -18237 
  -65535   -53472    10512    32406    78845   124478    29635   -57638 
  -11520     -353   -35097    32651   109750    43175   -80736   -88310 
   37852    96357    -7129   -28875    66717   -16877  -155725   -37619 
   98178    27913   -42080   -34626     1216    32019   -38774   -68845 
   66463   117926     7905   -44616     3681    40574    17593   -13852 
    2118   -17123   -95554   -76813   -10840   -39503    -6713    71755 
  -18369   -94984   -17737    35499    57859    60964    -5063    -4976 
   31715   -56231   -92989    31801    97009    84966   137716   151983 
  -10615  -193251  -141501    60011   131383    51784   -16923     8973 
   44150   -28084   -58780    76669   112658   -44516   -60378    84049 
   62137   -38870      718    -1061   -63329   -12802     8298    12906 
  111969    56714   -66256     9886   -12401  -173128   -71362   148375 
  135734   -21014   -94576   -17547    30144    -9436    73809   112087 
 -103701  -204909   -75061   -19800     6863    72810    55242    53784 
   71390     -452     1034    49778   -43903   -59778    72026    57090 
   -6226    66991    53782  -104724  -120482    54938    88666   -85156 
  -85550   114312   139492    -1551   -87851  -142801  -188443  -183080 
  -77313   171327   300769    99233   -76512     7281    57659   -25836 
  -80272  -104078   -55964   107003   168755    37324   -69475   -48532 
    2486    29937    19107     8110    38017    22067     7612    57133 
   36948    31048    78236   -14551  -100651   -31868    11812     3365 
   28957    34699    -5668   -18486    -4542    -8087     8040    32098 
   29552    65585   111443    53308     -680    33134   -52380  -178411 
