Origin Time       2021/02/13 23:08:00
Lat.              37.7
Long.             141.8
Depth. (km)       60
Mag.              7.1
Station Code      MYG003
Station Lat.      38.7348
Station Long.     141.3106
Station Height(m) 28
Record Time       2021/02/13 23:08:10
Sampling Freq(Hz) 100Hz
Duration Time(s)  177
Dir.              U-D
Scale Factor      7845(gal)/8223790
Max. Acc. (gal)   104.118
Last Correction   2021/02/13 23:08:09
Memo.             
[...]
  -11959   -11959   -11959   -11961   -11958   -11958   -11959   -11959 
  -11958   -11958   -11958   -11959   -11958   -11959   -11961   -11958 
  -11958   -11962   -11963   -11959   -11958   -11955   -11956   -11962 
  -11962   -11958   -11959   -11958   -11956   -11959   -11961   -11959 
  -11961   -11959   -11956   -11958   -11961   -11956   -11955   -11958 
  -11961   -11958   -11954   -11955   -11959   -11959   -11958   -11959 
  -11958   -11958   -11958   -11959   -11959   -11956   -11956   -11962 
  -11962   -11958   -11958   -11959   -11958   -11958   -11959   -11958 
  -11956   -11956   -11958   -11959   -11958   -11959   -11961   -11958 
  -11956   -11959   -11959   -11958   -11958   -11958   -11958   -11958 
  -11958   -11959   -11961   -11961   -11959   -11958   -11958   -11961 
  -11961   -11958   -11956   -11956   -11956   -11958   -11959   -11959 
  -11958   -11959   -11959   -11958   -11958   -11961   -11961   -11958 
  -11956   -11958   -11959   -11959   -11959   -11958   -11958   -11959 
  -11958   -11958   -11961   -11961   -11959   -11959   -11959   -11958 
  -11958   -11961   -11959   -11961   -11961   -11956   -11956   -11956 
  -11958   -11961   -11962   -11959   -11958   -11961   -11959   -11959 
  -11959   -11959   -11959   -11956   -11956   -11958   -11961   -11959 
  -11959   -11961   -11958   -11956   -11959   -11959   -11955   -11955 
  -11959   -11959   -11959   -11961   -11959   -11958   -11959   -11961 
  -11961   -11961   -11962   -11959   -11958   -11959   -11961   -11959 
  -11956   -11959   -11962   -11958   -11956   -11958   -11958   -11959 
  -11961   -11961   -11959   -11956   -11956   -11959   -11959   -11958 
  -11959   -11959   -11961   -11959   -11958   -11958   -11961   -11959 
  -11958   -11958   -11958   -11956   -11958   -11959   -11958   -11958 
  -11958   -11956   -11956   -11958   -11958   -11958   -11958   -11959 
  -11959   -11959   -11961   -11961   -11959   -11958   -11956   -11956 
  -11956   -11959   -11959   -11959   -11962   -11961   -11958   -11956 
  -11958   -11959   -11961   -11959   -11959   -11959   -11958   -11956 
  -11959   -11961   -11959   -11959   -11959   -11958   -11961   -11961 
  -11956   -11958   -11959   -11959   -11961   -11961   -11961   -11962 
  -11959   -11956   -11958   -11959   -11959   -11958   -11958   -11959 
  -11959   -11956   -11958   -11958   -11959   -11959   -11958   -11959 
  -11962   -11961   -11958   -11959   -11959   -11959   -11961   -11961 
  -11959   -11958   -11961   -11959   -11956   -11959   -11958   -11956 
  -11958   -11959   -11959   -11961   -11959   -11959   -11958   -11958 
  -11959   -11959   -11959   -11958   -11956   -11961   -11961   -11956 
  -11959   -11962   -11959   -11959   -11961   -11958   -11956   -11959 
  -11959   -11959   -11961   -11959   -11958   -11959   -11959   -11956 
  -11958   -11959   -11958   -11959   -11959   -11959   -11956   -11956 
  -11961   -11961   -11958   -11959   -11961   -11961   -11959   -11959 
  -11961   -11959   -11961   -11961   -11958   -11958   -11959   -11959 
  -11961   -11961   -11958   -11959   -11959   -11958   -11959   -11959 
  -11959   -11959   -11959   -11959   -11958   -11958   -11958   -11959 
  -11959   -11959   -11958   -11961   -11963   -11962   -11961   -11961 
  -11959   -11958   -11961   -11961   -11961   -11961   -11958   -11958 
  -11956   -11958   -11958   -11954   -11951   -11954   -11954   -11951 
  -11955   -11961   -11962   -11963   -11963   -11970   -11990   -12020 
  -12042   -12027   -11967   -11912   -11901   -11912   -11881   -11805 
  -11786   -11917   -12093   -12067   -11831   -11719   -11936   -12258 
  -12353   -12105   -11673   -11476   -11766   -12185   -12241   -12031 
  -11907   -11894   -11857   -11796   -11827   -12135   -12637   -12769 
  -12124   -11103   -10697   -11394   -12503   -13024   -12727   -11998 
  -11275   -11040   -11511   -12167   -12451   -12397   -12237   -12132 
  -12051   -11727   -11331   -11512   -12047   -12002   -11592   -11596 
  -11762   -11628   -11511   -11962   -12771   -12889   -12093   -11442 
  -11418   -11676   -12394   -13203   -12528   -10937   -11167   -12737 
  -12236    -9610    -8856   -11857   -15252   -15016   -12112   -10420 
  -10629   -10682    -9981    -9832   -11661   -14620   -15138   -12691 
  -11268   -11531   -11572   -12610   -14013   -12758   -10393   -10062 
  -11645   -13579   -13747   -12650   -13325   -13842   -11461    -8861 
   -7796    -8928   -13940   -18387   -15770   -10119    -7750    -7516 
   -9934   -14565   -15126   -11709   -10671   -13068   -14732   -13640 
  -11707   -10187    -8891    -9849   -14003   -16422   -13910    -9651 
   -7604   -10309   -15179   -14713    -9404    -8672   -13412   -16175 
  -15850   -12650    -5740    -3314   -11152   -19818   -19357   -11875 
   -5713    -6764   -12748   -16376   -14933   -12060   -10721    -9497 
   -8919   -11850   -16359   -18451   -17155   -12989    -6818    -2874 
   -6282   -12852   -15087   -14987   -14443   -10898    -7820    -8631 
  -10600   -13983   -19469   -19863   -13041    -8399    -7626    -6285 
   -9724   -18050   -18636   -10728    -6905    -9622   -12884   -14724 
  -12218    -4445    -2749   -13923   -24696   -21702   -10497    -4514 
   -6642   -12302   -16001   -11217    -3635    -6693   -17432   -21971 
  -17653   -12055    -8176    -6542    -8692   -10678    -9508    -8610 
  -12125   -19205   -21817   -16270   -10196    -7441    -4719    -5252 
  -12232   -17945   -15975    -9879    -5906    -7908   -15512   -20596 
  -15630    -8657    -9981   -12953   -10077    -7362   -10046   -13325 
  -14874   -16511   -13894   -10180   -12475   -10089    -1587    -6052 
  -18792   -19149   -16033   -21014   -17730    -4723    -2243    -6091 
   -4630    -9891   -20807   -17679    -8550   -11029   -13620    -8966 
  -11634   -19970   -18045   -10027    -6108    -2959    -5811   -20615 
  -29209   -20237    -9174    -4909    -1665    -4553   -15534   -17221 
  -10908   -13632   -15789    -7931    -5016    -9936   -11361   -13558 
  -22621   -27390   -20150    -6455     5576     4546   -13153   -29523 
  -27348   -11929     2365     4158   -11487   -29760   -24902     -371 
    7650   -11820   -28171   -23240    -9058    -1040    -5481   -19379 
  -26357   -11763     5282     -274   -17061   -27318   -25911    -8823 
   10459     7169   -14690   -28763   -26963   -17352    -6131    -3497 
  -11834   -10995     3878     3910   -18391   -35729   -35167   -23994 
   -4781    14794    13512    -6319   -19889   -26809   -29786   -16067 
   -2172   -12706   -25384   -12324     6388     6228    -1958   -12916 
  -32509   -40242   -25147   -11182    -6805    -1046     4483     1252 
  -10984   -24044   -30774   -22566    -2344     5224    -6077   -18084 
  -21378   -15646    -6420    -6519   -18632   -23984    -9579     3704 
   -8577   -29154   -27095    -8930     5208     6959    -7196   -23539 
  -27287   -19472    -4322     6312    -1286   -22393   -30906   -15654 
   -3130    -7210   -13297   -16220   -14602    -4708     2042    -8028 
  -25820   -29713   -14877     4668    11358    -1023   -18774   -24308 
  -18465   -15772   -15084    -6960    -4779   -15618   -19587   -10191 
   -4517   -12858   -25861   -23103      356    13510    -7925   -31710 
  -24511   -10076    -4171     5834     -703   -30298   -34668    -5212 
    4781   -17535   -30947   -18619     5940    23664     8368   -35108 
  -52180   -17554    18716    11133   -23476   -44687   -32659    -1917 
   12420    -7614   -37312   -39661   -12253    18382    21728    -8803 
  -36909   -32076   -10485     4398     8800    -1702   -21478   -22349 
   -6528    -9687   -26347   -20629     4395    15512      -49   -28679 
  -44583   -28131      569     5548   -14476   -32954   -21163    11369 
   14674   -18828   -40246   -26010     -931     8716    -2056   -21521 
  -24320   -10143    -7038   -15106   -22258   -22459    -2714    18858 
    8155   -21853   -35968   -31672   -17259     4411     7911   -18611 
  -36030   -19330      454    -1472   -14706   -26293   -24563    -6632 
   12243    13852    -9606   -41173   -46148   -13779    17664    10926 
  -16096   -27133   -16283    -6697   -12873   -17983   -12684    -6559 
   -2168     1421    -5285   -29876   -45234   -25740     5906    21188 
   11880   -15315   -33220   -22374      534     7500    -8996   -28736 
  -24587   -10218   -15917   -27552   -21334    -2830    15538    19153 
   -4923   -37156   -41323   -19874    -7203   -10941    -9455     2253 
   13419     8761   -27715   -69138   -62942   -13462    26106    28772 
    4284   -27843   -38281   -15560     4379    -8370   -27342   -18889 
    3358    12310    -1412   -35202   -53299   -24950    11064    12355 
   -9200   -29255   -28690    -5552     7974   -10123   -27137    -9873 
    9729    -2178   -22447   -29386   -22366     -907     6879   -15264 
  -26584   -15284   -11134    -9657    -4459    -8839   -10824    -3793 
  -10030   -23787   -20871   -14631   -20245   -16429     5034    14693 
   -3312   -29748   -39434   -22412     1003     1749   -15849   -26256 
  -13540     5358    -3901   -29714   -32536   -10289    11106     9772 
  -14192   -34674   -25119     4037     6342   -22273   -26790    -3078 
    2249   -16116   -33971   -30651    -4529    13937    -2049   -29444 
  -25417    -3893      137    -9679   -22902   -26030    -8143     7728 
   -2898   -24935   -28418   -10308     5344    -2380   -23589   -28960 
  -12704      573    -2122    -9636   -22667   -32664   -11067    12399 
   -6435   -36308   -36757    -8849    21581    24622    -7152   -53538 
  -66641   -25493    22388    35694    16183   -15988   -34692   -37106 
  -34828   -23863     -503    18234    13454    -6619   -24846   -31938 
  -18463     3858     3474   -20267   -28788    -6552     9990   -10741 
  -41165   -30816    12298    30424    -1383   -45052   -50434   -16726 
   17948    17707   -15003   -31101    -8348    16779     7304   -31128 
  -53755   -35028     5489    31866     9887   -38172   -43808    -8426 
    6045   -10399   -18621    -5907    11207    12680   -16376   -50043 
  -45423   -14142     9020    17622     8951   -22088   -52091   -54662 
  -42475   -26353     1695    21944    11786    -8199   -10640    -5092 
  -10084   -20981   -24298   -10470     8475     6338    -8662    -2895 
   20289    10091   -44339   -76489   -46589     7064    32922    19368 
  -10763   -24904    -9142     2971   -20298   -51698   -50175   -14229 
   20588    18237   -18466   -41037   -21008     -791    -8822   -17921 
  -19476   -29002   -33482    -7358    26545    29191     4264   -31063 
  -57202   -44676     7959    49326    27733   -27087   -43297   -17361 
   -4533   -29650   -62314   -56560     1827    60783    46772   -23056 
  -65527   -53345   -10813    24133    15535   -15485   -19905    -2845 
   -5173   -30310   -34107    -8795    -1594   -14187   -11823     2085 
    9508     4806    -2232    -6786   -23766   -43683   -38288   -10277 
   14937    15870   -10111   -40701   -54153   -40967    -1348    31284 
   17346   -26715   -52370   -44405   -18432     6623     9051    -7420 
   -9119    -4403   -20668   -25018    -1946     6295    -5695   -10234 
   -8297   -18415   -28848   -19379   -19469   -41985   -42745    -9944 
   17683    13485    -7916   -22167   -32405   -39090   -28584   -10605 
    3030    13405    10990    -1944   -16040   -35141   -39144    -1971 
   36590    18291   -29704   -49860   -39445   -17500    -7528   -20656 
  -27969    -6600    22148    18775   -15322   -30226    -9352     6674 
   -8341   -26797   -15071     8526    13984     3673   -17236   -43879 
  -57308   -34649    16714    41501    11138   -25088   -24634   -13595 
  -16191   -17153   -19268   -31926   -38148   -29282    -5890    25563 
   39579    22661    -4386   -18968   -27052   -28300   -12058        4 
   -1259     6828    10963   -11788   -42252   -54546   -31388    21506 
   51426    19738   -40042   -67423   -41909     3549    17980   -10053 
  -42169   -41072   -18210   -14715   -25008    -9364    25945    38562 
   12081   -20904   -23016    -4918   -12401   -58638   -85598   -46251 
   16999    37419    12780    -7852    -2835     2197   -11010   -40532 
  -66629   -42811    26210    59277    15082   -59875   -95943   -73688 
  -18785    43240    66433    17037   -53626   -65627   -13564    36443 
   41489    11585   -22740   -28763   -23695   -42232   -52783   -21859 
   18990    30082    17271     2281   -15676   -39185   -53904   -42495 
  -11858     2724    -4475    -1077     5576   -10760   -26198   -27058 
  -30025   -15299    24167    36425    -7160   -62970   -74171   -39174 
   12120    57528    56062   -14515   -88087   -87723   -30280    19597 
   35814    22125    -8289   -19773    -6200   -15693   -53489   -56566 
   -2917    48829    52521    19377   -31710   -69400   -50535     5869 
   32337     2087   -43168   -45131    -8514    11250    -6241   -30586 
  -24899    11529    41751    36481    -6970   -63832   -86165   -47738 
    8880    11610   -20846   -10751    23571    12665   -31391   -49577 
  -29528     1071    19477    19894    15147     2281   -37540   -74326 
  -55305     3030    32687    12837   -22401   -38761   -21072     9340 
   18472     2137   -17766   -14841    -4472   -13761   -21892   -19018 
  -16575   -13026   -17795   -28139   -28694   -20341    -3690     3326 
  -19305   -43626   -35783    -4193    17328     3788   -24077   -24553 
  -12673   -20892   -24051    -3854    23175    45380    27198   -54800 
 -121105   -78561    23247    69930    38102   -22250   -56119   -41704 
  -10008     2851     3117     -811   -17786   -23214     2998    13618 
  -17425   -38538   -27549   -14967    -2338     8043   -17062   -56812 
  -36039    37868    68474    20791   -44354   -62100   -28557    15279 
   34258     9452   -41697   -73006   -71739   -41310    16885    53747 
   23616   -29797   -45975   -29851    -3618    18314     9913   -19510 
  -14690    24626    25563   -31945   -82363   -73746   -13007    47201 
   46458    -8517   -44041   -21443     8874    -4333   -29724   -28590 
  -12391     1474      892   -13180   -21965   -21382   -25123   -33517 
  -30508   -16092     2164    21235    29127    20646    -3034   -32343 
  -49015   -42167    -9790    14791    -3136   -36745   -40906   -13555 
    9968     6866   -12222   -22357    -6139    15670     3103   -30771 
  -35680    -9579    12507     7824   -19477   -33192   -18027    -6215 
  -22991   -45769   -30514    19575    47490     8592   -62715   -82223 
  -39792    -1995    -3507   -20227   -12708    24391    46947    10557 
  -60673   -91935   -52558    20922    65178    39376   -22782   -61642 
  -55539   -15113     6952   -14125   -21809     5096    14207   -17998 
  -48506   -37156    -4938    21051    36594    18238   -20659   -29917 
  -20741   -24586   -33169   -23665      190    -1827   -20302   -12816 
   -5398   -19052   -26399   -18817    -3392    10011     9818   -13203 
  -45442   -40213     3326    34137    20575   -35286   -73919   -47124 
    2627    35934    37650     -749   -31633   -26828   -24143   -41143 
  -45666   -12857    33654    59360    39893   -37860  -111192   -97864 
  -28691    30406    62919    47700    -1486   -24580   -26848   -44794 
  -55421   -31376    11141    32530    13945   -15985   -25897   -13181 
  -13167   -49360   -58379    -8688    28595    22273     -746   -20858 
  -16102     9309    16078   -13419   -50777   -49819    -8259    21802 
   10342   -20904   -43001   -30616    14968    30838   -11222   -47464 
  -35016    -2768     6783    -8675   -19657   -10081    15642    25033 
  -13406   -61481   -57237   -17347    -6332   -15249     8488    35256 
   12981   -34138   -56641   -41451    -7970    19403    10319   -34897 
  -51957   -14535    23858    22569    -7345   -33608   -40379   -34281 
  -22589   -13516   -12530    -3167    17842    17880    -6085   -18742 
  -11256    -9400   -30558   -40219    -9181     7269   -26678   -57794 
  -41650     5065    31472    19195    -1786   -14816   -29556   -46460 
  -33831    12031    36452    22430      565   -11018   -19797   -40467 
  -52952   -44541   -24352    15682    41593    12988   -33910   -43981 
  -15192     -934   -19016   -27407   -21597   -18975    -1755    23437 
   10513   -23932   -20556    -1702   -14671   -32273   -19619     4419 
   12509        1   -25803   -36221    -7971    24171    12159   -20164 
  -21919    -5336    -4037   -23583   -43297   -31230    -4348     2586 
     843     1636   -11776   -43187   -52917   -17848    16617    17120 
     538   -14809   -15229    -5418   -12556   -31234   -34821   -28417 
  -23749   -21070   -17922    -3395    11047     5778    -1559     1669 
    6563     4361   -15645   -35279   -27739   -16838   -28651   -32467 
   -8106     7847    -4889   -21226   -21743   -23105   -29421    -6034 
   25633    15622    -6284    -9386   -10708   -15905   -22453   -24628 
  -21367   -20580   -15124    -6286     2266     8156   -13375   -44521 
  -33797     4174    13610   -11870   -27194   -14125    -1051     6853 
   23194    21482   -21316   -71398   -69989    -9741    31642       45 
  -59209   -74895   -22886    44277    50877    -7884   -70789   -77575 
  -31297    11499    21442    10218    -5719   -16143   -19511   -12332 
    6193    13343    -6482   -20792     -801    15253    -9954   -43718 
  -43721   -13039    20862    39071    33361    -5248   -59552   -78256 
  -45524    -7238     7304     8752    -1636   -10885     3798    13099 
  -17635   -51403   -33925    12511    17059   -22474   -43588   -38161 
  -35823   -23010     3858     9649   -17770   -42800   -29169     1410 
   17915    23093    23384    30924    30496    -6797   -53181   -66163 
  -42344    -5443    22150    20054   -22959   -59485   -40497     1991 
   23650    27949    21775     3268    -8122    -9663   -25254   -45106 
  -50130   -51663   -45083    -5019    43231    40483    -7106   -40925 
  -32621     1907    24885    15574    -4267    -8553     3816     6330 
  -30858   -75767   -70653   -17512    32343    30726    -9510   -43464 
  -60650   -53873   -13799    36424    53023    11537   -52624   -65036 
  -12286    22723    -6428   -50427   -66981   -49296   -17196    -3156 
   -1452    -1541    -7789    -2189     9397    -8244   -30713   -16308 
    4442    -4634   -18914    -5881     8753    -7790   -21346   -13875 
  -15503   -25097   -36865   -48180   -34136    -2110    14258     8251 
   -2659   -12552   -29670   -34892   -17799    -9340    -9440      -68 
    1480    -8769   -16374   -23472   -23649   -11430   -10621   -27390 
  -36686   -25108     5440    30354    14532   -34223   -71500   -64372 
  -12592    45574    50693    -7812   -62565   -53870      272    41365 
   38932     5876   -23916   -21969     6204    26291     7508   -35399 
  -46916   -20594     3591     6786   -20270   -57272   -65117   -48906 
  -21843    18574    51187    48078    19210    -1640    -4679    -2770 
   -9020   -30105   -53391   -56300   -25848    21826    41420    14130 
  -25606   -40041   -37689   -40266   -35380   -13450     5617     5497 
   -3898   -14960   -36139   -38708     1012    25758     4660   -13429 
  -20061   -39274   -47660   -30140    -9261    -9057   -29754   -28552 
   10382    38597    27804    -5625   -33731   -29654    -3553     6149 
    6039     7159   -26662   -68076   -42951    15346    28737     2565 
