Origin Time       2021/02/13 23:08:00
Lat.              37.7
Long.             141.8
Depth. (km)       60
Mag.              7.1
Station Code      MYG012
Station Lat.      38.3288
Station Long.     141.0128
Station Height(m) 75
Record Time       2021/02/13 23:08:07
Sampling Freq(Hz) 100Hz
Duration Time(s)  165
Dir.              E-W
Scale Factor      7845(gal)/8223790
Max. Acc. (gal)   329.786
Last Correction   2021/02/13 23:08:07
Memo.             
[...]
  -31662   -30379    -9865    18620    20471    -4630   -11527    12881 
   30661    12168   -18164   -16495     6601     9659     1186     8403 
   11213    -5791   -14482    -1011    20883    29208     7646   -17367 
  -13593     4588    14191     7569    -9684   -15849    -3996    13558 
   26415    14905   -18979   -28796     -831    23020    10382   -19939 
  -18823     8391    16325     9792     7071     -743   -11881    -2153 
   37681    62102    28976   -20777   -23928     6332    18636     9115 
   -6134   -22829   -23959     1841    30041    15628   -32267   -46822 
  -15692    18998    28881    13200     4360     8322     4629    15187 
   30875     8340   -24938   -32514   -17076    15186    31174    14382 
   -6648   -18392   -10898    19012    27062   -11286   -38210    -7337 
   34535    33442    -6891   -45859   -26902    32100    46911    20113 
    2268   -10350   -16742    -7418     1918     4846    -3321   -18713 
   -4517    30142    26887    -3059   -10928     8978    36682    34881 
    7740     3908    16870    19098    12982      573    -9308    -7695 
   -2565   -15157   -44154   -41917     -621    26258    17775    -7429 
  -25686   -21169    -1898    27629    61840    56598     5017   -28802 
  -28008   -17815     8610    32505    25836    14374    13297     5119 
  -11796   -29330   -37287   -22322     -178      103    -4456     7497 
    3910   -21917   -25267     -383    24364    31270    15919     -132 
   -5146    -6372    16618    60597    63913     5819   -51217   -48914 
     352    41558    43004    24112     9213    -6679   -14958     -876 
   15138    17779     7167    -9825    -2390    19747     7612   -26878 
  -42372   -32746    -5895    12187    -2077   -19874   -12598     1374 
   10852    22874    22612      676    -8240    25658    67379    58270 
    2610   -37732   -26543    13236    32632    10929   -14482   -13335 
  -16687   -32158   -21134    -5321   -24094   -34473   -10574     4725 
    -425    -5173     2455    16677     4788   -18478     4887    46908 
   45843     6767   -38843   -37674    19456    53379    47655    33222 
    -217   -15593    14586    33710    18796    -5282   -29646   -44803 
  -34901    -3940    14616    -2720   -29322   -26352     6872    34321 
   17980   -29074   -45119    -9586    23179    12409   -11024      737 
   37638    48790    27333     8429     2694     -550    -3573     -255 
   13111    21911     9244    -6288     -243    11831    11265      626 
  -20244   -39145   -34400   -15599    -7790   -17869   -36360   -38894 
   -5336    39630    45191    12310    -7526     1530    23696    44853 
   25731   -21301   -12016    47683    66015    15633   -41485   -34196 
   25309    58977    39900    12282     8114    19269    22605     1960 
  -22526   -22034    -5532     7095     3007   -30893   -75074   -72570 
  -16245    30647    32491    -1012   -32923   -15196    23858    29650 
   28956    42792    34925      322   -28277   -31729    -9170    13918 
   18773    31492    50356    35945    -4287   -32643   -32877   -13081 
    3809     2080   -12641   -18393    -5111    -1436   -24992   -34491 
   -9390    17344    43869    62187    27203   -27913   -40483   -21523 
   22264    69222    53508    -2929   -22216     2257    29322    23267 
    1502    16680    45079    30939     2664    -5652    -7501    -5201 
  -12654   -35534   -36304   -10451    15061    25443     9896   -11040 
    -967    30901    35098   -12650   -63472   -56315    -4457    36394 
   35923     -826   -33300   -13990    32587    47619    36802    15273 
  -17162   -23526     5027    27109    33131    19464   -30375   -62865 
  -33871     -216     4897    -3073   -13489    -1707    15322    16492 
   41272    66082    36250    -2072   -16818   -44579   -78915   -82493 
  -46611     3013    18585     1790    24362    88614    93008    26514 
  -27904   -45508   -11917    50737    44734   -20182   -46197   -28517 
  -16343   -13678    -4749     4186     5867    -4294   -17778     -128 
   35849    42746    27171    12426    -3094   -24212   -46437   -50044 
  -28479    -6959    -2646     3299    23533    26535      -86   -11634 
   20800    67618    73635    26059   -21239   -22905     3447    11882 
   -8554   -30472   -42130   -36922    -2575    29893    16510   -26149 
  -36657     7069    55478    49562   -15137   -71037   -46454    32748 
   79598    54820   -14544   -60527   -20050    65654    85041    26978 
  -35810   -53026    -5946    50880    40585   -13444   -44798   -29413 
   19670    59934    48205     -930   -22797    -3214    16845    23940 
   17230    -8001   -32202   -30303    -8295    -3106   -19807   -16854 
   11711    32413    21922   -15847   -33812    -6678    28745    45696 
   42901    25920      473   -32722   -51587   -40271   -17491    -8398 
  -21845   -24160     6349    37388    58834    54027       39   -26967 
   13860    31136    -8896   -41283   -25783    21290    40188     3672 
  -17834    13819    25579    -3190   -10856      680     -333     -537 
    5131     9562    11461     3828     3161    12366    -6716   -31189 
  -13350     7923     2478    -3550     1431    22998    35390    -5742 
  -61784   -64751   -13921    53856    84716    33570   -52733   -69214 
   -1391    67521    74444    18971   -52967   -72003   -19087    34817 
   39150    19615    -8243   -23508    15009    65668    43708   -30094 
  -59243   -24322    21563    58384    65479    12521   -49985   -68068 
  -56220    -4710    54824    25029   -39978   -20599    47498    95755 
   82204    -4299   -55224   -21764    12313    33255    45585     -446 
  -65391   -66550   -21514    10187     4657   -16021     2968    44977 
   21901   -44801   -41913    23762    45396    -2421   -47787   -35351 
    3156    14115     8955    18489    37902    48411    48015    42507 
   20460   -16212   -39320   -36111   -18220    -5247   -12752   -37071 
  -42484     1856    59028    59953     -754   -61523   -65022    -5107 
   54460    43433    -5503   -25204   -21089    -3632    23780    17861 
  -26183   -40686    10979    67644    58118    15214     3956    10932 
   -1387   -31737   -43266   -13211     5757    -7045     8567    34973 
   16822   -11651     2187    44884    39258   -31326   -70087   -34222 
   18474    30977     7218     9046    36285    31496    14129    15696 
   14494     3550    -1787     4942     4476   -20929   -48362   -50383 
  -29215     5405    33740    26658    -1657   -11365     2134     8121 
  -13663   -18721    26314    70043    56384   -17567   -73580   -38657 
   21222    28161     8321    -4056    -6789     3338    24047    33951 
   21339     9918    19217    31409    17640   -15178   -24073   -10531 
   -4541    25168    72975    59756    -6373   -43529   -22312    17806 
   19499   -16555   -40220   -31229    -9117     8502     7623   -21042 
  -41014   -23172     8317    38603    37760    -6578    -9937    55389 
   92685    55483     3277   -11149    -4785    -6142   -13294   -20646 
  -19488    -2006    15120    14744    -1679   -33512   -65303   -54371 
   -2659    20837    10669    20039    16328   -20856   -29188    -4055 
   20931    29724    10736     1768    25490    35610    24462    16519 
   -2034   -26898   -40975   -44383   -24761    -2999    -1417    13428 
   32394    25799    15646    -1196   -20564    -7007      238   -31006 
  -36998     4099    33111    27710    18555    12761     -841   -13023 
  -29574   -44234   -16241    31541    44231    32960    14164    -9516 
   -6168    21251    16252   -25867   -33160     8347    26919    25443 
   47262    53530    31129      565   -49099   -63305   -11362    14369 
  -10309   -22141   -16217    -9755     7391    28039    18351   -18036 
  -25303    14065    44174    26424    -8833   -32081   -31480    13581 
   70112    81340    49522    -4379   -37111    -3901    39220    20484 
  -28918   -47426   -12941    38279    36058   -18868   -65164   -71555 
  -42286    -4666    23625    38917    19425   -31249   -53361    -9917 
   32780    18913    11020    35010    28324   -18420   -47675   -12540 
   62652    96263    56281    -8881   -51435   -48309    10666    75767 
   75736    26994    -9054   -19523   -11129     3186    -8141   -24637 
   -4027    25431    30180    11442   -22019   -39491   -25296     3881 
   23202     7385   -23187   -34122   -33663   -17551    10349    14412 
   10651    27132    46383    51270    18465   -42039   -55097    -4738 
   47142    66808    56755    32501     1834   -37158   -40065    15361 
   54341    40316     8749   -23423   -39287   -28200     9477    55690 
   42781   -19961   -45944   -36421   -11071    30802    32671    -7678 
  -19861     3289    36482    58097    18242   -70050  -117867   -81753 
   11587    66433    16270   -47241   -49786   -23199    30403    63285 
    6974   -60435   -54915    -1933    56047    64894     4310   -38944 
  -11893    29127    55814    74028    55436     6608   -11881     9705 
   15957   -10793   -45418   -67883   -49932     3477    46071    67373 
   65311    15125   -55410   -83110   -58768   -21852    -7727   -11813 
  -10619   -14264   -36603   -60781   -71370   -53275    -5973    25092 
   16650     6343    13414    25618    44139    48558    24487    18152 
   38777    50550    73016   111740   101271    27927   -27278   -23549 
  -14489   -46437   -83986   -60347    -8114   -14382   -63744   -89689 
  -57870     2685    18414     7847    14173    -4866   -30789     1202 
   57574    81180    60990    12380   -19342   -11871    13543    34731 
   27090    -6828   -17757    17558    60141    61353    22971   -11973 
  -33887   -67301   -86128   -51409      135    34014    58959    60277 
   41891    36509    38533    19873   -20686   -21745    46048    78557 
   10443   -59809   -40667    20039    35324     3118   -18264     7188 
   46645    39572    -5748   -29323   -18558    -1956    16386    46755 
   68851    28580   -61365   -89159   -44784   -35310   -73288  -103131 
  -97529   -45978    13783    32150    41180    82453   101043    56614 
    2259   -14426    27106    85091    63001      275    -8403    -7888 
  -29427   -32250   -28628   -38944   -48205   -30646    26318    58480 
    6280   -50865   -31401    14311    25967    -2956   -57804   -86427 
  -56713     2118    59327    90348    86097    71393    62872    64801 
   61240    28074       62     3117   -12437   -59400   -69151   -23650 
   -1651   -29770   -52204   -60052   -55379   -20439    -9745   -48813 
  -67348   -49661    -4978    78005   110524    37068   -28633     -143 
   84898   147626   131442    33686  -100905  -178202  -122027    17432 
  117165   132517   101896    60484    56197    90788    58461   -63109 
 -158618  -173904  -138595   -69496    -6586    -4477   -25810    -6251 
   48952   101420    80866   -23269   -84403   -45509     7015    38728 
   64700    61055    41096    42947    60211    73877    66926    32379 
  -19732   -61630   -52488    -6497    22009    18916     7396    13508 
   17525    -8321   -19337    12954    40560    27240   -24302   -87045 
 -117224   -96349   -37077    33714    80208    75818    12729   -74559 
 -109570   -69380   -28784   -26495     -184    62559   101737   111751 
  107123    83316    71061    94730   103262    40381   -42738   -63348 
  -37578   -16317   -11431   -32123   -65080   -53568    -4984     2651 
  -35519   -87604  -148686  -153944   -58328    45273    53894   -24408 
 -108600  -105660     5437   115229   119634    58995    17946    11897 
   34231    77414    81079    12339   -41293   -14026    38268    64955 
   73423    59863    26254     7767     2137   -21203   -30739     2794 
   39947    69265    88938    45378   -31981   -40154    -3758   -21884 
  -83330  -104074   -54184    13601    25909   -31738  -102313  -109949 
  -39837    47399    97190    87501    12718   -85868  -136694   -98598 
    7900   103728   124876    93598    66806    56982    48924    29521 
     423     2069    35330    27260   -25936   -52483   -35158   -19522 
  -29936   -12059    69165   121356    65619   -36645  -108311  -145832 
 -144703   -90895   -28823    -2898     6394    -5663   -43738   -36964 
   16128    37494    48242   110192   177367   165285   100450    52914 
    1381   -59003   -78363   -62746   -31079     8325    29118    33731 
   42958    37844   -15673   -75448   -74551   -46423   -29448     4803 
   42381    58864    77800    90336    79330    69628    67865    59579 
   43178    17342   -14473   -30318    -2154    71601   128239    92801 
  -14392  -118798  -178992  -183539  -167027  -162720  -129817   -25687 
  107989   146728    30689  -101301   -99069     4477   101328   132586 
   87145    13783    -3785    24123    13744   -33108   -57996   -40717 
   10774    69822    89932    40981   -21352   -17891    17748    22914 
    7470    -4261     2070    11848    -3696   -15082    11256    55575 
   83123    76756    57848    35214    -8149   -37212   -30107   -49810 
  -97383   -87509   -43409   -43058   -55499   -47364   -37228   -10388 
   40652    68054    36382   -16077   -26493    25979    95411    76052 
  -43457  -128592  -113231   -52498   -12432   -26256   -60038   -68629 
  -57850   -25035    38975    90674    90576    61963    23527   -13177 
  -27630   -71388  -144062  -114844    23236   148905   207666   189047 
  137790   127319   128510    90520    37126   -10095   -46580   -58153 
  -60485   -72063   -70812   -61199   -59086   -30017     2631   -39486 
 -132117  -191409  -173365   -75201    39517    82287    44555     8527 
   64793   216172   348069   346948   230805    75586   -43268   -51093 
    5718    37181    48049    41613    26959    38568    46086    16359 
  -30338   -92689  -177579  -233165  -210662  -142755   -88283   -83812 
 -133833  -186921  -192931  -167454  -137161   -90340   -26840    21388 
   32347     8328   -20780   -18306    24499   102973   192559   223074 
  144877    35043    24772    88132    98228    71851    93503   102470 
   25204   -45154   -30315     5279    18774    27141    25266    19758 
   30003    14061   -73913  -166340  -188936  -173720  -123784   -13676 
   71390    52023   -28777   -99646  -137774  -161620  -150045   -62731 
   32262    69755    95393   124492   123269    88300    24705   -48825 
  -75290   -20995    58993    90336    65315    16340   -20745   -32325 
  -27546     2621    54122    74772    53947    54897    90193   111601 
  108340    82278    43453    25612    18540     2959    -5343    -6925 
   -9895   -11475   -26200   -84030  -167729  -196507  -135052   -35757 
   33756    32217   -20903   -46836      781    64262    56663     5543 
   14953   109097   202192   209444   150356    66933   -12906    -4418 
   86730   132202    66758   -92747  -242576  -256181  -163386   -56567 
   23676    10415   -84584  -134499   -93237    10802   116553   105780 
  -40675  -166999  -126759    36535   157981   154236    74394     7919 
   -8302    14199    62723    82510    37820     2208   -11442   -79095 
 -156351  -160709  -117599   -37677    90861   174071   119387     3033 
  -54685   -51738   -30515    -5705    30168    74991    81352    52645 
   47451    56034    58506    48278   -13787   -84852   -82497   -37169 
    8322    55730    56874    -2949   -24522    37176    99191    99474 
   48128   -23774   -89608  -129354  -114858   -58342   -22165   -28385 
  -32607      872    27974    20255    36151    75072    80615    71010 
   67552    49701    33423    21682    -6966     4009    62495    52096 
  -22879   -48681   -43158   -69461   -80003   -32092    35183    98204 
  126601    64980    -8017    11923    25532   -47483  -117715  -149759 
 -136594   -48413    14682    -1872     6723    53504    69449    41663 
  -33137  -126457  -163012  -103981    32151   186106   261679   191458 
   48335    -6844    40262    48394    -4657    -7084    38167    47302 
   42942    50538    -6291  -112905  -145558  -112101   -94942   -80179 
  -53071   -29852    13967    64465    59532     6754   -53106  -107142 
 -102006     4072   111406    91805     9216     9412    51976    51368 
   57080    59073    29628    69083   144151    91584   -48622  -131911 
 -141081  -110913   -48600    39294   115796   116992    30377   -74517 
 -118740   -69431    24256    56521    -5351   -89289  -115090   -51889 
   46435    75112    17185   -43060   -45343    -6041    18115     -195 
  -28227   -24298    38101   153663   232227   204195   104051   -53411 
 -183963  -129743     2219    21069    -4252    -3395    -4226     9579 
   12127   -32402   -70348   -35244    49825    83544    39814   -15399 
  -38940     2984    88146   112897    68859    36416    13012   -24086 
  -42188   -57642  -105314  -131646   -75629    20642    60843     5857 
 -100273  -168330  -131511   -16883    83301    95526    21671   -29405 
   27622   101213   101916    77512    30327   -47306   -53712    25072 
   89958   110496    94059    43623   -31232  -132528  -202598  -151397 
     361   147804   216218   185653    67798   -77400  -123071   -46737 
  -18600   -82347   -92207   -45381   -18600    16047    51491    34506 
  -25246   -96911  -149021  -119333    27449   202294   247151   130472 
  -31872  -104109   -12225   133574   139756    32605   -49426   -73938 
  -48417   -12660   -20467   -79899  -157391  -161570   -69812    35629 
  128370   184169   141760    54864    52181   119965   124623    76634 
   76898    73059    15666    -3075    29393    12320   -52384   -67969 
  -36331   -44653   -92709  -121481  -122377  -106525   -93360   -95577 
  -90984   -65001   -16573    27157    43609    85118   149449   149044 
   78108   -20726  -104986   -89253    32628   136402   120228    11017 
  -62237   -24115    54182    86833    55402   -48163  -176170  -205414 
  -93318    80296   200653   178384    66606   -18034   -66225   -44525 
   57740    81947   -12472   -56852    10255    73222    33677   -66328 
 -107310   -46676    43148    68272    -1857  -102166  -117918   -47401 
    3595    39987    92013    73224   -17558   -71601   -46978     8837 
   25668    10613     4322    -3781    -4808     2289   -17618   -46665 
  -45948    -4926    63336    95349    43019   -54125  -123870  -110300 
  -19597    39332   -19687  -120332  -127813   -21921    94543   119076 
   74047    44706    34759    18553     4302   -28765   -69439   -29809 
   71921   114243   101933    93812    53766    -5597    -3603    27958 
  -13780  -101264  -100615   -16148    11464   -22131   -11542    25591 
   20619    -5408   -26504   -52679   -41845    39769    86864    21505 
  -39587   -24595   -30227   -68562   -44689     9413     7352     1042 
   38223    50259      535   -84510  -155941  -135125   -19423    77661 
   90170    59314    16399    -9694    24592    57742    13132   -32301 
  -11608     5719     8993    70182   141484   131090    74340    12842 
  -72916  -101997    23452   160624   129235    40509    43541    53265 
  -10467   -91238  -142163  -134936   -62598     5138    27232    34554 
   23927   -16744   -37021    -5278    21887      220   -33812   -50824 
  -41450     2944    32921    17848     -626      193    34327    80260 
   53897   -13196   -17510     7040    10270    17675    23768    23965 
   20019   -12806   -51436   -65040   -63605   -36950    10588    51871 
   89210   100545    51082   -17073   -29169     1208    -9486   -42237 
   -3631    71243    95458    81411    60424    23259   -38963   -94734 
