Origin Time       2021/02/13 23:08:00
Lat.              37.7
Long.             141.8
Depth. (km)       60
Mag.              7.1
Station Code      MYG012
Station Lat.      38.3288
Station Long.     141.0128
Station Height(m) 75
Record Time       2021/02/13 23:08:07
Sampling Freq(Hz) 100Hz
Duration Time(s)  165
Dir.              U-D
Scale Factor      7845(gal)/8223790
Max. Acc. (gal)   139.777
Last Correction   2021/02/13 23:08:07
Memo.             
[...]
  -26886     2303   -18353   -57429   -48825   -23417   -43093   -57901 
  -22843   -18635   -30600     -722     -784   -32320   -44739   -46843 
  -33019   -14249    -5944     8830    29326    28055    11828    11333 
     -83   -23566   -13896   -11294   -44037   -44500    -9298    -2030 
  -12529     1316    32229    46469    21255   -18526   -41890   -56162 
  -41646    -3064   -17408   -55533   -29971    -7578   -38329   -47623 
  -29814   -18638    -3704    10193    16613    13963    10058    25920 
   41620    31787    11223   -12634   -43345   -58583   -43016   -36294 
  -63639   -66040   -14570    16276   -10779   -31978    -9347     6669 
   -8625   -22453   -44462   -59347   -29524    -6871   -17116   -34299 
  -35784     2176    32443    16414    -6529    -5062     5254    -4869 
  -20790   -30284   -34477   -21288   -15869   -28732   -32321   -18385 
   -4757     1638    15747    19228     9950     8532   -10617   -34106 
  -32051   -32502   -40390   -37952   -21955     -438     3261   -11360 
  -28314   -35121   -25375   -17662   -12442     5493     3013   -27340 
  -23865    -5265   -19314   -18083    -6710     -596    35595    33987 
  -18638   -14098    49708   106728   102415    14798   -63094   -60666 
  -45647   -73807   -96525   -71776   -34006    -1887     8954   -15364 
  -14256     7190    11519    30186    27047     9285    31399    18530 
  -31307   -35445   -23182   -27504   -31382   -19121     4171    -7777 
  -48698   -45796    -5252    -5718   -25074    12812    47474    10318 
  -33870   -31483   -12950   -29636   -59329   -39178   -16883   -48462 
  -69257   -37181    -1198     1868     2432    35487    58422    29652 
    3921     6728   -22581   -60538   -27102    15628   -17136   -59547 
  -41031     3507     5806   -22482    -7213    16109   -13336   -25909 
    3438     -940   -35482   -51088   -46923   -25467   -19880   -31461 
   -4126     2378   -38911   -37173   -17298   -14226    -9416   -30739 
  -38402   -14486   -25288   -40498    -9647    21622    20329    23542 
   31330      -66   -27535   -15341    -5479    -2247   -11484   -26064 
  -11927    -2332     5004    26388     7307   -29771   -30572   -12339 
    4189    17559    27060    -2411   -55890   -45609    -9431   -31321 
  -53607   -29465   -15803   -44334   -61333   -22648    -1131   -34240 
  -32289      -58     9686    20236    14867    -7059    -5741       47 
  -13612   -12501    15226    20086     8471   -12838   -56457   -49140 
  -28590   -63914   -38983    43279    62243    34219    -4206   -17585 
    8897    -1659   -27364     -999    -7323   -56281   -32112    12075 
  -23573   -62564   -40760   -16100   -15601    -6019    -2953   -12549 
   -7965   -23985   -33970    11605    25532   -13478   -23282   -15198 
  -18085    -4363     1062   -24834   -40706   -53252   -63366   -34423 
   -5694   -13142   -11794    28053    59360    38307      733    -8980 
  -22261   -54240   -36004    -5098   -30850   -22682     2633    -1053 
   44347    36077   -45640   -32946    -4257   -33145   -40923   -51163 
  -43530    17132    17628   -55493   -45395    39876    41287    -3757 
    9296     5979   -24507    -9406    -9327   -38956   -35575   -27561 
  -35860   -42947   -41015   -13963    22835    20530    -8253    13259 
   48884    11164   -40752   -38279   -14914   -22505   -45256   -26357 
    -375    -6463     7326    34015     9865   -40392   -43841     6459 
   39592     1383   -53701   -57381   -40155   -43347   -47440   -38870 
  -35950   -28678    13473    62199    64039    28498    -3631   -14231 
  -12503   -13864   -18218   -15495    -3996    -2509    -7985   -30430 
  -75722   -64022   -20058   -27263   -30769   -13605    -2432   -10471 
  -49929   -45087     6150    29813    19444   -18999   -10480    43101 
   19516   -26202   -23737   -16146      627      471   -31232   -45071 
  -52122   -68184   -47397     4843    25309    11070     -372    11767 
   15344   -24448   -31126    11117    11469   -21378   -34570   -23224 
  -32243   -62858   -25504    28308     1753   -18057      299   -12410 
  -37396   -48014   -56238   -52258   -18635    14912     9379    -5336 
  -11620     8459    52146    27838   -23148   -28269   -46363   -47645 
  -16448   -17899   -32314   -29906   -11742     9440    12756     2366 
   -6894    -7083   -19032   -22508     7840     1012   -29442    -6220 
   25894    22007     8141     4972    -4315   -31737   -43021   -29513 
  -20502   -20146   -17925   -21239   -31306   -28210   -12164    -8208 
  -16129     2415    24521      442   -32761   -47399   -24096     9572 
  -29974   -54382    -6914    12630    20626    24366   -14450   -24466 
   -3677   -12064   -21527   -10025    -2983   -29558   -53581   -15419 
   19607      224   -11178    -3122    -1432     3227     4039    -6606 
  -17593   -36313   -62124   -55340   -21293   -19805   -29465      502 
   18025   -14844   -34230   -12487     5508     8176      783    -7927 
    -274   -16509   -48637   -19238    31746    22484   -31519   -36599 
   38641    33382   -58531   -36297     8152   -51363   -69430   -22906 
    1958    -1112   -34327   -56134   -40483   -18192    10729    20887 
      62     2475    19496     2922   -37813   -69934   -59617    -9726 
   12523    -6158     2193    10415   -27058   -23706      909   -45315 
  -66293   -25438   -19429   -12089    14357    -2029    -1652    17213 
  -21413   -34963    13716    13585   -33581   -28431     8005    -2841 
  -26927   -32772   -32147     7248    51212    33867   -16560   -49500 
  -44263   -10404    10334    -1783   -19379   -19434    -9194   -10157 
  -23153   -17371       91    -1528     6593    33191    10422   -51449 
  -57161   -20605    -2322     9763    10897     1809     3542    20181 
   60114    45127   -45297   -65399   -26831   -18812    -9472   -25685 
  -34850    39199    72388    12241   -16969   -23236   -68836   -91810 
  -54255   -10536     2710    -7557   -29158   -45354   -24001    24583 
   20656    -4406    34832    43330   -11341   -32940   -34599   -31592 
  -31421   -47260   -25509     2164    -3117     1548   -12764   -47569 
  -47178   -44915   -51318    -8721    37446    14241     3191    37192 
   28347     6558    -2911   -23627   -19807   -37207   -61623   -20032 
  -18303   -60685   -29872    10868    11889    13837    -4745   -33775 
  -35587   -37431   -38167    -9158      -28   -20553     8734    56149 
   17111   -56606   -66471   -63487   -78732   -53840   -13790   -15033 
  -38133   -39663   -13522     5852      618    -2343     4693     8451 
   26813    37789     2897   -22080    -6608   -15055   -49551   -49410 
  -37091   -54071   -76854   -90093   -61591    -1107     -616   -17448 
   21960    46143    35189    21514     3160   -11137   -37137   -48612 
  -14581    -3546   -24171   -31050   -38803   -44290   -13459    31025 
   22293   -19516   -39891   -40933   -16330      268   -18632   -20606 
     429    15244     6885   -39548   -57856    -8789     8176   -17339 
    2898    31036    26757     8325   -36163   -59555   -34190    -1960 
   23272    10597   -17776     6768    26644     1827      934     8457 
  -10836   -14882   -27117   -59472   -41937    -5386   -15714   -16995 
   24155    30416     3939     5979     8409    22950    16113   -76140 
  -95936    -3836    19523   -19759   -38164   -39749   -20181     -151 
    8181    18628    14584    18690    20525   -13192    -8536     6701 
  -24753    -8907    15431   -34488   -63027   -38866   -50939   -77117 
  -30734     5428   -29562   -10632    27831   -25432   -56844   -27018 
  -18445     4533    26107     2220    -4341     6301    19047    42876 
   23665    -1773    15030     -990   -37573   -41935   -59240   -77950 
  -58334   -29292    13289    48122    25192    15527    32863     3978 
  -10979     9919     5103     7793    12579   -27972   -63300   -73103 
  -93972   -82493   -21118    -6064   -30146    20696    68689    17950 
    6732    32849   -17131   -43468   -42498   -76990   -42471    11043 
  -18102   -19915    17745     2867   -23080   -10158    -4945   -50128 
  -91948   -64588    -2636    15992     5536    45050    81175    49396 
   27839    27861     4680   -21389   -44513   -74390   -87112   -62657 
  -44934   -49037   -35360   -33828   -29968    18142    29340     8851 
   18729     5440   -13558   -10856   -28552   -21105    25444    45821 
   31193    25060    26121   -34214   -91185   -51899   -40778   -83791 
  -85116   -87010   -80487   -49833   -38662     9952    76592    80040 
   64143    55687    34950    22311    10750    -6872    -9421   -17714 
  -43738   -76723  -105877  -103450   -76590   -68918   -80227   -46491 
    3883    -4612     8521    58887    43326     4244     5074    15452 
   13887   -24462   -63243   -46195   -52208   -78799   -30642    12131 
   13794    41004    43699    11751    -6953   -10446     5266    -5555 
  -53179   -43872    13204     6685   -43281   -31311     8452   -16158 
  -56978   -40772   -22005   -51170   -57645   -13506     1954     7273 
   47063    34824   -16044     -550    20212   -10157   -18530   -13265 
  -33308   -21396     3291   -29829   -50905   -10512     5297   -31683 
  -43974    -6581    14332    -7273   -38607   -46228   -13963     5394 
   -9927    -1981    12765     6463    14939     9296   -33057   -48165 
  -42124   -58260   -62178   -27303    27900    46105    15088    23449 
   47869    18640    13396    24300    -1371     8122    12787   -48227 
  -86738   -84574   -81685   -63504   -29301    15780    52876    36078 
   14914    56636    42341   -66991   -71454    18090    26482     9579 
   -2671   -77770  -113682   -44637    26095    20532   -11037    15148 
   38357    20187    34857    30863   -20227   -36408   -19275     1811 
   -9092   -45477   -36140   -10748   -15759   -36475   -47877   -28802 
  -26743   -42674   -18727    13459    35293    54886    36877     4027 
    3686     9760   -18742   -67401   -69534   -11861    24463    11750 
   -1803     4118    11672     5019    -7038   -39754   -88095   -87062 
  -41685   -18600   -40263   -47791     4756    42907    31621    21153 
   13551     5540    12333    24117     9063   -31854   -31735      820 
   -8247     -224    41693    11126   -22959    13019    16950    -5740 
  -12079   -43583   -66973   -63625   -81969   -91053   -58968   -30289 
   -9494      -51   -33195   -55776   -32405   -16579    -6214    12974 
     589    -4475    26449    18380   -12372   -18879   -39856   -42680 
   16035    52645    15765   -22014   -11619    12097    24975    46018 
   77930    75443    16352   -17543    13135     2170   -73948  -110825 
  -81946   -51020   -53082   -51433   -35549   -38160   -42701   -26581 
    6739    16213   -26465   -44776   -28957   -38533   -29882    -9667 
  -20803    -1098    28976    13077    28109    48879     3535     7310 
   56243    15519   -37181   -24613   -26052   -26496     4500   -12413 
  -31396    19165    40717    36032    53712    35522    28031    48905 
   30207    14632    17390    -5305   -23076   -25918   -42631   -33764 
  -16468   -71469  -136636  -148351  -141124  -110818   -83208   -86721 
  -63277   -11065    13757    25398    28779   -13126   -50949   -45451 
  -49923   -41609     1509    17678    18770    25358    21532    24352 
   25361    19827    14688    -4783   -12266   -16714   -57245   -50866 
   11831     -541   -39966   -10902    -3492   -29142     5425    48185 
   29798    15498    36441    41875    36239    30634   -21139   -80113 
  -84404   -78117   -46884    19418    10386   -49253   -43615   -36806 
  -90489  -113537   -97784  -108252  -102563   -80473   -91125   -71956 
  -52316  -100600   -88743      927    48720    56184    55285    72268 
   73734    25532     8977    13355     6416    28603    21061    -4676 
   33218    44159   -12420   -15179    27614    13902   -21992   -15066 
    7769      826   -40329   -64602   -55054   -43904   -23179   -11573 
  -38848   -70538   -82090   -96562  -115315   -78529   -16819   -18655 
  -29081     -291    31371    54198    55142    32161    13944    13886 
     904   -34657   -60459   -70880   -57519   -38200   -31121    25378 
   92090    79170    59173    77981    95447   104897    77591    41921 
   52326    24505   -53254   -68951   -68860  -111294  -121971  -110667 
 -101117   -58679   -17154    -1649     7146    12785    16768    33824 
   74302    94927    69005    58496    79073    53106   -12228   -19858 
    4536   -28166   -85743  -106517   -84840   -48482   -29978   -12310 
  -17838   -68233   -39368    42550    17690   -15988     2926    -4502 
   12488    29373    -2886   -37692   -96319  -131163   -74524   -27815 
  -38526   -26520     4228     7767    38711   114412   132162    73315 
   32796    22133   -21838   -72697   -63675   -50194   -77376   -60448 
   -6010    -2262   -12799     2835    15973    19121   -20048   -83866 
  -67490    -6675    -3680     2918    43054    14983   -64794   -91191 
  -79671   -97011  -128791  -136317  -118565   -68231   -16044   -11982 
   -1864    36317    47811    56200    58523    30661    22837    12430 
   -4969    26219    19483   -39091   -35059   -20005   -34179    -9801 
    9485   -19125   -38880   -33706   -45119   -73867   -78324   -52157 
  -15550    26335    58985    52967    37667    59386    54864    -5668 
  -27056     8093    13242   -23896   -32903   -20426   -28321   -35029 
  -40077   -21759    28219    27519    -9756   -13112   -19152   -69299 
 -117560   -92632   -47108   -76084   -86459     4658    67698    53836 
   77579   129973   133714   104805    55350    12417    -6108   -45427 
  -63495   -43564   -88094  -156821  -115638   -24273   -11880   -19444 
    9936     -872   -10057    31658     9351   -47996    -5089    49496 
   15109   -14613    -2623    -3569    -4735    -2170   -40351   -86111 
  -76250   -73993  -101413   -62181   -15664   -23828    23782    72868 
   31352    13475     9085   -48443   -73311   -68419   -68670   -45746 
  -42022   -56320   -25007    12650   -10072   -45760   -42480   -36977 
  -17448    22090     6995   -16983    10281    21131    17910    33971 
   28198   -14939   -36020    10157    31693   -16490    -9090    46375 
   28952    -4226    20815    21258   -18293   -17297     7010    16744 
    9567   -34931   -59757   -25741   -40713  -104911   -80392   -14893 
  -21011   -44944   -46094    -4537    81275    74341   -15606   -34484 
  -26711   -53280   -67459   -79979   -92924   -85546   -67128   -25434 
    9231     -793     7537    36040    40617    71226    85796    33031 
   16020    27147    -1109   -12101    -4162   -24255   -48620   -36256 
  -13223   -31608   -34828    -6029    -8748    22410    67952    27781 
   19863    70895    49372    15512    24777    21298    22345     8667 
  -52543   -88250   -65450   -47382   -53277   -40328   -24463   -35436 
  -54799   -73909   -59557    -7331    19483     3044   -24046   -16738 
    2929   -23098   -37953   -13603   -14705   -23014   -25172   -45064 
  -28807    -2303   -16379    -3227      391   -19330    26952    61209 
   49960    38009    -7079   -14702     -724   -51355   -52122    -6343 
  -18019   -27336   -33758   -50458   -19402     1842    -2759    28059 
   33184     -206     2851     1896   -17226      951    12055     6007 
   24825    19334   -22599   -41364   -30966   -18034   -20217   -42495 
  -49056   -23993    -9559   -17498   -45694   -80504   -70617   -41945 
  -31240    -9856    23284    65325    82012    51409    45825    39691 
  -28463   -65416   -47289   -59016   -71455   -34543    -8550   -43194 
  -73217   -31606    13942     3037     -402    13043   -13387   -30491 
     353    14326    12895    25956    15898     6068    47344    78021 
   35409   -13801    -8807   -10485   -44886   -52087   -42601   -46699 
  -52672   -70069   -64111   -30973   -37079   -46743   -27693   -23349 
   -8671    26955    32436    22569    16028    -8880   -12629     4110 
  -19858   -33517    -1038   -12706   -86906  -125392   -84697   -52620 
  -84087   -91750   -51232   -21236    20398    59454    53700    62922 
   89280    63401    23022     8232   -27473   -57978   -41601   -51509 
  -96350   -77013    -4968    35645    38847    10546   -23961   -12730 
   10602    -4380   -40289   -57397   -47877   -35731    -4742    51443 
   72922    35587   -26900   -69843   -76133   -65978   -38017   -18299 
  -40582   -48660   -23226    -2374     6940    -8226   -29160   -28769 
  -23581   -25536   -43683   -35900    17118    15109   -18054    23658 
   57496    26045     1108   -11533   -21743   -20773   -30485   -36487 
  -15809     9694    13305    -5112     -133    32548    30777     4287 
   -9543   -19268   -16715    -6326   -10751   -11269     2937   -15886 
  -67605   -67471     -283    45319    23437    -7119   -10698   -16287 
  -31865   -51167   -42205   -25099   -59088   -54415     8961     6781 
  -26518   -31473   -40603   -19538    24127    13498    -5787    11691 
   -3732   -16330    25992    25228   -18242   -13127     8183     -739 
  -10841   -20036   -45296   -53293   -32707    -6230    14304    10995 
   16750    49090    57649    44154    14161    -9985    17610    17707 
  -42469   -70891   -71432   -85973   -91142   -78426   -64301   -38391 
    1746     4588   -24513   -18432     8313    19404    21517    13224 
    3321    -5698   -23213   -27945   -26735   -39680   -32169   -26171 
  -70289   -72480      503     3599   -43023     1949    51266    14496 
   -3014    28873    39887    22828     2879     -819     7982    -6201 
  -50607   -86177   -77742   -52968   -58444   -51318    -9551    -8694 
  -34326    -3784    52527    51651    10809      573    -5103   -36553 
  -43912   -40371   -54908   -43551    -4573    30256    39027     1115 
  -27044   -14007   -23360   -41721   -31402   -32305   -37794   -11001 
   17629    24034    22592     5354   -18909   -19272   -13409   -23634 
  -30349   -19849   -14453   -31047   -33457   -11539   -11734    -9081 
   38102    59880    18932      872    27750    12405   -48790   -69364 
  -55482   -74834   -91650   -51216   -12947   -27005   -45157   -20960 
   20692    38014    42697    49759    33652     2708      -20    15558 
   11628    -5227   -19384   -37700   -54869   -53966   -48424   -65129 
  -72022   -38695   -12378    -3202    19475    22296    -4603    -8536 
   12216    25261    33910    25385   -13359   -40285   -42623   -47281 
  -53325   -45593   -14983     4891    -1869    23857    46327    -5444 
  -38855    -7943      -44   -21757   -19878     4795     4212   -21296 
  -12602    -1576   -38229   -63117   -38851    -1830     9818    -2295 
    2994    12586    -9732   -10359    17339     9899    -5778   -11342 
  -28690   -37030   -54893   -90038   -87361   -58953   -52995   -45146 
  -22628   -22962   -27598    -2722    20985    28714    31168    29255 
   33678    24564      168     4598     3044   -29093   -37489   -48643 
  -63580   -20970     3820   -18813   -10579    -9499   -31171   -19777 
    8221    19353    -6328   -30466      423    23994     8903     7256 
    -953   -26778   -12005    21384     5111   -27641   -20051    -9732 
  -30137   -31140   -12379   -19689   -19577    -2859     4193    10068 
  -14342   -45154   -33565   -33756   -37632    -6921     2296     4488 
   40528    35523   -23207   -50947   -57549   -57431   -13105     7079 
  -29606   -33708    -3561    17046    27113     6994   -17288   -11689 
