Origin Time       2021/02/13 23:08:00
Lat.              37.7
Long.             141.8
Depth. (km)       60
Mag.              7.1
Station Code      MYG016
Station Lat.      38.0085
Station Long.     140.6210
Station Height(m) 50
Record Time       2021/02/13 23:08:08
Sampling Freq(Hz) 100Hz
Duration Time(s)  207
Dir.              U-D
Scale Factor      7845(gal)/8223790
Max. Acc. (gal)   188.384
Last Correction   2021/02/13 23:08:07
Memo.             
[...]
   -5620    35322    13115   -27537   -21648      599    -9896   -44707 
  -67844   -78081   -73314   -32652   -19626   -68877   -79286   -33983 
  -25924   -70942  -113682  -108429   -64431   -39478   -49589   -49902 
  -28035   -16067   -17664    -9775    -7236   -43649   -79613   -68550 
  -54614   -64320   -63759   -51324   -57186   -79033   -66764   -24281 
  -30851   -74528   -84002   -70384   -54164   -34626   -30896   -47742 
  -64812   -61092   -51356   -52996   -54719   -55171   -26237    16815 
  -20202   -68272   -14099    18847   -37212   -68578   -52672   -31567 
  -42086   -80734   -64110   -37311   -89648  -116833   -48504     6524 
  -27306   -65427   -34685   -24151   -59670   -69060   -75944   -50276 
   12873    -8383   -48713   -42942   -84758   -95385   -42138   -51143 
  -55902   -21527   -60377   -92408   -43384   -28954   -50398   -29408 
   -8483   -25471   -45095   -49734   -48552   -30997    -5632   -22539 
  -50309   -19735     6501   -38074  -101000  -136286  -142384   -98232 
   -7753    18856   -62411   -93885   -46851   -67896  -114855   -95326 
  -59841   -29342   -12121   -30095   -49528   -46064   -34182   -48990 
  -64993   -14793    29620   -16001   -68493   -63668   -48091   -47154 
  -61447   -81403   -86749  -101785   -79610     6669    -3817   -95542 
  -78079   -12352   -27268   -81434  -112646   -97529   -39706    16784 
    9587   -78962  -143311   -79964    20108    28227   -40710  -112052 
 -121552   -68791   -18165   -31897  -100228   -91854    -9478   -43285 
 -126986   -70596     3739   -32908   -73994   -51838   -15375   -17996 
  -41966   -56928   -83728   -76570   -12127    16272   -28108   -94768 
 -118143   -84064   -54449   -59158   -82098  -116696  -118314   -39301 
   18696   -50116  -106072   -58645   -44801   -73240   -66029   -51530 
  -33200   -28190   -45050   -31860   -27912   -40680   -25759   -49950 
  -95393   -82181   -69604  -100462  -128821  -112294   -65009   -48863 
  -88099  -141230  -103316    34662    99805    49285   -11554   -51092 
  -39290    18107    62399    71053    12675   -46012   -11942   -11696 
 -112679  -168694  -138203   -64332     6434   -16237   -81129  -104315 
 -112662   -48039    44030   -19820  -100171   -37389    -3422     -525 
   51219     9162   -84102   -88327   -56735     -139    56554     8445 
  -64504   -39810     9478    -5830   -59097   -85419   -89155  -102147 
  -50298    35020   -36632  -181067  -170494   -82336   -52816   -19639 
   16312   -33068   -71864   -35155   -70916  -130015   -66999    -8652 
  -29558   -57580   -89679   -93303   -71331   -98984  -145389  -155563 
 -105039    19437    71130   -45882  -125112   -62865   -17320   -20152 
   -4870    -6129   -31182   -23751     3462   -32121  -106965   -74603 
   24857    14260   -35086   -21419   -40192   -57572   -12793   -37833 
 -108787   -86007   -45715   -43449    -3080     8742   -91203  -140680 
  -34477    16384   -84728  -115587   -18247     5996   -51969   -26600 
   15850   -65831  -120599   -43846     -402   -34906   -92288  -167910 
 -168029   -90471   -62434   -52573   -20121   -88253  -198267  -120460 
   26221      545   -49319     3515    -3098   -72616   -59050   -11191 
  -11684    11277    34638   -52610  -141393  -113575   -57250     3136 
   60899    -3418  -128571  -125189   -31287    39758    71109     8008 
 -102567  -126971  -110073   -65730    45624    44442  -100418  -142808 
  -82483   -52432   -23484   -36852  -115993  -158708  -152869   -92997 
  -20479   -64548  -125753   -91727   -81791   -92866   -49871   -23269 
  -32144   -56632  -101930   -88172    -6899    36761    22736   -16125 
  -48425   -54696   -50388   -15057    28186    -1919   -64636   -72500 
  -30323      886   -21134   -43114   -54028  -119956  -126343     4448 
   75752    34005     5583   -18048   -37939     1456    35538   -31193 
 -119722   -85422      537    -2920   -78889  -169518  -201487  -153893 
 -130713  -139618  -130998  -105714   -20128    39874   -40477  -113127 
  -86339   -64312   -36180    30923    23777   -56872   -43634    35942 
     808   -81594   -59256   -27109   -45029    -9455    30526    -9923 
  -29891   -10663   -34623   -54966   -49319   -39592   -17212   -63174 
 -130597   -79609   -39571   -94747   -72968     7311   -27179   -89891 
  -55561   -36396   -78264   -70999   -50485  -118966  -157700   -60272 
   25840    22694     1738   -73218  -172644  -125956    27661    86724 
  -11863  -141667  -120590   -20960   -52174  -123688   -99536   -74545 
  -67097   -28323   -45214  -117683   -89198    23450    60257     4388 
  -83309  -123990   -55424    23441    16912   -42824  -103133  -107181 
  -58311   -21157   -14523   -26667   -45661   -41604     5622    26960 
  -27442   -48898   -33224   -83130   -81897    -7884   -52304  -104118 
   -7064    38430   -50238  -114974  -121641  -111954   -79914   -28410 
   -9493   -63023  -113212   -78039     7896    49496    -2639   -61423 
  -63325   -58939   -40252   -30662   -80131   -83020    -9447    10511 
  -42714   -94853  -109040   -82606   -49956   -38344   -45499   -78135 
 -116575  -116195   -77498   -18295    10372   -88966  -218930  -167998 
  -16910    29720   -46114  -129975  -100739    -6516    28074     5151 
  -39550   -61905   -33195   -21420   -43078   -37358   -50249  -117613 
 -129872   -76808   -50629   -46110   -64079  -106652   -97513   -34674 
   -8316   -33187   -48699   -43563   -41022   -40725   -32131    -4788 
    7292   -32065   -51842    18939    88003    26762   -79857   -76302 
  -21624     8854    41629     1996  -105197  -106942   -12251    13861 
  -45589   -80712   -61011   -51705   -68447   -84072   -95395   -91237 
  -60841   -32794   -41431   -63013   -66980   -77733  -105127  -106474 
  -37126    37677    -2029   -85036   -80893   -56178   -88858  -101271 
  -48101   -21516   -38751   -30646   -43687   -83366   -35353    41824 
    9871   -28742    20837     8587   -80708   -72049   -33556   -74632 
  -73080   -57900  -109864   -98662   -47869   -80171  -108791   -62675 
  -25413   -36536   -44015   -59323   -95712   -63269    -2623   -31490 
  -56305   -34110   -71514   -97734   -33943     7589   -16621   -49535 
  -91581  -111674   -46784    18562    10145    -8486   -56466  -124548 
 -100427   -33104   -30034   -90441  -142346  -108175   -54891   -34974 
     364   -33008  -135808  -121794    -1372    57295    20648   -49019 
 -103281   -88086   -25124   -23310   -59182   -57875   -66544   -99117 
 -127148  -124293   -65479   -45651   -91273   -89756   -70680   -79614 
  -71628   -64080   -35961     6659   -33114  -100877   -98963   -42595 
   47999    97027    33374   -65992   -91147   -28759    43480    50762 
  -16903  -109971  -130819   -67763   -45945   -70252   -39217   -40533 
 -110313   -78482   -10972   -59697   -84991   -45929   -69363   -91085 
  -31977    20063   -22711   -91638   -67535   -30019   -46205   -11832 
   25089   -22410   -60471   -38345    -7753   -35341  -102575  -109105 
  -92074  -105003   -64501     3881     3873   -31851   -42835   -14331 
   15861   -19197   -76616   -46939    30156    38352   -21789   -96604 
 -120031   -53104    13336    19423   -13817   -91416  -131290   -81395 
  -49206   -42616    -1202    -1394   -67641   -82989   -38452   -26488 
  -39121   -57534   -95364   -89259   -39922   -46587   -88954   -83486 
  -46130   -21714   -40672  -114369  -135297   -32518    32256   -26485 
  -70926   -60586   -74999   -84951   -14690    31904   -66604  -156733 
  -95905   -23068   -31714   -20162     1738   -71945  -136568   -49539 
   39424   -42221  -139036  -118181  -108251   -94072   -12433   -20842 
  -91728   -51844     3080   -31140   -63919   -65446   -40483    35683 
   53546   -39129   -93814   -71599   -62143   -61990   -52413   -62328 
  -65716   -47530   -48163   -43993   -34688   -63544   -47673    16575 
  -31679  -129567  -106942   -45484   -25732    -1124   -14083   -86649 
 -123238  -101996   -68222   -14582     9302   -54334  -106737   -72608 
   -8779    32707    18299   -56363  -106938   -83457   -70934   -77939 
  -14897    14550   -81897  -122566   -44717     7219    22237    19144 
  -28455   -39741   -11495   -36579   -72085   -79374   -84807   -73816 
  -81757  -117009  -110903   -57210     -445   -17186  -112278  -144440 
  -81540   -36865   -17699    15372   -17028  -125987  -135669   -16702 
   28545   -32610   -59678   -60205   -83809   -68496   -12621     -427 
  -24649   -28513   -31000   -22299     5686   -19629   -46334   -27060 
  -65099  -103473   -53557   -12135   -11016   -20929   -40455   -35803 
  -37530   -70335   -38011    33018    -3812   -83308   -70848   -29926 
  -33084   -45743   -52844   -55281   -24089     4681   -52612  -114135 
  -54264    22384    -1196   -81170  -132842   -85650    -6114     9070 
    5535   -21015   -79284   -87254   -62500   -44034   -32900   -73511 
 -111794   -91308   -83431   -85853   -79026   -78749   -53017   -72983 
 -156074  -157584   -92786   -48359   -28705   -78935  -149130  -124236 
  -49131   -15491   -28903   -61339  -106018  -142006  -123383   -84674 
  -80150   -88030   -82539   -38707    10489   -11664   -57015   -57555 
  -34848    -9544    16618    48469    44864   -33967   -88095   -41901 
   -3933   -26258   -16660     5175   -30534   -43482   -16332   -55443 
 -117964   -87747   -12198   -11246   -74788   -76222    -7520     4425 
  -46333   -80242  -101097  -100878   -53461   -33130   -71536   -68467 
  -26011   -50052  -100734  -102327  -102810   -99549   -60902   -55267 
  -81464   -75348   -87462  -128646   -87826    -4506   -29998  -103828 
  -93101   -59301   -62055   -32854   -10901   -90070  -150126   -77735 
   -4450   -15805   -37729   -49036   -54827   -40339   -18079    18360 
   25272   -33578   -39422    18582    13317      -51    25497     5382 
  -15047     4550   -13929   -44524   -25913    -3600    -6262   -16498 
  -12037    26983    31529   -25756   -35803    -3244   -11248   -43938 
  -64569   -44118     -275      225   -35471   -53030   -63541   -86379 
  -63836    -4495     3804    -8340    -7141   -46206   -61344     2011 
    3854   -62505   -32984    12968   -64161  -123379   -84908   -72361 
  -70360   -16785   -15411   -86385  -125909  -137551  -143615  -105784 
  -55713   -53347   -88739  -127425  -145669  -122170   -64019   -55197 
 -144900  -205788  -133205   -19753    -5174   -99462  -159462  -115658 
  -68477   -57183   -67543  -130183  -178312  -111069     1540    19907 
  -58594  -121039  -123161  -104491   -59366   -28082   -81549  -120479 
  -66853   -17016   -15552   -32672   -65853   -82038   -38129    20320 
   -2045   -94053  -131410   -77845   -22377   -12823   -30542   -59035 
  -65641   -27247    13501    30835    46017    34927    -5336    -5494 
   21212    14710    12247    21022    -1225    -8804   -14683   -71420 
  -69025   -14189   -61325  -108189   -34557    -6732   -88420   -96849 
  -22981   -25744   -54923   -28921   -39637   -80916   -63944   -24522 
  -30434   -69993   -73175   -45885   -65460   -69005   -15886   -43542 
 -129038  -113728   -45840   -48560   -90378  -104136  -130941  -177032 
 -125506   -11465    -6251   -80404  -139583  -170772  -125251   -60574 
  -65303   -48130     2366   -30950   -93945   -53550    32328    30748 
  -20748   -30508   -12773      -10    -4822   -15493   -15174     -372 
   34446    19588   -46793   -33642    26901    22311     2002     8910 
   -8845   -32724   -18970   -13950    -9065    30416    32111   -24603 
  -70854   -56594     2230    18420   -10804   -14917   -11025   -12368 
    -351    -7218   -24052   -11441     2837    -6520   -35413   -54124 
  -11003    35279     8916   -35521   -84894  -124483   -72237   -14592 
  -53952  -104398  -113854   -84910   -15167    -6042  -105223  -180550 
 -162715  -123614  -100147   -81940   -80002   -94112   -88638   -60463 
  -65364   -99959  -107800  -101852  -107705  -111002  -108920  -111279 
 -109387   -75277   -38500   -57773  -100880  -127006  -131576   -78698 
    2894    22806   -23242   -80797  -113549   -96618   -38954    -6205 
  -29443   -45608   -26426   -12035    -3923    -4914   -33897   -52320 
  -46332   -55711   -53253    -9613    13073     -680    -1836     8888 
   23614    20862   -19666   -24538    11908     4368    -9637    10215 
   -6332   -50769   -49589   -28630   -20887   -14844   -43961   -72862 
  -44261   -51622  -108176   -98500   -57566   -60732   -53871   -20529 
  -29012   -86837  -131851  -127561   -80406     -147    55907    -2235 
 -100579  -113125  -103322   -92983   -45557   -75446  -161021  -145818 
  -93071   -91937   -88140   -85449  -114389  -136629  -137934  -140491 
 -134875  -104002   -89051  -137648  -176130  -102153   -17008   -45628 
  -82186   -70086   -81369   -76504   -35704   -24625   -61030  -130010 
 -154172   -73978     9238    -1471   -66321   -96363   -57921   -11267 
   -1036   -13849   -58446  -119307  -103827      120    34789   -43699 
  -85402   -62689   -38040    -6446     3431    -4077    40942    78069 
   13038   -62442   -64972   -57387   -34699    15641   -18951  -107125 
  -77307    28009    74440    79293    40706   -18306    16125    60280 
   -1719   -50322   -12174    34149    42660    34005     9996   -42793 
  -60596   -10127    39583    61681    49920    -2434   -20239    19924 
   34329     1389   -40143   -66209   -59832   -31986   -12587   -28173 
  -79375  -142576  -194220  -177695   -84539   -29135   -65236  -106317 
 -102321   -90383   -89800   -93750  -109356  -135611  -165847  -209048 
 -247483  -215199  -117423   -92608  -164774  -170903   -97854   -67328 
  -71402   -75406   -90030   -87093   -65662   -72820  -106770  -101482 
  -50926   -45049   -84117   -80686   -52049   -45215   -30414    -5051 
    3319      468   -16572   -41116   -42017   -39093   -48489   -29600 
    6609    15905    14432    19491     7577   -37430   -76430   -62540 
  -38611   -46197   -59740   -79528   -80350   -30025     2675    -8428 
  -19199   -59624  -116618   -92530   -14530    17424     4842   -39756 
 -119495  -152536   -90872   -21757   -10858   -12784    -3473   -35109 
  -82779   -46110    29127     7420   -65257   -65315   -35614   -33895 
  -25968   -40232   -78798   -54575    -4807   -22881   -59814   -50238 
  -31356   -40414   -36163     1312    -1776   -63900  -102942   -77151 
  -10038    27152   -26223   -99612   -88867   -45319   -52731   -57327 
  -47059   -80724   -80339      500    46506    20032   -15086   -30222 
  -17398    26898    72187    53539   -42923  -118258   -76253    30572 
   49403   -43376  -105298   -77738   -39667   -37496   -70187  -138955 
 -183321  -152436  -114563   -92696   -58295   -70459  -127535  -147760 
 -116048   -61965   -40867   -70258   -91679  -105588  -131629  -106667 
  -24964    11290   -36000   -81499   -77241   -68542   -59138   -30939 
  -23556   -43614   -55505   -58345   -50912   -35731   -43135   -47268 
  -24667   -39515   -77274   -67143   -52648   -59602   -55626   -55424 
  -49779   -30449   -52492   -89557   -56241   -12046   -48595  -113319 
 -123743   -78706   -51584   -69908   -65734   -43609   -45046   -26001 
    4282   -16092   -47852   -37189    -2160    35154    26210   -44234 
  -70799   -34828   -39615   -62897   -39465   -12052    -2702    -5675 
  -11861    27135    69180    48257    25625    38624    40869    -1860 
  -48481   -25913   -14706   -90536  -102928   -12769    25045      -12 
  -37041   -88546   -99365   -72550   -88587  -128407  -123115   -93544 
  -84766   -65619   -36113   -62316  -115680  -119157   -96931   -89383 
  -93645  -124584  -151364  -122894   -98622  -131125  -159246  -151777 
 -145773  -120229   -58068   -54893  -131349  -158912  -110054   -74499 
  -69789   -65762   -62028   -58000   -44162   -43760   -77402   -90113 
  -62526   -47289   -20884     5584   -50072  -110610   -79083   -36938 
  -38961   -27402   -11763   -53206   -91798   -54240    -1463    12411 
    7763     3970     7902    19874    33523    42422    59306    83863 
   73063    44604    43590    23321     7075    66900    95347    29616 
     989    41364    62966    73005    98666    91983    65909    60745 
   41064    19866    25726    13517     9698    47089    30153   -36297 
  -44736   -39148   -74721   -92128   -86188  -108365  -123286   -64548 
   -8864   -44504   -95739  -107385  -114426  -123989  -144333  -180270 
 -185172  -139834  -105096  -117952  -133509  -124081  -114038  -111257 
 -101159   -98315  -130843  -163016  -137045   -81093   -60008   -93441 
 -159556  -192782  -159544  -107292   -68852   -68380  -125998  -184420 
 -185180  -135302   -83906   -89321  -141674  -173651  -143301   -67626 
  -27761   -78651  -154498  -162666  -102163   -39028   -25995   -52378 
  -80989   -80308   -16490    51169    29380     1871    39798    40394 
    8698    24472    32591    12418     2520   -19450   -37362   -22218 
  -18758   -39085   -46957   -34133   -12087     3858    -5967   -40490 
  -50778   -17100     7333    10554    11545     2687      781     3196 
  -11275   -25535   -21192    14459    48676    31846     4114    -6902 
  -18374    -1721    12788   -29575   -51079    -9347    -1467   -54600 
  -88030   -72600   -61117   -93830  -130335  -116783   -77303   -58490 
  -72751  -112021  -144231  -154113  -158580  -150975  -124559  -114010 
 -130711  -138923  -134041  -127025  -111708  -120233  -156919  -157068 
 -117405   -90926   -94128  -120667  -134046   -96599   -48894   -38431 
  -52332   -79285  -109823  -118561   -89559   -25014    26438     9032 
  -47191   -61578   -17467    19719     9340   -13680   -23417   -34870 
  -45326   -27787    11308    18222   -13354   -13338    30446    53800 
   24857   -28696   -34487    24005    74123    84909    52439     3474 
   17620    58514    57969    62175    72131    64208    79539    79456 
   20553    -3033    17986    -3987   -14314    13406   -21011   -87716 
  -78298   -14874     8646   -20580   -31711   -26392   -62480  -100032 
  -80334   -43515   -49630   -92192  -120588  -107468   -77176   -64721 
  -79537  -107800  -124241  -125108  -124595  -116708  -108124  -118392 
 -122396  -110191  -106235   -94768   -83180   -92686   -76177   -60627 
 -121346  -174642  -149781  -127457  -124228  -108290  -120159  -143168 
 -134762  -137022  -147105  -116820   -80160   -85058  -115280  -128102 
 -103049   -71686   -75487   -90979   -76863   -55587   -52170   -55121 
  -63825   -64999   -40339    -7190    19268    25505     3769    -2435 
   40217    80465    53185      148    -5092    -5977   -22341    27328 
  104037   103532    69434    55463    29592    20784    67144    82258 
   14889   -39707   -26522     7561    28258    20426    -9325   -27961 
  -36471   -41395   -35694   -41403   -60473   -60129   -49314   -65088 
  -95999  -110276  -103175   -73674   -44486   -57773  -106477  -135315 
 -123115  -110764   -99441   -71949   -90313  -139355  -112507   -48633 
  -38881   -62676   -88570   -91057   -50485   -15934   -32378   -80379 
 -112696   -98424   -65253   -64282   -76524   -63563   -71099  -112881 
 -125348  -114060   -91126   -50754   -62942  -106054   -88157   -62645 
  -67637   -51356   -45215   -84609  -111044   -75660   -26160   -42830 
  -93829   -97039   -63630   -42782   -52543   -75136   -72441   -57437 
  -65460   -60782   -25608   -11666   -16328    -7588    -2100   -13644 
  -45071   -77029   -62544   -21960   -22397   -55853   -72135   -68652 
