Origin Time       2021/02/13 23:08:00
Lat.              37.7
Long.             141.8
Depth. (km)       60
Mag.              7.1
Station Code      MYG008
Station Lat.      38.5676
Station Long.     141.4266
Station Height(m) 26
Record Time       2021/02/13 23:08:07
Sampling Freq(Hz) 100Hz
Duration Time(s)  188
Dir.              E-W
Scale Factor      7845(gal)/8223790
Max. Acc. (gal)   312.933
Last Correction   2021/02/13 23:08:07
Memo.             
[...]
  -31286    -9004    15820    24749    14839     7288     8149    10918 
   15205    13657     5859    -1895    -3889     7180    14952      675 
  -10084      760     6864    -2057    -6139     4896    12555    -5143 
  -26871   -19762     5437    21965    22276    12455     2569    -4720 
   -6983    12332    42350    38149     2019   -20366   -14507     9890 
   40446    51989    25429   -20129   -38734   -18519     3348     1730 
  -14010   -20729     2987    33771    26561     8928    19664    15450 
  -18540   -28966    -5454    23222    29994     4230   -17401      522 
   30937    23430   -19747   -43995   -15655    28435    32348     5791 
   -7426       62     9351    17258    30345    24075   -12340   -31687 
   -5578    24786    11140   -20808   -18053     9668    30456    34087 
   19755    -1954   -18917   -21228    -3724    10038    -4418   -11269 
   21386    40144     9074   -14341     9001    24305    -4503   -22839 
   -3939    14504    11032    -5547    -6716    16902    35657    31005 
    3412   -28566   -26966    -2498    -3661   -15984     -750    21906 
   23298    10615      390    -4249    -4919     6122    13154    -8576 
  -22164    15099    64258    61542     2083   -51463   -26947    45817 
   52933    -9991   -41743   -20911     5586     3971   -18627    -6967 
   34260    34488   -10280   -35074     3774    51088    23978   -37656 
  -50183    -3622    62637    76150    21817   -17459    -5906    10635 
   -2538   -26696    -7512    49261    60234     2845   -48579   -39010 
   -2038    -4187   -30264   -13784    25081    31634    20208     3311 
  -20506    -4148    57693    74864     5969   -63398   -46251    20611 
   42753    18215     8151    11159      -44    -9023     2276    15769 
    4687   -13024   -12619   -21369   -33309    -5408    30138    26617 
    1464   -22644   -25440    13693    56697    51065    21709    12981 
    3827   -29475   -41077     3364    42165    20687    -8644    -3703 
   -7400   -14836    26403    60698    11732   -52743   -51004   -12903 
   16672    32285    35128    22034     1906   -10471   -21655   -19299 
   13629    36005    25955    -1077   -31792    -9217    56481    50198 
  -23349   -48942    -2963    48076    46935    -5544   -49054   -32400 
   21875    42163    -6416   -50553    -9061    60552    63521     5057 
  -37131   -12008    20702    -3060   -24615    -4075     3867     5112 
   32283    36254     7847    -2238    11982    17744   -13825   -42136 
   -6909    39463    25859    -4845     4097    17104    -5155   -25014 
   -1850    45581    53172   -10054   -61659   -24676    38268    40482 
   -2925   -25358    -6455    14166    10615     5350    14858    13063 
  -14277   -25569     1946    27789    27718    23839    16823   -13452 
  -35316   -10918    21402    14281    -1397    21604    41798     1611 
  -49194   -34277    23294    45987    10405   -29308    -4801    62360 
   68115    -5697   -64633   -61497   -34118   -20702    -5387    41164 
   78316    56940    11209   -15458   -27949   -28578    -8877    18427 
   36026    36543     7257   -27365   -11141    29683    29566     3975 
  -10558   -15635   -13159     5012    25623     8673   -32205   -24115 
   22060    28580     7974    12158    21352     3040   -27675   -33621 
  -13898     4214    29484    60286    59582    21263   -33485   -58814 
  -25744     8109     8669    13483    17555     2328    -7422    12043 
   50656    51305     4801   -13551    -4833   -24020   -39576    -9489 
   32756    48192    42365    12050   -28896   -14002    38754    24514 
  -49295   -64296     4473    58033    45833     8691   -11547    -8837 
   -7669   -13462   -10050   -12262   -10970    25868    53850    27526 
   -9994   -19048    -1532    23760    24621     5698   -15109   -28147 
   -5501    23398     8545   -17697   -14874     5991    11260    -6525 
   -7670    18169    31363    18230     7060    21363    38079    20235 
  -13537   -15913    16868    34287     5054   -18924    -2334    10558 
    2081   -15607   -31136     5103    76874    82621    21151   -34038 
  -51655   -24478     3719    -9035   -26171   -19268     9396    44891 
   42029    12316     8221     3645   -28956   -56609   -60442   -33578 
   17014    56322    67559    49790    15620   -10953   -35020   -48201 
  -25415    -1387   -15268   -35145    -6652    68404   107646    56031 
  -23143   -47348   -12499    20690    12667    13555    57958    80215 
   29415   -51413   -84354   -42088    14499    22708     5406    -4943 
  -17352   -25787    -8954    31108    59931    44379     1186   -23002 
  -10586     -108   -32381   -51372    14779    93688    86202    21200 
  -35271   -54839   -40352   -23679   -19795   -18638   -14474     8866 
   58938    78490    33096    -3048    11460    39773    48533     2747 
  -57373   -52172   -24451   -14099    14716    19658   -15816     -720 
   49322    52493    34283    18081   -13514   -43858   -65257   -63175 
   -2990    83728   120494    78922    18835    19225    43249    17851 
  -20645   -33440   -55468   -97924  -114994   -59773    50747   124235 
   95152    11280   -53380   -95536  -114781   -68976    30821    97506 
   89087    58850    53388    49401    32401    26404    23035   -10698 
  -73371  -105660   -54934    23348    48699    33825    13409     -669 
   13352    52500    85396    90126    61672    14515   -38155   -71543 
  -48705      -32    11399    -7128   -22651   -25438    -1444    36872 
   48834    22098   -29731   -78528   -85637   -32394    43291    64717 
   26192     8140    41898    78692    74079    22218   -47181   -94446 
 -101302   -70083   -31973   -13483     5792    18216    -6860   -19359 
   27268    78021    69194    17667    -1285    32953    43621     3219 
  -19951     4500    45964    61291    30250    -5433   -20542   -44119 
  -59167   -28451     -745   -36822   -80478   -46114    31126    62806 
   48766    55922    95494    92446     7462   -75190   -51540    55574 
  112190    48060   -50557   -76133   -15789    63015    63038   -20174 
  -84063   -80906   -59444   -62509   -57321    10732   113813   163918 
  118008    27468   -26470   -22983   -11855   -48085   -75618   -20445 
   28016    -4811   -38751    -9451    66120   114849    52400   -72754 
 -118469   -47482    51150    85639    76129    91697   100206    45999 
  -46596  -123178  -138134   -82264    -2300    28378    -6596   -37341 
   -2955    89912   162939   131749    24227   -72542   -97633   -32038 
   33250     8256   -38719   -31105     4995    36741    36721   -18836 
  -85379   -87644   -22329    33447    20491   -31641   -58762   -33754 
   23198    71658   113367   160621   146344    22835  -122613  -156122 
  -42936    76331    44398   -64733   -78822    15323   109282   117705 
   74839    67810    75732    17594  -103211  -187331  -162611   -76561 
     109    56020    88731    93105    74756    35607    -1660    -8247 
   -9786   -35939   -55264   -27047    24857    40001    25697    28116 
   34430     3758   -65593   -93016    -9922    84940    84460    46306 
   16063   -24867   -30364     6679    22827    38669    86687   115636 
   78077   -23880  -123503  -136891   -85249   -51501   -39582     1440 
   59125    69844    26393    -1883    36602    94829    79816   -27422 
 -122877   -89221    37758   127124   133563    96809    35050   -58764 
 -146784  -163845  -103094   -22378    43599    80704    33420   -65647 
  -76327     9783    78459    80523    38664    -2446    -6963    25903 
   78688   107379    62511   -16119   -55479   -61333   -53671   -38337 
  -36452   -36923   -12525    16675    19279    12360    28553    54897 
   37019   -28998   -59757   -20976    19886    19534    -3100   -31961 
  -53650   -34385    15400    26763    -1217    12860    69022    66996 
  -19143   -95901   -65241    61267   139680    90127    14837   -11691 
  -19597    -9670    16087     7776   -34044   -53453   -47945   -33471 
   10450    46851    38789    25114    -4962   -66086   -85098   -33192 
   33656    77450   101733   111098    79459   -13729  -102369   -89965 
    6162    66707    42260    10280    12159    16155    15078     3716 
   -6956     1471   -13051   -54634   -55414     3503    68810    78642 
   33292   -12687   -36425   -51696   -58545   -44361    -7339    40562 
   73291    71599    62013    71575    70742    31113   -19612   -29155 
     -79    -9991   -75965  -100399   -51347   -17439   -25961   -13713 
   38961    78603    46423   -22829   -39395     8633    81703   124713 
   80590   -16305   -49788    21855    85580    49507   -23589   -54571 
  -20968    34460     5518   -82850   -98556   -57210   -33199   -24119 
  -43943   -82510   -73955   -26995     4375    25373    53693    70502 
   59896    44824    44988    50630    51846    28223   -17456   -27288 
   26207    95632   113051    67960     -714   -73525  -117373   -95303 
  -23440    60475   105630    88537    34938   -30678   -61437   -27808 
   10615    -5238   -46341   -53426   -20250    27112    64149    73502 
   58240     5479   -72794  -103161   -71107    -1760   106546   182241 
  139841    17562  -101695  -157940  -109007    -9985    33924    31857 
   33975    17770   -14762   -17296     9263    30478    31386    18432 
    2444   -13767   -22981    -8822    27028    58942    58149     7279 
  -62791   -67490     7032    64862    49356    -3897   -32661    -9383 
   17328   -16615   -80546   -81683   -22207    11400    14446    46786 
   96283    97557    44308   -13174   -35290   -22562   -24997   -61820 
  -75924   -27841    43514    69411    64979    89750   103324    50272 
  -31949   -86539   -94490   -70590   -38649    -2933    42857    84834 
   97343    69357     7672   -48762   -55695   -35291   -38560   -31253 
   42799   122999   122704    44396   -51325   -81041   -27353    18617 
     191   -28408    -8158    42483    67652    42846   -16357   -78876 
 -112499   -88269     2053    99411   105864    15388   -65207   -66571 
  -22605    23468    57420    74456    79651    61029    13655   -19923 
   -7584    22661    21008     2446    27390    80632   101360    63628 
  -16702   -74391   -76314   -54741   -30867   -16748   -12879    -5702 
  -10767   -30959   -39274   -37358   -27980     9023    66766   106489 
   96026    45964     1348     1903    34793    20871   -58101  -111647 
  -83120     2095    69539    46360   -21914   -24088    20773    20499 
   -7504     3211    41665    52046    10800   -47596   -63672   -23395 
   27043    54168    62588    36814   -41845  -138176  -170214   -67375 
  102682   173790   118872    28314   -42012   -25343    80651   121809 
   36227   -58352   -90749   -51088    48401   102215    41836   -56979 
 -126152  -157200  -117529     5768   141754   185062   108164    -7547 
  -91226  -127828  -100387   -19445    39916     7759   -74911   -85337 
    4286    95264   124780    94076    -5811  -122103  -126200    11595 
  169674   220858   156604    62244    -3607   -41932   -75127   -94139 
  -35430    68004    86796    31078     1493    13562    44346    66900 
   44764    -4087   -33547   -44991   -40929    -1224    52409    80655 
   71581    21946   -39658   -51335     3269    66688    79601    32856 
  -42784   -90745   -63737    31392   123101   135201    81714    30532 
    2380   -12614   -30069   -50560   -26720    19900    -7065   -75312 
  -77089   -35032    -8598    41373    98274    73672     5200   -30380 
  -46149   -57161   -66907   -82202   -81309   -51356   -14015    24858 
   86050   149798   154525    67805   -87142  -231047  -277712  -228583 
 -154704  -103647   -71891   -15066    87300   160909   134392    65815 
   45291    42581   -27288  -125810  -117127    12652   127408   143849 
  114228    92047    41376   -46130   -80628   -12920    78502    97775 
   42179   -33238   -77741   -79045   -77315   -63832     9705    79666 
   87662    83512    78487    68916    61323   -21255  -191108  -290912 
 -219970   -67579    42473    73984    59078    61992   110600   162666 
  167371   109258     6076   -94437  -111651   -14841    70999    18409 
  -88387   -88133    22879   135118   185780   180983   125348    13975 
 -104780  -156795  -131814   -62027    24965    87543    80839     8202 
  -69591   -93120   -49603    18088    30685   -13363   -32630   -11718 
   23446    70521   103442    98339    63744    23229     6725    19156 
   41008    57360    45862   -10374   -80445  -108896   -76848   -31743 
  -45038  -103873  -105633   -21725    49580    52529    42861    47861 
   39002    38141    62966    73893    56937    17464   -39367  -101243 
 -161415  -165150   -68339    31082    27144   -11083     2214    10389 
  -26095   -50276   -27473    -1668   -32061   -66125    -4930   116035 
  185687   138169   -14013  -158082  -164342   -16521   165443   231156 
  147642     9258   -89402  -106062   -52633   -14979   -41546   -84919 
 -119865  -138287   -85847    61408   212419   247109   153027     9481 
  -72678   -68887   -77947  -108197   -59695    88491   236144   249856 
  128723   -20736  -136583  -156775   -46372   104314   160910    62106 
 -105082  -179267  -107538    30636   130368   141905    65450   -46352 
  -86085    -4554   123044   180424   131998    41426   -33790   -71460 
  -75419   -89610   -88530     4800   130283   161796    99503    13163 
  -80855  -153603  -134536   -53225    -4518    -2407   -25385   -35816 
   27288   128263   185911   201359   151563    -6871  -187357  -256724 
 -184570   -71199   -47127   -78692   -42348    46363   116361   160205 
  178683   159524    63451  -111265  -268857  -323707  -263488  -124502 
   57156   238185   310464   230824    90853   -47366  -150993  -165372 
 -104433   -25477    18889    -2635   -29786    -6363    24767    41735 
   63185    80453    77207    45231    19537    50994   109233   119642 
   62598   -26428   -95960   -83713     4114    49829     6178   -57268 
 -105661  -113505   -58438      494     6887   -38187  -100804  -109745 
  -20977   125208   246281   290181   255039   149058     5194  -109526 
 -162504  -148444   -85747   -48045   -55864   -43491    13370    71544 
   93318    91436    74868    24912   -20850   -26356   -19997    -4614 
    7828   -28773   -79266   -63674     7499    34786   -22486   -61901 
    1976   107406   161624   161520   146407   117514    63283   -13533 
 -101861  -142632   -86076    -3350     7695   -39970   -87457  -109630 
  -95207   -51881     9967    80551   104188    59535    15842    26520 
   71220    91987    66816    31405    -6434   -65070  -122740  -156591 
 -142977   -61493    16762    27076    35144    81392   105116    82117 
   33820     4419    50587   111183    79489   -22381  -123032  -158602 
  -74968    71593   158988   141717    60920   -20228   -66201   -73175 
  -61011   -66460   -89329   -84396   -48733   -27436   -25809   -12294 
   47808   155923   204353    98907   -79366  -192388  -176727   -60246 
   51976    87091    72947    63936    68655    65010    55343    55100 
   44701     2443   -41800   -27108    35436    46017    -4347   -23737 
  -25346   -72268  -117755  -108850   -58618     -792    15411     1085 
    5049    18490    42803    92755   132467   123075    71328     2740 
  -43814   -16326    46743    42225   -34303  -111699  -135477   -85708 
    1993    57708    51177     2990   -55486   -65812     2623    50552 
   -2500   -69599   -70706   -32582    23770    74154    68065    13880 
  -31255   -36452   -11360    23869    55807    69658    68971    75791 
   92086    90148    57902    31507    26256    13162   -13952   -47418 
  -75899   -57217     5861    27823   -21666   -72126   -66285   -10222 
   36024    20299   -21867   -35089   -16573    25864    76644   114786 
  128876    92448    12320   -57578   -96319   -97121   -41212    34780 
   51984    -1143   -45122   -25794    15246    19202   -23132   -61938 
  -28476    54927   103916    97086    62637    17146   -48170  -122517 
 -148332   -86233    40493   153736   186067   144225    62333   -26509 
  -76515   -65763   -35230   -60912  -134994  -141249   -26762   108314 
  158803   136702    85920    19808   -40798   -78324   -84296   -57933 
  -19414    25813    67051    62056    12388   -42493   -76250   -57730 
     612    28372    16109    16104    40760    74445    94923    73510 
    7628   -69194   -86888    -3481   113741   142624    54568   -41652 
  -52416     6608    57294    38047    -3546     3843    37457    37172 
  -23980   -79078   -52027    14534    64192    74390     9458  -100981 
 -162058  -123608    -7863    91624    70451   -36594  -110201  -114907 
  -47482    99963   235375   235596   120861   -10122  -109061  -146492 
 -136301  -110077   -38433    32270    18257   -12023    10629    45520 
   76516   104148    90340    33006    -5798     4893     2959   -40979 
  -30221    75550   138437    51219   -91890  -141424   -76296     4013 
    4302   -57751   -98050   -87604   -66895   -61296   -11793   120333 
  233875   236038   167319    94424    49775    36828     8472   -66187 
 -135445  -149566  -129913  -117516  -118161   -87662      -64    87068 
  134948   159144   128518    32946   -56396   -86676   -39860    36479 
   27351   -52753   -81882   -44032    19516    64257    30793   -43729 
  -78466   -63236    -8560    55086    76742    49426    -4758   -53460 
  -45887    22975    88200   108341   101891    70200    12031    -1888 
   47614    59397    -1918   -72198  -109082  -104835   -69546   -17640 
   31770    58904    69691    58048    17861    -1231    15773     9201 
  -33794   -66461   -63332   -29693    11348    36888    46642    47495 
   33928     4124   -20557   -11944    31970    54288    -5111   -94266 
 -136890  -133138   -76908     7882    65151   114740   154750   132085 
   70719    29862    27124    50693    63072    28287   -44820  -107096 
 -125478  -113925   -85893   -47821   -29191   -25743    -5131    20092 
   35047    46778    58429    80377    98648    73333    -4708   -94632 
 -124575   -57186    66823   165658   176223   100592    -6864   -79830 
  -61781    31729   105084    92153    -1078  -131453  -210813  -164293 
  -44883    42716    85359   103615    83262    32834   -13531   -32116 
  -13737     5876    -8611   -18762    18709    92205   148786   138979 
   74652   -20926  -114083  -127606   -71791   -44513   -72071   -97077 
  -68628     9471    92075   110589    40593   -50301   -95523   -84470 
  -43594    -2790    37146    68848    75899    63242    38819     1304 
  -44220   -62020   -21266    44432    89561   113965   101426    10114 
 -115526  -165404  -122593   -51808     6521    31216    17236    -1244 
    6754    24775    35032    49177    58405    49295    44863    64701 
   98794   130297   137748    92686     6027   -73435  -125004  -151912 
 -138429   -74009    -5246    16244    16691    32629    29916   -26979 
  -99243  -111289   -35050    55723    69709    38248    31634    35217 
   27186    25920    44892    56157    20794   -16750    -7056    13244 
   30642    46827    33708    10357     4830      753    -6617    -8016 
  -18862   -42552   -49364   -33300    -6141    47146   110766   110612 
   33031   -42751   -53277    -7663    12769   -28995   -28139    63370 
  129980   104635    36688   -30025   -96057  -148668  -136201   -76873 
  -54710   -53065     2976    99716   163227   157040    88969   -18420 
  -89268   -57703    16143    66953   116453   145243   100044    10219 
