Origin Time       2021/02/13 23:08:00
Lat.              37.7
Long.             141.8
Depth. (km)       60
Mag.              7.1
Station Code      MYG003
Station Lat.      38.7348
Station Long.     141.3106
Station Height(m) 28
Record Time       2021/02/13 23:08:10
Sampling Freq(Hz) 100Hz
Duration Time(s)  177
Dir.              N-S
Scale Factor      7845(gal)/8223790
Max. Acc. (gal)   275.100
Last Correction   2021/02/13 23:08:09
Memo.             
[...]
   18632    10002     1486     2269     4236     9012    19346    16028 
    -868    -7631     1063    13973    13941   -12532   -41570   -35280 
   -5848    14116    19778    11911     2512    13730    31278    27074 
    9293     1102     4657     8649    10219    12584    15421    14755 
    9165     1863   -10335   -26276   -26794    -3049    24344    30226 
   17082     5325    -3348   -14462   -18981   -11738     1557    12839 
   20464    28308    35793    41332    39479    23718     2299   -12225 
  -17197   -12599    -2219     1983     -920     5636    21170    23967 
   13851     9532    16186    27970    30470     3349   -43455   -67749 
  -53665   -23121     3503    20673    34576    46750    44347    23998 
    4827     7051    24043    27136     7052   -11835   -16803   -22802 
  -32921   -41087   -43006   -19435    27252    57168    54220    36409 
   15603    -5312   -25578   -46170   -55853   -32570    15649    42561 
   31163    11723     3094     2162    11689    33662    46550    22715 
  -23180   -47640   -36942    -6984    27178    50589    47066    18414 
  -14916   -33453   -24722     5053    24942    18943     5807    -1318 
   -5455    -2106     6446     5524    -4120    -6100     5146    13585 
    7812     3478    12379    16806     6366     2940    14874    18949 
    9225     -579    -8145    -9231     5979    28402    29689    -6026 
  -48990   -55502   -28718     6741    42377    62073    54048    33161 
   10694   -10543   -21718   -23209   -18291      314    25290    35386 
   22667    -5305   -19637      846    23924    18488     3672    -3028 
   -8353   -18152   -25388   -12465    15796    32830    35646    31909 
   12930   -16556   -29195   -15128     3186     1946    -6741     4706 
   21913    15827    -2744    -8591     3735    20317    30802    43498 
   52342    27972   -26657   -63558   -53462   -13505    27527    46541 
   34335     9432    -2613     2548    11553    11153    -1815   -17293 
  -24246   -27538   -26048    -3442    31132    46950    33844     5196 
  -14763    -8904     9844    11950   -12521   -39478   -34001      841 
   26099    29184    26724    23807    16345     4244     -406    11516 
   24013    21906     1914   -32684   -54191   -35641     7665    40126 
   43899    21054   -13363   -32962   -14837    28815    58249    54859 
   29405     2145   -12074   -17481   -23055   -25803   -24131   -18130 
     386    26655    36745    23575    12187    18488    20637     7096 
   -3110    -5925    -7499    -3187     3484       98   -14068   -23950 
  -19238      -37    37315    77647    77512    25677   -33620   -57389 
  -35754    11268    38967    28113     8677    -1540    -9720   -13342 
   -9067     4839    27986    41052    21864   -17327   -34101   -16848 
     558    -1186    -6264      846    13338    19537    23661    29925 
   24456      121   -23409   -29725   -20293     1659    30817    52685 
   49042    26257     3416   -27216   -61040   -61237   -18065    32647 
   51321    34650     9933    -2160    -1102     2694    -2157    -7626 
    5181    25552    28895    13232    -6498   -10735     2268     7020 
   -9196   -21047    -4290    22007    24564     7904     3015    19206 
   30010     9177   -29243   -46191   -33579   -18975    -8807    14268 
   43779    59281    53339    23291   -20129   -45029   -33559    -2139 
   24618    31604    16182    -5749   -15637   -12519    -5537     5425 
   22678    28447     6772   -24086   -34888   -21780      695    22144 
   34450    31746    26214    29029    19153   -12151   -28197   -14134 
    6782    18990    15217     8367    12375     9640    -2531   -11936 
  -18901   -14409     2231    12001    11055    15198    28359    28717 
    6544   -18231   -28914   -17971     6932    22557    23533    15921 
    -214   -18939   -29400   -25635    -8110    21613    55699    68852 
   46499     6590   -29517   -48433   -40883   -10426    28930    55506 
   50882    20595   -14103   -39039   -44122   -22972     9066    25903 
   20892    12209    18345    28904    19295    -7711   -25149   -20723 
   -4955    10663    18994    15044     6934    10150    22511    26059 
   15676     2293    -7828   -12712   -14970   -22777   -26457    -7711 
   28374    51854    42711    24819    18222     3079   -21010   -27739 
  -14457     1742    12418    17294     9794    -6793   -13132   -10307 
   -6515     9810    35695    50566    46198    22125   -14216   -39224 
  -37361   -21078   -13022   -16355   -11310    10933    37723    54641 
   51821    36063    17940   -13512   -54044   -68065   -41376     6907 
   51042    61037    27839    -7758    -7391     4900    -4584    -9733 
   10700    13103   -15346   -23707    -3176    16074    28035    28837 
   13867    -3512    -8779    -1281    12930    30667    38670    29123 
   17116     1984   -22052   -40856   -51135   -52243   -28611    20997 
   59722    51688    20839    12985    21825    10936   -17541   -33170 
  -33748   -26067      838    32377    32906    15288    16407    17901 
   -1567    -6960    12626    19349     3697   -16106   -31633   -28814 
    -310    30585    45816    49486    43356    21043   -14887   -42435 
  -46735   -32871    -9275    12542    29096    41023    33675     9109 
   -6849   -13914   -23679   -21431    -3468     8187    11762    23534 
   38142    34114    11627    -9221   -16966    -7646    10466    16316 
    6123    -6799    -5865    17470    45430    54313    38966     7032 
  -26412   -49717   -62025   -57015   -30132      533    24949    47336 
   49848    20123    -8811    -2025    16301     8762    -2473     8279 
   19202    19318    19580    15542     7217     3690      664     3759 
   27388    46781    25772   -11549   -22330   -19649   -26419   -29118 
  -23403   -19052    -8537    11998    31818    41700    41435    35839 
   21581    -2882   -28599   -48570   -56608   -46604   -20687    15697 
   52280    62696    36001     7738     7391    14057     8743     7472 
   11479    -1844   -25913   -26334     3982    35379    44489    29637 
    -703   -29752   -44045   -37035    -9520    17146    32989    57195 
   76349    51783    -2910   -47934   -72295   -73685   -47007      738 
   45237    62083    57030    47241    27388      747    -7375     1640 
     147   -18234   -28327   -10353    12245    13350    10525    17305 
   19514    11472    -1803   -18962   -32238   -28090   -16101   -11446 
      85    23193    37339    41689    51614    56991    36769     -297 
  -37004   -63880   -60932   -26104    10901    34750    50758    51646 
   35456    21922    11237   -15718   -55507   -81982   -66818    -6743 
   59445    83057    56930    22833     8090    -2222   -11211   -15022 
  -19672    -9760    15176    30682    32898    22225     3639    -5346 
   -5529    -4097    -2949   -12069   -26115   -23112    -3307    16119 
   24183    17705     7813    15741    49719    82071    75004    37504 
    -562   -40107   -78505   -88495   -69041   -44493   -17716    10466 
   26037    31166    38048    47947    43795     9944   -26835   -30565 
  -13073     3545    21668    34960    26130     3298    -8152    -5061 
     958     7761    11458    12807    24676    39730    33372     5008 
  -24117   -43676   -51717   -40479   -15796     3969    16892    27918 
   32200    23013    -4608   -33875   -35530   -16160     5086    18534 
   10547    -5505    -4581    14256    47227    81341    82372    30987 
  -39433   -74723   -60488   -19311    19041    36298    36711    27585 
   10443    -2997     -568    18287    44824    58267    39102   -13352 
  -72704   -94035   -63840   -14293    27760    52425    49761    24399 
   -5076   -25092   -32177   -30231   -20453    -9651   -14600   -33720 
  -43024   -24912    10404    37185    48351    56984    66644    69801 
   65315    48586    18123    -5634   -17686   -45906   -92846  -115604 
  -81166    -1752    80584   132345   140107    89148     2839   -48401 
  -49110   -41544   -36607   -23203    -8903    -1397     8428    30121 
   49608    39548    13886    16012    39672    48039    35405    12658 
   -6188   -15282   -31330   -49392   -42217   -16850     6540    32173 
   55590    45203    -2632   -39032   -36787   -13324    18395    36520 
   17111   -21327   -48533   -51063   -24266    18570    53846    68831 
   60941    29108   -10536   -30088   -32931   -34689   -30287   -14035 
   12472    37010    47941    48637    41025    35413    41889    39559 
   16052    -6816   -16714   -23719   -31168   -27330    -5302    16483 
   13620    -2999    -8302    -3337     2974     5077      492    -2299 
   -2795       24    17003    38097    46839    37362     1205   -46737 
  -69716   -54999   -19165     5894    -3921   -29274   -30755    -4429 
   29504    59246    69315    52046    36776    39665    29575    -2392 
  -26535   -31298   -26086   -10975    18461    46310    55161    41013 
    1417   -40686   -51246   -27876     5633    13945   -16232   -46225 
  -28283    24933    54382    39588    12388     -583    -2575    -6855 
  -11967   -15861   -22381   -21716    -7296    19368    52045    66217 
   52327    26734    -6690   -39841   -38672     2628    33258    18010 
  -11835   -23757   -26145   -23406   -23271   -37813   -35189     7712 
   56367    74606    54865    19623     3572     2104    -8453   -25161 
  -37612   -36394   -13964    24160    62766    82418    75702    43411 
  -10004   -59275   -75652   -57882   -33081   -17064     1514    17536 
   24451    50364    93717    94447    32942   -30883   -50623   -37019 
  -18324   -14332   -14905       78     7738   -18198   -43271   -30723 
   -3173    20205    51984    77585    69237    37822     8002   -14044 
  -31941   -54251   -71524   -62441   -38605   -19912   -11191    -4209 
   26632    75087    97335    76628    36892     -714   -32170   -37515 
   -1297    44517    54720    16100   -39241   -51646    -2259    55441 
   71109    48586     7831   -29443   -42674   -30797     2326    38992 
   39017     -189   -40668   -71837   -95195   -89162   -41871    28767 
   83999    98514    81922    47983    21312    26191    39564    32165 
   -4288   -58766   -85888   -67471   -19900    52674   105699    86660 
   28543   -16051   -37584   -44604   -50916   -52596   -41045   -33625 
  -26613    12542    74908   112468   100654    52054    -3858   -35667 
  -33192   -10821    15530    29871    20191   -11236   -49256   -60862 
  -29273    12972    38403    51705    40182     4252   -10231    -2727 
   -4166     8058    41694    62483    57636    22353   -40417   -90177 
  -95848   -74383   -37176    25035    86717   113748   108284    73429 
   13759   -42142   -69361   -64489   -39945    -5687    36347    71444 
   75863    36660   -26076   -60983   -46990   -16136     5911    22782 
   27449     9502    -7587    -3225     3119    -5188    -7199    25586 
   74347    74314    10120   -43538   -31340    12186    41797    47385 
   10813   -62905  -124687  -151764  -132881   -51372    54086   127364 
  150977   128742    91716    68490    38281   -18839   -85126  -131021 
 -127010   -76347   -18315    34422    87451   124468   134183   121134 
   95354    66615    34776    -1262   -49769  -103663  -118458   -81074 
  -17532    54166   102740   101856    62253     3338   -54361   -84643 
  -72277   -33698   -11792   -16659   -12484     7284    15624     9296 
   -1726    -6501     2732     1906   -24281   -37457     -831    69951 
  127741   130365    69707    -9034   -45721   -42751   -42209   -40223 
  -18569     8425    38199    73179    85590    58322    15071   -13780 
  -27527   -40933   -44776   -28809   -15176   -13693    -7034     5969 
    6706    -9221   -23178   -28780   -27369    -5418    26052    39852 
   42259    43310    35586    24933    17018     4464   -10062   -21490 
  -25033   -12532    13779    50654    80859    71469    22793   -36879 
  -79204   -82921   -53801   -14844    14528    26131    23315     5719 
  -19689   -37454   -45940   -44614   -29852    -1821    37189    70233 
   81233    76239    63229    40343    15159     5976     4955   -18512 
  -59800   -82495   -74757   -50673   -21203      946     4884    15664 
   59744    99792    97143    71219    40895     9374   -14145   -35398 
  -59533   -65368   -43920   -11576    25073    59954    76761    66509 
   29974   -11400   -25247    -6579    11412   -15947   -75400   -94301 
  -55391   -15600    -6412   -15472   -34763   -44142    -1387    76640 
  120991   118342    88665    35861   -13066   -37781   -49115   -40007 
  -14719    -8676   -22202   -18883    18698    68841   101925   116010 
  106550    59556     5675   -16555   -28906   -55409   -69835   -52108 
  -13251    28401    43488     9463   -58190  -111030  -100984   -31623 
   47023    93788    83042    25351   -20582   -35549   -47567   -53107 
  -44618   -42336   -59150   -82865   -79498   -34227    28420    87482 
  130081   129463    77940    20233    -3584   -20067   -56026   -75743 
  -42678    33766   113738   145206   104692    31976   -12110   -34246 
  -86175  -147387  -153342   -89490    18940   109877   127449    99990 
   79176    62371    22848   -32784   -65118   -66572   -59471   -41428 
     943    62787   110185   106366    61457     3154   -58922  -104168 
 -108870   -78321   -28090    34366    90994   108453    68115    -4197 
  -54441   -61607   -47382   -26662    -5038    15546    42263    60210 
   54108    39540    16565   -28264   -73633   -88697   -63938     2452 
   79197   110227    91308    50079    -6417   -60049   -81287   -68843 
  -52377   -64574   -87678   -63420    20459   136015   249021   292786 
  232569   125402    32833   -39124  -106936  -177248  -220899  -201657 
 -132309   -47549    23579    66334   107557   157341   153767    66781 
  -31274   -85337  -111946  -103654   -42055    31396    75304    98285 
  110466   110439   112016   113864    74641   -15880  -110592  -183242 
 -221189  -187523   -88422    11349    73410   114069   126891    68434 
  -24268   -64214   -55443   -30622    14974    55969    64694    49673 
    7983   -52498   -95454  -107534   -78289    -1549    68840    83398 
   66413    59201    71703    94599   102764    68516     5908   -41638 
  -63714   -74279   -60264    -9882    34094    21427   -28570   -56670 
  -42465    -1057    36424    35202    17022    21320    34672    49254 
   75091    95054    90008    59908     8303   -54066   -90821   -64388 
   15475    84335    85180    42323      -94   -41797   -65001   -65360 
  -62370   -20725    52975    71274    13165   -63957  -109652  -104994 
  -61824   -10150    28038    43692    17670   -52605  -103508   -69279 
   26549   119720   175150   172007   110833    23311   -58260  -104895 
 -111626  -114627  -107322   -21095   122571   191659   149874    82406 
   22504   -37875   -80782   -91758   -56787    -1938     6660   -32155 
  -58702   -42061     3017    65593   131255   135368    36765   -94571 
 -152208  -128560   -91912   -44450    36779   102961   123970   113278 
   79674    49869    30742     1854   -25934   -39811   -41542   -18343 
   13941     4085   -41395   -63902   -55098   -35052     4457    54602 
   97629   137413   147935   105297    48438    11576   -20582   -73701 
 -142431  -191901  -201359  -163910   -71346    50375   144229   190753 
  197001   157578   119372   110236    53974   -45951  -117212  -182312 
 -229741  -195434  -114311   -40369    30208    91817   130192   139835 
  112155    57667    17119    32381    86092    92448    10142   -98205 
 -168188  -185978  -130756    -5238   108819   139549    99589    43444 
   29639    65295    83307    58687    21149   -29760   -69944   -56783 
  -14040    19219    48204    79513    89402    57384   -12021   -83355 
 -101490   -66360   -36713   -41211   -70532  -102428   -94305   -26659 
   60191   119628   151821   162951   129195    51618   -36190  -108097 
 -132538   -88888     2500    90722   121285    76644   -14339   -90782 
  -99825   -59266   -15986    22570    38533     5954   -41031   -57692 
  -39530     5884    57411    80404    65713    38052    16997    -6542 
  -41945   -60027   -30716     1347   -20305   -59559   -58116   -23139 
   17454    50383    56131    37204    38584    67518    77639    63386 
   57662    63120    56292    17892   -44613  -104319  -138017  -109960 
  -19176    54305    68932    66406    51779    15250    11260    57996 
   98685    95296    34333   -61315  -119750  -111532   -55308    33498 
  102022    95139    47911     5445   -42391   -70146   -50363   -26226 
  -20664   -14528    -7778    -6951   -24085   -59113   -59336    -9459 
   23827    33735    76049   117965    84125    -5092   -71280   -80977 
  -54764   -16492    23812    48357    43573    23012    15966    38551 
   71545    93501   101406    72420       66   -60099   -73506   -67004 
  -48567    -6315    31283    35887    19272    -6687   -35328   -43162 
  -16336    26867    52239    33480   -21861   -64754   -43047    38002 
  111947   124947    76161    -1667   -62429   -92225  -110798  -102871 
  -52107    -3535     3478   -14675   -16989    21378    72916   100998 
  120507   131701    92396     5981   -75122  -108899   -77525     8950 
   89680    95380    51583     2970   -72520  -141681  -141110   -85689 
  -11319    44076    56164    47871    21438   -25683   -40551    -4765 
   33116    51494    54340    30474   -13653   -40560   -25934     8032 
   28310    33050    34797    39546    27287   -29540   -96472  -113416 
  -76570    -8093    66791   108656    94517    29370   -38010   -37157 
   20922    65607    67906    40308     9042   -16101   -34566   -19880 
   29525    72211    79967    51059     8671   -14015   -13653   -10501 
  -11052   -14091   -18777   -15097    -5197    10562    41249    60822 
   41250    -4455   -50882   -71082   -47974    -3820    24972    30472 
   16664    -4838    -7275     1822    -6573   -19998   -23485   -32136 
  -42700   -32470     4368    56600   100206    98689    37470   -39676 
  -83134  -105985  -120248   -95569   -46025   -16283     3082    33166 
   53392    48551    48806    65129    51763     2106   -30978   -17625 
   39729   106118   123707    81648    16389   -35667   -53543   -43586 
  -12771    30453    36101   -14243   -70829  -103481   -99324   -46577 
   23842    79733   126828   156767   127458    42969   -24510   -40581 
  -37870   -38647   -28944     -143    23696    17169   -11627   -26113 
   -7749     9127     1404     1651    30931    66008    77458    59059 
   31974    14358    -6637   -42527   -75485   -84042   -63161   -25933 
    7388    29627    49385    65426    51016     4199   -30666   -37292 
  -53052   -84805   -75525    -7456    54125    68875    69666    78196 
   68689    36759    12380     8618    19618    27356    15579    -8371 
  -27113   -23402   -12114   -30098   -55730   -49574   -24543    -1809 
   15021    35324    65934    95716   120906   130145    96248    27043 
  -39692   -90563  -126526  -118184   -61319    -6484    29046    55547 
   64573    46094    -1146   -45347   -59046   -61269   -47290     4341 
   60160    69943    16711   -64114   -95921   -63682   -30844   -12549 
   19803    33708    -6655   -49750   -37604     9336    58311   111913 
  149743   133860    69142    -3703   -56361   -88730   -90424   -57499 
  -34569   -32428      243    47700    39602      -13      303    29760 
   45935    44674    27380     8772    20428    31801   -10006   -76408 
