Origin Time       2021/02/13 23:08:00
Lat.              37.7
Long.             141.8
Depth. (km)       60
Mag.              7.1
Station Code      MYG016
Station Lat.      38.0085
Station Long.     140.6210
Station Height(m) 50
Record Time       2021/02/13 23:08:08
Sampling Freq(Hz) 100Hz
Duration Time(s)  207
Dir.              E-W
Scale Factor      7845(gal)/8223790
Max. Acc. (gal)   222.557
Last Correction   2021/02/13 23:08:07
Memo.             
[...]
   14810    16374    10323     7183     3662     4996    33427    67581 
   66106    31874     5533    16125    37632    44528    54452    57994 
   42900    34898    27432     8930     4577    15453    21841    15649 
    -274   -14422   -26712   -39858   -42670   -22295    23062    68187 
   74088    33539    -8842    -9976     9018    13774    10296    13018 
   30138    55332    74378    90679    92075    57871    26431    40259 
   56971    35164     4816    -8095     5042    31638    28173    18700 
   38961    37335    10361     9286    22468    35598    49520    46214 
   38153    35260    19283    -2419   -21856   -32351   -16742    -5903 
  -21475   -30194   -35723   -48385   -34142     2755    24210    27186 
   32910    49253    48686    12814   -25548   -40451   -30107     3512 
   30823    23533   -10679   -52995   -85278   -81486   -36552       74 
   -8731   -30132   -29268   -13166      302      611   -11912   -15861 
   20471    87365   123408    89907    16831   -42755   -58992   -27799 
   23116    58461    69943    57748    21157   -36321   -95635  -112409 
  -76200   -31158     3362    36423    50368    40493    25474    -7063 
  -44926   -39494    -1794    34138    59906    51609     8723   -18301 
   -4688    20101    40767    70106    89607    75269    41431    10908 
   -9174   -34117   -54729   -25108    42844    84146    64539     1555 
  -61150  -103195  -103297   -38022    32476    36192    -2984   -35129 
  -47050   -34565     2112    23787     4495    -6921    11600    26168 
   45474    71404    57983    19627    21222    52234    59236    52620 
   57667    50453    17331    -4752    10566    34678    35761    13772 
  -17874   -42402   -52292   -30915    40433   104457    93600    55980 
   40626    23977    35533    86765    91434    45505    14138    -2222 
   11989    64494    94649    86236    61735    28269    15773    29154 
   26882    -6598   -57207   -90652   -62657     6451    36161    -8155 
  -78322  -107634   -71801     4147    63335    61144    20648     2533 
   15152    25578    27857    27310    21554    14519    15049    36733 
   64034    58996    18997   -38659   -72755   -32093    48798    96844 
  106185    90751    43058   -11051   -22216    -2848     3256     5935 
    9907   -16768   -53690   -48799    -1017    50778    65971    41828 
   13783     -668    -5614    -2037    11272    35168    49091    29984 
    4436    11892    38605    37643      418   -32016   -36502   -23556 
    7109    43097    37134   -11510   -42414   -27081    14693    42323 
   26604      585      245     4752     3663     5520     8178    26430 
   58546    59036    11276   -36070   -34902     3267    42533    62511 
   43629    -1379   -23668   -33484   -67539   -84570   -45181     7229 
   14501   -20007   -43696   -48429   -66900   -79793   -57573   -20031 
   14643    38369    34894    19016    24171    44965    58336    65632 
   69313    63738    61366    60997    36660     4253     7781    43044 
   66178    58029    39191    27292    21986    10470   -21805   -45077 
  -19271    28977    52451    36548     -345   -15662   -10238   -13351 
   -5884    10804      635    -9373     8087    16926    11759    23575 
   48199    59734    45466    19186    16078    48189    75663    70892 
   56803    39144    14446     1557    -5271   -13702   -16983   -25632 
  -31278    -7398    34373    55709    43079    17652     3532     5703 
   11854     4830   -14337   -18901    -1293    -9690   -61095   -91409 
  -80684   -60775   -29803    -3387     -267     1161     4388     6995 
   25824    53154    54068    18152   -16561    -8163    36551    73120 
   79910    71621    65666    71841    81596    74849    45835    10147 
    2748    34584    64419    57824    24906    -5703    -5139    28456 
   50805    38835    34069    59899    84389    84165    61662    21173 
  -28516   -55725   -32499     7960    20074    17037    17340    12457 
    5815     3809    -1833    -9886   -11861   -14833   -19199   -10602 
    1957    -4815   -29616   -49824   -43024   -12275     4004   -19639 
  -47374   -31044    16804    55595    72608    69820    47710     8033 
  -32422   -44940   -29860   -10122     9730    33138    44760    25105 
   -4959    -1358    25951    27083    -9823   -46901   -45447   -12322 
   29308    60635    50561    25083    41401    66970    56133    29350 
    3087   -19986   -26900   -15279    -2223     5890    15620     9250 
  -15508   -29646   -26358    -5589    17367    10876    -2979     8989 
   22046    11375    -6809   -14756    -5938    17764    21770   -11169 
  -34129   -22183    -1032    19681    42179    56111    45770    13662 
   -4113     7365    19840    19354    14692    19595    39704    46350 
   22453     8969    28277    43208    44551    61353    75000    50105 
    9475    -3330    16876    19869   -30538   -70548   -46669    -3890 
   24201    24318   -21163   -60481   -46145   -20619   -13980    -2631 
   15812    22651    18608     9217     -144    11966    53889    90339 
   80867    45220    32848    41251    44417    46090    56473    63261 
   44555    19357    21959    32981    34452    32625    11033   -11086 
   16761    69261    78417    43150    10949    -8433   -18928     3763 
   36386    28387     2987    -5539    -3335     7892    22759    33210 
   26400   -11261   -32452      940    26601       78   -37196   -46777 
  -33428   -23233   -26199   -23556    -5432    13591    16663     5872 
    4347    29354    66722    83494    64501    33223    19737    15456 
   12468    34137    74764    99292    90240    49454     1306   -21799 
  -14771    -2965    -4484    -1911    23357    55243    57230     9054 
  -59105   -90243   -74015   -44761    -6712    46778    71798    47565 
   25794    25177      135   -46832   -50261    -8629    19010    29895 
   32651     1077   -29103    -5973    20661     5911    -5844      918 
    4045    21926    57237    69881    44932    18920    27284    41613 
   20807    -9547   -12760   -11561   -30489   -36613    -2282    38064 
   33575   -17663   -64741   -74679   -70849   -77448   -86630   -75096 
  -21886    46685    60806     7268   -53723   -75656   -44955    17038 
   46577    27738    15803    24183    17666     -259     2025    20746 
   26038    15306    11165    26380    49955    53827    30501     6027 
    1767    14774    26869    27140    28497    38670    38416    22887 
   21186    41524    53958    52686    60853    75150    82017    74005 
   35687    -6727   -12529    -3034     9512    37507    42376     8163 
  -15417   -20004   -36447   -46332   -24282     3596    15129    17111 
   13747    13506    19226     7195   -23916   -34137   -11040    14712 
   25435    30727    35831    28009     8233     2594     8484    -6161 
  -34086   -43892   -37500   -21139    10079    30238    16687   -11630 
  -33577   -25308    27338    79914    83173    47578    13771     8703 
   29147    54106    70158    75933    66517    40347    14743     5798 
   20997    55486    81634    90294   101736   114482    95989    34280 
  -21104   -16108    30308    64866    69105    60089    51399    38388 
   35532    50700    44405    21427    39495    89424   106729    65242 
   11187     3264    22723    34191    56151    78105    76264    80090 
   78193    31276   -15831   -22107   -22523   -39779   -62406   -84303 
  -99104   -95521   -79987   -74368   -81222   -80628   -60031   -35380 
  -39271   -72279   -99717  -105059   -96233   -83928   -74051   -61474 
  -46278   -43654   -61885   -77442   -62614   -37944   -26519   -12190 
     -76    -8866   -19811   -16117    -5911     5915     7782   -13099 
  -33714   -24800     4657    26786    34593    46683    59737    47973 
   16260   -14704   -26149     1127    44756    64373    69040    84028 
  101310   104129    95139    84210    71562    57708    52647    58303 
   57511    39906    18382     3550    -2212     8866    28975    34470 
   21845    -1536   -36126   -65233   -63624   -42647   -30319   -21041 
   -3316     3006    -9636   -19026   -18632   -11368     6239    18403 
   16050    19993    36775    48837    40582    16121     4383    18461 
   37785    48442    50344    51169    63749    66249    25629   -23321 
  -13922    49459    99779   103551    80632    45881     2974   -32517 
  -47337   -43482   -31726   -17027     4035    31337    53738    51381 
   30559    28269    54411    85905   101908    96329    85565    88507 
   98551   102972   105147   107931   104982    96962    90170    80163 
   64384    57393    62087    65796    73492    83435    71755    38173 
    7252    -4939    -5562   -15218   -32229   -35951   -20860     -571 
     318   -28031   -56489   -51625   -19298     3465    -9251   -35942 
  -30113    18431    64687    54209   -13178   -85163  -122119  -131828 
 -143559  -157508  -140826   -87176   -33401    -2394    19838    38535 
   34099     4236   -24761   -35599   -36197   -26195     6705    41836 
   43895    16100     -876    26384    67352    64355    29299    11669 
   21714    41662    40452    -1337   -53469   -77407   -72913   -52104 
  -20075    10893    27585    26550     4063   -30731   -51791   -46079 
  -14719    26854    48065    43244    36439    31831    13807    -2339 
    8206    28026    37609    40887    26433    -5070   -11898    12974 
   23596    11391    -4244   -37586   -77067   -69998   -23637     -297 
  -18736   -42809   -35696    11766    77899   123881   128305    91925 
   39253    40198   112546   160007   144582   124788    96184    30686 
  -29992   -42780    -8586    35598    46839    41548    58230    70074 
   39663    -5020   -18800     1768    22590    21292    19305    26059 
   19616     4935     3296    15384    25284     9304   -37721   -89237 
 -119726  -127033  -114494   -82784   -41088       24    33616    51017 
   49871    35738    13926   -10497   -28162   -24636      284    26407 
   47513    67815    75249    71474    74212    81103    83057    66965 
   24514    -6230     4245    28327    44550    49885    46649    56047 
   77010    83974    71558    43526     9270   -10396   -14458   -19225 
  -25443   -18037     7527    29326    28676    23517    39757    68554 
   82675    80028    77758    75039    60116    38412    15834   -18382 
  -61036   -86767   -85990   -73356   -66571   -76917  -100878  -120563 
 -122625  -111699  -101896   -90472   -58314    -9201    32421    59599 
   73408    68735    50606    26566    -2805   -25126   -25154   -22974 
  -50904   -95851  -120016  -106011   -52123    27945   101360   144018 
  154338   137991   109390    88815    82684    89835   105642   125501 
  151218   159260   122867    61811     1059   -47166   -66802   -64327 
  -55177   -48559   -68349  -113439  -137362  -115113   -49763    51502 
  124600   105154    47132    20803    14898    20317    37701    36185 
    4062   -28506   -51467   -89961  -132175  -145976  -139488  -110521 
  -50658     1810    17294    -3919   -60025  -116415  -128970  -105957 
  -75180   -43023   -18064   -18158   -40522   -54849   -39287    -6196 
   26172    57503    84006    96885   101379   102659    97665    91520 
   94390   111790   138362   155214   154430   137547    93758    41924 
   27201    34585    30188    40124    66923    68898    53508    47548 
   41970    28548    19014    27581    51606    68146    63236    48658 
   37976    25080    -1202   -25608   -18252    12448    20106   -10285 
  -35108   -25986   -16097   -33084   -63551   -83060   -53338    35824 
  112074   118237    86098    42769    -6177   -19549    12334    41786 
   56097    75647    90198    75297    26261   -32688   -49950     6727 
  101541   158445   147019   113994    85801    25053   -56543   -87035 
  -50083     9900    53158    57720    17811   -46992  -100550  -119907 
 -116644  -118292  -128363  -127453  -107823   -85079   -77552   -84831 
  -97557  -115623  -133942  -117263   -31455    83484   141678   132436 
  113094    87269    16548   -75937  -131977  -148801  -159478  -157654 
 -118525   -67009   -47853   -64756   -92334  -109175  -102794   -67977 
  -18172    25498    65992   115198   153848   149866   107578    60836 
   23314   -13579   -43791   -57049   -52685   -24475    20225    58800 
   86381   106323   111068    97625    73067    37380    -5235   -24220 
    4149    57743   103130   138458   163158   164390   159605   171776 
  190385   211002   229390   217121   188379   195011   223913   226708 
  203966   163300   110155    81710    73842    42128     4445     6592 
   43282    83209   104903   110641   120387   132237   125425    95108 
   42863   -28655   -93267  -122770  -120100  -103867   -91894   -89039 
  -81221   -65955   -65011   -82786   -83898   -52196   -20426    -6327 
     -13    -5633   -22099   -21450    10856    53196    82042    83751 
   42300   -27126   -72685   -79824   -85388  -102563  -105236   -78754 
  -37309    -6847     3736     4584    -6785   -26461   -28784   -15784 
  -15145   -24368   -16538     1262    -7335   -43945   -70565   -60292 
  -28182    -4082     9093    18975    24079    22022    13189    13514 
   38983    68249    69892    50415    28448     -621   -34927   -50355 
  -39417   -27364   -38699   -67684   -93513  -103243   -84233   -35355 
    5636      -33   -35008   -53408   -39781    -5528    36859    68139 
   65338    28375   -20815   -60243   -69530   -46962   -25582   -25219 
  -32643   -43613   -59103   -68802   -71479   -73147   -67938   -43283 
   -1308    31853    30473     7921     8966    50303    99864   133316 
  168978   217907   245451   224545   178806   138404   112800   109213 
  130951   163381   163714   104429    30979    -8577   -30311   -42888 
  -30152     3619    48973    78493    54252    -6705   -55903   -76736 
  -79266   -68543   -44304   -20660   -16382   -34192   -64161   -93758 
 -106731   -77464     1888    89476   144937   174669   179848   149929 
  102120    59213    30693     7030   -21718   -29255    -2181    25234 
   25034     1845   -22589   -32648   -30739   -23456   -13342    -1765 
    1597   -16347   -42498   -53017   -53283   -54356   -43984   -16753 
   11838    38040    70139   104384   133732   153833   149700   106955 
   48357    22347    34549    40157    15658   -10424    -6945    16024 
   32827    40269    44971    40474    17093   -19678   -51895   -66937 
  -67552   -66064   -64675   -51379   -29137   -16347   -20001   -38998 
  -64463   -80477   -87485   -90198   -73974   -30676    19353    44058 
   25255   -27891   -89735  -133879  -143633  -119419   -76119   -35958 
   -8438     7948     7265     1358    11961    29361    39575    40975 
   20183   -24405   -55048   -33471    21755    54858    53219    52697 
   67537    82437    94714   109436   115828    97718    62436    39434 
   45114    76597   119797   151179   162869   156389   126661    85434 
   44014    -6346   -60577  -100157  -117425  -111223   -84154   -40058 
   17153    69736    99743   116370   130870   127556    96529    63161 
   56640    72684    92182   105726   100857    81249    66906    44626 
    7404   -16933   -28183   -40601   -45661   -31486     4847    34497 
   21406   -15367   -42886   -56161   -46921   -12472    29065    53821 
   50969    37843    28944    11939   -19626   -49403   -58044   -44975 
  -25452   -15237   -27669   -55552   -73064   -76327   -73907   -62348 
  -46273   -35351   -27052   -14669     5385    29266    49131    59732 
   57113    46221    32671     8795   -17280   -21184   -10169    -9058 
  -18522   -27742   -29833   -21670    -9910    -5539   -14341   -32572 
  -44477   -39167   -27530   -21728   -11889    16731    56617    87378 
   99836    91149    62519    34063    22081     8991   -28360   -84794 
 -137231  -163470  -153624  -115990   -71459   -40559   -13967    38653 
   99700   123163   112959    85914    38701    -3115   -14505   -19097 
  -33150   -39391   -34665   -32225   -34213   -33134   -28701   -33648 
  -51529   -67957   -71852   -65990   -63682   -67007   -58032   -34375 
   -6917    28020    62530    77542    82516   103572   143834   173738 
  173497   166947   171209   164239   134821    95496    58367    39906 
   42442    49862    56775    58720    58963    72253    85785    83521 
   78721    76411    65596    48320    33867    16748   -12919   -39287 
  -31503    13328    60372    72643    51224    26002    14010     8222 
   -2570   -12667   -11955    -9498   -12340   -10403     1829    18943 
   36346    58920    90659   114681   109107    77809    45840    33160 
   33697    30680    24912    14373    -9768   -31387   -28576     1418 
   43969    66409    60164    62476    82337    76925    30716   -22303 
  -49592   -47146   -28568      959    42499    79728    91276    74082 
   37936    -6184   -47771   -76065   -86344   -88090   -94203   -99489 
  -83216   -33561    30836    68859    60771    26634     -576    -1852 
   12862    19981    12370    -4394   -26771   -53028   -77693   -93105 
  -97073   -85518   -52186   -11045    12409    18492    29898    47823 
   44860    13281   -24964   -57219   -77892   -72102   -36464     6477 
   31369    39542    41295    28634     -302   -27213   -38234   -34497 
  -23317    -9046     6041    22885    47387    74186    89145    94090 
   98571   102564   102861    91925    71977    64326    62937    43578 
   20360     7106   -12911   -43583   -75384   -94343   -78618   -38662 
  -15851   -19523   -22023    -9067     9117    27670    50623    67680 
   64349    50188    38776    19435    -8517   -19017   -10022   -10444 
  -27639   -36289   -16043    24528    63046    89731   108191   116102 
  103585    72625    35961    -5059   -49488   -66999   -32556    18727 
   36104    24119    12253     -815   -26578   -51800   -58892   -47062 
  -23263    -1594     4996     2216     1090     1046     1563     8939 
   20402    23819    21663    28999    43731    53018    63752    83602 
   96638    97359    95435    78618    41469    11915     1283    -5661 
   -8168     3429    16453    11080    -4108    -5202     8745    25713 
   37883    33605    12885    -8626   -21118   -21389   -17724   -25482 
  -40143   -48922   -54159   -56330   -45642   -23384    -2462    10423 
   14519    10550     -972   -19620   -36077   -42352   -44397   -43822 
  -37747   -33685   -32381   -24148   -15298   -24302   -47779   -61118 
  -54024   -33956   -12761    -8202   -26478   -53516   -72044   -64656 
  -23598    33995    81384   105232   109663   104900    97438    88688 
   78615    73381    76705    83147    86773    77394    56690    44934 
   42639    45829    69731    99713    95384    54199    10984   -11114 
  -22275   -35251   -39588   -26990    -7503    10446    30226    50859 
   52209    19394   -21535   -32239   -18519   -10162   -11678   -10260 
    1026    11414     3963   -14727   -26850   -20159    11264    51395 
   83223   105790   106948    79683    46460    27378    15550    -8988 
  -42641   -54070   -38503   -27203   -33207   -37075   -26908   -18320 
  -16858     -418    34134    55888    42603     2212   -40826   -63984 
  -61074   -37488     -446    32150    41971    35256    29226    29309 
   34452    44216    56953    67660    69819    61014    42353    17802 
   -1556    -6678    -3728     2153    24205    63148    89696    92065 
   85206    63927    25485     6264    21606    37443    42076    61364 
   97556   124187   125313   102001    63475    30273    20949    23537 
