Origin Time       2021/02/13 23:08:00
Lat.              37.7
Long.             141.8
Depth. (km)       60
Mag.              7.1
Station Code      MYG002
Station Lat.      38.7262
Station Long.     141.5109
Station Height(m) 79
Record Time       2021/02/13 23:08:09
Sampling Freq(Hz) 100Hz
Duration Time(s)  282
Dir.              N-S
Scale Factor      7845(gal)/8223790
Max. Acc. (gal)   392.424
Last Correction   2021/02/13 23:08:09
Memo.             
[...]
   54942    34731    25316    18188    10847      693   -10804     4720 
   29527    21325    -1626   -19782    -6605    63455    95756    26211 
  -32729   -16067    11522    17851    17564    29185    44221     7830 
  -54124   -44334    22829    65720    63672    44825    22385   -21320 
  -57646   -44699    -4984    47918    92963    80372    41744    27206 
    6286   -37125   -66463   -50368     8199    60245    68494    58986 
   51683    14235   -54209   -69485     9470    76658    55474    22435 
   17344    -4596   -13493    34264    58920   -14948   -87708   -50252 
   21568    52554    79938    90371    51552     2309   -45835   -89901 
  -84375   -32401    44801   127106   128949    55189    17888     5089 
  -32012   -56119   -58337   -33417    34947   111026   146121    95810 
  -19653   -99380   -91875   -31669    15163    33238    57250    69408 
   42840    -1136   -24979     3674    30867   -14311   -47815     7524 
   67494    80165    65090     7827   -57065   -68386   -29081    39232 
  100973   120918    76746   -32563  -112606   -84897    -1393    69205 
   92491    61947     6027   -28702     2474    43690    13050   -14121 
    9400     1551   -15371    22773    59973    46757     4720   -32305 
  -34501     9801    80632   111217    49658   -34857   -61854   -51597 
  -17186    41565    74775    39586   -34624   -45605    35695    89095 
   49563   -15182   -43965   -28243    11306    63382    96106    50670 
  -20964   -45636   -55458   -35937    41786   107653   106494    41320 
  -56782   -97131   -21409    66897    55871     7183    12194    39614 
   39526    30136    18297   -16546   -57942   -61788    -7419    69691 
  112081    89397    12679   -57065   -65863   -14708    54060    62807 
    5154    -8941    31158    22441    -7892    16555    37840    11250 
   -4066    20069    45249    43708    19634   -22231   -68364   -71335 
   -2830    86374   116405    81899    31988   -21127   -64261   -72936 
  -47632    28004   112978   105709    19279   -38955   -23344    11426 
   23463    39201    35027    -7496    -7260    37019    43644    16599 
  -18071   -40556   -15079    23392    42622    64964    59096    26296 
   31199    18198   -57973   -80366   -23666    24100    65371    87029 
   41434    -2535     9599    16499    -2056    -8691    -1601     2405 
    1887    17988    34763    11067    -3844    14052     5335    11728 
   62237    66183    29747     1449   -49419   -83373   -41276    42418 
  112584   100437     2033   -67900   -62725   -10974    73403   107704 
   47251   -14162   -35392   -37323    -2107    23488    -4549   -12437 
   36374    97858   107191    21231   -76653  -103515   -83204    -1579 
  114116   140391    89241    44443   -26357  -110317   -94188    27541 
  117216    97857    42168    -1533   -46681   -53983   -13722    18199 
   38345    74077    94774    55683   -26831   -94265   -78106    14712 
   48945    15163    49927    89722    48969    28274     1413   -96214 
 -124900   -26707    74501   119275   117965    58962   -34005   -71797 
   -6843    62563    31789   -24489      407    59844    69769    40365 
   10928   -23361   -65529   -68058   -12873    46909   105209   156178 
   97843   -65929  -154087   -79686    25218    55861    77261   102940 
   78856    44026     6122   -79598  -139413   -79412    53204   151827 
  136102    11871   -81588   -54541    11591    26631    -1501   -18684 
     167    44174    88510    78468     7655   -42149   -38304   -16484 
   10512    39586    52065    42619    25176     4453   -15202   -18630 
    2003    31718    30395     4222     1042    15781    14412   -28332 
  -62661     6798    95663    76925    34493    20571   -43889   -95488 
  -22005    87131   117865    89160    32833   -35379   -65449    -8247 
   81297    71321   -18968   -44311    -7993    16796    59008    93579 
   38275   -58787   -73649     6100    60885    40672    21609    25656 
   14373   -17707   -52077   -52309    -6829    39133    62198    68598 
   53974    37912      992   -81889   -92172    33825   153511   144366 
   20989   -84381   -45530    52515    77160    57682    18378   -44231 
  -52083    18148    57051    -3858   -67537   -41639    15014    53588 
   92480    93039    34881   -15082   -38935   -55574   -18588    60282 
   74059    24876    -2983   -27394   -64994   -47340    28306    74621 
   50350     3628   -36031   -59803    -2944   108517   142373    98961 
   70074    41463   -41354  -137596  -158932   -78403    43237   131635 
  160489   124109    40549   -62074  -150809  -142377   -32904    60980 
  100913   110073    61076   -24187   -56872   -16374    57959   117143 
   86229   -27202   -86694   -25007    57488    60367    18099    -5711 
  -27479   -42741     6393    93110   125582    91027    32687   -41245 
 -102080   -76580    10184    45520    14638    -9232    12144    71051 
  125976   117076    20302  -111060  -165204   -90876    38731   122319 
  105394    13421   -53703   -40197     6363    33201    42751    23818 
  -27707   -39384    12071    69043   122654   134219    36109   -92026 
 -133731   -78051     7850    18068   -15438    40873   129467    98959 
  -15109   -63512   -31180   -30897   -48826    31140   150202   167705 
  103797    36819   -18536   -64852   -96519   -93738   -52218    20452 
  118494   169387   114727     4445  -108303  -180326  -153480   -37407 
  101117   200468   208087   107508   -43704  -152585  -171371  -107667 
    4630   107627   163645   167718    97595   -23633  -103970   -94587 
  -18149    54842    56205    18832    45319   112388    72789   -59321 
 -124575   -62568    77332   179211   161800    57777   -80973  -179451 
 -164099   -67495    61312   166587   153921    72127    26919   -17500 
  -83238  -118435  -114014   -74287    36579   199608   283374   207420 
   26275  -164519  -254747  -171860    14963   164519   213880   170700 
   61484   -39621   -72057   -74804   -71011   -29018    -2411   -35810 
  -38253    52150   166872   185851    53248  -116257  -152790   -53713 
   58244    95689    64161    17512   -32888   -41073    62488   165856 
  132534     2205  -138088  -186902   -83170    68048   140483   138593 
  108282    64327      133   -85565  -120243   -44047    52316    59630 
   10444     9552    71062   104811    69624    -1888   -85585  -132283 
  -82890    26100    94057    85168    50022    13637   -29583   -42047 
  -22427     4449    37366    23076   -33435   -34103    18929    65392 
   97256    70313   -43605  -110316   -26361   104950   176335   164060 
   52469   -84114  -117633   -64174   -16911    24588    73641    85974 
   39141   -43070  -115970  -113514    -8653   110344   150773   121080 
   48656   -27735   -47552   -25186   -13120   -30557   -77122   -82221 
   13579   129471   182555   155110    44351   -61041   -77098   -57248 
  -33685    12784    21119   -30553   -47929     7732    91323   161002 
  155407    38592   -96882  -127577   -57569    26713    55606    26873 
    9996    26094    38994    47630    20000   -59640   -84141   -11678 
   61592    99171   123776   113657    40124   -69473  -135392  -127518 
  -71169    36227   148585   165790    65530   -79396  -156325  -100724 
   41189   166039   201675   145349    40522   -40807   -52381   -57003 
 -106789  -122991   -42449    90683   185260   170537    67867   -44240 
 -117363  -138076   -88873    38920   151229   131078    22118   -72858 
 -108641   -58622    34974    90317    74509    19975    20848    60903 
   28294    -2998    51206    44118   -71776  -113617    -3564   135534 
  169076    87018   -37265  -134190  -117405    15152   122316   120096 
   30665   -76528   -93379     8136   110937    70201   -70237  -107917 
  -32844    -2157    -5464    39270    98390   135604   133099    80381 
   19712   -46178  -111122   -99513   -27580    19832    30774    21574 
   11217    26356    66961   111667   119140    42010   -90888  -167185 
 -129838   -19703    94313   160844   183012   129516   -31973  -156602 
 -130064   -35356    44342    67494    44779    40027    30577     1995 
    3142    -5239   -46070   -25766    63059    94375    51605    38005 
   35361   -31819   -89964   -38222    78489   148822   155779   146637 
   48996  -181797  -327264  -238597   -66533    76468   219511   294295 
  193309     6417  -111821  -169049  -202005  -141455    51390   231773 
  237809   131471    16128   -85858  -117366   -58117    39368    57028 
  -39865   -52542    54448    93517    81241    81702    30068   -64258 
 -131494  -115209    -6502    96888   132266   133359    75120   -39320 
  -52321    75294   145831    56925  -106902  -249897  -247384   -28532 
  221778   271298   166919    50781   -68374  -139716   -89955     9405 
   64108    45171     9899    24833    34789    26530    24119   -33114 
  -90672   -38450    75470   162504   156385    29852   -96849   -96857 
   -7601    63424    53009    13176    29671    48401    26082    22079 
    8401   -27440   -25879   -23616    -6727    66120    92140    58704 
   33609   -19095   -75288   -77620   -53707    31772   176513   207277 
   67544  -102338  -170271  -114504   -51308   -10978    98518   187853 
  147614    64064    -4932   -67521  -104229  -105880   -44381    58882 
   99646    89573    88649    31182   -68966   -69392    21424    64644 
   21469   -49123   -84927   -34568   100012   192991   113647   -62436 
 -153505  -106556    14983   139102   187006   108052     9304     2783 
  -13008   -66434   -17879    75228    56999   -33697   -95368   -79201 
   12884   103720   145126   132088    46168   -68044  -125544   -83147 
   14427    66798    59881    43517    48605    46643   -33555  -126594 
 -109985   -21609    46776    65641    58384    89093   166861   192963 
   83439  -118611  -247540  -156296    47255   125070    93529   117490 
  162924   107357   -21416  -144679  -207315  -125024    41696    82937 
   30766    74306   135074    94516    38373      157   -35110   -30732 
  -18816   -25759   -13590   -14206   -41054     7032   116286   145933 
  100715    34801   -90105  -186313  -105891    52066   106932    86008 
   73368    48073    14796     1310   -44394  -127445  -149539   -47663 
  119225   212760   191737   105532   -54060  -201960  -162911    10443 
  116932   110961    62266    12366   -13671   -24578   -44945   -25053 
   41035    62914    31148     7435    16645    38520    21328   -42380 
  -74197   -24046    63456   147748   191131   115893   -62927  -216432 
 -246585  -139823    42522   209156   312950   313312   143043  -131434 
 -316822  -343020  -212217    70671   300489   297348   175621    14856 
 -154939  -151237    -9691    16191   -65562   -88647   -16205    98523 
  178956   187154   139093    63562    11249   -32964  -138159  -227053 
 -167861     4603   164901   249234   236954    82135  -160058  -266519 
 -137311    78891   200927   157482    12050  -120278  -156126   -70050 
   57010   125512   110551    55360    21790     5830    16317    60575 
   36576   -70119  -143849  -130227   -42876    67061   175269   261288 
  220403    30765  -168570  -228528  -147752   -55609    15093    88086 
  122381   115535    67855    -6982   -63413  -132871  -197505  -162938 
  -15804   162240   261029   291717   290116   158251   -86435  -246979 
 -207258   -62301    12442    15842    37627    58305    68116    82201 
   34794   -38196   -11758     8359   -75582   -77512    27955    36093 
  -34056   -32343    40419    93125    42927   -61742   -71806     7237 
   88631   170283   188848    67994   -96747  -178054  -149461   -44174 
   43271    67662    85071    98667   110000   147411   130711    20904 
  -72439  -117629  -181561  -195066   -62082   113147   206149   195883 
  102905     7716   -41212   -60890   -73730   -95612   -73737    -7792 
  -20355   -90747   -54441    95185   206942   215744   171814    93430 
  -18131  -132844  -214558  -169946     9968   123596   112102   131561 
  145822    44439   -70262  -102821   -96601   -74591    14770   153385 
  208916   137845    25181   -80461  -163630  -176407  -109632    -4914 
  120741   219503   210764   104238   -39542  -179960  -244752  -148359 
   81981   268219   269176   116815   -79668  -186503  -133964   -17948 
   67077   101231    72119    59161   138917   186005    54037  -162733 
 -251203  -163742   -34816    60250   139402   174082   165385   139356 
   43437   -81477  -109425  -109922  -159293  -135193   -28836    76339 
  197831   296426   285627   129228  -104488  -256413  -274245  -167211 
   56153   223823   179458    27646   -84990   -97298    20719   133986 
   97487    10758   -20638   -25913    -9039    35347    67525    57330 
   10966   -36710   -38203    38242   139560   168386   107897   -21054 
 -168093  -225379  -158264     1957   176584   203982   119151   106994 
   81535   -70182  -188021  -171040   -98518   -31654    14947    45551 
   61041    55333    63074    99019    95424     -832  -112903  -139612 
 -107492   -14300   163478   279582   237525   105420   -59868  -196495 
 -203289   -41287   135579   121755     3823   -25141    -2458    11148 
   34931    43533    32779    -1213   -65395   -88207   -59243   -37165 
    3842    69415    74961    12987    -4234    54209    66114     7464 
   -6475     1233   -55467  -116407  -134879  -105148    37736   222204 
  273917   193604    87408    16461   -42627  -154928  -229747  -125982 
   45130   108122   107724    89965    21784    23602   140562   199967 
  141710    -1517  -178578  -254296  -186089   -25990   168378   302125 
  331776   257111    51894  -224471  -397877  -341339   -97768   135896 
  203698   136734     6648   -86549    -6899   127670   109732     4429 
  -67347  -101625   -75108    41584   159772   164970    76675   -57092 
 -193062  -212053   -89262    58259   154546   222473   295948   269932 
   65700  -144679  -224197  -205714  -100607    63171   166824   115171 
  -17751   -89653   -79829   -11801    73836   113356   129471   106824 
   12606   -53955   -82065  -126657   -97236    31457   102988    40111 
  -29949   -18198    22551    84520   129195    52276   -76154  -114592 
  -48825    88781   231573   258969   116131  -109946  -267220  -277693 
 -183469   -41062   127909   235068   198539   112077    64895   -20598 
 -143901  -163485   -77994    -9948    32406    98670   153522   147302 
   75030   -56581  -178430  -165852   -17369   108490   104124    45991 
   47587    75022    67062    55028    16495   -65364  -106344   -93002 
  -45928    25897    46152    35291    80634   110339    58183    19049 
   20244   -15151   -54986   -53797   -58110   -44369    27186   103646 
  133073    76879    -1161    52650   146249    80523   -55549  -131620 
 -164421  -102838    59140   191477   235857   168390   -19445  -176160 
 -172408   -92624   -32590    22981    77720   117751   128123    77618 
    9701   -12343   -10939     5867    38543    21034   -46646   -80199 
  -48388    30873    97262   106259   111708    83629   -41724  -105831 
  -18967    54727    39710    -1194   -34138   -40406     9491   109584 
  141852      849  -175077  -173215   -18995   114561   150633   149335 
  126924    -5944  -172287  -180360   -47557   110683   206251   153967 
    6261   -78143   -66275   -72011  -102487   -61411     8364    44290 
   83709   121350    94686    15537   -14331    -9112   -64272  -103202 
  -15155    99393    93609    20916    -5861     1321    11599    38416 
   72322    87173   126150   173812    39363  -217522  -288107  -213135 
 -124324    76809   300249   354034   250445    57774  -158016  -320234 
 -322004   -69095   246090   340706   284226   192048     6677  -169712 
 -217622  -210616  -167961   -61680    25033    30084    29281    72108 
  105599   126431   140647   108646    30708   -75074  -152671  -142447 
  -84443    20514   168100   209912   138233    62491   -30557   -98579 
 -101582   -84366   -25353    37037    34337     7711    27939   139662 
  227055   135518   -32948  -122877  -150299  -145660   -43742   134584 
  207187   123219   -16004  -138152  -150612   -57767    30069    84910 
   72470   -13320   -67918   -54561    32660   191432   246986   113941 
  -10188   -35619   -81380  -154808  -137513   -41856    21320   106419 
  242125   236002    48566  -129163  -175953  -104886     5221   106255 
  170197   145488    63553   -23962  -134239  -205279  -149034   -17397 
   81811    88406    34997     2770    -2339    -9529     9531    70646 
   73545   -28331  -103277   -88249    -5891   143590   263337   242800 
   79650  -128351  -202890   -90077    68455   136086    77909   -24263 
  -65641   -53562   -25424    23468    78136    78399    27145    33463 
  101748   103173    14763   -47549   -43644   -63618  -102798   -71417 
   12802    84994   105298    72455    53067    67753    47977     1918 
   -5922   -12924   -44811   -54900   -47116   -16490    48280    76518 
   52232    22318   -38529  -114304   -98460    41169   195583   212481 
   95435   -29451  -136363  -205746  -134264    56758   187558   156155 
   48209   -30651   -78432   -94166   -42529    43132    79431    63641 
   71915   113354   105525    28320   -47217   -89024  -113954  -123584 
  -96546     9235   169608   265064   244593   143164    -1917  -127915 
 -195011  -182016   -62008    58379    37172   -48967   -53126    31521 
  158319   259457   252752   133458   -53751  -256717  -370448  -265778 
   -1796   175608   231959   266095   170048   -59984  -220054  -219326 
  -66391   117425   182113   186678   166549    39862   -99619  -124413 
 -115119  -107260   -11896   106859   135376    97298    28707   -25340 
  -32316   -20949    25606    72187    23102   -57268   -55231     1036 
   42572    80813   116742    65199   -51700  -108616  -104734   -66368 
   25785   110887   138134   128159    58488   -59742  -131147  -137979 
 -108542   -26620   102598   223353   236364   117965   -34531  -159849 
 -202608   -81545   123627   188611    57647   -62355   -53886   -22862 
    2278    76995   117234    64663    13363   -28148   -74784   -33556 
   60840    88587    54198     6231   -42363   -71572   -20148   104897 
  171868   116546     3542  -127807  -232980  -173186    48604   207608 
  201529   111442    -8279   -75347   -17308    14193   -61607   -48186 
   77820   134686    94896     1601  -134671  -193561   -84707    58684 
  124430   142002   122972    61211   -25088  -100869  -121297   -24822 
  152828   193730    35390  -124719  -156122   -57449    42337    10525 
  -46063   -17471    58120   152124   200971   121948   -60228  -176771 
  -98949    29945    71359    88954    80574    20912    -1278    49928 
   83848    24695   -56053   -69010   -35680    32135   115906   144013 
  112726    38986   -75419  -167999  -188592  -116733    21805   106870 
  106243    90957    35753   -52022   -46688    24713    49466    73219 
  118191   119476    56331   -80441  -211910  -209154   -97615    55015 
  208731   248805   143788    -2027  -109950  -134975   -81454   -10326 
   40828    71377    76061    49316    44425    74015    58822    -4114 
  -79699  -136804   -76238    72277   137502    97857    29187   -34488 
  -23465    56816    82721    30646   -39694   -77504   -35465    34954 
   62711    77805    68038     2709   -33767    -7187    10446     9336 
   -1532   -42610   -73183   -48312    18351   101046   163860   141812 
   -1536  -137481   -79292    60825    46935   -35838   -52632   -48602 
