Origin Time       2021/02/13 23:08:00
Lat.              37.7
Long.             141.8
Depth. (km)       60
Mag.              7.1
Station Code      MYG017
Station Lat.      37.9763
Station Long.     140.7818
Station Height(m) 35
Record Time       2021/02/13 23:08:06
Sampling Freq(Hz) 100Hz
Duration Time(s)  267
Dir.              E-W
Scale Factor      7845(gal)/8223790
Max. Acc. (gal)   239.523
Last Correction   2021/02/13 23:08:05
Memo.             
[...]
   10905    10370    10619    12617    14975    15863    15441    13814 
   10181     7033     6586     6783     8279    12083    12974     8557 
    2043    -5485   -12930   -16973   -16889   -15093   -12631    -7061 
    3271    15244    24254    27859    27525    28555    32177    33546 
   31147    26929    21505    16119    11618     6123     -434    -3786 
   -1842     2590     7230    11319    13844    14426    13617    11916 
    8429     3287     -141     -322      822     2938     5919     7106 
    5309     1344    -3870    -8240   -11190   -13509   -13219    -9190 
   -4081      918     6566     9490     6686     3881     5787     8311 
   10079    14408    19005    19954    18478    14310     6843     2515 
    5247    10287    13390    12394     6810     2008     3098     7341 
    9987    10773    10403     9582    11650    17458    22427    23043 
   19638    12185      325   -11402   -16321   -13887    -7736     -681 
    4023     4861     4666     5957     9024    14544    21300    24332 
   20837    13938     7561     1938    -3241    -6883    -7963    -3163 
    8630    19276    21224    15777     6980     -517    -2529    -2000 
   -4939   -10467   -14064   -13092    -7187     -298     2960     3786 
    6466    12378    20887    29860    32757    26203    16193     7288 
   -2097   -11530   -18403   -21320   -18430   -10767    -3589      128 
    -356    -5913   -13367   -16858   -15982   -15735   -18670   -21799 
  -21250   -18330   -18191   -21162   -20140   -10138     5182    20139 
   31536    34790    27409    16931    13167    14945    16324    15840 
   12005     5069     1251     3588     6494     4534    -1116    -7915 
  -13969   -14881   -10536    -6790    -3978      978     4444     1933 
   -5155   -13386   -19533   -20713   -17111   -13629   -12314    -6775 
    5310    17574    26435    30161    26592    20541    20241    25292 
   26376    20039    12820     8746     8221    11448    16776    24499 
   33918    40016    41127    39525    37569    37972    39800    38223 
   31837    24204    19246    17115    14181     8731     3964     2011 
     143    -3742    -8194    -9582    -5086      558     -446    -7731 
  -15774   -21282   -23467   -21837   -16618   -10987    -7005    -1113 
    9599    21536    28451    27958    22368    13686     5163     4098 
   10085    12721    10550    10111     9108     6596     8818     9606 
    -299   -10947   -10968    -4801     -137     -927    -7728   -13028 
   -7213     7582    18369    17779    12495    11739    17053    24085 
   26353    21786    15539    12741    13061    12758    10528     8722 
    7601     6903    10558    18308    23449    24907    25579    25633 
   28159    35661    41951    39592    26342     4541   -14488   -17008 
   -4796     8430    17587    25928    28701    22584    18211    18927 
   18767    20706    22222    13182    -1173    -9294   -11222   -11839 
  -14172   -18889   -24123   -28335   -29546   -26441   -22173   -20422 
  -22212   -26681   -31591   -34290   -33681   -33532   -37027   -41760 
  -47002   -52940   -55615   -51251   -38179   -18225      795    10088 
    7510      307    -2840    -1074     4619    13991    19278    13699 
    3707    -1148     -756    -2205    -9047   -16332   -18538   -13606 
   -2469     7947    11646    10839    10378    14135    22866    30538 
   30800    24482    17423    16110    22438    31183    36235    35622 
   31698    29739    31309    32244    31521    32142    31406    25524 
   20432    19789    16198     7576     1736     1328      147    -5661 
  -11252   -10424    -2960     6905    10685     1903   -11187   -16497 
  -14877    -9462      182     8307     9167     6589     4652     -108 
   -9967   -19649   -23722   -22027   -15442    -7071    -5030   -11893 
  -21078   -26640   -24237   -13583    -3893     -994     1651     8796 
   15511    17092    14409    11676    14369    22936    31789    36597 
   35858    30088    22203    17212    18527    20362    17674    18631 
   26021    29702    26717    22373    20488    23001    26829    25270 
   17861    11326    10381    15064    23805    31243    30654    23365 
   15685    10841    11546    17683    20626    13167     -901   -15626 
  -27742   -29201   -15218     2180     9085    10782    16398    18153 
   11696     5973     1476    -3834    -4969    -3889    -5432    -6849 
   -3430     5101    12445    12887     8870     3628    -1557    -2571 
     -35      -40     -660     3127     6550     3929    -3021   -11456 
  -18184   -19425   -16629   -13757    -9751    -2909      774    -5517 
  -16933   -22657   -19450   -10300     1378    10255    11758     8999 
   10099    16868    20694    14335     4071     1723     8818    18608 
   26104    27307    20413    11132     5135     1441      484     5695 
   13516    15734    12328     8572     3913    -4036   -12432   -17215 
  -17662   -15155   -11350    -7326    -2149     2828     -124   -12366 
  -22804   -26983   -31236   -34609   -31075   -22975   -17003   -17598 
  -25039   -34462   -39009   -32481   -16775    -2647     7830    22308 
   39198    49006    51096    51767    51941    49489    45812    44032 
   44825    45486    43749    38801    30559    22837    19074    15826 
    8311    -1891    -8306    -9135    -9643   -13116   -18729   -25358 
  -32148   -36926   -33489   -17339     4027    17197    17886    12352 
    8602     8341     6405     1621      731     6937    16636    27240 
   37550    43875    43418    37646    29409    21663    16355    12193 
    9135    10550    14481    13182     6097    -1308    -9312   -17582 
  -19967   -16719   -15276   -18080   -20309   -19867   -21672   -27824 
  -34677   -40626   -47156   -52524   -49442   -34063   -14216     -927 
    4712     7996    11207    14754    17581    16868    14023    14265 
   20364    31866    46276    58700    65458    68110    69925    72108 
   72727    68836    62395    57314    54085    52207    51268    49333 
   42973    30986    17220     6365      333     -633     1633     3928 
    4190     1846    -2130    -7477   -15673   -24931   -28875   -25371 
  -20065   -14072    -3927     6046    12025    16970    20116    17956 
   11805     7427     8189    11099    13531    14669    11416     3904 
   -3215    -9255   -16884   -25454   -33655   -42354   -50581   -56527 
  -59964   -58842   -50446   -36660   -24772   -21091   -23647   -26835 
  -28713   -30809   -35191   -39933   -41300   -38260   -30356   -20360 
  -14472   -12482    -8749    -2606     3160     8495    13169    15454 
   15707    15608    17185    21826    27564    32217    36321    40809 
   46317    53239    59744    61939    58702    53566    50608    51736 
   56808    64488    71682    73986    69169    56941    39897    26603 
   23512    26946    30619    32335    30227    23967    17757    13936 
    9796     3211    -4614   -12336   -20537   -30284   -41258   -51364 
  -57690   -58033   -53508   -46029   -34777   -23055   -17355   -15475 
  -13717   -17751   -29543   -40840   -47565   -52046   -51903   -42790 
  -27085   -10631     1814     7168     6953     5755     3292    -3532 
  -11105   -14115   -15944   -22368   -29511   -27943   -16340     -545 
   16521    32988    43063    42242    33675    26080    25629    31837 
   40649    48890    54737    55701    50700    40193    24961    12888 
   13509    21959    28435    34778    44836    54552    60444    63915 
   65136    62496    54783    38719    14543    -8178   -22909   -32765 
  -37395   -33484   -25640   -16826    -2320    17683    34645    39343 
   29594    12177    -6907   -27280   -46793   -59975   -61277   -47811 
  -26009    -8060     1134     3892     2184    -2300    -6386    -6994 
   -2150     6439    11857    11178     8544     4444    -1655    -4936 
   -4818    -5401    -3808     5256    19234    32323    40791    43461 
   40162    31203    23152    24856    35453    46484    53986    58298 
   57886    56347    60336    67173    71633    73772    72756    67432 
   60959    57782    59671    63502    63721    59387    53194    46557 
   40213    33205    21860     5977    -7480   -13406   -14488   -12688 
   -7780    -6697   -16854   -34419   -55189   -80642  -105848  -122971 
 -132254  -137916  -142048  -144591  -145966  -145459  -136540  -110624 
  -66607   -21000     1487      851    -6937   -23488   -46060   -59030 
  -67012   -78521   -85935   -86047   -78422   -59408   -35735   -18203 
   -7101    -1520    -6366   -21142   -39768   -58166   -72651   -82336 
  -89036   -90435   -84010   -71936   -57746   -43484   -29442   -16136 
   -4048     6650    14735    20418    25525    31234    38408    47842 
   59802    73373    85498    92477    94914    97133   102038   111154 
  124082   136510   144030   145411   141103   130963   112982    87276 
   61472    45361    39960    39600    42923    50620    59071    65394 
   69280    70841    71739    71820    68239    61194    52402    40614 
   24823     6400   -12542   -29200   -42036   -51039   -55821   -56936 
  -54504   -46971   -34310   -20071   -10342    -9340   -16650   -28078 
  -37724   -40576   -33513   -16555     7034    31733    51880    68351 
   85270    98579   101810    93232    72412    46836    27031    10532 
   -7711   -24266   -35982   -42696   -41246   -28902   -12368     -515 
    6257     9927    10411     8384     5464     4490     7793    14638 
   24082    36286    49867    62957    75215    85754    89240    79043 
   57499    32161     3603   -27818   -52655   -62857   -59040   -43605 
  -20594     1598    18052    30136    39340    47910    57970    66375 
   70974    73047    71066    64355    53979    37552    14013   -13474 
  -41828   -67081   -85075   -95833  -101109  -100831   -95612   -88102 
  -81128   -77388   -78125   -82960   -91160  -101306  -111190  -115944 
 -109308   -89694   -63464   -39906   -21494    -4325    14750    36194 
   55825    66236    65862    57094    38510    13828    -7302   -23776 
  -38592   -50396   -58907   -64849   -67695   -67541   -64003   -56872 
  -47325   -34292   -14161    10820    31039    42151    46726    44884 
   36528    23924     9036    -5567   -18731   -29914   -35041   -33493 
  -32043   -34854   -40944   -50441   -61873   -70154   -73152   -70789 
  -60415   -40648   -15487     8257    29072    50985    73066    91557 
  107811   122242   131741   135074   132078   123674   113346   102722 
   90802    78443    66861    55036    43903    36219    32394    31868 
   33335    34879    36541    39067    43329    50247    57682    61377 
   60358    57893    56876    56058    50927    38145    18349    -4376 
  -26034   -47063   -69588   -93673  -119171  -143097  -157238  -151883 
 -118866   -58322    11965    66206   101092   131627   153087   152882 
  136664   107994    63323     9369   -37592   -65473   -76739   -76797 
  -66406   -53171   -45328   -40818   -35143   -25778   -13863    -5185 
    2207    17298    41137    68828    95682   118901   139162   155163 
  165399   169861   161447   134688    96626    60906    39123    27839 
   17539    11705    10395     4996    -3615   -11353   -17089   -14531 
    3430    34616    66822    89391   104458   118153   128490   129782 
  116429    83128    32994   -20213   -64847   -99198  -122436  -132941 
 -135546  -133196  -124715  -115708  -112048  -110153  -103432   -85855 
  -53110   -11349    28964    66125    98085   117435   123500   122794 
  119539   113047   102006    87840    72484    55799    36040    11866 
  -16094   -44865   -71119   -95956  -122839  -149732  -171483  -186052 
 -192613  -190410  -180804  -166031  -149681  -139696  -139415  -134716 
 -107291   -64122   -29889    -3564    30600    60241    77415    93106 
   95143    76577    54854    33012    11874     -511    -7292   -11500 
  -15738   -26850   -45111   -69620   -97753  -120289  -136746  -152833 
 -166365  -175223  -181503  -183390  -176187  -160346  -141797  -126335 
 -116615  -111014  -103580   -89803   -71199   -48651   -21965     4005 
   27326    53908    81841    98371   100464    85062    40317   -16110 
  -49686   -59687   -58664   -42649   -11427    22798    54490    84680 
  113308   144809   178897   208550   231445   245975   248449   232201 
  192539   140417    96291    68505    50055    38136    36431    42535 
   52270    62330    70413    78094    84979    91273    98852   105491 
  111815   118887   122605   123955   127988   135247   143448   150600 
  156384   160674   160351   151417   131508   100122    62850    29303 
    2651   -20676   -42279   -61653   -80212   -95022   -93829   -61682 
     475    60351    86994    92084    93167    78827    51756    31440 
   15059      378    -2830     4267    18480    37963    54712    61960 
   58245    46611    31058    12711    -7269   -25690   -40822   -53511 
  -65025   -76802   -89363  -101657  -112052  -119059  -123801  -128887 
 -135163  -142543  -150970  -160713  -170550  -176594  -176310  -170430 
 -160439  -145145  -120187   -87181   -59718   -46992   -42762   -44028 
  -57038   -80333  -104743  -122473  -131696  -138566  -145725  -149571 
 -149871  -142307  -117817   -82178   -54577   -41357   -31040   -18185 
   -9342    -6023    -5400   -10218   -21821   -35927   -49805   -62993 
  -72777   -74263   -64741   -47885   -32551   -23036   -15175    -7605 
   -3423    -1304      630     2324     6012    13608    25963    43981 
   65734    86765   104332   119619   133816   144915   152525   158873 
  163954   167543   172214   180654   193062   207557   222502   236560 
  247545   253933   255995   254209   246921   231858   211157   188840 
  164951   139467   113891    87957    62348    38334    15661    -5306 
  -24622   -43785   -63198   -81608   -97159  -107001  -107946   -99404 
  -84886   -68816   -55283   -48618   -47598   -47456   -49434   -55885 
  -64111   -71705   -78679   -85525   -92503  -100495  -111920  -126522 
 -139475  -143348  -125707   -78568   -19464    21729    43717    66819 
   92688   113516   132348   147445   155110   157782   151695   134433 
  111623    85922    59601    38298    25277    22430    29880    41509 
   50491    53304    47684    35120    18139    -2781   -25189   -44959 
  -57271   -55146   -32529     6573    44842    68397    82030    94865 
  103243    99740    80619    44093      318   -33712   -57397   -78711 
  -94070  -100183  -101698   -99823   -94926   -86713   -71189   -51682 
  -35189   -20078    -2733    16314    36948    58239    75334    84516 
   84381    72135    47067    13752   -18696   -41976   -57889   -72334 
  -83462   -88408   -90219   -90409   -87527   -83061   -79556   -78071 
  -79716   -85716   -95994  -107160  -115203  -120474  -124826  -125496 
 -118066  -103574   -86328   -69506   -54731   -40308   -23881    -7294 
    7009    20787    36744    53840    68941    78794    79824    72411 
   62282    52635    43108    37177    39116    46827    55561    63707 
   71039    75644    75112    65936    42664     7337   -24975   -44113 
  -54635   -54961   -36761    -7393    19849    41847    58368    69619 
   76754    78918    74263    60947    40520    18517     -531   -13090 
  -16344   -10600     1300    14851    26130    34110    38786    40869 
   41571    40539    38847    38770    40243    43330    46823    48743 
   52034    59845    70779    82707    95010   108020   120930   131183 
  137436   136372   118442    80005    36412     6813   -11394   -30553 
  -48176   -61604   -76127   -88308   -94381   -96411   -90952   -77733 
  -66474   -63404   -63853   -62820   -62980   -64714   -64453   -62337 
  -57983   -50345   -39977   -26391   -10728     5791    23174    37469 
   44595    44483    35060    14570   -10983   -33540   -49518   -58293 
  -61199   -60528   -56562   -49149   -41438   -35688   -31137   -28231 
  -27441   -27481   -26090   -21540   -15680   -11959   -11304   -13351 
  -18056   -24129   -29656   -33230   -32706   -26896   -16939    -4587 
    8226    20024    30249    37665    40678    38977    32310    20445 
    6640    -2563    -2970     4070    14840    27596    41789    55121 
   65388    74183    85928   101116   113926   121698   128119   134584 
  139739   143919   146361   144321   135855   119547    95764    67890 
   40629    18239      777   -14952   -30030   -44064   -56606   -66352 
  -71621   -69755   -56722   -29627     6218    35293    48319    52620 
   54920    51896    42385    28044     8453   -12534   -27830   -32857 
  -28561   -25100   -30368   -39441   -48097   -57211   -62766   -63151 
  -63795   -65923   -67832   -71577   -78881   -88846  -100876  -115018 
 -128771  -135426  -125532   -93163   -48253   -14519     -720     7230 
   13594    10781     5387     5734     9032    14542    23458    34844 
   48439    64233    82767   104175   126334   147013   166453   184801 
  197935   197957   175589   128308    70629    24360    -5127   -29733 
  -53230   -65273   -60944   -43074   -15199    14211    36973    54531 
   71352    87143    98778   103280    97351    76122    39879      270 
  -32171   -59220   -84599  -106519  -125362  -142846  -155147  -158815 
 -150070  -119011   -68571   -27638   -16200   -15939   -11281   -15739 
  -27415   -31199   -32433   -33679   -30059   -26545   -24919   -22086 
  -18362   -13041    -3083    12336    29099    43668    56947    66542 
   66787    56120    33756     -275   -37960   -68243   -88380  -103341 
 -115191  -120781  -119200  -108770   -82212   -40216     2565    35316 
   61932    86378   102049   108283   111076   104114    76401    29305 
  -18650   -48069   -64867   -83458  -100870  -113574  -124332  -128937 
 -122318  -102258   -66877   -25510     4139    19336    33466    49859 
   60693    66928    68289    55008    29205     8046      950      905 
    2839    12094    26310    37709    48070    59690    71437    83054 
   93279   102112   109313   110558   101324    82506    60664    41266 
   22755     3200   -13545   -25321   -31045   -26775   -14112     1189 
   18108    37709    56720    71853    86424   102070   115894   127656 
  135742   138734   139585   136397   121981    92938    53245    13811 
  -14952   -33303   -46653   -52825   -49300   -39037   -20584     4656 
   25606    35689    36070    27820    11862    -6370   -16830   -12672 
    3813    23202    38313    51826    67591    82054    93287   104788 
  116510   125232   130214   129712   119793    99800    72507    42244 
   14551    -8403   -27402   -40154   -45905   -48683   -49346   -44460 
  -31504   -13990    -2218      -78    -1563    -6489   -17852   -31010 
  -42714   -52625   -59196   -65072   -71787   -76337   -78084   -78813 
  -81159   -86331   -92508   -99238  -107389  -116162  -124938  -133554 
 -140454  -144899  -148527  -151299  -150306  -144767  -136672  -126481 
 -113179   -97472   -81575   -68370   -60926   -58785   -59158   -61117 
  -63450   -64089   -62131   -57396   -49848   -39901   -29214   -19669 
  -11900    -5884    -1652      808     2230     4369     8645    15180 
   23070    30770    38169    46846    56920    68067    81953    98980 
  116164   129674   136684   136321   130169   121949   115172   110126 
  106141   104103   102697    98097    90279    82879    77431    74209 
   73704    74360    76017    81109    87864    90726    86887    76405 
   61587    47850    37166    26530    16224     8024      935    -4824 
   -7776    -7908    -6772    -5262    -3075    -1927    -3979    -8625 
