Origin Time       2021/02/13 23:08:00
Lat.              37.7
Long.             141.8
Depth. (km)       60
Mag.              7.1
Station Code      MYG016
Station Lat.      38.0085
Station Long.     140.6210
Station Height(m) 50
Record Time       2021/02/13 23:08:08
Sampling Freq(Hz) 100Hz
Duration Time(s)  207
Dir.              N-S
Scale Factor      7845(gal)/8223790
Max. Acc. (gal)   343.013
Last Correction   2021/02/13 23:08:07
Memo.             
[...]
  -31114   -48753   -30277     5981    14817    -7728   -18283     5794 
   34285    37575    17300   -14685   -40699   -44230   -36903   -41817 
  -50826   -39505   -16586   -13590   -28313   -27272    -1734    18669 
   13763     5340    12812    15103     1478    -6899   -10837   -21307 
  -22230   -10137     -337     9744    15246    -1408   -21242   -21917 
  -21728   -15253    13910    19048   -16783   -34724   -24987   -18188 
   -8457     3820     4718    -2147    -9045   -10034    -5599    -4877 
  -11144   -11649     4438    17751    18323    21988    11222   -21091 
  -38269   -39610   -35683   -20090    -9254     1152    10581   -16443 
  -47594   -32526    -7704    -5852    -9323    -1023    20842    26725 
    1436   -10917     6054    13674     6069    14914    36410    27125 
  -10079   -20282    -6536   -12802   -25243   -17675    -3677    -1382 
  -19269   -46461   -50315   -20819     3912     1431    11693    41062 
   34564    -1451   -14528    -2222    17548    33200    26779      765 
  -18270   -18581   -18952   -32231   -36825   -17093     8440    19209 
    5157   -32066   -61542   -56162   -32258   -17649   -12723     7106 
   33639     9694   -53730   -73954   -41527    -6332    15530    28807 
   35760    37266    29694    10748   -19491   -44352   -26395    28570 
   57276    33319   -11862   -51160   -60043   -25120      468   -31314 
  -62229   -37817    -9594    -9968     5039    30977    21878     -949 
    -962     5424     6210    15592    22586       32   -27255   -17213 
    3055    -7071   -26536   -22003     3507    23144    21702    16158 
   10137    -3824     8650    36135    12803   -25820   -25300   -24702 
  -21849     4023     -807   -42684   -61165   -45847   -36686   -44751 
  -30184     8291    12233   -16476   -22393    -4217     6289      168 
  -17127   -31908   -25600    -7133   -11097   -27164   -13026    19194 
   36521    35421    16767    -2826     2002    22154    25909    -4540 
  -41743   -48419   -57079   -93776  -103216   -66565   -29747   -14631 
   -4926    25636    51926    28992    -1144     4036     4731    -4517 
    9244    24867    29069    35625    16808   -29103   -52587   -46894 
  -30615   -11115    -5822   -17061   -31558   -43690   -49759   -52795 
  -52924   -40535   -15699    13290    38423    51436    50537    47267 
   51208    52130    52326    61287    49189    18547    11831    -5657 
  -59510   -83632   -64667   -47401   -38847   -39695   -43829   -31071 
  -14287   -14751   -29220   -38003    -5274    58449    73727    23176 
  -28325   -49570   -33686    15795    46685    27855     2636    15546 
   24556   -26759   -66492   -28302     3410    -6025     6725    18578 
   -2457   -18616   -43798   -92434  -102550   -56548    -3007    38319 
   67972    67751    28752    -7180     -421    12359     8587    21844 
   23074   -18998   -36489   -22188   -55757   -95721   -52647    19565 
   46507    44512    27415    -5341   -23873   -14594    10926    52840 
   68941    14936   -28675     6539    42626    31064    18531    13394 
    6100    23583    45792    20306   -22122   -34041   -48374   -67398 
  -41291    -2737    -5077   -14712   -22222   -68415  -104515   -56088 
   25813    53098    24154   -13788   -38396   -48551   -16213    60933 
  102158    73776    36547    -3875   -63695   -84766   -53896   -29131 
  -37747   -66013   -70723   -44023   -44961   -71864   -70772   -58826 
  -60532   -55602   -43384   -17667    40487    88595    74159    30613 
   21887    54865    88550    88307    49462    -9930   -38107     2184 
   50631    35912    -9312   -25837   -19013   -18339   -18025   -14334 
  -36396   -54760    -9455    45160    35579     -421   -22462   -42283 
  -40566     3604    35113    10808   -21080   -22492   -11754    -7511 
  -29332   -74256   -93341   -62518   -12047    17242    11597     6635 
   31456    47802    28651     2980   -20576   -37500   -17177    11912 
   -1629   -20848   -11885   -22269   -58525   -63771   -35098   -15097 
  -16641   -36316   -67425   -69695   -22156    20757    19396      359 
   -2543    23286    56292    70594    74402    52605   -18048   -68246 
  -31201    15156     2315    -8837    -8546   -44830   -68604   -49626 
  -52347   -74162   -51044     1742    29164    30460    17290   -21459 
  -51417   -14970    47656    49115     1861   -18851    -2659     8178 
    7221    -2084   -38453   -54361    17814   108022   111478    59023 
   24626    16544     4402   -32505   -53798   -19687    17196    12536 
  -14963   -58552   -92022   -65126     1394    43606    47031    23514 
  -15566   -28876    -7177     1139     2736    18955     9936    -8780 
   -1120   -13367   -41098   -24966     9995    27814    40016    32208 
   -5051   -29289   -13194       -9   -31642   -69523   -70657   -54606 
  -48425   -52388   -47740   -25996    -3113    20420    45076    40918 
    7194   -10239     6872    27812    26720    13761     7673    10666 
   12056   -12361   -71477  -115533   -89737   -21514    20993    23087 
    8823   -13223   -21675    12239    51579    50996    31440    13039 
    -542     7279    24810    14750   -23773   -49859   -43395   -30127 
  -36304   -56169   -59020   -30867    -6875   -17323   -27325     7551 
   55185    58634    36170    32487    38722    31723    17213     8941 
    4648   -10288   -36846   -56459   -57442   -43001   -23094   -11986 
   -8206     1640     -360   -34389   -57846   -31777    -3825   -15103 
  -25659    -5513    16719     7101   -26046   -39561   -21632    -5690 
  -13528   -38804   -61423   -60926   -38880   -18756   -20332   -36564 
  -36855   -15934    -6037   -10781    -3704     8214    12025    35170 
   81325    98469    65989    15014   -34465   -59618   -31268    11718 
    6089   -22458   -19321    -2606    -6799   -18139   -21887   -17575 
    7163    29475    13428   -10247    -9355    -4199   -10150   -21505 
  -30091   -32629   -33490   -38612   -44587   -31137    -3958    -1537 
   -9787     8827    29974    32919    32418    25532    22881    37647 
   28302    -9070   -12680     1004   -19884   -35845   -19801   -10897 
  -21366   -37060   -37982    -7383    33253    51279    34915     3636 
   -2347    11002    12587    20547    41557    33416    -3076   -23835 
  -24274   -18739   -14474   -29567   -43313   -21743    -2511   -11406 
   -9717    14489    32479    14646   -31176   -53731   -49817   -54427 
  -45100    -5416    29284    50660    65769    56716    22894    -3312 
   -4001    -1884    -3045    19550    46838    27410   -39036  -100587 
 -107107   -62120   -12675     5880    -7187   -19689   -10604    -1618 
    6205    34676    50496    23176      409     7167     9072    13556 
   35905    26018   -37972   -83961   -60913   -25724   -24367   -18192 
   -5617   -20007   -31696   -20956   -18924   -26308   -19411   -12881 
  -35131   -60712   -51908   -32954   -25604    -9097    11634    16615 
   14688    19633    33099    45401    45304    32019     3389   -27869 
  -22505    17456    34192     7566   -29394   -51992   -54390   -57369 
  -81716   -86142   -40393     -199    -7635   -31904   -37782   -22723 
   -3500     4114     4812    13987    26526    18370   -14723   -48687 
  -62729   -48824   -14485     4650   -13062   -47240   -81599   -90598 
  -39609    23753    32933    18326     8700   -18616   -28771    26495 
   87609    86305    63801    67197    66330    31145    -4299    -4797 
  -12881   -48506   -42222     2776     6912   -15849   -22270   -33457 
  -34275     6941    30875   -10733   -56868   -53057   -24213    -5995 
   -7867   -11890    10543    49441    67451    41095   -22902   -65232 
  -39725    -1204    -7946   -26223   -24430   -17599   -11188   -20767 
  -60122   -79276   -46197   -15903   -18296   -15801     5173    24393 
   30096    18025    -7136   -29556   -33075    -5985    41130    70474 
   65962    46252    23939    15107    37894    61419    38588    -9471 
  -23260    -1815    16214    25523    21119    -7302   -18322     -367 
  -10768   -33732   -14837     5028   -11493   -24027    -2344    32194 
   35067     7851     -803     7350    -5937   -32107   -33475    -1857 
   27878    19286   -20325   -50422   -43121    -9996    12600    -5161 
  -56315   -92422   -84388   -55807   -22601    16279    30650     -394 
  -40034   -46734   -27001    -7678     2945     5251     6061    17201 
   25161    18254    12541    10239      210   -15998   -25173   -15172 
    6158    30457    55526    57271    23375   -11179   -12955     5454 
   14991     5575   -14644   -20277     1742    17427     3288     -321 
   33237    58552    43102    14196    -1023      529    -2938   -28004 
  -35422    -2124    29164    24991   -18952   -74610   -85746   -56259 
  -38249   -39638   -36780   -15774     3638   -12442   -37023   -25423 
   -3901    -4523   -17032   -40454   -70645   -82617   -71890   -56119 
  -51668   -63863   -80350   -85302   -72566   -44599   -17501   -12341 
  -32324   -53964   -50249   -27940   -11611    -5090    -6805   -22794 
  -47100   -62622   -56497   -28696      436     7242     -642    -7541 
  -23210   -35087    -9231    30465    41358    42773    50236    33808 
    3191      193     8178    -9423   -24796    -1324    27444    27808 
   27207    39187    47615    63159    78200    45411   -12020    -5265 
   50627    58464    24579    11701     9148    -1678   -12793   -29640 
  -33382    -2720    22378     9099    -9431   -11122   -19835   -32366 
  -17096    15318    34746    37660    14858   -32084   -47927   -14605 
   -5491   -45324   -63497   -34599     3360    27951    20127   -17768 
  -36313   -19940    -7435   -21726   -47976   -54657   -40446   -39897 
  -56065   -65479   -65460   -54959   -37860   -34200   -41677   -39479 
  -17170    27224    77539   109023   115528    93410    46360    13508 
   26690    59663    61811    20425   -36583   -77005   -79317   -43035 
    1891    16542    -3623   -21936   -25234   -40119   -56609   -37076 
    2296    25663    43033    64390    77739    88867    88668    49752 
    4851    -1440    -1653   -17613   -17162   -16578   -53703  -105209 
 -135576  -130846   -95446   -66046   -64281   -64781   -48655   -26743 
   -9335     -743    -2151    -7693   -12241      128    43695    86150 
   87111    58206    26254      839    -3640    17967    34939    20410 
   -1618     3331    18382    12675     1320    -2120   -16294   -29481 
  -24051   -27592   -39804   -19823    24159    46677    43006    32300 
    9675   -17193   -10331    35826    75446    64671    11820   -30234 
  -26688      315     2848   -33812   -78117   -94583   -71321   -16887 
   33565    43541    27702    16109     6960     6328    15637     8685 
   -8001   -20586   -48598   -68008   -36705    15018    50064    70815 
   55601   -12951   -77707   -84181   -70526   -77160   -74507   -56533 
  -53963   -54302   -36432   -22885   -34010   -47440   -50392   -70344 
  -95365   -83686   -60303   -59059   -58665   -50992   -42267   -16256 
   21666    37216    22053     7564    22086    52886    71423    72453 
   59205    34005     7375   -13107   -17151    -2138    -5047   -46021 
  -76314   -69738   -65253   -69010   -46348    -2704    27552    41628 
   60296    74008    68840    76439   102196    97825    65358    53971 
   68332    85982    88773    49651   -18276   -55066   -41947    -7161 
   27311    47198    42836    16457   -11496   -11875     9605    18030 
     837   -29812   -49905   -34302    11128    50079    56578    40500 
   21980    -7145   -42645   -35660    13520    34392    -5620   -82563 
 -142368  -132945   -83079   -60702   -82382  -129496  -165735  -169298 
 -166476  -175548  -179944  -171266  -159059  -149530  -142404  -137968 
 -132281  -117828   -93228   -68089   -58116   -64135   -67558   -52321 
  -14256    35166    66496    58189    24972     3416    10405    36189 
   74722   123728   162504   169950   155736   149843   158426   145922 
  100356    78494   110439   137700   115393    71756    38821    21529 
   14219    -4349   -39059   -62928   -66879   -61801   -53640   -49904 
  -49238   -46697   -53499   -75239  -102357  -114729   -80460     -369 
   79725   132964   165959   174568   140379    73791    30279    51881 
   94894    84546    47208    53075    71062    53260    32008    23986 
    6993    -3271    14361    22192   -20628   -80023   -95706   -62581 
  -13983     7472   -24660   -70433   -79918   -60899   -16744    50043 
   89931    86395    81625    90327    90586    69175    33235      464 
  -15101   -12075    -8133   -16560   -14665    15709    40447    31931 
   23060    33940    43116    50733    52552    28109     5440    20574 
   61098   104222   134909   143203   139581   147224   160813   138832 
   65456   -22150   -76076   -74271   -29293    15747     5462   -65267 
 -133967  -168130  -193016  -211221  -201505  -174538  -162633  -176508 
 -196929  -202392  -185473  -147259  -109578  -104718  -128196  -146554 
 -146124  -135109  -115528   -82524   -41747    -4661    28834    63204 
   85167    76164    49769    39393    46626    40653     5741   -38523 
  -62226   -64281   -76418  -113582  -153118  -175309  -181315  -186144 
 -202585  -211572  -189697  -148016   -99119   -39432    17081    38770 
   18288   -12326   -17258     -800     4429    -7966   -10368    17205 
   56485    62232    15904   -53152  -109638  -141475  -153076  -154583 
 -158147  -173404  -197864  -209277  -179413  -111235   -34091    44015 
  130219   206932   244624   241421   222160   204198   202375   245808 
  318833   352640   328939   284203   238312   205580   188816   154639 
   89615    29732    12440    45685   100762   125879   104831    67743 
   24590   -29268   -65672   -60673   -26103     3969     1973   -17238 
  -25887   -18571     2228    27884    48274    55001    41939    26369 
   30497    46577    61194    66158    38934   -12502   -35187   -19543 
   -9393   -19311   -35680   -60403   -92136  -111829  -106573   -81063 
  -50901   -34298   -46611   -84909  -117810  -123631  -120942  -125323 
 -122443  -104325   -74197   -34692    -4459     1197    -8210   -24151 
  -43213   -42649     3913    73553   113683   118849   103943    53750 
  -31878  -117549  -162346  -150568  -108934   -65418   -21562    12892 
   17400    -2925   -17386    -7445    11372    18311    20424    25687 
   23988    13647    -7975   -55135  -114037  -148529  -159038  -172639 
 -183301  -163040  -118698   -82231   -59570   -42307   -40767   -61443 
  -83775   -86746   -80006   -73224   -42349    15826    55070    46854 
    4533   -48127   -84095   -87076   -69579   -59992   -78525  -116803 
 -146993  -146153   -99076   -26038    12155     5582     9166    29400 
   26005     2890    -5409    15533    46961    52492    28101    11952 
   27905    59908    92007   122342   133361   110519    73926    54486 
   67019    99698   123715   138689   167154   195664   197282   182880 
  177920   185777   177142   142862   133938   163614   182088   182287 
  175162   140510    94149    72180    68837    67221    56670    43479 
   57952    76142    38349   -24930   -46462   -28671    12298    55150 
   43459   -24093   -94497  -148829  -173801  -153859  -116684   -98011 
 -106571  -134765  -160925  -154795  -106980   -46703     4553    56907 
   99863   103361    64611     5350   -45724   -69593   -78001   -98062 
 -130303  -153999  -165230  -165996  -155598  -153247  -171039  -182480 
 -150545   -65454    29000    64251    40987    11851   -16374   -45129 
  -45424   -15376    17628    27418     9212   -14928   -37181   -69372 
 -104827  -126173  -129828  -118779  -100165   -89694   -92979   -96295 
  -88971   -76747   -70767   -73629   -72931   -52899   -15697    20191 
   42229    53083    58185    56875    50294    40351    17423   -27515 
  -80925  -118508  -129181  -111416   -70997   -31544   -18523   -35911 
  -60146   -56300   -18017    30068    72549   104789   111095    90031 
   72409    73095    72767    65342    56830    35325     2062   -24556 
  -49291   -83471  -119079  -139945  -133258  -109229   -94976   -86032 
  -59459   -24629      911    19665    32656    34627    33745    49230 
   75992    92007   106054   128750   141265   144805   149669   134148 
   93279    54816    27002    -2417   -39762   -82675  -113042  -107028 
  -71054   -39880   -29527   -15620    23828    68956    90212    88804 
   87836   105001   132927   150056   141654    99181    44911    31922 
   60791    72526    42020    -5316   -35345   -26091     7091    17086 
  -13911   -39742    -9267    61210   120352   142501   119607    61920 
   14899    11709    26064    11221   -28085   -28043    34830    91149 
   95586    71080    25953   -22478   -27592     4148    22299    13373 
   -4006   -20445   -33166   -34303   -16360    15928    33905    16366 
    2016    28933    55124    38406     2257   -12432    14850    55885 
   58772    17338   -37667   -75428   -95064  -121495  -148289  -163210 
 -180239  -193560  -196816  -201749  -201691  -187645  -163674  -135194 
 -118404  -122008  -125401  -114338  -101175   -97248   -97218   -88018 
  -71182   -66503   -77836   -82345   -67069   -47368   -40585   -43016 
  -41690   -40251   -58000   -93322  -112965   -98200   -70015   -57327 
  -67254   -83056   -81999   -56204   -15184    28987    78190   133745 
  178656   197837   186313   144313    90825    53169    32660    11589 
   -8040   -12881    -7388     4564    27535    45860    37288    13155 
    5532    30542    77909   115981   123854   120351   128116   136161 
  122493    86611    54793    47673    52618    52585    47953    53523 
   80312    98671    84229    63265    52126    49890    57739    47588 
   12326     2454    29921    50463    44728    10827   -39199   -56434 
  -34538   -31699   -66988   -99746  -102795   -90864   -79948   -66366 
  -59366   -71901   -87243   -83706   -63759   -47085   -47367   -56837 
  -64415   -72057   -77325   -71809   -60982   -55648   -58992   -66610 
  -62114   -37566   -11785    -2740    -9327   -23923   -39326   -54425 
  -72650   -85444   -81733   -64415   -28614    29862    77049    80435 
   56254    32489    24479    42853    73789    91700    90061    63495 
   14841   -23279   -32624   -32282   -39037   -46683   -34339     -764 
   19101    13559     5432    -8749   -38634   -65709   -80195   -87386 
  -88331   -84481   -73433   -52203   -37049   -49160   -78622   -98510 
 -105008  -104569   -89920   -60621   -31828   -13324    -7306   -13610 
  -23233   -23241   -11754      379     3603    -2947   -16939   -37871 
  -61851   -75725   -74119   -62502   -38664   -10214      741    -6655 
  -14019   -10940     1418    13358    13840     7225    13321    40980 
   69962    75386    60700    40535    19282    13451    38862    71014 
   79770    71280    60934    54460    52837    41422     5271   -37712 
  -58040   -53029   -39199   -30676   -31244   -33597   -28240   -14998 
   -2465     2905     8158    27814    58310    79585    83300    73585 
   61334    66640    91139   111667   125489   143588   139649    84618 
   13817   -16093    -8942    -1610     2365     8770    10419    14293 
   17925     4228   -18478   -30190   -21381      471     9240    -2922 
  -13431    -7238    11198    32090    50475    72057    91403    79686 
   32435   -12818   -30427   -21787     8282    42145    54679    44780 
   26812    10293     8752    22800    25153    12253    14274    34603 
