Origin Time       2021/02/13 23:08:00
Lat.              37.7
Long.             141.8
Depth. (km)       60
Mag.              7.1
Station Code      MYG012
Station Lat.      38.3288
Station Long.     141.0128
Station Height(m) 75
Record Time       2021/02/13 23:08:07
Sampling Freq(Hz) 100Hz
Duration Time(s)  165
Dir.              N-S
Scale Factor      7845(gal)/8223790
Max. Acc. (gal)   265.289
Last Correction   2021/02/13 23:08:07
Memo.             
[...]
    1166   -21146    -6674    27427    25054    -8059   -19931    -1578 
   19807    31681    15394   -23654   -34021   -22585   -17325     1507 
   11296    -3943    -1123    13466     9225     2323     3601     2639 
    2161     1615    -5116    -2120     6928      344   -12841   -27834 
  -30450    -1998    20926    14916    -3693   -21921   -18166     6455 
   22800    19495     8426     1792    -3528    -2963     1169    -6644 
   -6006     8133     4522    -3531     2466      963   -11017   -23198 
  -30154   -10631    25975    35974    22594    12788     -691   -10785 
    8577    35837    35968    21586     3927   -19853   -28768   -24644 
  -20879    -3508     3717   -18762   -23947    -1086    12648    10743 
   -6129   -25554    -7122    31172    30045     6138     -832    -5013 
   -3483    22804    40829    23905    -2328   -24925   -43391   -38047 
  -10501     9805     7658      594      477    -5833    -4401    15095 
   15682    -6215   -11124      213      124    -9926   -15242   -10401 
    -787    -4232   -20160   -17012    13300    28856    15574    10855 
   10941    -5130    -6740    19585    39179    29228     1791   -21695 
  -28741   -17867    -4218     7892    23093    15286   -16498   -26111 
   -8320     7852    15363     8191   -13028   -19349     3271    31093 
   35753     8118   -24690   -19759     7263    21517    39650    49689 
   26585      811   -12673     -255    44209    50009    -3491   -41582 
  -44577   -48003   -48992   -30669    -8577     6320    25008    36760 
   20861    -4662    -7306     7240    13844     5394   -15970   -31665 
  -17529     7051    11130     1425    -3213     1240     2776     5348 
   25073    30855     6021    -7615   -11387   -13134    13725    33251 
   13051    -9273   -18428   -23095   -14836     -234       56      201 
   22172    35928    12313   -22179   -35316   -30935   -22557   -17828 
  -17967     1664    34726    38268    20826    -3149   -24543    -6552 
   31700    40540    15518   -22951   -41099   -21412     3580      637 
  -12044    -9038      602    -4369   -28050   -33033     6080    41958 
   33513     6432    -6713     -182    23213    34400     3605   -27662 
  -18571    -3993    -5247    -5526   -10411   -16195     8772    47029 
   47960    25837    16371    12174     9049     8394    -1944   -15184 
  -20671   -34213   -53312   -47765   -16815    17230    31945     5011 
  -35641   -25338    31471    66064    42595   -14362   -59278   -68812 
  -41991     4826    29803    15329     -557     6563    10759     6606 
   17811    36317    48504    37474   -18904   -74532   -62494     2037 
   38470    12073   -16987   -15529   -12596   -11844   -10751   -18484 
  -21627   -10447    -5562   -11488    -9073    -2677     7670    21122 
    6700   -19830   -11199    16409    26809    24572    13039    -8864 
   -9229    16557    32027    38789    42402    10042   -44514   -54922 
  -28196    -5269    35347    56184     5536   -33581   -12943     5741 
   -2184    -5451    20497    45057    24841   -18688   -40456   -18596 
   30991    50778    12190   -42210   -53821   -18719    23394    47696 
   39652    22921    42103    48049     8094   -15398   -25018   -36458 
  -14922     9656     2560    -6851     4783    30707    44016    23318 
  -14886   -28741    -7437     2648   -25513   -49241   -31122     -765 
    2031    -7260    -6022       58     2411   -15952   -38574   -24220 
    8831    45222    86853    79880    14898   -35937   -41908   -29145 
  -19167   -12320      -66    21413    47727    57859    29050   -16842 
  -34005   -16017    11283    18234   -14439   -60613   -61095    -6705 
   45042    55223    29381    -8374   -14516     7369     6805   -11943 
  -23199   -10898    21154    14297   -20108   -18162    -5767    -9142 
  -17482   -33370   -39191   -18157    11113    19379     7948    -4564 
   -4855    27556    63595    48717     1341   -37831   -45322   -18214 
    5038    18106    29681    10979   -14766   -10732    -1610     8946 
   38295    65227    52870     5395   -31727   -38462   -19202     2566 
  -16498   -52218   -49206   -19761    11880    38296    45561    34175 
    6686   -19310   -10180     9644     2361   -10534   -18374   -32046 
  -26958     3939    26090    31855    18006   -11900    -4530    27549 
   21331     2578      286     5323    10588   -13741   -29936    15515 
   53928    47638    31614    -7915   -44741   -21533    20729    35656 
   34885    16571    -7183    -3578     5090   -28750   -77071   -76026 
  -26250    38360    74860    47054   -10156   -48616   -55112   -19939 
   28669    35176    -4379   -40213   -45330   -33251    -8391    22370 
   24259   -14507   -32298    13417    61514    68607    52736    16167 
  -14778    -7794     -658   -13309   -16187   -29451   -44741   -12749 
    5933   -18864   -24777   -25651   -11395    39777    42786     6431 
   17571    34928     8930   -18084   -14288    11568    39478    39823 
    3083   -24532   -18341   -19083   -27117   -26118   -44964   -52276 
   -1324    49504    49827    30439     5520   -27220   -29849     3473 
   26979    33640    35549    27346    12312    -4464   -21145   -41324 
  -49320   -15932    31637    49351    37497     8596   -12974     6390 
   42672    28761   -22599   -35279    -1904    26866    24823    11610 
    3150   -13626   -17730      299     4504     8017    15192      854 
    2528    22345     8446   -18619   -19291    -4093    -1950   -18002 
  -13244    12870    22716    20783     3636   -22797   -21396    -5744 
    1669     1131   -10409   -18234   -24136   -31371   -22154    -3643 
   22275    45297    34605     3631   -26754   -46129   -28559    20854 
   61288    62860    29575    -4946   -16846   -19986   -24926   -19353 
    -818    14116     9961     8036     8345   -26171   -45095    -6316 
   29536    38730    19026   -26030   -40485   -24133   -13996     2064 
   23043    21154    -1445   -15952   -18029   -23689   -30163   -29394 
   -5772    35546    43611    16299   -16479   -46782   -32686    23333 
   55838    49198    13474   -22087   -16525     9525    18700    14931 
   14809    16119    14419    11958      -20    -8131    -5994   -20348 
  -37501   -41210   -33019      954    38254    60158    63814    26501 
  -21012   -40451   -51063   -44633    -4807    31206    38523    26118 
   -2245   -23503     2729    46850    38630    10112    14164     9019 
  -10212    -8109    -7366   -15916   -12322    -7163   -18526   -32721 
  -22435    -1335     -749    -2363     4159    -5613   -10365     6069 
    7614   -10652   -23168    -4645    44487    59819    20615    -9953 
  -21713   -39056   -34171     3666    35926    42184    28150     1524 
  -13435     1405    14963     2170   -13543   -28506   -43738   -17167 
   43303    69373    45459    13999    -1678   -26858   -49539   -11361 
   45937    55008    41655     9946   -33431   -36640   -17571   -12303 
   -9532   -13528   -34371   -53258   -33625    12718    17080    -9957 
  -11361    -9644    -6430    12537    -7848   -54245   -62086   -46008 
  -25266    -5383    -5941    -7527    14123    37845    53574    73595 
   58899    -4722   -31488    -8093     4029    20510    23357   -23704 
  -36046    11859    34962    36165    45408    17139   -31904   -31213 
   -3635    28312    79856    89791    29841   -35618   -61696   -29208 
   30730    36620   -21876   -84100   -92314   -19997    70673    94252 
   63382    25752    11419    32240    40522    10434    -9937    -8422 
     503    33920    51941     4556   -46072   -57381   -48887    10648 
   85001    80346    28448   -24910   -63279   -32822    16537     4463 
  -32059   -67215   -96927   -89155   -56597   -22114    16044    35650 
   23087     6189    -4635   -24777   -32043    -1464    28443    24559 
    7383   -17587   -53044   -56718   -25404    -9734     2760    14847 
  -19710   -57048   -41104     8006    71694   104485    65214    -4025 
  -48046   -39405     7047    30396     6083   -45420   -90922   -52758 
   86680   180069   143991    57928   -46083  -117990   -72044     4904 
   33091    53671    43056    11269     8333   -24520   -78352   -66943 
  -25721    16791    77398    86671    46326    43006    51125    22578 
  -14098   -33064   -41901   -44126   -22410     4576     1823    -4962 
   -1844   -21478   -44286   -20988    29174    56520    63522    69620 
   50664      949   -36027   -58730   -80065   -63482   -16727     4145 
    5841    30956    62379    55316    23545     -417   -21984   -31781 
    5325    69824    82378    15936   -65607  -104026  -100145   -71011 
  -16861    44749    64087    34090     9563    31864    65607    29610 
  -61276  -108425   -82744   -18119    32495    25582   -11024   -36269 
  -41193   -10747    28883    16266   -33783   -48768    -9686    33727 
   37925    21691    14771     6504     3786    32564    74175    79284 
   22686   -43541   -52845   -28520    -6627    -4704   -51217   -89232 
  -54976   -13181   -11853   -16823    -6183    38750   107977   138838 
  100310    27055   -25564   -22981    35033    73388    10019   -78424 
  -89658   -65362   -40618   -16236   -23919    -8550    76246   123504 
   89730    63887    67979    50710    -9288   -81116  -128694  -135055 
  -80912       64    46556    56003    35988     7446    17651    42072 
   12550   -34524   -19641     8212     2111    20169    40956    25173 
   29709    34060    -6826   -24304    15430    72455   108556    80546 
   -2683   -95396  -173317  -177715   -98103   -30715    -1800    26914 
   40365    34175    25123    11637    -7952   -49742   -97949   -89700 
  -34596    10635    43576    55738    25891     1813    27387    52500 
   45111    38626    14808   -34723   -39816    -2988    20360    35162 
   23082   -11780     6994    48139    44990    35981    19693    -9528 
   -3057     -318   -36911   -66931   -79610   -64478    -7703    37685 
   32570    -2091   -42400   -55096    -9967    50940    87173   109489 
   87088    23819     8656    55821    98116   101547    58603   -33836 
 -123838  -155240  -153198  -119659   -43768   -13803   -37080   -17149 
     507   -36024   -37725    -4283    -4623    -8295     1048   -15747 
  -48382   -35876    37559    94072    84717    51768    17227   -28129 
  -53985   -25535    26546    59657    75460    57454     1856   -38137 
  -34364    13603    83427   106182    52396   -40325  -111312   -94541 
   -7462    42866    21259    -1780      599   -12233   -20324      292 
    6470     9848    42396    84256   103500    59123   -19095   -60529 
  -64184   -20841    54718    60831    -7287   -57858   -89580   -98617 
  -43896    11601    31672    61928    83512    71096    18027   -83577 
 -147599  -100310    -5810    71470   106370    59842   -14256   -13702 
   33913    45511     8490   -40182   -61821   -53554   -24618    11499 
   10446   -16397    -2776    38391    56497    44539    15431    -5668 
  -12136   -10740     1042    -5763   -40009   -57356   -61447   -81846 
  -95486   -76504   -33439    -9011   -24710   -35306   -26565    -3917 
   62746   132999   140949    96169     9165   -81336   -87755   -31627 
    2716    20340    23160    -8190   -30222   -18814     8976    41754 
   66681    81738    65218    13450   -14304    -5934    19680    69916 
   95886    57802     9540     -951    16235    21728    -6543   -26769 
    2928    44689    48493    34782    30879    19992     6161     2436 
  -18909   -58405   -68195   -34148     1260     6855     2324    -6216 
  -29616   -44787   -47763   -39139     1593    39727    35739     -113 
  -45978   -56274   -12565    38229    60485    48054     6909   -38087 
  -61030   -46560    -2396    33716    34591    15858     8324    16900 
   25926     8707   -50715  -104851  -101926   -63161   -22754     3057 
    1406   -10733    -9262    -7863   -25443   -43382   -41416   -25714 
    1144    21316     4191   -19454     4299    48604    47102    -4317 
  -78007  -134796  -105671   -20645    17656    16816    21871    32111 
   57655    94247   112884   115836   117443   100059    55116     1067 
  -45711   -52056     1607    57483    60339    35529    15871    21803 
   70078   110937    92146    53358    49667    76015    85148    47556 
    6849      873    12933    40051    28972   -68104  -144875  -125425 
  -67451   -32737   -53285   -93056   -94120   -72549   -56150   -61724 
 -100006  -127109  -107065   -76551   -57149   -19039    23982    41769 
   55304    55341     8232   -58760   -92951   -89799   -90016   -88042 
  -49790    -3547    32405    77382   142252   226137   277596   268081 
  237760   194567   158407   167888   168220   121431    84630    70788 
   55701    43599     6679   -77276  -156286  -199069  -238689  -272269 
 -264691  -225687  -187513  -169678  -170843  -168984  -150192  -108562 
  -56918   -42084   -61654   -73585  -102057  -146344  -134923   -80603 
  -27396    59678   152076   172778   158090   160078   158863   135565 
   78268      567   -36686    -5520    67782   151703   191407   121424 
  -32823  -153374  -154230   -51453    80295   182055   226411   200662 
  110505     2728   -36570    25991   107709   119292    91404    84613 
   66484    25355    -4483   -62033  -149713  -199184  -219499  -221764 
 -158854   -59283    -3780    20730    73330   124015   127889   115924 
  106398    85622    54206    24867    31530    74671   102498   110967 
  127245   134707   124514   111230    82830    45235    45229    68172 
   47243   -10204   -64628  -119184  -167926  -196900  -196905  -147027 
  -66131   -36747  -113071  -224741  -277371  -267456  -190756   -72164 
  -14596   -21552   -29203   -33594     5143    96815   126482    48134 
  -71679  -170765  -172600   -64882    60392   147980   161185    77259 
  -16036   -26451    26153    60023    50656    74781   168829   257195 
  275279   234362   143068    11704   -71493   -74834   -77778  -101309 
 -118671  -131992  -161397  -204287  -201565  -131836   -15514   120019 
  172308    99021   -18898  -120853  -134256   -37179    55202    99077 
  115002    65101     9458    42769   100205   130277   159619   115776 
  -14119   -81326   -69780   -56176   -19001    -4537   -60681   -68974 
    7817    51390    17151   -54993  -112584   -97744   -18354    38294 
   28453     1093   -11095    -1715    53033   124467   163343   146086 
   50078   -59675   -92561   -76771   -43553     5204    28966    22917 
   -1181   -19977    21591    72214    33912   -66853  -132634   -94832 
   15199   110995   156050   124482    41207    18004    82389   145484 
  135826    51426   -39891   -75022   -90998  -137523  -186285  -223173 
 -246636  -214694  -144228   -91166   -59144   -59503   -86003   -65896 
   -4872    12429    15882    65777   100620    89899    69867    27954 
  -20935   -31245   -18497     4429    38218    28462   -35679   -50719 
   17070    73801    90432    92551    64362    12653   -50164   -87604 
   -8791   144220   227119   214637   129500     7605   -31121    34241 
   79714    61091    30619    39220    92094   107539    43866   -42187 
 -132275  -212974  -232120  -189996  -121729   -56747   -21411    -7468 
    8402    13537    -5085   -13055     5208    12486    19215    55516 
   69256    50561    64971    78070    24366   -57211  -113437  -118671 
  -64007     5412    43399    43077     4893   -25631     5232    39694 
    -950   -75375   -98629   -35675    82568   156737   124753    24939 
  -90003  -154921  -112725   -21215    28659    22397   -30703  -112816 
 -162954  -114180     7704    85415    61298   -17297   -81793   -56393 
   78765   199590   219364   190038   108330   -11496   -45531    -2099 
   18130    23178    24498   -12897   -62846   -72320   -65568   -73916 
  -61442   -49226   -72061   -45582    36236    68110    64866    60574 
    4271   -85487  -124943   -75702    21182    73850    47846     7677 
   18068    64316    81464    38892   -26828   -70660   -57076    15619 
   44778   -17420   -66171   -56632     -729   107246   175609   133411 
   55024    13988    23234    51579    38047   -24274   -92389  -114309 
  -56355    31974    67092    22747   -58005   -90883   -38371    50471 
  123712   158152   117532    31058      363    10246   -26331   -80484 
  -93625   -99000  -128182  -130858   -91072   -63324   -42345   -18260 
  -15410    22428    91118    69641   -11740   -15641    54247   108406 
  104349    54939    -3603   -28772    13791    94386   131602    77830 
  -37284  -109686   -87104   -50895   -46712   -44695   -53206   -44136 
   17842    66451    54800     8698   -25348    -4283    26063     1208 
  -30562   -43046   -69151   -54722    13697     9292   -75764   -93129 
  -29689    22604    65627   104276    98131    52740     5200    -9163 
   11365    33980    46989    43486     5076   -56398   -75717    -8576 
   55941    37548    15966    26979    18943    28541    77346    86672 
    1364  -125193  -149844   -39433    81490   159594   179489    75550 
  -98533  -176720  -108881   -40996   -77043  -101073   -33706    22191 
   21709    23191     5769   -53561   -61751    12960    94169   141467 
  142427    86228    -2135   -63795   -62649   -25637     5136     7445 
   -7435    -5590     3500   -26299   -97722  -146812  -126720   -66221 
  -19450   -19063   -41237   -41010   -29253    -5080    61317   137011 
  178511   188434   153949    63564   -22621   -50550   -66073   -97272 
  -83018   -20125    34303    74534    77471    19315   -36796   -67957 
 -108487  -121554   -68571    24591   127843   196258   172631    62104 
  -61561  -102390   -19313    82740    57659   -59435  -103979   -36072 
   27542    10588   -55255  -118486  -130037   -62316    24486    52254 
   41227    26492     9281    22912    52273    51077    34580   -17710 
 -101029  -101760    -8592    62830    69543    38763    -5436   -23488 
    9729    51532    59184    54545    40544   -11477   -40572    25810 
  106293   108541    67342     1266   -87284  -104865   -29172    38634 
   73296    63845   -53442  -185792  -183990   -97532   -28092     6752 
    2713   -16772   -29933   -43464   -26935    14623    30157    29114 
   34865    48255    49373    -2134   -65576   -53364    14688    66298 
   94085    86568    10201   -65858   -31045    72018   114361    91872 
   73396    60936    41439     9493   -53028  -109340  -106547   -47393 
   41010    73572    -3603   -76605   -71336   -37879    18474    64800 
   39347    -7011   -29388   -37420    -8766    21089     3385    -1325 
   35155    54054    23853   -67734  -187574  -216660  -124923   -21080 
   30659    33949    19116    29425    51962    58800    60100    67304 
   76698    91239   137182   190063   164516    45771   -81325  -117806 
  -52567    17555    30848    13836   -31742   -84214   -42643    70591 
  113015    74781    20537   -35513   -65190   -45292      911    21284 
   -9337   -26731     2228     6901   -21493   -35388   -53393   -73701 
  -64467   -56184   -45080     6531    43733    31953    13752   -13578 
  -57925   -81531   -79026   -89896  -111541   -98163   -55293     1278 
   84402   143062   114759    42240    14763    57726   118401   136665 
   88107    -7739   -58774   -17513     6928   -40311   -87332  -129621 
 -147607   -69414    30666    41590   -17302   -80973   -74497    10640 
   65007    66083    77866    66160    20972     5813     5996    12885 
   67212   113911    85679    28393   -29886  -119398  -200145  -207338 
