Origin Time       2021/02/13 23:08:00
Lat.              37.7
Long.             141.8
Depth. (km)       60
Mag.              7.1
Station Code      MYG015
Station Lat.      38.1049
Station Long.     140.8699
Station Height(m) 3
Record Time       2021/02/13 23:08:07
Sampling Freq(Hz) 100Hz
Duration Time(s)  300
Dir.              U-D
Scale Factor      7845(gal)/8223790
Max. Acc. (gal)   151.682
Last Correction   2021/02/13 23:08:06
Memo.             
[...]
  -13401    -8776   -10706   -11248     3940     2821   -29600   -40302 
  -14218      -70    -7781   -10606    -5852    -3138   -12987   -26230 
   -8737    17865     2173   -33118   -46053   -28398    12231    33655 
   16985      325    -9401   -22380   -16420    -6234   -23712   -39117 
  -30493   -13385     8640    11890   -17828   -39745   -32921   -15419 
   -7450   -19332   -28591   -12036     4430    -7877   -19510    -4996 
    1833    -6866    -5078    -1420    -3383    -4384    -2759     2180 
   -5001   -21583   -15888     1468    -9036   -31275   -28058   -14060 
   -3766    14736    31415    27442    -5185   -50070   -59548   -24108 
   10963    17406     1911   -14878   -16552   -14098   -19905   -10783 
   14767    11385   -15997   -25142   -16228     5620    17417   -14080 
  -44919   -36834   -23712   -11443     5664    -6042   -33083   -32121 
  -22119   -19784    -7398    -1644   -20250   -34511   -27986   -20020 
  -10296     -371   -16044   -29957    -8581    13444    14000    -5200 
  -31132   -28555   -15793   -23228   -25222    -7649    26361    47470 
    5989   -48460   -40504   -14447   -19210   -35349   -44736   -28432 
    5732    12553    -2266    -6660   -12923   -28258   -36687   -32555 
   -9261    19701    20231     8789    16748    19712    -2465   -31629 
  -49366   -45658   -27627   -18995   -25763   -24690    -5007     6000 
   -8149   -23453   -20636   -16090   -23955   -22300    -2563     6130 
     369     3778    11271     7072    -3198   -18670   -32836   -24980 
  -13969    -8054    23214    35410   -21138   -72172   -49041     8349 
   34469     4877   -46457   -60627   -32474      375    12534    -1501 
  -19606   -26002   -24614    -4180    19876    17543     6041     3893 
    6627    11022    12598     2902   -21714   -46025   -54186   -42866 
  -24551   -28732   -42007   -24943    -3230   -18589   -43934   -36387 
  -12039     2042    19588    36676    29231     2701   -21949   -22225 
  -12071   -17500    -8842     9427   -10218   -48632   -61654   -42799 
  -17282    -3136    12264    22018    13265    -9132   -43995   -55752 
  -16548    21595    10007   -26266   -42307   -32609   -20545   -27398 
  -60590   -84626   -52481     4459    25070    21093    22869    19765 
   10026     8950    15101     7693   -27203   -55929   -37655     6940 
   30302    12469   -24158   -34938   -12949     1192   -10557   -20896 
  -19018    -9163    16318    34182    23564     9726      670   -18430 
  -41909   -48438   -20756     7334   -11049   -34199   -17350     8160 
   24051    23272    -4986   -26608   -24351   -17517    -2328    21798 
   47846    61854    29862   -12885    -3674     8452   -27116   -54164 
  -42456   -41280   -54878   -37392    -8114   -15662   -38821   -33610 
  -12166    -7662   -18085   -30701   -34554   -21744   -13252   -15533 
  -10720    -6932    -8259    -7445   -16777   -29124   -17776    11111 
   27109     5498   -49206   -88192   -70964   -18773    24861    39302 
   15660   -31425   -56088   -44853   -36161   -41251   -18443    40331 
   61649    -2286   -72685   -61668    -9009    13057     8121      580 
   -2257     -773    -6443    -1507    21972    10573   -32277   -44952 
  -29859   -18077   -16686   -13745    -1919   -10297   -38769   -45719 
  -35329   -27414   -20224   -20806   -28551   -36799   -34893    -1154 
   41447    43241    19403    11223     9942    10331    26406    26412 
   -2058    -6837     4280   -13819   -22897    -5274   -12306   -32012 
  -26917   -27324   -51363   -57487   -35309   -28152   -29297    -2037 
   14832   -15961   -51081   -55772   -41858   -34564   -48662   -49646 
  -11630    23932    23815     7690     8893    20437    28872    56115 
   69029    23845   -16823    -3086    20044     6323   -46411   -98698 
  -99906   -61815   -37866   -38489   -33309    -2546    19849    -9174 
  -45484   -30613     5903    12143   -13051   -33596   -31094   -16960 
      78    13644    20669    28165    35140    16074   -29513   -29554 
   24046    33442     4704    10606    22349     8718    -9830   -24754 
  -27363    -7458    18215     9204   -34786   -56050   -36981   -19716 
  -38916   -85395   -99523   -61489   -21238    15017    55344    60469 
   27888    -4531   -14135    -9146   -30273   -70158   -61890    -1439 
   45037    42645    14983   -11782   -35915   -44277   -23993     5094 
   17509     9055     4012    12158     7352   -12069   -41671   -58876 
   -4365    58202    21841   -40385   -42765   -27866   -28652   -32312 
  -21733     7501    18050    -9234   -28903   -27739   -26997    -5449 
   14426   -11761   -25949    -5780    -5898    -5400     4364   -29019 
  -79286   -85176   -46804    12695    55223    34558   -18954   -26451 
    3874    14854    11188     1418   -32223   -61441   -61676   -52091 
  -23157    10760    -4199   -24663     1067     2978   -44023   -62085 
  -39117   -25320   -15183     5161     6909    -7199    -8985    -2276 
    1219     -712   -13119   -36880   -51807   -29277     6081     9524 
   12302    22937    -5402   -30861   -10012    12305     8977   -14422 
  -21934    18291    55071    48668    26439     5297    -8051    -7515 
   -5948   -15174   -17440    -1421     1395   -11051   -12530   -12582 
  -13234    -7560    -7366   -14319   -27176   -38469   -28768    -6300 
    3761    -2883   -12120    -4788    17786    23078    11372    24034 
   31891   -20046   -73946   -54375     -498     3538   -44209   -66965 
  -37561    -7898   -12937   -37211   -48070   -40671   -29215    -1637 
   18284   -14307   -45908   -31816   -21022   -19159    -2803    12448 
   33399    47625    17643   -21779   -38739   -58024   -67987   -43143 
    1410    39827    39560   -14349   -71312   -71890   -42385   -32918 
  -33191   -26913    -2236    35608    41494    20808     1995   -30126 
  -63063   -52282     -645    27367     9562      265     9828     7146 
   -5165   -19363   -18617    -1228   -24584   -70556   -53763   -23934 
  -38854   -29901     7483    21313    30771    43263    15049   -47676 
  -61207   -11713    14785     4241     1576    15403    33228    19674 
  -15681   -18967    -1629    12270    17513    -2398   -23599   -34010 
  -63211   -77895   -32537    18127    15225    -7211   -10686   -13865 
  -25699   -28331   -24015   -16055     8174    23687   -13645   -62765 
  -52729   -31043   -60497   -75682   -26738    23144    36740    45231 
   48614    29444    14083    10825    -8380   -32826   -31477     4900 
   50072    36525   -31926   -53391    -6982    25934    13508   -13473 
  -38303   -59328   -64017   -41735    -4824     9815   -13320   -44335 
  -65592   -65838   -23934    31207    53293    30836   -24590   -62260 
  -48269   -34256   -57978   -74540   -59576   -49968   -58118   -57148 
  -41131   -19745     4907    14165     1809     1867    19360    15152 
  -17957   -38134   -16229    18137     3851   -53906   -60922       76 
   34392    26002    15348    -5591   -13853     4349    11803    20085 
   29235     2528   -33073   -52213   -74520   -82705   -50056     2820 
   46749    64255    55522    46813    32707    -3835   -14570    15034 
   15977   -11138     4492    46237    46165    31959    54128    60831 
   10216   -47119   -65665   -54103   -37895   -15373     6199   -21613 
  -82348   -92514   -39509    19272    31710    -7491   -51937   -77476 
  -82640   -45048      463   -11233   -35478   -10223    12626    -6300 
  -26897   -28950   -13432    22584    46863    29290     9193    23014 
   36058    26716     8712   -15565   -28080   -19473   -17338   -26751 
  -32331   -34103   -26080   -11176   -12711   -14122     8332    21886 
   11880    -5429   -24059   -20420   -18341   -62487   -77502   -16205 
   28518    14754   -16078   -37076   -34115   -11948      -89   -30784 
  -83929   -89545   -54519   -40549   -30532     1387    19795    19487 
   18673   -11194   -60646   -62792   -33988   -15743    16996    30874 
  -12349   -45617   -40232   -26385    -6489     4415     1471     -542 
  -21344   -54614   -61908   -56890   -49771    -4901    51881    51629 
   17423    11677    28665    42746    41789    10141   -39224   -66488 
  -49358     1876    47345    50211    19410    -5703     1649    29542 
   31438    -5370   -32026   -30283   -23827   -11304     3522      668 
  -31974   -81599   -92512   -51829   -22735   -34591   -41758   -11097 
   22281    36504    43623    30527     -279   -17582     4352    55725 
   65545       89   -72355   -83115   -45100   -19496   -22906   -30875 
  -46336   -53059   -25431    -1183    -5443   -15201    -2820    34807 
   38664    -6073   -26738    -9520    13154    28320    11267   -33698 
  -53221   -28395    -4117    -2936     4702    25712    44127    51327 
   36759    19029    14800     -442   -20339   -27996   -46408   -57715 
  -25951    -2625   -45735  -107187  -108120   -47252     9462    11199 
  -27446   -43989    14319    87376    61020   -13517   -21492    12448 
   46001    65078    31492   -31518   -68392   -75884   -77333   -89086 
  -94018   -58506    -3150    13167    -4093      832    29092    35804 
   15618     5120     4546    -2509     3642    10748   -11546   -39796 
  -41809   -20835    -7388    -6103    -5050   -40572   -85081   -50681 
    2880   -16024   -49877   -38546     1406    41176    46753    18099 
    1144     1695   -13640   -35239   -35849   -30739   -20129    14797 
   16148   -49180   -85212   -46834    -5895    -7215   -35538   -56177 
  -55175   -36798     3280    23148   -24556   -91898   -97441   -37662 
   -2423   -26434   -28981    -8016   -19553   -14459    36340    72631 
   73629    46600   -14388   -74907  -102910  -108904   -81805   -14332 
   43941    53798    35086    13662     1931    23553    45439      344 
  -56767   -50156   -30361   -31814   -25691   -14114     2705    30056 
   36757    20158    13115     5489   -18355   -38491   -41821   -31955 
  -28278   -34655   -22014    -6334   -32266   -62262   -33493    13475 
   11111   -21398   -44490   -51382   -50440   -53870   -42738    -4287 
   22133    13085   -11223   -22226    -5988    15880    23048    26227 
   26708    21832    26210    39316    50387    50695    18674   -31828 
  -45512   -14397    16073     7057   -33493   -43195     6448    44338 
   14625   -23006   -14553    -4295   -16613    -8649    24507    36170 
   11703   -18080   -27388   -11777    15666    23313     3954   -12594 
  -12534     2251    17755     1046   -33336   -27224    10253    13504 
   -9391    -1293    24777    33955    20937   -14461   -36165   -28425 
  -22553   -12488    -3894   -25984   -58653   -80455   -88804   -79683 
  -62860   -40572    -9490    21247    31698     7778   -28611   -52496 
  -54799   -25601    14995    31896    18222    -7049   -25718   -49941 
  -69971   -49939   -30210   -44196   -36217    -5919     5865    17614 
   21308    -1147   -11233   -10929   -26732   -34858   -36933   -40150 
  -11830    19244    -2474   -44612   -51555   -18014    31689    56258 
   17649   -58318   -93567   -79787   -65111   -56282   -65371   -89303 
  -71757   -20617     -672   -16645   -24187    -6847    11882    23391 
   30318    21289     4762    -1873    16684    58550    66923    19850 
  -38477   -75307   -58990    -1637    40576    63169    56380     5806 
  -30053   -26388   -19750   -20094   -37403   -63297   -65303   -59748 
  -52517   -32624   -38102   -59960   -41862    -6917    -6419   -22117 
  -21378   -16698   -11770     5070    18295    27252    37278    35866 
   32730    16950   -10466     7599    42997    37374    26666    10739 
  -24406   -35109   -31317   -23458    10575    32910    25101    20360 
   13182   -19206   -54795   -66258   -68837   -66654   -54722   -61676 
  -82476   -87053   -93465  -104957   -86914   -57418   -40617     1696 
   54889    60239    29003    -8140   -21494     7985    36423    28034 
   11028    24780    52481    46079    19327    19043    34358    28237 
   20671    51848    92740    90931    54653    18824   -11934   -46993 
  -71729   -54207     3419    58414    88855    82174    26248   -20437 
  -19313   -21055   -30177   -24470   -26146   -26311   -12023   -17092 
  -50770   -70862   -57218   -47985   -50561   -22239    14280    11981 
   -4388   -23384   -53119   -52768   -22563   -12023   -19823   -19068 
    4858    36278    27719   -12145   -21423      679    10932     9103 
    -943   -24336   -33835   -30605   -37072   -42176   -38022   -11749 
   36005    56305    34666    15360    21358    24129     -305   -26368 
  -24516     2326    30770    36888    23693     2369   -23013   -36321 
  -32093   -25914   -28412   -37281   -36296   -17905      776    16005 
   33273    41661    39800    27795     3581   -14553   -20281   -35880 
  -65047   -68326   -28734     9244    12910   -10941   -40486   -39710 
   -5598    15994    -3261   -38514   -43505   -12391    14392     6490 
  -26628   -51267   -53015   -48502   -48771   -57025   -73977   -82671 
  -73737   -58310   -43363   -35220   -38724   -54430   -85183  -101538 
  -79482   -53180   -34817   -13460    -2274    -2816   -12217   -11032 
   22578    47275    26608   -16769   -58653   -73175   -35102    29776 
   72790    89185   102898   102431    78285    71794    78196    53757 
   26507    27190    31649    38573    57973    54000    16299    -4914 
   -4430   -23762   -60957   -86922   -98258  -111005  -122901  -124692 
 -129493  -138940  -136115  -121328  -111943  -110419   -94100   -57821 
  -26758   -18581   -22928   -15368     5732    21015    24484    18981 
    8401    -3489   -20078   -12409    50903   120613   147235   140574 
  100407    45979    28512    36020    29385    22542    23105    15722 
    -834   -40112   -99940  -135824  -129944  -100772   -60080   -20167 
   -7231   -32788   -61237   -63283   -57615   -50616   -31903   -10935 
   17113    60605    78057    47038    13304    -7537   -23272    -8544 
   14872    18721    43344    78723    69849    28807   -12361   -38385 
  -36308   -19961   -18654   -44024   -68951   -52101    -2635    31000 
   19156   -19754   -39881   -31685   -16799    -8739   -16519   -29245 
  -20821    13918    55834    74826    56344    18769    -3909    12850 
   45773    54927    62136    83216    74479    19296   -43692   -71280 
  -69433   -75026   -95199  -123472  -150133  -147054  -108573   -62463 
  -25863    -6991   -25994   -87961  -150458  -166638  -148973  -126675 
 -103522   -92844   -97703   -89638   -63570   -40919   -17890    16056 
   37405    37763    55051    96369   126362   137867   133578   102841 
   66260    46620    33457    32748    51061    54399    24270    -4234 
   -1603    15919    28722    20340   -17482   -41233   -37015   -66765 
 -125290  -132385   -83922   -35464   -15290   -40872   -92963  -102274 
  -59377   -30547   -44714   -75105  -106142  -119375   -78699    -6513 
   47255    69178    43471     -413     4788    42691    65071    79624 
   88519    65577    18145   -20929   -34101   -25548   -21033   -30812 
  -47198   -68871   -68278   -30973   -11435   -33524   -46637   -37166 
  -24174     8509    49175    58000    51015    45801    23249     4900 
   18619    40401    49365    47618    39772    28845     9313   -26766 
  -70607   -98581   -90828   -49130   -22424   -41813   -67270   -83390 
  -92961   -88264   -96002  -100334   -70356   -36620   -12172     8626 
   16055     6142    -3586     7913    18995    16047    17894    27363 
   49242    71693    62279    30561     7017      263     8399    15869 
   -1840   -31476   -38515   -33123   -28216       90    43964    58348 
   30859    -8507   -41820   -78969  -108070   -99458   -63202   -41499 
  -48739   -60304   -66949   -80113   -82914   -75379  -101278  -143078 
 -140205   -89266   -12217    60921    94455    89328    73718    65951 
   45550     1894   -27594   -37424   -42803   -20649    25297    60721 
   83758    91519    67099    32188    25585    43780    59020    69381 
   79181    78559    77475    74794    46593    12159      136     3631 
   13495    20741     8976   -22260   -33812   -11383    -7611   -31958 
  -53986   -71250   -59860   -20031     2255     2355    -3288   -21482 
  -64736  -102265   -77687   -17682    20852    40003    25304   -24264 
  -45345   -26480   -12143    -7106    -8090   -22210   -34939   -42664 
  -43440   -20622     5319     6018     -288     6062    15592    22774 
   37210    52319    41384     6195   -18542   -19245   -15988   -27067 
  -40070   -35815   -28826   -39564   -59069   -79852  -112023  -139658 
 -127025   -75242   -22921    -4298   -12129   -19483   -17886     -828 
   30743    68062   104075   111758    90250    70548    54637    48627 
   51756    34398     5161   -12807   -15773    -8347   -14891   -37975 
  -60912   -78849   -68152   -22468    20634    41736    44350    27932 
   -3084   -37650   -53314   -44798   -41953   -36436    -8272    10358 
   14185    14939     -148   -14454   -14339   -13859   -17728   -27353 
  -46371   -72381   -96124  -108931  -110876  -110582  -107464   -82613 
  -45686   -43942   -67590   -51827   -12522    -8669   -19857   -20021 
  -18598    -2949    22254    23683    -3645   -28566   -22331     1613 
   11431     -241   -19383   -29084   -34110   -44053   -48216   -49270 
  -52421   -37519    -5913    10917     1908   -22890   -49983   -50795 
  -14229    27437    48456    43916     6636   -55073   -96137   -81252 
  -35110     5948    36043    57855    61740    44231    34731    41706 
   46101    56995    68439    63572    57415    46743    20999    -5371 
  -19354   -11728     -226    -9436   -10548    17182    36327    17902 
  -11815   -15221    -1269    10617    12101    -8695   -22295    -4638 
     259   -33651   -77286  -111461  -129293  -111842   -68728   -28085 
    7234    19183    -5603   -37887   -58989   -54364   -21107     3472 
    9202    17238    25137    14693   -21417   -60894   -73190   -60357 
  -34720    -5373     5533    -1409    -9834   -16885   -10083     3609 
   -1075   -10967   -11631   -11380    -6158    -5204   -22129   -26569 
    5691    41382    44829    30663    10428   -30358   -57458   -39363 
  -15287     8199    35569    20464   -13998   -13419     1345    10230 
    4939   -20154   -37154   -37997   -33405   -23022   -13203    -4513 
    2128    -6189   -24487   -26095     -199    25111    16634   -16110 
  -41530   -46575   -30940      619    28566    29232    13521     5220 
   -3726   -12259    -5578    14181    43402    73080    90317    79404 
   37265      271   -20737   -47823   -65740   -67792   -78129   -93398 
  -91762   -69662   -45451   -39992   -56808   -72916   -60266   -30539 
  -12787   -10129   -21157   -43383   -62550   -72882   -74135   -65132 
  -47571   -23475   -10218   -28510   -57126   -59640   -48527   -55593 
  -70989   -65362   -40729   -14400     8116    17497    15546    16875 
   23344    40917    68947    85804    84739    76594    57839    24143 
   -1948    -1321    29775    86146   133101   144246   127052    90639 
   45940     6087   -18748   -21297   -18401   -34993   -64732   -84094 
  -76600   -48165   -34924   -55277   -84751   -94049   -77152   -57913 
  -55464   -57339   -46462   -19082     5217     5705     1239    17922 
   46375    55821    32632     6285     3572    -2111   -27319   -42917 
  -35992   -18972   -18164   -57750  -113332  -142541  -138273  -115751 
  -91157   -76045   -73963   -74390   -62721   -53685   -64712   -68397 
