Origin Time       2021/02/13 23:08:00
Lat.              37.7
Long.             141.8
Depth. (km)       60
Mag.              7.1
Station Code      MYG003
Station Lat.      38.7348
Station Long.     141.3106
Station Height(m) 28
Record Time       2021/02/13 23:08:10
Sampling Freq(Hz) 100Hz
Duration Time(s)  177
Dir.              E-W
Scale Factor      7845(gal)/8223790
Max. Acc. (gal)   255.281
Last Correction   2021/02/13 23:08:09
Memo.             
[...]
   -3524   -21446    -7628    19495    36285    33224    10071   -28584 
  -50067   -32543     2529    30223    31398     7341    -2500    13977 
   21222    12345     7384     1312   -10983   -22032   -27022   -15993 
    9784    35714    43949    12378   -35348   -35588     8739    35942 
   26819     2751   -18662   -30229   -29469    -9244    22553    34173 
   15456    -2909     4333    24324    39887    49054    32310   -18222 
  -52663   -42577   -27437   -24710    -9283    17851    30055    22322 
   11704     8950    10450     5467    -1903     5073    16218    10986 
   -2528   -10087    -8583     3886    20941    24347     2178   -31534 
  -45777   -30169    -1297    26485    44676    47374    37246    15511 
   -7740    -8743     8136    10316   -16421   -48355   -46195   -12438 
   13501    19176    16371    15315    19074    18750     8704    -4222 
   -8482      958    14978    17987     7155    -5436   -10035    -3546 
    7254    17955    31762    33039    12467   -15057   -39106   -47367 
  -32541    -5285    24258    42481    34160     8824    -8815    -7982 
    5304    15830    11641    -2474    -8688      216    11165    12572 
    1667    -8143     4468    18721      -89   -30036   -25830    11686 
   41258    36121     9151    -6431    -1517      332    -4594    -6794 
  -13460   -14563    -1398     5298     1057     2829    13903    22558 
   21038    13903     5709       13     4341    17120    22046     5171 
  -18270   -23037   -22335   -31990   -27718     4766    46579    67640 
   47110     4622   -18077    -6496    16475    23414    16735     3977 
  -19025   -39676   -40786   -20777     5900    14658     7820     2887 
    -187     5185    18642    22493    14736     3258     2212    16117 
   20630     1723   -24790   -28800    -5636    14723    23587    20846 
    5591     4626    16623    13755     1329    -7350    -6543     4222 
    6412    -5184   -12472    -9412     -540     8712    11792     8796 
      24    -7803    -5458    -7344   -13296     1803    25631    30906 
   13849    -8738     5100    45562    43961     -598   -37943   -50436 
  -38441   -13360     6053    11576     7767    11732    24642    27332 
   22044    19940    14899     5614    -6964   -18929   -11446     9757 
   21240    12447   -22794   -49662   -30477     3466    24861    36086 
   27314     7573     1651     7137     2970    -6814    -1271     3457 
  -13147   -23463     -502    32422    39136    22586    -2843   -34285 
  -49515   -30897     4299    34018    50024    49261    32540    10428 
   -2975    -1811     6693     4268   -19067   -43087   -35920      739 
   35106    41517    16993    -4060     6315    15371     1571    -5339 
    2929    -1921   -28834   -36244     5761    52879    53877    18288 
  -15164   -32444   -43093   -41573   -16109    23625    48220    41443 
   24831    11330    -2943   -10785   -15647   -12170     7210    20204 
   16078    -4407   -28755   -18785    18033    34364    28178    17366 
   -3659   -24575   -19429     8098    31606    36432    33026    26168 
   -2875   -46315   -60667   -27951    21162    40109    18604     1304 
   12502    16371     1350    -7963   -12343   -16858    -7767    16150 
   33673    37111    34246    15105   -12193   -18462   -17377   -24757 
  -21269    -7331     -267    -6277   -13647     2801    33288    49630 
   55399    49729    25157    -7356   -40679   -58715   -47694   -26698 
   -6191    11361    14886    20806    36155    29529    -1347   -22372 
  -16930     3358    12644     3295    -4313    -8154   -13736     2197 
   35345    40734     8113   -26766   -32972   -17797     2582    33844 
   54612    34217     1987    -6845     1189     9285    10764    13420 
   20679    21857     3249   -37210   -71969   -76825   -64870   -40387 
   14243    75033    87432    48898    13473    12864    20707    10484 
   -7626   -17257   -17334   -21289   -31174   -25220     7493    51760 
   69125    34230   -15194   -37939   -46226   -51869   -44049   -20771 
    8147    31990    43083    46577    54017    58935    48394    28414 
   15384     8214   -12954   -40166   -42210   -27159   -19672   -13420 
   -5935    -8978   -13124    -6690      523     3105     8878    21038 
   29882    27947    27839    28424     3331   -31827   -31737    -6010 
    8710    12291    19306    30326    31726    20244    12796     4118 
  -21753   -47764   -48736   -25335     4722    32140    47553    38504 
   19703    14403    22103    29185    24896     4779   -27143   -56475 
  -72482   -64324   -21385    35521    72459    78100    58639    27811 
    1985    -2521    19288    49774    56766    22303   -33636   -71435 
  -68052   -40520   -28661   -39075   -43302   -27151     -124    22570 
   40825    64747    76882    61528    36228    11090    -5267    -6442 
  -16428   -44069   -63810   -55429   -29049   -17325   -17718    10847 
   55922    59136    29119    18274    24529    20297     3766   -12349 
  -17552   -16726   -14845     -530    23773    38465    35588    11631 
  -29065   -69714   -93430   -70997    -6768    39141    51317    64031 
   77453    70044    45361    25991    10494   -17463   -42597   -45657 
  -30130    -5865     8302     1167   -18929   -40234   -40613    -1675 
   56894    92638    79604    29169   -22918   -52165   -54405   -35681 
   -9695     9934    15569    11080    12445    26086    47305    70197 
   71477    38118     3856    -6357    -9402   -10818    -1412     1009 
  -21357   -49216   -63887   -75816   -86319   -68675   -13652    52643 
  104453   120321    85153    20808   -21258   -12243    18624    32578 
   32250    24113    -1127   -37967   -64216   -66448   -54653   -43158 
  -26950     1935    29748    38897    35176    27072     8793    -8530 
    3199    38657    60840    58517    48244    38647    20501   -21740 
  -70241   -88267   -79207   -57129   -20607    14088    31799    39243 
   46531    61362    70625    53017    15009   -38161   -91426   -97086 
  -49138    12078    55620    55289    16005   -19291   -35143   -33120 
    6520    63363    71332    27607   -11746   -28134   -34122   -29814 
   -5516    27230    31070    11110     3731    -6579   -34777   -46722 
  -33389   -16195     7419    40012    53485    32980     5633    -1741 
    8333    14400     5196     6862    33521    44463    14189   -26518 
  -47845   -52045   -39873    -5566    32821    49700    40093    22758 
   20351    26613    31002    37401    37093    21182    -7456   -37196 
  -48471   -38353   -21755   -11982   -10997    -8773    -1954    -1602 
  -11130    -7535    19595    41674    49227    49196    28320    -5892 
  -31545   -42828   -35460   -12610    15961    27984    -4554   -54477 
  -70954   -49243     4882    72550   103732    84210    40764     5624 
   11450    38079    31544     2625   -12492   -18904   -28202   -37951 
  -28678     7219    15464   -36410   -71679   -31207    24204    28084 
    5262     9212    29781    33259    41048    55146    24220   -37943 
  -58000   -26046    12393    33274    23909   -14716   -47048   -53096 
  -32468     4843    27648    37025    42986    29940     9521     3809 
   19701    42202    34408     2299   -23303   -38514   -35799   -22773 
  -27777   -32786    -3115    38889    58510    64740    68611    51592 
   12421   -15402   -21483   -14350    13960    35243     8249   -38948 
  -56398   -30623     8677    15107    -7920   -31444   -51067   -57121 
  -37596    -3697    34258    75176   100372    97108    79648    38780 
  -26420   -59485   -48408   -37798   -30809   -18982    -5914    11873 
   18670    12393    16364    24856    22033    13431     8716    16575 
   25716    10536   -14710   -28587   -40232   -25369    42313   101719 
   73861   -27560  -111577  -118287   -74991   -24673    23415    67198 
   94668    78603    24016   -18154   -32626   -30298   -12393     1093 
    1197    -4596   -17868   -24813   -18099   -12930    -4787    23137 
   62425    79092    46025   -24075   -83774   -89976   -39071    33176 
   81459    83104    47013     3042   -18759   -19907   -17005    -1532 
   18777     6556   -28513   -48350   -43353    -5395    50641    86934 
   98682    74065    10953   -37270   -51186   -41870    -2123    27886 
   -3661   -67417   -99682   -84858   -41170    24061    87235   103713 
   72233    32325    15958    30361    44663    20476   -31494   -69017 
  -75622   -66471   -44100     2855    48880    56917    36674    18088 
   25010    58571    68295    23032   -34840   -62127   -54253   -25672 
    8590    29035    16175    -1513     6559    13055     3622     -876 
    1135   -17189   -59220   -76813   -48787     2763    68528   113590 
   99210    53954    17199    -5024   -20671   -34102   -36756   -43274 
  -69438   -90617   -94635   -76171   -18634    60698   127053   145577 
  102475    46072    17555     -535   -22172   -38137   -37320   -13987 
   19842    36328    18169    -4657     4746    18781     5046   -17543 
  -27835   -16393    16271    44693    55532    59292    50168    23700 
   -9364   -45642   -58841   -24678    20290    30927    -5094   -69728 
 -124017  -140906   -96357     6637   110505   172917   187092   150930 
   79961     4610   -41724   -42037   -27654   -25886   -22688   -19456 
  -22347   -24834   -22708     2837    35384    35988    16987   -12482 
  -50680   -67508   -63815   -50499    -9856    44014    77180    89449 
   91893    96965   108292    95678    43569   -20641   -72277   -98671 
  -92340   -72260   -63539   -52060   -14839    29085    53316    51741 
   25883    12552    38612    52107    22667   -11263   -38105   -58066 
  -49140   -20669    -1333     2135    -1273    -7855   -28661   -52686 
  -45034    -6458    30769    39812    15492   -14654   -24637   -12847 
    8064    16075    20849    48433    70341    55881    29586    10754 
   -2974   -13163   -32697   -60943   -72731   -48774    10777    67516 
   78552    55190    27014     4583   -19422   -56500   -78885   -59271 
  -28165    -8600    16120    36058    11753   -41832   -58941   -21292 
   41565   100508   125076   115452    97579    71216    35218    -2350 
  -47891   -90705   -94487   -45138    20088    47626    24772   -14440 
  -30203   -18404     -234    12650    23130    41963    63699    68971 
   64473    71196    88182    88712    53806     6609   -26617   -56659 
  -89193  -103202   -93650   -74372   -53485   -44309   -44728   -18817 
   52454   146909   217050   218224   160490    91368    32101   -16467 
  -59055   -99424  -112710   -81639   -32224     1844     7522    18430 
   68177   107368    77846    -4067   -82081  -111415   -96901   -63076 
  -20093     5019    -8927   -37091   -44266   -29717   -18075   -16387 
  -17312   -25907   -34785   -26411   -20798   -34500   -25249    20904 
   52546    47574    16078   -16187    -5121    30118    52546    79450 
   90375    60682    16380   -43583  -109833  -145130  -140513   -91087 
  -12478    50276    70758    49239    11527   -19214   -44625   -51474 
  -13190    60766   119080   101094    -5298  -114642  -127109   -68701 
  -23828     9985    50145    69522    76167    68187     7254   -71404 
  -89775   -43684     5713    12536    -6750   -13132    -2496    11129 
   21658    31432    52003    71081    63613    55166    63443    54471 
   31726    22476    21010    26171    33990    25384     1119   -20908 
  -21712    -5705    -5178   -25207   -39671   -35760   -12991    24210 
   60353    76427    64277    33751    -1455   -42942   -88312  -114898 
 -117602  -109120   -78765   -15514    65242   145941   205441   208024 
  143006    44645   -46634  -107358  -129348  -104800   -32807    23329 
   -4646   -65106   -69784   -27515     5589    13508     2145   -34041 
  -79408  -103933  -105595   -80701   -17280    63630   120093   129628 
  112901   106212   109784   107925    98421    72049    20089   -53202 
 -134950  -185957  -167935   -96928   -24021     7618   -15205   -66568 
 -107145  -106428   -46805    54033   159470   242774   250628   151503 
   33097   -14858   -25828   -38912   -36302   -29490   -37732   -40725 
  -37006   -38264   -18014    16737     9613   -29436   -43270   -24862 
    -226    18330    40491    61850    45210    -6330   -28732     3429 
   44112    62446    65130    34588   -40058  -111720  -131014   -89672 
  -10612    74528   147033   174463   115188     4988   -65384   -79749 
  -71888   -26902    52402    91135    61225    17759   -13998   -46731 
  -58075   -22648    28926    52197    34830   -16429   -62922   -58577 
  -24584    -1764    20544    42597    37793    20587    20048    31495 
   39055    29466     2023   -33361   -67547   -80932   -70821   -44965 
   24370   136729   212311   176528    48544   -71847  -118978  -118224 
  -81745    10305   103713   134836   112040    25735  -109520  -185765 
 -157569   -81097     6330    83058   127997   135415    79381   -38838 
 -142663  -176725  -141038   -37805    90601   165727   162379    92279 
  -12491   -76495   -67324   -16332    37324    45168      291   -55869 
  -93650   -93100   -58984   -19626     9540    17463     7395    13875 
   59514   120796   158476   155083   117058    63560    16073   -13942 
  -39078   -72941   -96817  -102145  -109007  -106979   -68285     2293 
   76107   104610    53260   -31893   -63076   -19456    51185   106321 
  113813    67286    18647      -32   -13259   -24240   -15174     3831 
   17864    18454    -9616   -57496   -93989  -110382  -104529   -59053 
   13479    64246    65229    29270     6188    45285   110037   126230 
  108711   103681   107901   104911    54499   -69961  -202001  -264354 
 -249885  -184978   -96435   -10706    28890    10008    -3002    30774 
   74424    91864    78861    44251    16302    23278    43021    30173 
   -7384   -26947   -19855   -14218   -26827   -38074   -30102    -8973 
   27406    67304    68908    27179   -18064   -38427   -35185   -19861 
    6227    40347    72175    92021    78999    19759   -43468   -44847 
   13952    78275   107789    66876   -40726  -139035  -172058  -133562 
  -31374    82344   137775   116652    31488   -67261   -87956   -29169 
   41550   111017   150989   127529    53161   -64651  -162218  -168670 
 -126260   -67853    13379    68242    67883    48396    31522     4637 
  -31324   -43858   -16240    22573    34769    17369    -3226    -6430 
   10795    34256    40216    25813    19689    50318   102957   123148 
   87644    26623   -34126   -82189  -104182   -86283   -12182    89224 
  149104   126283    17779  -112855  -177731  -188698  -168813   -66621 
   86460   180708   181811   104025   -14594   -90452   -91050   -60336 
   -5979    76986   121205    70013   -46622  -148601  -177475  -139418 
  -46607    88912   188285   176107    54394  -107761  -182088  -125066 
  -31537    56430   131943   147511   115722    62783     1005   -20260 
    2691    26925    21571   -28239   -85756  -115388  -140971  -154334 
 -105376     1975   111774   167004   141382    62077    -3958   -17739 
   -7011    -2042   -10916   -38272   -63830   -75612   -75104   -42049 
   22669    94545   160112   175522    88823   -40317   -92958   -58704 
    2293    59393    82062    47509   -17375   -76890  -115460  -101142 
    -735   133239   179105    90178   -53497  -136715  -125778   -73462 
    9747   129393   192778   139160    30034   -57059   -87358   -73842 
  -25342    60673   125964   109871    11832  -122324  -201185  -186251 
 -128054   -44848    53310   110220   130140   148752   130823    60331 
   -6542   -23820      340    23041    19249    -2524   -20449   -11304 
    9938     5976   -18203   -38398   -44928   -32985   -11658    11607 
   39337    50598    34769    18821     7020   -11588   -14774    14315 
   55613    81814    75651    25274   -56799  -117373  -112522   -58040 
     994    36211    47418    51325    47271    19488   -23766   -62527 
  -88049   -98409   -98583   -79602   -24150    42676    77153    77927 
   58197    23319       89      685     1472    -3746    -7632   -11765 
  -14073   -18299   -30242   -46737   -59294   -57937   -54711   -62661 
  -55255    -9741    56771   113861   132313    96134    31302   -14229 
  -24031    -1732    53312   118174   143344   101413    29359   -15114 
  -28229   -27270   -10098    11098    13470    -6077   -29320   -30928 
   -4923    28098    36271     3512   -42481   -65832   -74464   -87273 
  -82610   -30373    41596    78942    76809    46234   -15757   -61098 
  -28656    46020    90923   103790   100242    56177   -23770   -75589 
  -71194   -43252    -6424    36578    61292    55421    31106     7597 
   -3682   -13707   -40761   -80694  -104422   -89588   -52289   -21166 
    4039    36657    62488    45643    -6388   -42624   -45932   -25282 
   14604    50876    65124    58224    31468    -4271   -33147   -43321 
  -32116   -18697   -20657   -27619   -11236    33076    73182    89943 
   69939    -5783   -93873  -129610  -115044   -60598    31914   107643 
  132583   135662   112734    50357    -5944   -24175   -21933    -8943 
    7843     5478   -12471   -29313   -46314   -43177    -1300    51129 
   92090   121971   122966    74229   -10820   -90671  -136946  -148740 
 -130324   -74062    24559   119187   143455   100483    33002   -26892 
  -42869   -12726    30191    65865    71929    40953      -81   -31584 
  -35299     -225    38963    48065    33358     3731   -39102   -81225 
 -108280  -117652  -108446   -79986   -33022    26265    64867    52645 
   13451    -3871    28366    95920   137916    97038   -12031   -94612 
  -83718   -34591   -13124      407    25008    45964    43819    11299 
  -16749   -22526   -32598   -38651   -28175   -31945   -47553   -36070 
    4729    47750    71328    76168    76941    64555    29313    -4827 
  -22397   -31626   -29539    -4028    37319    62046    41486   -22692 
  -94454  -115038   -70422   -20205    11242    53855    85126    59506 
    2523   -28364   -33724   -43325   -44001   -28281   -19256   -15300 
  -15508   -31283   -46811   -40475    -4415    51898    95700    99846 
   70216    46581    52915    63817    62332    46295    10540    -7658 
   22200    52812    29311   -34044   -90070  -116968  -107254   -54703 
   14598    48809    34573     3667   -30993   -56367   -28208    46190 
  107407   137299   135893    77955   -26422  -109632  -127947   -95771 
  -39908     9765    21714     -419   -21217   -13857    18185    47530 
   54375    37898      378   -43673   -67662   -58845   -21809    28300 
   76684   109151    94574    20169   -68374  -116803  -114108   -74389 
   -5888    80827   145260   142310    79042     5503   -44155   -68462 
  -66722   -27672    32707    54792     9481   -56783   -97533   -99486 
  -46222    50558   131835   153863   117996    46742   -26126   -74657 
 -103427   -99863   -36175    51046   102857   100236    48296    -5378 
   -9304    12715    22875    36568    44313     3157   -59171   -82301 
  -74021   -64584   -42105    10956    77045   119333   113583    65080 
    4815   -33382   -40188   -32614   -19670     8455    44618    66644 
   71647    54602     6089   -35648   -39209   -37195   -34600   -12799 
   -7388   -29462   -35827   -18102     8761    46735    85506    99318 
   67454     -432   -55726   -81163  -100962   -99385   -56034    -2955 
   32795    40259     5772   -47702   -71490   -49516   -10332    16191 
   37708    65800    78422    54762     7258   -26919   -19151    12110 
