Origin Time       2021/02/13 23:08:00
Lat.              37.7
Long.             141.8
Depth. (km)       60
Mag.              7.1
Station Code      MYG011
Station Lat.      38.3052
Station Long.     141.5044
Station Height(m) 13
Record Time       2021/02/13 23:08:03
Sampling Freq(Hz) 100Hz
Duration Time(s)  151
Dir.              E-W
Scale Factor      7845(gal)/8223790
Max. Acc. (gal)   361.338
Last Correction   2021/02/13 23:08:03
Memo.             
[...]
   18026    -9335    -8176    14598    -8129   -17235     9705    -1139 
  -12966    10274     1209   -18015    -5054    -3009   -10521    -8306 
   -4340    -3527   -15211   -10694     9113      730    -9760    -1452 
    4757     -811   -10490    -3210     1998    -1273     1298   -12252 
  -12436    14732     5564   -15797       83      529   -14617    -3701 
   -1117    -6763      621    -2916   -11824   -14253   -10513     -626 
   -4336    -7705     2187    -3825   -12114    -4139     -947     -815 
    4018    -1948   -15124      575    17031   -20698   -26682    25675 
    7848   -27249      774    -6732   -18648    10616     -386   -13964 
    4533     4576    -5115   -10940    -8047    -3190   -12262    -3919 
   10211    -3632    -6431     5988     1188    -6076   -10463   -13124 
   -6184    -1975      180      729    -3523    -4552   -10885    -4275 
   18747     4943   -25344   -13374    12313    -2513   -29015   -11824 
    3929    -6882    -2423    -3461    -4965       -8   -17344    -4885 
   15824   -10150    -8869     5973    -7273     6775    11951   -12906 
   -5263     2675    -9316    -3073    -5998   -11234    -5363   -16243 
   -1686     7859   -20171    -4807     -402   -17490    23244     9872 
  -33366    12690    15360   -30885    -7465     8141    -8380     -584 
    -969   -12131    -8854     1705     5117   -10855    -8869    11407 
    -796   -10570    -6745    -8604    -1020   -18249    -8087    36094 
   -7970   -33651    15072    -2505   -19761     2721    -8702   -10420 
    2605     2234    -9884   -17012     3831     3969    -6741     9424 
   -2732   -13298    14299     6442   -16769    -1742        4   -14854 
  -10405    -8583    -1150     6620   -16409   -17027    13112     4955 
  -23650   -15705     6166    -5643    -9324    18598     4185   -25061 
   -6551     6091    -1121    -1579    -5393    -8768     1946     8541 
  -20760   -24097    16025   -10858   -26770    27783      220   -26384 
   23490    -4565   -34163     5915    -9796   -23550    19757    10814 
  -17899     9227    12175   -18301   -10566    -1466    -7113     4641 
    4156    -7474    -8938   -10166    -3456    -4440   -12773     9999 
   15071   -25691   -16128    17496   -14607   -16071    16978   -15259 
  -19438    14889     -770      765    14149   -16661   -32715   -10458 
    2543   -13768    -1860    13563   -27557    -5287    40365   -18920 
  -25046    17142   -21130   -14477    23558    -4712   -10197     7079 
   -2799   -14299   -12910     4174     2303    -6322     5306    -8534 
  -19531      422     2254   -16795   -23141     -469      417   -16764 
   11570     7403   -13176    21145      172   -25551     3840   -14123 
   -5999    17174   -29612   -14447    24858   -17436    -7543    36360 
   -1170   -18041     3640   -20925   -15944    19102    -7587   -18723 
   10829    -8270   -19753     3333   -15228   -17884    12248    -2315 
    1128    23275   -22747   -39668    22125    29405   -22774   -20657 
   13625    -3811   -27758    -6835    -1846   -17267    -1205     9132 
  -12042   -12627    15732     8378   -24363     3126    27279   -15853 
  -22790    -4737   -12525     3751    15064     8737      -70   -21240 
  -14322    -7294   -16074     8441    20351     2462    -7021   -14430 
   -7992     5395      592    -6077    -6887    -6637   -15747   -23242 
   -2465    -3011   -14724    15111     5238   -14347    14558    -1953 
   -3755    10833   -47380   -31417    26045    -5259    -9158     4923 
   -5819    -1080   -13689     8988    26530   -40527   -27356    42732 
    -140   -29164     8120     2682     9904    13169   -41091   -26254 
   26261     1767   -18754   -12977    -5856    13586    -7847    -8361 
   27457   -24112   -43815    23018    12318    -5238     8901   -18906 
  -10023    -5971   -33374     8914    36814    -1472   -20682   -17679 
   -1842    10503    -8617   -19175    -7765     2619     6592   -15728 
  -29116     1375    11827      109     -976   -12914    -1776    18841 
   -8700   -22334     1274     4417     1183    -3696   -27058   -26596 
    2909    14611     3473    -5355    -9370   -16448    -7101    16889 
   10760    -9661    -5771   -10779   -14841     7947     4251    -8802 
    4985     1389    -9045   -19292   -36340    -4677    26763    -6887 
  -19063     9211    13151     9435     5242    -9749    -6986    -3871 
   -7371    -3257   -37570   -54928     8036    29088     4761    12667 
   -9787   -11943    30847     6575   -31056   -19759     5965    14725 
  -10955    -8249    -1520   -23051     4773     9327   -24277     5864 
    2909   -35645    13707    37509   -11834     2540    21320   -21905 
  -18412     2663   -24587   -19209    18561    15719    -2304    -2739 
  -19894   -32208    -4880     1034   -21622   -16571     5815     5584 
  -14555   -25335   -31333   -19068    10685     7546    11298    24008 
  -15356    -5740    56812    21402   -22783    12143    15044    -3743 
   -5817    -3458    28830    37238     8245     -147    18358    26318 
  -37143   -64309    18245    13891   -51688   -17400    -9250   -38476 
   10270     9564   -50730   -15048    23253   -11101   -15801   -16702 
  -43420   -38037   -24070   -13687     8683     -175   -18693    20690 
   43615   -30578   -77280   -20885    19577    13981     7076   -14038 
  -26450   -23955    -6685    33467     5737   -56581    -7693    50988 
    9960   -16163    -8247   -21462   -19018   -21239   -31477    -1135 
   26280    37914    44705    21880    14206    38813    46715    29482 
   15680    -8544   -61785   -61931    -7820    -5352   -13500      550 
  -45160   -81700   -15768    33922    16667    23059    20110   -11109 
   -1364   -12299   -57993   -14933    50823     9899   -35892   -13933 
  -20116   -35436     8252    28613    24327    52760    31781   -26650 
  -21257     8052   -10014   -41207    -8638    38334    15871     2945 
   21045   -10879   -57049   -67024   -47704    -3746    30338    18296 
     808    14523     6346     2637    37740    -6547   -83817   -35078 
   20039   -29489   -42016     5194    16722    30535    25789   -36220 
  -28057    34989    -4691   -44571    34927    33859   -69336    -8449 
   99237    -5886   -85290    34366    72883     2721    46839    88317 
    7101   -30130     2651    -6409   -20682   -17771   -29007     7402 
   52078     5482   -30335     2389      986   -32410   -49358   -48851 
    1215    35122   -38060   -80276   -28541   -40624   -63258     4610 
   27653     6389    27557    13225   -19059    -2012   -10758   -56205 
  -79520   -84582   -49720    28215    57118    18630     4885    31406 
   35788     5204   -16968   -25543   -54662   -53437   -11240   -30361 
  -67757   -28098    16703    23899    50427    82776    86143    61932 
   31291    63180   100992    47501     5869    15719   -21236   -73653 
  -44790    -9558   -82769  -148960  -129216   -97622   -14744    77102 
   91741   130222   153748    55895   -26233   -12191    -8748   -37069 
  -41985   -36994   -30580   -20781   -44887   -64084   -37550   -19084 
   24059   106272   110889    56802    16904   -55075  -116635   -92248 
  -67408   -64893   -12139     2999   -16719    69745   127395    35711 
  -50484   -57210   -16953    16702   -16715   -38893    19739    63846 
   40135    10643   -16551   -58549   -24536    94846   106193     6389 
   -1105    26646   -13370   -22603   -27676   -59270   -16087    47220 
   35314   -35406  -121420  -156142  -140437   -91422   -19248   -13138 
  -23220    38923    41404   -15600    16297    52164    36413    43051 
    9547   -24210    35784    63238     9080   -41702   -48919   -10894 
   -9724   -63256   -92434   -90062   -51746     9185    13537   -19118 
   26649   103254    72588     7331    -9440   -16159     5481    28705 
    5401    -6312    36691    60033    -6160   -50157    -4374    19955 
   33778    89799    86746     6771   -56990  -108311  -127634   -48832 
   15732   -31471   -58477    -4391    29828    41149    54778    14980 
  -11601    44959    17740   -92792   -39421    63059   -11637   -71717 
   -4114     2411   -49181    -8974    74471    94417    62397    20637 
  -10885   -38450   -32451    24790    10571   -71043   -38364    60201 
   72997    38792     -963   -41994   -29119     3419   -12487   -31193 
  -19658    -1097    25710    16915   -69647  -113077   -40516   -17848 
  -73805   -40659    13284    -5967    33195    88485    19924   -51277 
  -27049   -16630   -28583    14512    15399   -38271    19121    69314 
  -29416   -50689    39660    29069   -17497   -22346   -66471   -70403 
  -17343   -45123   -89905   -50426    -5834      271    15489    50907 
   76245    64192    18347     -237    45208    64605    20367     7167 
  -15315   -74517   -28227    55979    55321    54912    45389     6362 
  -12924   -40242   -22596    22554   -28432   -48028    19692   -29365 
 -106687   -47011   -10670   -16838    10847   -22925   -42110    26230 
   31901     1988    36474    17992   -51239   -22207    27201    -8699 
  -30670    -5506    -6600   -18416     2189    10662   -24899   -11315 
   61318    29959   -65578   -32355    28356   -24187   -46762     4868 
   23514    44878    34294   -52324   -11209    81791   -47650  -109857 
   79573    92844   -27942    54371    55439   -64670    52253   125909 
  -53280   -72607    58409    37768   -24499   -27201   -13128    22747 
    2828   -55109   -58325   -86586  -106270   -22702    14777   -14810 
    2204   -16205   -57505   -41239   -63859   -86845   -24536   -15307 
  -26379    76639   100213     4417    18361    29087   -51533   -31822 
   -8426   -58388   -26414   -12745   -66901   -32113    56061    90761 
   52200    -1798   -18014   -31841    -2667    45948    -3245   -31631 
    3616   -22189     4660    60507    -4216     9374    84861     3195 
  -28543    53758    14968   -36105     8171   -34744   -95565      993 
   51822   -67533  -100947    14989    55945    -4973   -37118   -13710 
   27622    49758    43232    14925   -20475   -16173    27940    27557 
  -29758   -31912    25991    19491   -29142    28158   102037    -5262 
  -91191      688    15749   -27935     5242   -40462   -83894       -9 
   -3514   -63413    21327    61959   -47787   -37519   100005    90796 
  -13475   -29168   -41326   -89957   -88742   -71166   -47393     1941 
   12708     7686    25228    -3006   -57265   -35730    51641    76779 
     429    -2232    99581    65160   -86057  -120456   -55452    32892 
  108830    63466     3866    52492    20494   -62502     -596    33334 
  -48575   -58260   -21624   -54398   -59147     7202    -7792   -38862 
   68409   101837    -9682   -19885    18061   -29160   -49462    -6868 
   54857    76410    -8248   -44070    51339    46998   -47706   -18265 
    5559   -86159   -71301    66777    85286    19870    35577    31895 
  -34803   -43919   -53663  -112824   -99180   -12695    25712    24376 
   44440    11155   -47459     7751    51979    11322    41060    60808 
  -10593   -15041    15691    -5886    10087    28223      719    12329 
   30080     5109   -22573   -18801    43551    51538   -47723   -48149 
   39229     2328   -69400   -18457    26956   -44240   -93521   -43721 
   -2647   -12009   -19126   -18723   -43559   -50404   -11357    25351 
   75930    89168   -20228  -106536   -44818      810   -83844  -119454 
  -40139    10309    46226    52452   -55273  -128289   -57222    71531 
  124436    49044    27727    92132    18877   -67379    30154    44417 
  -97089   -73418    29809   -13224   -21304    49681    21400   -25475 
   38095    80234      213   -44764    24480    41270   -16492   -22032 
  -43363   -82530     5717    68407   -29868   -63672     2583    13832 
   12237     9400    -8630   -11068   -67363   -98323    -6296    25513 
  -28979     3053    49334    27793    61469   116105    43209   -22740 
   78939   145800    47702   -15174    16425    45427    72528    63003 
     731   -22963    -5539    -8904     -784    29947    24297    -5028 
  -65869  -167881  -118129   108238   128121   -99860   -96279   111018 
   44281  -130235   -23957   108267    19334   -71917   -28285    70526 
  124413   101578   112696    99177  -115805  -210093    48135   131923 
 -113215  -197588  -122543  -149922  -175509  -107223   -71645   -81282 
   62109   255854   118520  -210204  -239643    -1701    69188   -63790 
  -59340    47802   -12631   -54687    98253    74502  -204172  -234478 
  -20405   -33629  -157153   -13252   177460   120672    45411    30535 
  -97256  -125186    72169   149947    14791     2563   148875   136841 
    9748   -23884   -79423  -139569    -5112   182304   140491   -80507 
 -187616   -66316    56972   -50048  -233066  -182844    27333   122027 
   58588   -96822  -165562    51619   237547    75521   -47621    54375 
   42697   -58488   -52616   -63595  -125724   -79929    51742   141704 
  204935   210918    25361  -151896     9165   224899   103216   -64531 
  -47752   -89777  -100568    64937    39874  -154485   -78817    89808 
   32136   -55725   -63310   -76563   -28464    54800    53801    28601 
   43872    30589   -19390     2238    10639  -164326  -226369    38439 
  180238    50517     6806    13373   -51432    -1420   106570    90508 
   27641    -5236   -17288   -48517  -128781  -128348   -18997   -27132 
 -143132   -87631    90890    66334  -102413   -37665   176577   133662 
  -79498  -135915   -60559   -22993   -66012   -77485    14216    25915 
  -69280   -38908     -384  -117115  -127990   -10798    -7827   -43067 
  -15152   -17406   -98027   -68365   232858   374847    95215   -25573 
  148856    95160  -108938  -105744   -20611     8174    66182   110565 
    1208  -179894  -129384   118419    80843  -193985  -126513   136377 
   79537   -29921    85480    59574   -95457   -32470    26472   -82890 
  -48861    28088  -115290  -114728   102285    43480   -86607    66409 
  102174   -22635    40815    87473    -6725     4097    41755   -42221 
  -75594    -1710    36764    63699   108778    42747   -76126   -57528 
   24290    25188     6257     1464   -40317   -48956    31028    73334 
    1962   -35803    54141    76225   -57568   -98651    13636    98883 
  108810    18960  -107577  -108993   -67298   -84450  -101493  -117613 
 -118821  -115497  -119052     3546   166071   109471   -34809   -46052 
   -2884    69187   134539    45343   -52091   -18094   -38909   -53986 
   58226     9906  -147036   -30726   154782    91515   -13899    25316 
   95635    94338   -12912  -186694  -206447   -11103    76397   -20603 
  -13142    43788   -10339   -13884    24887    12276    11776   -77086 
 -142851    49315   138909    -9563    42267   161908    24845   -72469 
   24761    48301   -31888   -78287  -119956   -82641    85946   150155 
   33257  -117239  -183632   -89661    16772   -17437   -51764   -28283 
  -38022   -28339    38948    69055    29385    18420    75429    93021 
   63367    61685    50643    24364     3547   -46761   -77971   -46818 
  -37426   -83228   -66529    88528   194487    52929  -122239   -65469 
   38182    -3177    14966   153187   116434  -104460  -215968  -148193 
  -31402    16013    12631    39645    31554   -45285   -88523   -67913 
  -20173    27444    24628   -51902  -101919   -27969    41361   -38936 
  -93062    53474   174471   109788    88790   157037    87089   -98136 
 -163487   -45202    46961    10935    10026     3168   -91520   -61612 
   64659    18928  -111414   -84291    26434    20645   -65816   -64270 
   17624    20844   -35473     6916    83656    27450   -46774    75539 
  183679    -1201  -173277   -62046    92535    82472   -92230  -211689 
  -40562   142846    29933  -119325   -36599    83070     5514   -72081 
   31020    69730    13930    57152    38809   -56659   -29255   -36016 
 -130496   -87215    27946    28941    10976    90826   107260   -46299 
 -130365    -4460   105017    36094   -61900   -31020    27060     -569 
   10624    51344   -50904  -109533    40689   112288    30321     4912 
    1472    -4907    35934   -10648  -116002  -102766   -28642    15934 
    5495   -60696   -48174    52860    59802   -25354   -46059   -38148 
  -69387    -9753    64785   -17153   -51416    27805     9695    -1915 
  106533   107666   -36815   -80077    23641   116117    78553   -65164 
 -117080   -15053    30882   -20133    -1429    70920    70083   -28070 
 -104911   -17390    98899    44653   -99014  -178605  -105718    17734 
   33481    54110    73600   -10848   -16399    44335   -14115   -55429 
   21568    27014   -62727     4737   154650    91196   -16198     -839 
  -20089    -5863    49715   -48728  -132892   -10447   101908    47838 
  -57654   -96138   -52172    19128    39100   -25385   -68949   -25631 
  -59578  -132965     -513   133517    45929    24362    76646   -64562 
 -177626   -66823    26646    35644   106710   138716    30042   -63143 
  -84099   -38410    43368   -31812  -136593   -41034    30211   -15264 
    1618    25205    -1661    18472    52521    52785    45959    -4919 
  -56263   -38697     7595    67082    69660   -23899   -66033   -40856 
  -63934   -67826     5228    30746    10077    47510    45921   -18663 
  -11641    11605     7497    13282   -33255   -69620    -7601    47704 
   17435   -25968     7734    83705    72077   -51034  -102452     9277 
   41781   -99361  -122616    12856    74135    97510   120876    30562 
  -81711   -96500   -57180   -43008   -64883   -24474    39579    20035 
   15734    33116   -28802   -81928   -69400   -43278    13219    63954 
   47576    13554   -15276   -48633   -46059     7460    77256   100940 
   17163  -104253  -121046   -68781   -38356   -27818   -43777   -35521 
   20225    42905    48459    55962    26376    43374    93737     3423 
  -84207    41416    74996  -118754  -106816    85315    41532   -68492 
   -1854    47582    15823   -11003   -52434   -85266   -56407    33588 
  108808    67400   -13716    10220    58685   -28494  -157472   -91812 
   75226    58585   -34539    30572    93158   -22181  -106199   -32243 
   -6667   -70641   -64270    21956    90585    65098   -12378   -40829 
  -32429   -18119    10211    10598   -16517     1583    14062   -25961 
   -6453    59378    56313     2511   -37237   -46295   -22636    25343 
   11619   -65673   -72817   -52969   -76268   -55941   -28186   -66121 
  -80973     7485   124762   146348    84742    -3983   -77598   -38773 
   48404    14709   -85617   -85365   -15163   -20472   -27324    68839 
  104746    21174    13192   113042   136188    36153   -25771    27946 
   85259    20262  -123502  -140746    -9663    44895   -22005   -56401 
  -40655   -66428   -99524   -55629     7219    41037    71674    43744 
  -37964   -59363    13433    90310    60097     1521     6459   -44113 
 -125346   -99222   -53838   -75392   -62352     2408    -7611   -33608 
   67667   131940   -15998  -109397    75870   195709    47750   -20020 
   32455   -65155  -143569    -7385    86039   -18098   -81263    33524 
   90836   -49530  -117062    36952   129613    54681    67574   145924 
   49064  -128984  -188688  -141141   -54391     4175   -10077     1915 
  105686    93745   -79658   -76368    67710     8286   -80385     -299 
   -3330   -84275   -25903    43124   -34713  -118679    -2637   198803 
  151065   -29737   -28568   -11395   -41054    62989    69327  -108263 
 -139459   -29079    22281   -26813  -107314   -38666   114065   105529 
