Origin Time       2021/02/13 23:08:00
Lat.              37.7
Long.             141.8
Depth. (km)       60
Mag.              7.1
Station Code      MYG015
Station Lat.      38.1049
Station Long.     140.8699
Station Height(m) 3
Record Time       2021/02/13 23:08:07
Sampling Freq(Hz) 100Hz
Duration Time(s)  300
Dir.              E-W
Scale Factor      7845(gal)/8223790
Max. Acc. (gal)   432.638
Last Correction   2021/02/13 23:08:06
Memo.             
[...]
  -37073   -45823   -37608   -22777   -19140   -27483   -34901   -26716 
   -9131    -1915    -2380     7839    24540    31626    36228    44027 
   38654    21864    13840    14647    16101    16587     8965    -7256 
  -16133    -8066        8   -12244   -29107   -26403   -16559   -20416 
  -36256   -51763   -52381   -33243   -13585   -15342   -32169   -41319 
  -38892   -32266   -12120    21222    38329    26593     6579    -1287 
    9666    25944    22133     -210   -13941   -13934   -19102   -30856 
  -39010   -43993   -39700   -22474   -12854   -26407   -41196   -30383 
  -14380   -19828   -27207   -19548    -8194    -2282    -6666   -18839 
  -23926   -17226    -8158     -221     2652    -3562    -5294     1343 
     -83   -10276   -15896   -11429    -3488    -2628    -7861    -7244 
    2528     6642    -1584    -9441    -8488     4707    19427     5872 
  -32956   -57267   -53338   -42353   -36629   -25625    -7582     1490 
       5     3989    21074    42904    56319    53326    36108    18674 
   10625     6335     -807   -12031   -23893   -31290   -37435   -48837 
  -61096   -59811   -44308   -35803   -40622   -40678   -33605   -30514 
  -25848   -16056   -12232   -18678   -27214   -24564   -10843     3113 
   21944    42363    45364    36945    28664    15823     8149    12592 
    8861   -13151   -37191   -49391   -55078   -62392   -60708   -43132 
  -26276   -17783    -7048     1289   -11782   -43506   -72816   -86800 
  -78609   -55844   -39563   -33230   -31892   -37755   -39768   -25141 
   -6397     3730    13416    27816    42059    50117    45569    29261 
    6092   -16861   -24937   -15396    -4133     -336    -2346    -9265 
  -20389   -34603   -45805   -48107   -48682   -49064   -43356   -42660 
  -51714   -55768   -54222   -59166   -69434   -68339   -44694   -10652 
   21577    52605    73195    81819    93137    96500    73711    38955 
   10686    -5355      830    24282    26431   -11269   -54972   -77672 
  -84181   -84360   -80399   -61751   -33829   -15992    -5753    -3829 
   -7673     7044    33820    46737    48649    48878    47389    39128 
   16648   -15429   -46376   -68287   -73970   -68785   -63977   -57014 
  -43764   -27631    -8513     4905    -5432   -28934   -34597   -21386 
   -9375     3215    25583    37810    21801     2999     3979     4885 
   -9026   -24995   -28718   -18335   -12044   -23685   -38747   -39015 
  -21841    -7608   -24900   -56936   -58422   -35633   -22839   -13918 
     595    -2930   -33659   -62291   -62059   -40988   -18443    -2852 
   -4075   -19828   -25967   -18289   -16687   -23915   -34415   -44147 
  -35662   -12236      413     -410    -5512    -9732   -14404   -29739 
  -40537   -22821     2137    10586    22068    46734    62579    58824 
   44548    38697    52890    62108    45048    19942    -2674   -26392 
  -39642   -35572   -25103   -15838    -4962     5310    10021    13082 
    9973   -10072   -36536   -54318   -64652   -68318   -62957   -52833 
  -38723   -16283     6419    14347     9606     6860     9717    13549 
   17308    12811    -4661   -19880   -24691   -24872   -27248   -39059 
  -47025   -33183    -5647    27892    55109    48185    22137    19093 
   24044     4845   -21548   -41415   -64698   -82067   -85091   -88074 
  -96666  -103983  -105200   -93887   -75012   -59678   -43995   -30360 
  -27313   -26558   -19604    -8652     5289    22441    37257    45241 
   50344    59725    77568    89020    70036    30177     -658    -8316 
    5832    21298    16461    -1750   -15372   -18701   -16191   -13845 
   -9049     3353    14573    11948     3549     7638    15851     7990 
   -7053   -16228   -29790   -54911   -79612   -90250   -87733   -78656 
  -72571   -77602   -82883   -82628   -77939   -53303   -19313    -5508 
   -5026    -1902    11955    41400    62077    51646    28397    14558 
   13421    25139    39636    39550    26396    15434    17293    28069 
   35707    44605    56170    50680    25016    -7345   -42564   -77650 
 -101332   -97848   -64612   -25435    -5915    -1235     4696     4880 
   -2663     -623     4378    -7839   -33639   -60797   -81834   -89876 
  -86454   -84618   -92705  -103009  -106972   -99585   -76671   -48431 
  -22761     6508    33273    50753    69917    89324    95146    90780 
   86182    81229    69676    47379    19975      596    -2762     2176 
    6986    13817    13034    -9849   -40504   -52168   -46327   -45025 
  -56106   -71798   -81076   -67443   -31267    -8154   -16244   -29978 
  -37774   -51822   -70644   -81783   -77693   -64228   -51561   -44863 
  -44683   -29787    13921    54433    69228    78872    93668    97668 
   86976    71043    44644     5694   -27252   -45785   -58507   -69229 
  -75136   -76312   -71382   -53249   -24719     3222    25043    33667 
   27985    21536    20533    20775    21369    14910    -9780   -46438 
  -71189   -67698   -49249   -34290   -22280   -18692   -30618   -42973 
  -42822   -33951   -23164   -17949   -23969   -37817   -46780   -47310 
  -52473   -61492   -59370   -44120   -17631    16210    40968    50022 
   50039    42830    40887    55300    63926    42831    -8815   -71020 
 -105367  -101104   -84905   -73911   -73063   -75857   -58695   -22256 
    3682    13176    25832    41087    41638    30809    23773    20299 
   11148    -1000    -2099     5383     4035       66    13294    34994 
   43687    33581     6196   -22103   -26038   -12671    -9474   -19980 
  -32532   -38311   -28069    -7129     7026    12399    13693    10700 
    7218     3869     -130    -4561   -14528   -26447   -32251   -35355 
  -42375   -56127   -69391   -63679   -26730    26900    57014    43228 
   14666     6650    17147    18794    -2695   -29494   -39652   -35619 
  -27612   -18458   -11947    -6747     5447    19997    22042     9894 
   -2988    -5983     2293    18346    30385    29432    21671    10885 
   -3753   -13699   -12259    -6285    -2822     2185     3094   -10323 
  -15986     -592     4927    -9030   -20069   -19215    -1749    21165 
   20083     9053    20602    34861    24128    -3542   -31961   -50627 
  -62271   -69083   -62783   -54571   -56987   -63000   -70308   -78155 
  -85692   -88582   -67957   -29143    -4999     7387    31083    51822 
   56203    57449    52315    24378   -24240   -63391   -66216   -52492 
  -50936   -56554   -62117   -74455   -93649  -111181  -126131  -142619 
 -156465  -157316  -140773  -115987   -96253   -86240   -79874   -69522 
  -55802   -38101   -15638     1954    11253    24271    47953    71485 
   89490   112702   136154   144142   136845   120499   103225    87706 
   66943    38132    -2980   -51001   -85540  -107728  -126218  -127907 
 -112333   -92358   -65641   -44506   -51318   -66607   -67109   -74675 
  -99846  -117929  -123824  -132069  -140937  -140035  -125779   -98478 
  -61611   -26299    -4988     3132    10030    23706    47992    84890 
  122727   145119   148342   133492   107813    84601    67620    56191 
   53757    61078    66937    56972    38226    23120     4688   -17779 
  -31949   -33878   -25408   -13545   -11030   -21165   -39209   -65985 
  -95569  -113289  -123759  -139445  -152938  -155437  -145401  -112711 
  -61048   -16603    16416    53276    90911   117814   129045   121666 
  105854   102165   105754   100955    99165   103169    98167    92959 
  100417   108128   100078    82094    67166    52843    34431    14424 
   -1383    -5784    -4984   -17317   -50375   -89490  -107086   -95304 
  -75230   -60486   -48280   -38616   -29582   -18551    -8446     8943 
   44882    85876   107507   108344   107327   110624   107774    94139 
   68291    30842    -5359   -32297   -58641   -88226  -110334  -121162 
 -128506  -128970  -114504   -91426   -66792   -41677   -19516      210 
   22287    44892    61188    63775    49025    22488    -9670   -44313 
  -76674  -101486  -117845  -134454  -154086  -167100  -171501  -172081 
 -172543  -173562  -165811  -137795   -91498   -44381   -13765     5506 
   36393    78996   106450   109922   101483    91912    87696    87894 
   91729    97128    98487    97752    90402    64837    25438    -6380 
  -13560    -6150    -2000    -6166   -30585   -77429  -123697  -157138 
 -172249  -161404  -142730  -132694  -119323   -98875   -78252   -51981 
  -14926    24152    47952    58473    71586    70295    39217     1421 
  -27842   -49100   -67832   -94578  -125496  -149945  -161019  -156508 
 -141363  -117589   -85387   -40570    19467    69867    85677    80411 
   67082    35711     -936   -16152   -16555   -22241   -40678   -68936 
  -92902  -104823  -111794  -115858  -109335   -90783   -65905   -38769 
  -17563    -9289    -4931     5802    18412    30851    45419    53973 
   49665    29246    -4241   -21708     -596    37982    70066    95793 
  114903   130230   147553   157981   155718   139683    99817    40428 
  -16995   -61098   -99102  -139745  -173642  -192721  -201054  -198072 
 -191906  -186555  -160037  -106656   -51796   -15492      769    15218 
   50064    95925   128613   145407   146898   127306    94254    63462 
   45405    45947    62121    74919    68422    52054    37258    22549 
   10782     3118     -986     3696     8465     3597     7877    35646 
   68677    88138    92007    83698    68817    56180    54835    63139 
   70772    71882    61942    44127    39096    56822    81540   101638 
  116137   120870   112459    85626    40209    -3060   -23071   -23687 
  -22557   -26446   -29712   -34074   -45281   -56747   -59363   -45558 
   -8121    43919    82784    84284    60335    42978    36032    32965 
   37619    40217    26685    -2170   -41611   -90784  -145956  -197738 
 -238972  -268567  -284203  -282081  -269125  -257692  -251247  -247314 
 -240725  -228534  -212708  -191110  -160891  -121872   -78723   -43317 
  -10978    27827    64184   102952   148057   183385   209556   229288 
  238600   245573   248420   238287   220720   203832   189506   176546 
  158171   132834   112348    98643    82148    62380    36852      322 
  -41152   -84289  -131504  -180613  -229743  -270575  -291568  -298027 
 -298205  -295681  -302247  -319100  -330259  -328734  -321977  -311685 
 -293355  -276307  -266116  -248670  -217062  -179460  -144323  -114571 
  -91808   -77510   -69172   -61975   -49654   -29809    -3788    31766 
   75307   117616   158851   203952   249116   282653   295508   295560 
  290541   279794   272920   267888   250518   225391   189324   124279 
   44269   -12988   -36259   -46884   -61584   -72094   -76492   -90941 
 -111206  -124216  -140030  -154074  -145056  -126758  -121653  -120856 
 -114844  -101050   -65835   -14332    18235    14378    -8213   -24254 
  -25490   -22243   -14507     4035    18686    23932    32788    46684 
   67292    95937   120646   136098   146921   158510   170938   175163 
  168496   151908   114259    48840   -23657   -74966  -114415  -167381 
 -223138  -265627  -298005  -313417  -312801  -319314  -339066  -359113 
 -372973  -381431  -386739  -376115  -339223  -296511  -261908  -231564 
 -206404  -184451  -159441  -126733   -94180   -74146   -58494   -39205 
  -21470     -805    25431    49624    74268   106914   147559   189449 
  226270   259178   288598   312346   331146   345552   358600   371942 
  376670   371106   370394   374919   366403   343988   318718   288786 
  254194   220847   184947   143973    98963    44739   -14605   -65601 
 -103848  -129222  -142279  -154053  -176858  -207049  -230215  -234947 
 -213410  -154236   -61474    16537    37208    24624    13809     1678 
  -17046   -37044   -52305   -62533   -76600   -97857  -122728  -146839 
 -169555  -192289  -208452  -215832  -214384  -196682  -168906  -140744 
 -107067   -74043   -52986   -32031    -4395    16244    22438    17226 
   10251    13663    34311    74769   128480   183587   235753   282583 
  316992   336199   342289   332989   306066   258404   184289   100593 
   39604     2647   -29998   -58251   -73830   -80383   -84568   -92419 
 -106141  -118670  -120032  -103368   -69047   -28452     5436    31087 
   50431    63343    76030    94744   116688   131350   131295   117012 
   89685    60220    44976    42468    47506    63981    78314    72535 
   60755    55108    42849    21698    -3238   -31548   -57030   -78810 
 -100187  -121269  -142562  -152624  -140844  -119746  -103870   -98023 
 -108245  -134777  -169339  -206791  -246554  -286754  -319075  -339028 
 -359942  -386953  -402598  -403872  -405745  -402881  -377565  -335057 
 -279742  -203207  -131415   -91343   -61047   -22655    13470    43708 
   77841   113960   136794   152956   182164   223978   262981   283543 
  289219   297174   307840   317152   328765   333682   325462   324163 
  338166   337886   297307   218430   127561    56809     -305   -59995 
 -102222  -122548  -144081  -171306  -201027  -232860  -262344  -296040 
 -335992  -366618  -385437  -394862  -387987  -364315  -302368  -180894 
  -60797   -22319   -34913   -22921     1355    -1555    -6139    12330 
   36421    60685    86856   100403   101995   103445   104854   106574 
  106571    97029    76632    47729    13431   -23218   -63522  -105379 
 -139869  -163263  -177199  -177056  -158610  -127413   -94714   -79996 
  -99172  -139372  -176022  -199355  -200338  -169265  -121281   -88762 
  -78208   -71070   -69118   -83181  -100074   -98612   -73132   -37277 
    -434    38796    74121   104955   135629   163877   195016   231348 
  267360   302732   332406   353901   375613   396283   410105   421405 
  432151   439619   441039   422606   369173   291644   214436   144309 
   77757    17035   -32741   -67729   -94536  -126997  -166698  -205823 
 -242210  -276489  -304236  -322427  -334511  -344584  -355090  -363442 
 -357458  -320880  -245570  -146484   -61233   -13267    12997    41041 
   72076    97183   117055   136811   149605   145058   130522   121248 
  114417   100479    86674    79276    69411    54037    37037    13691 
  -15117   -36066   -46093   -52972   -62916   -78155   -87852   -82890 
  -73815   -69784   -72270   -81990   -92815  -101070  -107608  -108668 
  -99646   -79490   -56600   -42565   -34237   -21983    -5405    14804 
   36470    49311    54421    62766    73749    84306    95049   105117 
  113178   118106   121285   117464    91855    39988   -18850   -51048 
  -43468   -18813     -405     5823      491    -7191    -8414    -8973 
  -17262   -32682   -55312   -86335  -117401  -138925  -145920  -139013 
 -130113  -126382  -120654  -104430   -80179   -58101   -34973    -4627 
   23641    44826    56359    53122    44069    37066    29043    16823 
   -2675   -25371   -44247   -60226   -72621   -76549   -70082   -54816 
  -36213   -22283   -17146   -17275   -16251   -13510   -13464   -19441 
  -34458   -57855   -84188  -109567  -130684  -146318  -158020  -164543 
 -166434  -166203  -164274  -164583  -167698  -168258  -169902  -172925 
 -166679  -157693  -154781  -146773  -133598  -121030  -108783  -107797 
 -114158  -111931  -105043   -96371   -81001   -61029   -40609   -21870 
   -3064    16714    32179    42226    51401    58525    62361    67981 
   76573    82447    82042    80445    83932    91457   102257   118143 
  137343   158215   181098   203274   220704   231156   230058   208737 
  163360   107277    64432    45131    41233    42585    46022    52231 
   56668    50762    36984    26991    26820    36497    48467    51116 
   47128    43339    34558    20729     7599    -7659   -26450   -46708 
  -69346   -86810   -87718   -76774   -68264   -65192   -58760   -47455 
  -39663   -36844   -35509   -37343   -41723   -40662   -26757      411 
   34726    69492    99396   116070   116742   109698    98797    81306 
   57195    27276    -5655   -37512   -70079  -104190  -134400  -160201 
 -186309  -214448  -241589  -256595  -241289  -182634   -93194   -11182 
   39928    71853    97853   115103   127522   142861   147403   123934 
   84542    52512    30412    11094    -2332    -3461     7267    22291 
   31644    30419    15709   -12195   -36165   -36593   -13444    22870 
   59109    85356    96261    82379    53746    31259    10088    -5190 
    2493    18111    23305    18237      132   -27634   -55822   -81946 
 -100518  -111388  -122202  -128028  -125498  -122424  -116557  -104071 
  -90132   -75085   -58554   -41369   -18554     6972    26068    39820 
   50627    57943    64633    72802    83836    96040   104425   107064 
  101711    89456    74682    52502    21147    -8957   -36003   -62430 
  -82377   -98242  -113624  -122083  -125682  -127710  -120270  -101007 
  -76326   -54561   -46260   -54031   -68848   -83421   -95607  -104029 
 -108064  -110818  -117936  -127707  -136329  -145740  -151902  -147089 
 -129119  -100294   -72504   -59189   -60127   -65465   -64503   -52537 
  -34214   -20460   -20129   -31699   -49227   -66515   -74085   -68663 
  -55345   -36479   -12241    13659    34653    40533    18173   -27097 
  -62872   -75089   -80595   -80136   -66856   -53619   -46685   -43011 
  -49223   -66645   -80119   -75074   -51023   -15093    24561    58469 
   79112    83438    75331    63234    51274    42955    40521    37966 
   36423    45405    60462    71489    77618    76979    70189    66646 
   71145    81598    95069   105074   102146    86917    73253    64542 
   51463    33417    13620    -6068   -20092   -25756   -22135    -7819 
   11315    24428    25884    15321    -6824   -34379   -57996   -75797 
  -89263   -97972   -98014   -84592   -64112   -47722   -35356   -20610 
    -623    22546    45594    68602    90664   107208   117599   122670 
  122157   119191   114731   108974   104016    96106    80158    56305 
   29948     9482    -4391   -15215   -20794   -21163   -17838   -10968 
   -5933    -5233    -5616    -4495     2772    18048    36146    51345 
   56241    41188     4453   -40911   -75443   -94398  -108259  -119402 
 -125177  -131866  -143483  -157366  -170027  -174814  -168517  -156918 
 -140246  -114995   -92175   -80086   -69927   -56567   -39788   -16703 
   10334    36279    56818    68928    76925    84792    89596    91848 
   95326    99600   101877   100557    94628    80790    60350    43706 
   36517    35041    36551    38271    32394    15518    -5533   -23399 
  -35259   -42037   -48755   -57974   -67089   -76488   -90720  -108186 
 -117802  -108662   -80730   -47359   -22767   -10255    -8903   -14944 
  -17128   -11762    -9760   -18596   -37746   -64856   -91413  -108556 
 -117069  -120696  -119038  -111711   -98807   -76887   -45497    -9074 
   28290    58484    74290    77159    68212    49048    28837    10416 
  -12518   -36359   -54191   -66409   -70121   -66371   -61176   -52002 
  -39301   -30090   -25575   -23099   -20225   -16659   -15869   -20530 
  -28624   -39798   -57993   -78709   -91072   -96558  -104564  -114843 
 -121336  -122154  -115207   -98041   -72550   -40917    -8637    15322 
   31311    44423    54453    61484    65861    63563    54938    48813 
   49933    56933    66702    72019    68781    60003    48953    36829 
   21944     2347   -19723   -40722   -55999   -60538   -56393   -49635 
  -43869   -43924   -53042   -66865   -80107   -91382   -98053   -94582 
  -78325   -57199   -44775   -43902   -47625   -50399   -49717   -46641 
  -41103   -31866   -23831   -19838   -16656   -13954   -13784   -17167 
  -21235   -19745   -11277     -417     4471    -1463    -9451    -9763 
