Origin Time       2021/02/13 23:08:00
Lat.              37.7
Long.             141.8
Depth. (km)       60
Mag.              7.1
Station Code      MYG008
Station Lat.      38.5676
Station Long.     141.4266
Station Height(m) 26
Record Time       2021/02/13 23:08:07
Sampling Freq(Hz) 100Hz
Duration Time(s)  188
Dir.              U-D
Scale Factor      7845(gal)/8223790
Max. Acc. (gal)   135.627
Last Correction   2021/02/13 23:08:07
Memo.             
[...]
  -31468   -19211   -58784   -77301   -66210   -69163   -55190   -26909 
  -44525   -74351   -65084   -44923   -30910   -31024   -70117  -106628 
  -78776   -32356   -36104   -54311   -46587   -49933   -65828   -53877 
  -37970   -40458   -46406   -69805   -91894   -66469   -29419   -41405 
  -78459   -83963   -48111   -12896   -34168   -81561   -79446   -51930 
  -48253   -50375   -44636   -53285   -73045   -60876   -25073   -25151 
  -65259   -98653   -94941   -55767    -9450      716   -36246   -76530 
  -81479   -54122   -21100   -23649   -73219  -102864   -63288   -23683 
  -46082   -67725   -32471   -12388   -60207   -94780   -76890   -54494 
  -37999   -46094   -73168   -49073    -4415   -21072   -64465   -76400 
  -56814   -29729   -38240   -72473   -68517   -41773   -35797   -32741 
  -40188   -69201   -70657   -42326   -48563   -85951   -80014   -23886 
   10332   -16640   -91341  -147347   -92773    15145    19961   -47501 
  -63683   -48016   -42655   -55435  -101588   -98062   -11561     8746 
  -69853  -105825   -63676   -26377   -33567   -63834   -92183   -75988 
  -12511    -8942   -76100   -76111   -10228    -5661   -75647  -135502 
 -124422   -47796     6365   -34491   -90657   -68108   -31170   -49594 
  -68413   -48579   -45234   -71167   -72230   -64640   -72283   -48016 
  -10690   -23743   -72441  -110249  -108746   -72165   -41547   -28259 
   -5165     7118   -30173   -68570   -52728   -31090   -46159   -64037 
  -73414   -87390   -76341   -31915   -14736   -35973   -48469   -67333 
  -87490   -56054   -29965   -69454   -90678   -42682    -6532   -31896 
  -61067   -59776   -65168   -75702   -57002   -36356   -55545   -75487 
  -48510   -26370   -52851   -66050   -45948   -51024   -70939   -70108 
  -61677   -43116   -18793   -27808   -69630   -85376   -56235   -38986 
  -46599   -62896   -97916   -78522     5304     2227   -79265   -95035 
  -49248   -10120    -8081   -67971  -131795   -92480     1044    12522 
  -54999  -102066   -72199    -8602    -2057   -59902   -94632   -55580 
  -21319   -56933   -84094   -64737   -62876   -52825    -4993   -18657 
  -89469  -103188   -77546   -58156   -40807   -46597   -49804   -34311 
  -49153   -70484   -44956   -26090   -66502   -95656   -56182    -7327 
  -11470   -68756  -109669   -54966    24449     6574   -64978   -90990 
  -77161   -58916   -40525   -39118   -54423   -63089   -74833   -74613 
  -49779   -53531   -72172   -46241   -12596   -17275   -34716   -53788 
  -92354  -120523   -90140   -18200    20281   -29983  -121828  -136242 
  -55262      727   -33386   -92253   -93818   -34126    -3982   -49607 
  -78520   -43989   -26080   -57007   -79269   -60280   -28027   -19569 
  -34565   -54001   -77688   -99922   -94433   -54992    -5408    16285 
  -28092  -100530  -101293   -46492   -27707   -30942   -28248   -54788 
  -82931   -56384   -19318   -39259   -85896   -92519   -68875   -61562 
  -59664   -42523   -32832   -36445   -41436   -48556   -60345   -80655 
  -82302   -47871   -19395   -17551   -47617   -90994   -73654   -26673 
  -33953   -57230   -65053   -82667   -86170   -41617      286   -40953 
  -96940   -51356     6959   -31685   -87916   -87791   -58023   -12904 
   24718   -17267  -100242   -83381   -10643   -28513   -96340  -105779 
  -65406   -39444   -49999   -65327   -58533   -37561   -34732   -56751 
  -63431   -65468   -82580   -59130   -15279   -27958   -64341   -88797 
 -106709   -84549   -43657   -34007   -46013   -58025   -33124     -160 
  -40522   -93326   -76216   -42014   -40427   -59502   -72582   -64891 
  -55374   -62298   -57410   -12195    10025   -48212  -108324   -97020 
  -42912    -7192   -32879   -67683   -45702   -16039   -26646   -80256 
 -146403  -112436    12316    40504   -44180   -95376   -88792   -60940 
  -27772   -22052   -39727   -55482   -64314   -68681   -82201   -81630 
  -39321   -13072   -29064   -47471   -85877  -129909  -108680   -49963 
   -9902    14921     2220   -57122   -97810   -78260   -36975   -23373 
  -48186   -93912  -112125   -70671   -29961   -53131   -91064   -63856 
    3608    -2424   -94331  -136306   -69588    13610    24784   -34753 
  -88801   -75743   -42028   -47279   -61623   -66066   -76226   -72600 
  -44057   -21155   -36784   -75972   -85675   -50114    -6363   -14116 
  -85954  -112708   -24066    50093     6184   -67274   -88364   -69041 
  -40841   -58409  -125960  -148540   -80435    10530    52050    -2385 
 -133143  -183544   -83508    26491    38703   -41845  -126636  -111645 
  -49477   -16248     1425   -38767  -101132   -56066    11974   -27972 
  -77839   -70943   -65445   -39498   -10469   -56590   -82669   -22752 
  -17863   -87658   -87890   -23661   -25269   -84878   -86007   -35989 
  -16108   -32989   -71143   -91723   -53771   -24372   -53693   -63790 
  -31144   -37613   -84546   -90063   -47941   -26511   -52853   -75199 
  -57483   -52203   -68509   -41580      267    -9906   -56486   -88925 
  -83933   -79822   -88103   -60068   -26084   -31935   -43290   -63722 
  -96242   -79635   -28749   -21424   -57915   -81858   -73217   -50026 
  -22138    -2362   -10411   -30273   -34570   -33274   -29305    -7244 
   -3303   -53470  -103188   -87359   -35314   -29192   -70580   -82092 
  -57942   -44653   -35297   -20910   -18334   -30665   -51379   -71811 
  -88169   -79794   -27291    -6313   -72666  -115330   -77460   -58608 
  -88650  -109020   -72250     2384    -5078  -103519  -148396  -111295 
  -55158   -21266   -41889   -70812   -74760   -83716   -52947    21257 
   19264   -80692  -142591   -90740   -38515   -89914  -151548  -113355 
  -25343     6662   -44344  -103420   -87060   -13275    24476   -22019 
  -80547   -73047   -40247   -30662   -45265   -72021   -52348     3076 
   -2394   -68241  -116324   -92489   -24127   -17922   -98709  -150704 
  -86420    11982     3611   -93507  -131656   -60084    17054    11458 
  -51867   -87763   -40065    24510     -712   -72777   -80859   -48297 
  -62664  -108195   -98115   -17307    39637     7469   -59248   -95582 
 -104067   -85695   -31311    -1566   -41025   -85488   -89338   -59412 
  -18391   -31387   -82594   -76225   -25473    -2157   -25888   -71960 
  -72131   -12326    23360    -1854   -52317  -109034  -139695  -108109 
  -53265   -32397   -45868   -56344   -40572   -31596   -63155  -110988 
 -116527   -51513    -3142   -48496   -84700   -28285    30329      178 
  -94664  -149555  -104296   -37760   -49091  -114272  -116337   -12495 
   67589    11203   -89600   -98971   -42697   -24598   -57856   -88901 
  -80134   -19857    35237    17259   -30496   -53666   -76885   -97486 
  -71471   -13763   -10184   -85685  -126166   -64855    14424    21656 
  -59096  -119283   -50055    15456   -47842  -105900   -82356   -51019 
  -14146    -2289   -88523  -153503   -76392     -276   -33794   -77444 
  -73260   -60110   -65597   -84109   -93897   -77970   -39456   -25799 
  -68324  -107493   -76269    -6211    10129   -45173   -72913   -26426 
   -5806   -57766   -91206   -56155    -7851    -7979   -48691   -78460 
  -67474   -30514    -6415   -24966   -88898  -131677   -93748   -46323 
  -46068   -47089   -48134   -59856   -43058   -22250   -34188   -55701 
  -91875  -118768   -78273    -9533    14692   -28204   -93604   -91833 
  -33968   -14457   -52839   -99511  -100761   -43941     -375   -30657 
  -76449   -71428   -50467   -44064   -22997   -13022   -54757   -78776 
  -51248   -53239   -82881   -58441    -9907   -25010   -77340   -96664 
  -77849   -37860   -28412   -73953   -80365   -21639    -3426   -35823 
  -56949   -80829   -88302   -32987      965   -41845   -69635   -75938 
  -84497   -21308    34793   -22927   -73251   -57723   -65707   -89681 
  -74628   -48505   -60176   -95824   -99208   -62618   -39926   -56886 
  -69225   -27754    18409   -19068  -103319  -138048  -102382   -30053 
    3778   -44405   -92410   -66536   -28771   -43553   -65186   -62762 
  -68173   -61946   -35541   -37112   -47661   -40533   -59790   -95593 
  -85791   -40992   -24085   -62618  -109075   -74294    29015    52146 
  -49210  -115649   -66128   -28138   -64380   -88582   -80666   -58280 
  -18234   -17458   -54602   -52670   -15113    -4473   -59822  -137228 
 -123091   -15330    37847   -23278  -100074  -111801   -46973    25799 
  -16082  -111203   -96786   -48051   -66683   -64346   -32447   -26993 
  -13540   -22873  -105821  -171857  -144062   -79159   -39178   -16394 
     541     6031      436   -33600   -82999   -77787   -37805   -53881 
 -109294  -133668  -110041   -51711    -1318   -24086   -96033   -99023 
  -29867    16425    16633   -35618  -105765  -101730   -58861   -66108 
  -74197   -34817   -24289   -74578  -101244   -67972   -21726     4833 
   -4353   -40466   -70673   -84944   -72023   -43133   -38403   -39960 
  -32401   -35135   -31473   -42994   -92404  -109580   -72164   -37052 
  -36911   -59416   -56516   -32768   -41401   -65207   -60281   -35696 
  -30434   -55386   -62359   -30942   -11453   -28503   -48474   -40784 
  -41908   -85541  -104989   -64593   -23194   -17712   -43514   -73878 
  -80935   -62378   -46718   -64385   -70924   -31054   -15581   -53115 
  -69399   -35622    -4337    -8055   -49709  -111665  -119326   -50866 
  -21439   -92315  -135234   -58660    22096     4314   -47795   -67795 
  -79849   -84180   -60316   -52196   -65998   -48309   -31078   -74483 
 -123138  -101436   -46630   -26941   -50091   -76104   -76708   -71455 
  -64708   -63342   -68208   -24710    18403   -24513   -75097   -69248 
  -47741   -39676   -42579   -29002   -14250   -25135   -33889   -52069 
  -74834   -66075   -79181  -108510   -63359     3168    -9748   -65713 
  -90099   -54334     9490    10368   -62066  -100997   -64712   -36765 
  -69284   -92533   -57049   -18507   -12981   -41694   -87853   -84757 
  -52215   -58014   -54504   -31823   -48753   -71069   -58638   -29501 
   -3608   -15396   -67825  -112040  -108114   -52007     2968     4014 
  -34735   -71053   -59093    -8872   -11894   -76081   -89140   -32304 
   -7007   -47046   -73793   -32796    -6346   -66357  -127306  -111256 
  -50834   -23800   -68166  -108251   -74665   -16146   -10145   -49219 
  -54373   -30250   -37351   -57173   -67544   -60204   -35301   -51399 
  -95742   -93830   -70742   -54297   -28414   -39360   -77244   -56417 
  -24916   -54449   -88592   -97452   -77850    -8888    35048   -27668 
 -129852  -139214   -52957    -8638   -40576   -46546   -37384   -79216 
 -107350   -60804    -3566   -14968   -60706   -59414   -40382   -49842 
  -38461   -13142   -40024   -84827   -89785   -68898   -51213   -62359 
  -83839   -69360   -46160   -51524   -85232  -127537  -105192   -25546 
    3950   -19619   -47036   -67994   -50683   -17126   -35712   -75296 
  -67132   -44807   -56667   -47771    -7863    -9229   -26719   -29281 
  -59513   -81588   -55097   -39218   -39621   -17165   -13143   -37706 
  -48045   -58457   -73018   -62631   -47209   -51219   -51290   -36605 
  -38874   -60049   -46099   -10827   -19171   -23623    18044    17289 
  -54430   -94821   -72238   -62784   -64417   -32301   -24617   -67355 
  -71005   -31511   -33696   -60610   -83809  -117497   -87284     9659 
   33561   -28015   -75477   -82065   -60174   -46874   -84148  -133529 
 -137538   -85642   -16536   -15009   -74181   -79469   -27930   -21895 
  -78190  -121122   -89729   -26134   -22497   -71197   -80045   -24301 
    3869   -35775   -60411   -65511  -117180  -164413  -132775   -60988 
  -12526    -8540   -59391  -114968   -84167    -9679    -3798   -58824 
 -102659   -85199   -27372   -17153   -44506   -43245   -62208  -116969 
 -120299   -75855   -43810   -24804   -26755   -59439   -95088  -107697 
  -97244   -94151   -81827   -28163   -24792  -101210  -112814   -37087 
   -9652   -55040   -76781   -45081   -19264   -22932   -34947   -71776 
 -128051  -120992   -42952      780   -20281   -40151   -39945   -53094 
  -67282   -59637   -71521   -82012   -22018    13184   -62725  -127327 
  -99800   -47287   -15337    -5883   -15749   -32281   -43324   -29899 
   -7978   -24181   -62256   -67047   -28944     1456   -28557   -91910 
 -103261   -47961   -15722   -38215   -44728   -37166   -58666   -58932 
  -38680   -51808   -41790     -691      839   -21708   -52624   -80919 
  -67598   -63957  -108942  -106309   -34326   -20860   -81857  -107086 
  -85422   -66379   -48123   -39455   -48082   -29216     2180   -27726 
  -71680   -41396     4440   -18779   -76642  -104769   -98845   -67734 
  -26522   -38291  -112652  -154630  -103553   -11952    24451   -21460 
  -75689   -49742    18372     6266   -74563  -110899   -67331   -19257 
  -47416  -106974  -120807   -82173   -38649   -66145  -118793   -82761 
     542    15611   -43698   -87940   -84433   -75373   -48907   -13602 
  -41737   -95989   -96780   -64388   -16579    31575    20208   -34299 
  -75250   -95202   -63657    -3693    -6633   -47479   -75354  -120364 
 -132073   -50762    20497     2084   -27693   -20421   -41735   -89903 
  -75277   -48212   -82231   -80865   -31477   -14705    -5265   -14056 
  -61755   -65427   -47625   -88441  -101329   -32121    12420   -26343 
  -85716   -84208   -29095    -6502   -43229   -75537   -57797   -13171 
   11254   -11746   -74387  -130262  -138546  -118585   -92684   -48631 
   -9738    -2925    -5751    -2376     1586   -17783   -76535  -111487 
  -77453   -35527   -25195   -44938  -103154  -136674   -72724    12155 
   -1192   -73834   -87840   -42223     4067    25444   -39040  -168871 
 -195366   -81419    27095    37978   -23094   -75253   -72328   -56385 
  -66352   -91602  -126573  -129701   -58360    -5012   -52012  -124136 
 -155397  -135893   -52092    26977    11450   -57561   -88622   -71170 
  -49292   -40656   -42480   -56851   -56748   -30177   -22099   -44385 
  -55089   -37613   -20839   -33832   -47225   -24468   -24821   -86934 
 -115195   -60520    -6705   -20876   -85174  -117975   -71181   -15774 
  -23920   -68696   -93371   -68442    -6528    21209   -34037   -91376 
  -68164   -30801   -35653   -35121   -17138   -11990   -20475   -39442 
  -58004   -38473    -3719   -27029   -75563   -74502   -57896   -64917 
  -61241   -47556   -59877   -71871   -59132   -51962   -36285   -17095 
  -67961  -147441  -141168   -59370     8365     4349   -64647  -116918 
  -88084   -37021   -39577   -72208   -91446   -98356   -92934   -62775 
  -30740   -25878   -26557   -14874   -11553   -17697   -22137   -39661 
  -72951   -98371   -92163   -53111   -28340   -63807   -99393   -44408 
   20695   -11091   -32424    31679    61607     5603   -76505  -142495 
 -141421   -75012   -50888  -101395  -124332   -77733   -23710    -2569 
  -21101   -57820   -73758   -87675   -96784   -45308    11064   -19846 
  -76671   -81785   -77280   -96732  -108442   -87682   -62052   -70945 
  -74822   -39471   -32956   -73495   -89073   -94400  -115846   -68917 
   15345      -71   -62073   -46997     1136     3064   -23764   -60147 
  -92392   -87520   -70070   -44892      942   -13074   -83347   -89762 
  -44969   -31545   -29725   -23503   -42059   -57709   -49698   -52042 
  -59031   -58661   -83189  -122845  -122092   -70424   -13921    -9309 
  -59155   -86301   -50696   -13043   -22696   -72015  -118443   -88595 
   -1127    17559   -40977   -72729   -64214   -59016   -62849   -64659 
  -61294   -62240   -47474    -5949     6724   -10552   -16077   -30134 
  -33542     -808    -9479   -69117   -79247   -44185   -35340   -41330 
  -53727   -79096   -83015   -73811   -64002   -28399    -3507   -31803 
  -80557  -105856   -75973   -16256   -18624   -81592  -125918  -120353 
  -66001   -26164   -49270   -67437   -54230   -55806   -58765   -41123 
  -39476   -67501   -71362   -23869     7092   -45948  -119938  -111943 
  -51278   -11888    -6959   -46329  -106698  -109944   -49661   -13836 
  -36768   -67074   -70691   -64270   -61734   -45962   -37829   -73908 
  -86077   -25605    17562    -1161   -30091   -44564   -45870   -30705 
  -11925   -26975   -62500   -66510   -58801   -48824    -2717    34747 
     666   -81126  -138744  -126404   -57156     5559    -6555   -72385 
 -106583   -85109   -39889   -17046   -49932  -109491  -128228   -68465 
   13004    -1317   -97414  -111302   -19194    11730   -55883  -105752 
 -128688  -150700  -100315     2640    35851   -12866   -86810  -134766 
 -102548   -42319   -37369   -57200   -69542   -70919   -42206   -30199 
  -88684  -136869   -87286   -22851   -43988   -87759   -60438    -2050 
    -210   -45604   -74417   -61735   -23720   -10879   -65144  -136714 
 -116472   -11958    30721   -29747   -75172   -51698   -36240   -59910 
  -62653   -55831   -73484   -78264   -85463  -107087   -67714    16726 
   30433   -37189   -79533   -42823     3330    -1775   -28825   -42458 
  -42881   -46402   -53223   -45246   -38715   -54472   -67305   -54638 
  -38464   -42786   -59845   -96056  -119126   -45715    47734    12506 
  -87340  -127724  -118285   -82572   -30248   -10127   -40236   -73901 
  -56893   -14449   -16264   -43848   -56737   -61219   -55728   -57276 
  -71054   -73647   -64859   -41507   -23634   -52871  -108272  -131812 
 -105328   -62368   -42040   -41837   -42839   -55883   -77414   -71676 
  -49427   -38658   -35742   -53730   -87926   -96286   -72497   -46610 
  -31325   -13872     3576   -15870   -77242  -104457   -67190   -33648 
  -28813   -55695  -110721   -97713    -4018    34267   -10318   -49384 
  -63732   -61134   -35814   -36221   -78777   -96932   -68200   -28884 
   -4685   -13845   -50591   -82491   -93334   -67207   -11075    -6759 
  -68887   -89361   -64924   -83366  -101479   -48525     4669   -24371 
  -90119  -107053   -69310   -14349    19473    -9143   -74540  -103898 
  -79629   -32918   -11600   -29643   -49605   -65551   -84230   -87922 
  -84037   -79373   -61368   -45330   -60628   -84484   -72489   -42499 
  -27010   -25863   -39523   -61130   -71946   -50901    -4746     6223 
  -35330   -62255   -41505   -16237   -30099   -70976  -104664  -116537 
  -91446   -46576   -25837   -29454   -45810   -58024   -43214   -28750 
  -35937   -43078   -48674   -62490   -79031   -84075   -52216    -8314 
  -25006   -87949  -117331   -92105   -43347   -22563   -51074   -69566 
  -43224    -9930     8216   -19512  -103410  -136193   -60463     9649 
   -4891   -49237   -67813   -67058   -61765   -44406   -33863   -53083 
  -66341   -58403   -52874   -44244   -41852   -65045   -81095   -70829 
  -67284   -70087   -60682   -52297   -45373   -55869   -94640   -95083 
  -39553   -14766   -37407   -47598   -42620   -35175   -31241   -55174 
  -65697   -32391   -33201   -71909   -75432   -75442   -93355   -85657 
  -67292   -46450   -10208    -2093   -38411   -64299   -42886    -1668 
   -3969   -58378   -98319   -92099   -59761   -32140   -47767   -80264 
  -51403     8891   -12008  -102502  -135936   -82804   -44490   -51980 
  -37816   -23083   -57176   -83008   -58396   -28530   -42188   -79452 
  -77866   -36100    -8577   -28760   -86833  -111848   -53090     -333 
  -50103  -124650  -117224   -62383   -23885    -9551   -34854   -84939 
  -76658   -20250   -21238   -61087   -61412   -33385   -15153   -31533 
  -68359   -82854   -83525  -102891  -120062   -87226   -23214    -1379 
  -32054   -50903   -34168   -32062   -44447   -29995   -36078   -83956 
  -95187   -54654   -19947   -25042   -57577   -67061   -40849   -24695 
