Origin Time       2021/02/13 23:08:00
Lat.              37.7
Long.             141.8
Depth. (km)       60
Mag.              7.1
Station Code      MYG008
Station Lat.      38.5676
Station Long.     141.4266
Station Height(m) 26
Record Time       2021/02/13 23:08:07
Sampling Freq(Hz) 100Hz
Duration Time(s)  188
Dir.              N-S
Scale Factor      7845(gal)/8223790
Max. Acc. (gal)   292.940
Last Correction   2021/02/13 23:08:07
Memo.             
[...]
    6296    16713     7420    13352    22293    24109    11055   -19415 
  -29805    -4853    24640    40791    29354    -7670   -23954    -7273 
    7641    12235    14805    14752    16235    18643     6544   -12862 
  -11028      499    -3942    -8976    -1129     9414    21506    27218 
   10435   -10497   -13340   -13652   -19842   -12858    10230    23672 
   13050    -2353    -5455    -2189     6547    19629    22395    21826 
   27021    12981   -19838   -41315   -49878   -40306    -6480    11726 
   -1406     1077    30292    38041    12768   -15437   -36189   -36459 
   -6755    23124    33567    27614     2587   -23553   -23958   -12190 
  -15057   -19072    -1098    23349    29525    20702    15589    19734 
   19252     9239    -4271   -21235   -28447   -15966      425    16883 
   34507    39721    34681    15917   -26241   -52378   -32926    -2547 
   22924    52072    56281    25443    -3470   -15589   -16769    -9378 
  -13590   -33361   -31514     9216    52118    49848     6670   -24079 
  -17559     1269    12631    13042     3672    -1957     -858     -268 
   13392    38122    35722      -85   -26740   -23788   -17173   -20981 
  -12245    14605    35662    43522    37790    15016   -11892   -30063 
  -24818     4310    17705       40   -20545   -19341    11538    42986 
   37034    -2833   -43054   -43895   -10075     8094     9711    28927 
   43356    29178    15286     4193   -18308   -27052   -14435     -795 
    2315   -10473   -15973    12953    48767    52821    27598    -9080 
  -35903   -27793     5390    25768    27117    19051     -220   -14166 
  -14739   -15697    -9929     8355    25159    30862    23989    11107 
   -2300   -17379   -27950   -19674     4658    15071     4129    -1031 
   -4194   -20043   -15730    25099    58621    46418    -3910   -51267 
  -57408   -23191    16032    25029     3051   -18416   -16316    -3204 
    -599      271    11045    17062    14569    18401    25903    21258 
    8704     7987    13462     2623   -12426    -5470    11820    20081 
   19954     4320   -19850   -22200    -3920    14435    29320    29643 
   -1598   -45530   -59961   -32462    25899    87532    93849    32972 
  -33218   -62013   -46086    -3191    19903    16363    17066    14377 
   -3696   -13950    -8796     -198      747   -16605   -29552    -6696 
   31799    51495    46394    18414   -18122   -33551   -22933     -885 
   29222    56498    56097    14535   -44251   -61815   -23279    15354 
   14192    -7732    -7466    24127    43657    22111   -10648   -15520 
    1075    14226    21293    15870    -9256   -28344   -24001   -15084 
   -7461    10577    21215     4307    -9223     6552    19962    15973 
   18378    19325     2577   -14773   -13406     1873    -1116   -23456 
  -25069    -5891    18212    38299    31303    14062     5780   -12440 
  -26476   -22979   -20515    -1840    42819    66193    47333    14686 
  -13949   -28684   -15480    15527    34763    21631   -19876   -55480 
  -50341    -6826    44940    66910    30532   -33976   -62364   -55210 
  -42138   -18388     1063     3505    13427    30122    40814    44231 
   26808      603     4850    37349    45889     8075   -25907   -17570 
   -1081   -14789   -44223   -57275   -31664    30767    68604    37219 
    -179    18585    58457    64015    27310   -21035   -46749   -45535 
  -35672   -26959   -20723   -18334    -1892    35607    40455   -15322 
  -67679   -62658    -4823    65821    80071    27245   -25150   -44520 
  -43839   -30604    -7847    24746    54877    55663    28028     -256 
  -12960    -6862     9321     9620   -12295   -22029     9440    61888 
   88699    72877    24871   -32557   -49831   -18810    -1973   -20540 
  -38499   -35820    -5071    47808    85000    78664    45770    12487 
  -19249   -45550   -43225    -9811    13070     2027    -7713    -5929 
  -19475   -18972    22013    49435    26492   -23089   -64737   -56323 
   -1248    36339    49037    58081    30099   -21143   -36460   -27357 
  -28815   -32790   -24823    -8650     5925    18056    38114    69156 
   93177    82591    19241   -73600  -114282   -51214    46836    84592 
   54118    -9501   -61638   -48184    17693    63853    66893    43345 
    5949   -18380   -27853   -50598   -74065   -60936      911    81168 
  121498    97506    33489   -27186   -48467   -29571     1505     6061 
  -29635   -71528   -90454   -86486   -66903   -44960   -21537    11703 
   34898    34057    35842    50619    58299    51717    25143   -20696 
  -44917   -18459    24039    45431    54931    57288    28432   -26589 
  -57435   -33601    25924    78719    82672    32061   -36842   -86629 
  -93933   -49059    33318   105889   116145    58517   -20352   -59764 
  -33505    27751    70087    54780   -12978   -84213  -122499  -117009 
  -67279    -5301    42557    88176   116943    88231    24282   -12918 
  -22765   -29583   -25385   -28038   -57157   -76100   -63270   -36067 
    4683    52230    73269    58102    23755   -18330   -45287   -28193 
   18416    43255    19498   -23430   -32647    12152    78285   111349 
   94533    52766     6592   -15592    17170    63456    49852   -21558 
  -92489  -112769   -76630   -23357    12862    18681     -542   -18476 
  -31561   -52882   -56953   -22894    16613    36005    45088    53110 
   62275    64480    50868    28972     6689    -5825     -113    11277 
   14143     -249   -29331   -42290   -28571   -24428   -47079   -69734 
  -67626   -38935     4344    43455    67363    83242    93761    78973 
   31495   -22096   -55880   -58703   -36736   -12469    21936    76779 
   97027    44186   -30835   -74565   -84430   -63216   -25294    -5285 
   10426    61807   123637   133394    76399    -9263   -81194  -107266 
  -82377   -40039    -2251    22711     5460   -57100   -96504   -44351 
   70984   155707   145524    52852   -45698   -87430   -66167   -10215 
   26350     5071   -52232   -94676   -83702   -19676    48359    81448 
   92253    99715    94971    47452   -49287  -125400  -108326   -17308 
   67304    69880    -9796   -78409   -46001    79228   183857   176003 
   89596   -32680  -167977  -205781   -97567    33259    99353   115209 
   71590   -25435   -91940   -74827   -13481    33978    40342    15203 
   -7302    -5451    21890    52035    39448   -19279   -73742   -80245 
  -20223    69029   108949    86660    53883    31518     9891   -14619 
  -50484   -82339   -79290   -66051   -59610   -20989    47420   100469 
  114809    89792    50565    22033    -6885   -47358   -79212   -72107 
  -28979     9580    22042     7153   -26960   -42460   -32273   -16101 
   17778    39356     3361   -37287   -16653    54184   119352   114594 
   36984   -52753  -106118   -84676    17297   119371   117909    12135 
  -77530   -76447   -29525    24193    65506    63310    37381    23040 
    1507   -38878   -61180   -34758    28769    70991    36590   -40176 
  -84113   -77128   -27773    30283    18441   -61051  -102069   -55374 
   47603   151839   179682   113753    19807   -68701  -132883  -118141 
  -38271    20123    27463    18577    16889    21894    30252    42357 
   45576    15458   -31495   -57002   -66474   -51356    19446    98689 
  106247    40464   -28067   -35028     7735    47459    56485    23186 
  -42739  -101013  -108182   -57551    -1638    25951    47889    58063 
   40332    22995    24725    33812    24503   -20872   -62951   -48706 
    7523    40196     1977   -66645   -80069   -25154    45019    74433 
   51187    26609    25442    13398    -8715   -11005   -10817   -31329 
  -33053    10112    43345    25159   -24403   -65724   -48502    25216 
   73089    61958    49227    68318    90036    70067   -14084  -127938 
 -189939  -157527   -69483    13780    51690    44347    55962   117371 
  159196   133236    70376     5818   -58803  -121405  -145056  -113163 
  -63640   -20925    24748    80946   132321   134223    58577   -46032 
  -88337   -37112    37860    47262   -14125   -73954   -80685   -45106 
   -1102     3391   -43194   -64824   -22653    30678    64643    75076 
   57798    34920    18357     7115    15838    38277    48928    46043 
   31927    -3805   -50882   -75798   -55576    -1108    46784    50695 
   16659   -16286   -34358   -41875   -28756    -5471    -2037   -19376 
  -29181   -12892    27186    72963    81260    43654    17880    23430 
   31658    35490    21513   -14319   -37623   -50268   -84420  -115315 
  -84431    12052    97289    94567    33674    14820    67878   117879 
   93199    -2963  -115014  -172632  -156265  -106555   -41755    41256 
  106868   102535    28898   -43910   -44200    30018   108796   122111 
   69614    -2085   -53913   -70951   -64624   -50905   -22443    25708 
   60149    34249   -45075  -108307  -109123   -57391    27437   111306 
  132707    68571   -16760   -50886   -31799     8972    46047    75111 
  101098    97170    43100   -28279   -79120  -104058   -97545   -45724 
   25402    71308    76191    38727    -4086    -2709    14211    -9401 
  -57974   -75027   -42171    17005    68526    74341    22977   -45900 
  -74771   -33073    52497   115396   104103    19939   -61296   -55551 
   13903    55320    22443   -50873   -76117   -13822    65229    77741 
   19136   -53064   -71721   -18307    38132    22632   -34735   -72597 
  -84079   -66511   -29045      827    42190    96982   101607    55852 
   30758    38500    33766    -3882   -48317   -80427  -100600   -81596 
  -16036    55044    99886    97700    56188    18470     7317    26886 
   50882    30435   -17604   -50511   -65059   -44875    16082    64017 
   46772   -28665  -100383   -93453   -13516    47040    50963    28787 
  -10956   -35109     3006    55642    48119    -2197   -43368   -63944 
  -60617   -19330    47680    94028    90617    47125    -9578   -26175 
   28950    92484    81822      924   -86246  -142377  -152258   -80542 
   51952   146828   161574   144811   126532    81290    11746   -28908 
  -21552   -13995   -32536   -37355   -22052   -26010   -38098   -22123 
   10102    12899   -21926   -48420   -46664   -41283   -31962     2671 
   40201    51742    65635    78142    21297   -92338  -161788  -142800 
  -66897    37986   142495   194259   179216   112390      638  -100101 
 -123508   -83161   -39820   -36737   -65869   -81276   -46691    42003 
  136397   147960    65882    -8838   -13795    30230    85700    91112 
   20899   -42564   -30187     9769     7133   -49231  -126900  -149644 
  -63189    66031   132312   125872    89154    35104   -16389   -29085 
   -8595    11037    11558    -4226   -18222   -23152   -39537   -76226 
  -82983   -18453    52752    57132     5914   -71091  -128440  -121081 
  -66602    18067   130543   229027   255560   171375    16052  -125022 
 -227669  -266757  -203094   -95644   -24714    32931   117661   181502 
  154849    42511   -84856  -143159   -87779    30551    93199    49133 
  -37189   -79166   -46179    11140    26307    -3512   -46057   -43652 
   36247   121057   140973   109813    55714     7167     4499    46002 
   70750    38796   -24948   -68769   -59125   -21004    -6363   -22137 
  -40888   -32136     2065     7160   -30065   -41953    16428   107601 
  149952    85648   -66829  -194304  -174023   -18671   154645   244588 
  191791    28421  -126227  -172936   -94535    23323    72392    23083 
  -69101   -94675   -21498    63242    97992    81356    29155   -22700 
  -39114   -20664   -16528   -63003  -117316  -113468   -37504    80631 
  188894   214331   117736   -45369  -162511  -140574     3503   133474 
  156379    89523   -20075  -106369  -103504   -16638    78197    93469 
   -3026  -153273  -254119  -233745   -89039   115044   258502   220334 
   18847  -168890  -219680  -152119   -16121   124006   178884   128090 
   54375    43915    85452    92416    23194   -76731  -146130  -151525 
  -95663   -26277    15248    40398    71358   110732   129852    87697 
   16359   -29295   -49370   -27149    37230    70692    35073   -23383 
  -50410   -44186   -21976     8262    23012    16267    -6162   -51035 
  -87592   -88375   -60450     2047    68301    71589    24941    -6720 
  -29905   -65272   -66114   -32001    -4405    65083   180081   210710 
  115600   -25307  -133390  -117963     6918    85009    67331    22950 
  -32368   -71458   -41796   -10739   -61636  -123695  -122385   -83303 
  -33648     6154    53036   151995   238648   216156    90784   -69373 
 -168511  -159682   -94490   -12777    70480   103060    66634     -595 
  -51629   -40459    20968    89872   156703   182831   126504    13864 
  -97024  -148304  -119665   -54811   -10795    -6852   -21597   -22955 
   -1194    34925    72392    98402   117378   128394    94981     2820 
 -111059  -206504  -241608  -176759   -37081    84943   111137    48022 
  -10899     9680    74366   106848    74630     9946   -15091     5404 
   14447    -3604   -40838   -87498   -93141   -12779   100068   129412 
   66811    13269     1420    -6430   -24038   -32980    -6669    31112 
   40012    26053   -16175   -61828   -31429    59476   118069    88560 
  -27106  -141508  -189238  -197800  -143976     3528   145293   172285 
  106593    43328    27012    32980    41067    44143    19522   -44556 
 -114370  -129409   -89588   -57739   -45360   -22276     6053    30069 
   61520   108642   144931   125020    57771   -32491  -137508  -190721 
 -152490   -70522    39050   150870   179972   120629    50539    23850 
   50058    63113   -19759  -152689  -213429  -134318    64044   256498 
  310030   222173    57240  -134669  -263256  -245585  -126422   -29266 
  -11993   -34110   -22472    68918   168154   128228   -39457  -192078 
 -250099  -177437    -5213   114947    93575     9628   -32309    12135 
  118385   172702   118759    57925    46642    35105    19751   -11751 
 -110038  -211137  -205742  -108214    30280   181213   255231   198058 
   90612    31936    49370    98348    90720   -11994  -145169  -224486 
 -211231   -97065    42179    70447   -34476  -145990  -127737    20364 
  169022   216880   155348    39314   -37023   -23506    30488    53050 
   33501     5119    -4158     3538     6539     1412   -15410   -60231 
 -101266  -109090  -132548  -175028  -143938   -13240   128204   203598 
  211360   166089    65789   -55539  -110041   -36567    94622   117182 
  -24067  -196589  -247290  -140367    46036   181456   168632    47132 
  -22385    44678   178981   268285   223523    42157  -154639  -237641 
 -178065   -44963    51096    49472   -29899  -133088  -175018  -105819 
  -19784    -7065    -6683    29041    67081   116780   168966   125936 
  -23249  -149276  -166923   -84657    42826   110385    61573   -22459 
  -38070    22928    91925    94694    32004   -28412   -33390    14129 
   51004    29970   -24545   -71024   -62648     9726    61580    45706 
    5514   -30341   -35826     8849    48285    21282   -52771  -110624 
 -107059   -36352    62556   122316   111055    45607   -42880   -98531 
  -92743   -52234    11021    88875   140323   118110    41700    -5692 
  -13633   -26932   -19175    31028    55497    19125   -27689   -56307 
  -57380   -12218    54313    98045    98180    64470    26798    -9517 
  -52135   -89703  -104733  -103296  -111550  -107365   -51220    26820 
   85114   116556   114219    75928    23045   -12862   -27669   -21199 
   30165    78838    23504   -97063  -131267   -55844    16359    35494 
   32309    30063    38472    25088   -33868   -79698   -78910   -44764 
   34005   105781    65364   -51085   -84703     2490    97590   137351 
  134349    68756   -53465  -156666  -199997  -184003   -90578    69456 
  200998   185743    22916  -130150  -137948   -37157    82085   173148 
  173979    70641   -59150  -141439  -129045   -52841    -6754    12557 
   33338     9617   -43387   -50161     5718    82020   132283   134045 
   76852   -21139  -106092  -146623  -147580  -122921   -75240     6951 
  114046   204473   231223   171809    66199    -4849   -25301   -44401 
  -65323   -62727   -44014   -21027   -14674   -36729   -46120   -25779 
  -16119   -16133    29764   115052   131688    46543   -24158   -33978 
  -33583    -8445    33307    12031   -58486   -85955   -44809    34114 
  111316   140756   123460    96695    59497     3453   -60338  -110511 
 -112028   -67085   -14322    22902    38789    40431    36242    23809 
  -13914   -74009  -105027   -81483   -22021    47333    65859     5020 
  -63765   -71324   -32566    -6609   -21161   -53121   -64920   -20682 
   65646   119561   127923   131214    99046    15905   -49870   -88176 
 -142636  -181553  -148317   -61353    18378    57766    77333   106995 
  112247    66591    32455    42441    54024    39154   -12627   -80298 
  -98836   -47266    46812   139148   144946    42356   -57472   -67598 
  -17891    26064    14017   -55171  -105059   -86590   -52893   -40848 
  -30951   -29434   -22215    31887   106023   153472   160755   114789 
   41134     2035     8595    20290     -623   -67547  -140370  -138357 
  -38523    75948   107940    48699   -35025   -73279   -37223    52556 
  121171   109237    64381    33219   -15075   -65835   -82185   -91597 
 -102602   -78730    -8826    71147    99238    54541   -15588   -55113 
  -39669    10755    55815    64962    13390   -60164   -56822    41825 
  141542   150693    68746   -45782  -142121  -168774  -109161   -33227 
   -2485     9680    45276    77319    62124    30852    16276    -8279 
  -34858   -18924    43382   114775   142310    85068   -55405  -191324 
 -185989   -38865    99756   144363   111570    32173   -27876   -14724 
   23152     6636   -54074   -81264   -51614   -11491    14470    37157 
   57991    55617    19878   -10471    -8013    -2525    -9504   -21910 
  -38803   -30538    10563    31614    13416   -15811   -34894   -31680 
  -13284    13367    41893    28980   -31819   -74849   -55540    13474 
   79789    99634    75042    14196   -46994   -47385   -14731     -178 
   28865    66009    58676    16522   -53338  -140532  -147087   -10284 
  156286   184675    77446   -28744   -61203   -11840    68736    52164 
  -63921  -130827   -73664    62190   151108    87268   -52331  -116401 
  -78908     9428    77811    41592   -81604  -158584  -112646     5715 
  112650   157446   124093    19680  -104820  -150804   -93514    -8032 
   76640   156910   168029    90956     -621   -50058   -47110    -2482 
   35100    18546   -37836  -100909  -150330  -142658   -61204    40211 
  126079   199544   232243   175358    27954  -133978  -216660  -185697 
  -88800   -28078   -41666   -52392   -14715    45783   116689   139666 
   59755   -26892   -16650    36015    30551   -48093  -142277  -181291 
 -134023   -31093    81189   166480   177940   107736    43835    67086 
  124513   125797    64380   -25722   -96302  -119168  -119600  -102721 
  -52482    21084    91866   111786    45970   -71555  -142906   -88658 
   37740   114116   104409    27089   -85198  -148119  -108306    -1107 
  111898   165655   124881    30037   -47020   -58710    -5225    65233 
   97996    60077   -49779  -171551  -211590  -147143   -36891    59942 
   96878    70097    41941    36367    17770   -16210   -34048    -7819 
   69492   146981   145654    47050  -106096  -228255  -212457   -64308 
   95663   183708   160235    31554   -86935   -74140    22750    63528 
   31768   -19674   -67543   -58438    -6420    11958    26890    65553 
