Origin Time       2021/02/13 23:08:00
Lat.              37.7
Long.             141.8
Depth. (km)       60
Mag.              7.1
Station Code      MYG017
Station Lat.      37.9763
Station Long.     140.7818
Station Height(m) 35
Record Time       2021/02/13 23:08:06
Sampling Freq(Hz) 100Hz
Duration Time(s)  267
Dir.              U-D
Scale Factor      7845(gal)/8223790
Max. Acc. (gal)   145.740
Last Correction   2021/02/13 23:08:05
Memo.             
[...]
  -46190   -46199   -46207   -46206   -46198   -46197   -46195   -46191 
  -46186   -46187   -46194   -46195   -46190   -46188   -46186   -46182 
  -46182   -46184   -46188   -46192   -46195   -46194   -46188   -46186 
  -46184   -46184   -46184   -46187   -46188   -46192   -46201   -46202 
  -46202   -46199   -46197   -46190   -46180   -46179   -46183   -46184 
  -46186   -46187   -46186   -46186   -46182   -46182   -46183   -46182 
  -46188   -46199   -46206   -46213   -46214   -46209   -46209   -46206 
  -46197   -46187   -46178   -46168   -46167   -46170   -46172   -46175 
  -46180   -46187   -46192   -46195   -46203   -46210   -46210   -46209 
  -46205   -46198   -46191   -46182   -46178   -46179   -46180   -46180 
  -46182   -46183   -46184   -46188   -46192   -46195   -46198   -46201 
  -46203   -46202   -46201   -46197   -46192   -46191   -46191   -46186 
  -46183   -46182   -46183   -46186   -46187   -46190   -46192   -46194 
  -46194   -46191   -46190   -46191   -46188   -46188   -46191   -46188 
  -46184   -46182   -46179   -46180   -46183   -46188   -46194   -46198 
  -46205   -46210   -46210   -46209   -46202   -46195   -46190   -46182 
  -46175   -46175   -46176   -46178   -46183   -46188   -46191   -46197 
  -46202   -46203   -46203   -46202   -46199   -46195   -46192   -46187 
  -46182   -46183   -46183   -46180   -46180   -46180   -46180   -46182 
  -46187   -46192   -46195   -46198   -46202   -46205   -46203   -46195 
  -46190   -46190   -46192   -46191   -46190   -46194   -46197   -46195 
  -46192   -46188   -46180   -46176   -46180   -46186   -46192   -46197 
  -46195   -46195   -46201   -46202   -46197   -46195   -46192   -46182 
  -46176   -46180   -46184   -46187   -46187   -46183   -46188   -46195 
  -46192   -46195   -46199   -46195   -46192   -46194   -46191   -46188 
  -46188   -46188   -46186   -46186   -46186   -46187   -46190   -46190 
  -46188   -46188   -46190   -46190   -46192   -46194   -46191   -46192 
  -46195   -46195   -46192   -46187   -46180   -46178   -46182   -46187 
  -46190   -46191   -46195   -46203   -46207   -46205   -46195   -46191 
  -46190   -46182   -46176   -46179   -46179   -46179   -46183   -46190 
  -46192   -46192   -46194   -46194   -46190   -46192   -46197   -46192 
  -46190   -46190   -46190   -46190   -46190   -46190   -46191   -46191 
  -46191   -46197   -46203   -46202   -46195   -46187   -46180   -46179 
  -46183   -46190   -46192   -46195   -46199   -46197   -46191   -46187 
  -46183   -46182   -46188   -46197   -46202   -46203   -46199   -46197 
  -46198   -46195   -46190   -46186   -46183   -46178   -46176   -46178 
  -46179   -46184   -46190   -46188   -46191   -46197   -46205   -46207 
  -46210   -46213   -46207   -46199   -46190   -46182   -46175   -46171 
  -46168   -46171   -46178   -46182   -46190   -46198   -46199   -46199 
  -46199   -46197   -46195   -46199   -46197   -46190   -46188   -46188 
  -46184   -46180   -46176   -46174   -46179   -46188   -46197   -46205 
  -46210   -46209   -46206   -46205   -46198   -46187   -46182   -46178 
  -46172   -46171   -46176   -46179   -46183   -46190   -46195   -46195 
  -46198   -46201   -46201   -46201   -46201   -46197   -46194   -46191 
  -46186   -46183   -46182   -46179   -46182   -46184   -46184   -46188 
  -46194   -46197   -46201   -46203   -46199   -46192   -46186   -46184 
  -46190   -46191   -46190   -46191   -46197   -46194   -46184   -46180 
  -46182   -46179   -46180   -46191   -46203   -46206   -46201   -46197 
  -46197   -46197   -46191   -46186   -46183   -46182   -46183   -46186 
  -46188   -46188   -46187   -46192   -46198   -46199   -46198   -46197 
  -46197   -46197   -46192   -46187   -46184   -46182   -46183   -46184 
  -46184   -46188   -46190   -46190   -46191   -46194   -46198   -46199 
  -46198   -46197   -46197   -46197   -46190   -46182   -46180   -46184 
  -46187   -46187   -46190   -46195   -46197   -46192   -46188   -46180 
  -46174   -46178   -46188   -46194   -46199   -46199   -46198   -46202 
  -46205   -46198   -46192   -46192   -46188   -46183   -46182   -46182 
  -46182   -46179   -46183   -46187   -46186   -46188   -46190   -46191 
  -46195   -46199   -46201   -46201   -46195   -46191   -46190   -46184 
  -46184   -46187   -46188   -46191   -46195   -46195   -46194   -46194 
  -46194   -46190   -46187   -46186   -46186   -46188   -46188   -46186 
  -46188   -46194   -46195   -46192   -46187   -46183   -46182   -46182 
  -46188   -46198   -46199   -46199   -46205   -46210   -46206   -46197 
  -46187   -46182   -46179   -46179   -46182   -46183   -46184   -46187 
  -46187   -46187   -46191   -46194   -46197   -46198   -46197   -46197 
  -46194   -46192   -46190   -46187   -46186   -46187   -46184   -46187 
  -46190   -46188   -46190   -46195   -46198   -46197   -46199   -46199 
  -46194   -46190   -46188   -46184   -46179   -46179   -46183   -46183 
  -46184   -46188   -46192   -46198   -46199   -46198   -46197   -46192 
  -46188   -46186   -46183   -46182   -46183   -46187   -46195   -46199 
  -46199   -46201   -46201   -46199   -46194   -46184   -46180   -46180 
  -46180   -46178   -46179   -46186   -46191   -46194   -46198   -46201 
  -46198   -46197   -46194   -46188   -46191   -46192   -46191   -46188 
  -46183   -46180   -46180   -46179   -46180   -46187   -46192   -46191 
  -46192   -46197   -46201   -46201   -46199   -46199   -46199   -46192 
  -46187   -46186   -46184   -46183   -46184   -46187   -46183   -46182 
  -46187   -46197   -46203   -46206   -46202   -46195   -46190   -46187 
  -46188   -46190   -46191   -46191   -46187   -46184   -46186   -46184 
  -46182   -46182   -46184   -46191   -46197   -46198   -46197   -46192 
  -46187   -46188   -46192   -46195   -46199   -46202   -46202   -46197 
  -46190   -46187   -46187   -46188   -46191   -46190   -46187   -46187 
  -46188   -46188   -46188   -46188   -46190   -46192   -46195   -46199 
  -46198   -46192   -46191   -46194   -46190   -46186   -46188   -46187 
  -46184   -46187   -46188   -46187   -46188   -46191   -46191   -46197 
  -46202   -46206   -46211   -46210   -46194   -46182   -46174   -46168 
  -46167   -46172   -46179   -46190   -46202   -46209   -46209   -46209 
  -46209   -46202   -46194   -46191   -46190   -46186   -46184   -46186 
  -46190   -46188   -46186   -46187   -46191   -46191   -46191   -46191 
  -46188   -46187   -46190   -46192   -46194   -46198   -46199   -46198 
  -46194   -46191   -46191   -46195   -46195   -46194   -46195   -46195 
  -46195   -46197   -46198   -46199   -46207   -46213   -46214   -46232 
  -46273   -46333   -46380   -46376   -46332   -46275   -46206   -46128 
  -46086   -46129   -46234   -46318   -46322   -46253   -46155   -46074 
  -46033   -46055   -46167   -46338   -46454   -46440   -46325   -46192 
  -46111   -46129   -46238   -46419   -46685   -46915   -46815   -46334 
  -45866   -45724   -45785   -45864   -46020   -46290   -46510   -46446 
  -46013   -45571   -45700   -46228   -46367   -46055   -45918   -46018 
  -46203   -46768   -47571   -47976   -47876   -47397   -46491   -45554 
  -45144   -45233   -45544   -45983   -46575   -47310   -47821   -47615 
  -46900   -46338   -46138   -46049   -45864   -45604   -45558   -45995 
  -46711   -47170   -47375   -48146   -49435   -49662   -48577   -48006 
  -48185   -47592   -46769   -47349   -48251   -47252   -44491   -41724 
  -40279   -40532   -41956   -43789   -45632   -47271   -48301   -48055 
  -47071   -47418   -48924   -49088   -47865   -46184   -43085   -39078 
  -35802   -33016   -31827   -35116   -42115   -48733   -51825   -50344 
  -46597   -44493   -44496   -45881   -49414   -53361   -54577   -51938 
  -45837   -39548   -36659   -36505   -38164   -42141   -46253   -48452 
  -50209   -52128   -52470   -51294   -50666   -50620   -48277   -42889 
  -39040   -41253   -49022   -58272   -63707   -61955   -54519   -45987 
  -40891   -41534   -45882   -49547   -50642   -49663   -47406   -45971 
  -46637   -47703   -47664   -45536   -42240   -43372   -50033   -54683 
  -53801   -49659   -42387   -33785   -29276   -32059   -41596   -52024 
  -54666   -49837   -45787   -43942   -40255   -37104   -39297   -44859 
  -49049   -50382   -49342   -47725   -47946   -48188   -44242   -37886 
  -34519   -36698   -44799   -53293   -52890   -46904   -46715   -50558 
  -50575   -48709   -48397   -49037   -51999   -56106   -56883   -56660 
  -58776   -57353   -48883   -41080   -40045   -42599   -45732   -50033 
  -51046   -42826   -32293   -31075   -37343   -45204   -55131   -63026 
  -63289   -58839   -51520   -41149   -35121   -38772   -45339   -47939 
  -49423   -53198   -54927   -47868   -32914   -21392   -20341   -22404 
  -23782   -30639   -41484   -50375   -56835   -58642   -55517   -54311 
  -56608   -57169   -53509   -44680   -32436   -24961   -27814   -38566 
  -53150   -66629   -72671   -71705   -70468   -67150   -51810   -26906 
   -7237     1290     -103   -14204   -35992   -53704   -67537   -78254 
  -75082   -58881   -45492   -37774   -28926   -25123   -30989   -34530 
  -34936   -49468   -74915   -86692   -78865   -64017   -47582   -33336 
  -30545   -37147   -39530   -34770   -31028   -28784   -25794   -29448 
  -41092   -50618   -55984   -61771   -67660   -71563   -70006   -60779 
  -50853   -46940   -44697   -43390   -50479   -59557   -56397   -44969 
  -35351   -26870   -23884   -36826   -56833   -61141   -51802   -51598 
  -55703   -41844   -23868   -29658   -49493   -61750   -67405   -68948 
  -60700   -45931   -35765   -37739   -49843   -62968   -71956   -72133 
  -56146   -34789   -29195   -35445   -36942   -33597   -29674   -23585 
  -20537   -29481   -46936   -59441   -60025   -54135   -48882   -41770 
  -31444   -30569   -44624   -58567   -64979   -67298   -56074   -31160 
  -19021   -28876   -39711   -41943   -41345   -39251   -40163   -44977 
  -44687   -47979   -66486   -79263   -72627   -65955   -63954   -56988 
  -57017   -68786   -71852   -62505   -56149   -47683   -26362   -11940 
  -23128   -41812   -48517   -50341   -49192   -33187   -11650    -4527 
   -7179   -12633   -28582   -49450   -63053   -71988   -78651   -81778 
  -80403   -67929   -49338   -38496   -28975   -12572      267     8688 
   22430    35583    34881    12244   -35028   -90830  -125024  -130781 
 -128761  -125419  -109171   -85253   -64046   -36674    -5431     5636 
   -6686   -24348   -41235   -52735   -46900   -29489   -21196   -30759 
  -52018   -70426   -70725   -56934   -47744   -51025   -66447   -87840 
  -96039   -83975   -65191   -41454   -13680    -7985   -29932   -41291 
  -27117   -15179   -14948   -15466   -25165   -48975   -66528   -67539 
  -62290   -52944   -36837   -27055   -35914   -53426   -66131   -74348 
  -75400   -63124   -45615   -31105   -16644    -6971   -12260   -26952 
  -34985   -33558   -37004   -54141   -74668   -82432   -76492   -73315 
  -80210   -80740   -61325   -30114    -1447    15719    16035     1248 
  -19543   -40525   -62152   -81976   -92925   -91172   -82485   -78690 
  -79061   -67185   -42890   -26889   -20945   -11246    -5548   -15225 
  -30377   -46553   -67124   -76920   -67895   -60640   -59683   -45354 
  -25895   -27754   -44339   -55566   -64098   -69812   -58236   -37724 
  -37300   -59294   -78997   -86120   -81873   -59541   -28004   -13358 
  -21614   -35345   -38537   -31145   -25662   -28061   -34560   -47846 
  -69809   -83809   -74844   -55661   -43606   -35154   -28229   -31693 
  -41249   -44375   -42538   -43970   -49779   -57974   -63223   -56089 
  -42045   -38192   -43200   -45781   -49979   -63842   -81845   -91693 
  -93712   -96842   -88817   -51047    -2693    20756    14341    -2385 
  -13227   -18362   -26748   -36520   -42422   -50701   -57208   -46693 
  -28659   -25961   -34458   -34360   -25560   -22526   -28135   -32960 
  -34757   -40710   -48910   -54055   -66745   -89768   -98849   -82810 
  -61018   -43035   -21132     -486     7740     8035     5664    -9000 
  -41322   -74950   -90512   -90582   -92605  -102818  -108654   -99967 
  -77965   -35043    27009    60745    32549   -12027   -26761   -35542 
  -56181   -64390   -65295   -81762   -97006   -96965   -95932   -86973 
  -52224    -5670    35356    69164    72867    20746   -57928  -110860 
 -129598  -129840  -112602   -88041   -81600   -87777   -73973   -42361 
  -28540   -35171   -31513   -16614   -14611   -24383   -30801   -30179 
  -26173   -31315   -51268   -70532   -79802   -83502   -79176   -66729 
  -59258   -61840   -58032   -33974    -2064    12293    -8318   -56245 
  -94366   -95364   -67500   -34469   -22032   -36693   -49675   -42846 
  -33787   -26403    -7026     7403    -5081   -29678   -48089   -57570 
  -55057   -49756   -60756   -84150   -97465   -83457   -37539     5703 
   -4887   -44030   -49083   -41926   -61736   -67840   -44972   -52408 
  -98685  -128694  -124011  -103073   -73970   -39245    -7030    16621 
   25105     8796   -28220   -65701   -90140  -103412  -107396   -99746 
  -90224   -91585   -85228   -45288     7569    40532    55780    51391 
   15250   -31476   -71425  -121386  -168218  -169600  -127595   -73550 
  -25193     -783   -10925   -36717   -47212   -28682     2230    21073 
   21594     1370   -39807   -77593   -93317  -101262   -99901   -69209 
  -28090    -9976   -11264   -12220    -6400      310    -1418   -13363 
  -31320   -54468   -78934   -91219   -82796   -59431   -30588   -14646 
  -34940   -71211   -73082   -47088   -34453   -28128   -17683   -31676 
  -64828   -72037   -47686   -17869    12976    39526    33097    -7951 
  -35714   -24403   -13824   -34632   -67512  -107401  -161928  -198968 
 -188341  -145201   -91049   -38028    -7028    -1710     2411    15897 
   26607    26505     8707   -36884   -93708  -121902  -107940   -70038 
  -28680     -425     7762    -1629   -25560   -50723   -59319   -49458 
  -35353   -33508   -37477   -25967   -10790   -19615   -41098   -55418 
  -75485  -104205  -110828   -84107   -51511   -28811    -8016     4846 
   -5030   -26617   -33450   -27627   -37138   -61871   -73236   -64870 
  -49221   -27349    -8456   -17952   -48222   -59756   -47345   -39954 
  -49296   -67595   -85270   -91543   -86798   -83818   -78601   -55046 
  -27992   -29895   -56934   -81652   -91890   -82669   -56650   -38530 
  -42472   -43970   -25689   -12741   -22694   -34407   -36275   -44937 
  -61473   -66906   -60025   -52168   -43313   -30034   -14100      272 
   13732    28289    22099   -23981   -75586   -97525  -106374  -111133 
  -90861   -47146    -4870    16848     7431   -28210   -64270   -74690 
  -58957   -35464   -21413   -32848   -62668   -69894   -52020   -56789 
  -76372   -59463   -28598   -39771   -72269   -80076   -78475   -84739 
  -64945   -18661    -3005   -28498   -51513   -58108   -62534   -66831 
  -69762   -76075   -77743   -55599   -13297    15419     8931   -16364 
  -36805   -52397   -71895   -89189   -93433   -85927   -72378   -52821 
  -26376    -3835    -3670   -24243   -45526   -64994   -88520   -97281 
  -78086   -51688   -34168   -25215   -32437   -54456   -69722   -63030 
  -37897   -13701    -7371   -14910   -32073   -58465   -74599   -71174 
  -72442   -87278   -91816   -74872   -48401   -19805    10654    33598 
   36841    23498     2153   -25523   -49626   -54315   -36988    -3438 
   30350    37678    18175    -2408   -23634   -62133  -106736  -134126 
 -137683  -119776   -90976   -68791   -53447   -36940   -34557   -55158 
  -68035   -49659   -20127    -8442   -21848   -50657   -77263   -86611 
  -77276   -52704   -19843    -6439   -28271   -52752   -53534   -45809 
  -41512   -45993   -72590  -103005  -100153   -73963   -57882   -46967 
  -22767     -627    -4977   -27828   -46504   -56610   -62581   -60442 
  -48768   -38676   -36072   -32367   -28444   -36914   -51021   -52068 
  -44959   -43653   -36933   -12775     2043   -29705   -97190  -145983 
 -141407  -102285   -67501   -47997   -24046     7920    17605      136 
   -9343    -8351   -26678   -61982   -94008  -116711  -114829   -74135 
  -21517     8719    17369    10962    -6750   -19114   -24329   -36575 
  -54039   -69857   -85198   -95214   -93843   -83992   -70125   -55302 
  -36489    -5012    22875    12054   -23591   -31963   -20358   -36807 
  -68311   -76862   -74844   -78005   -78274   -76813   -73175   -68886 
  -77442   -83901   -62896   -37366   -44613   -76451   -96006   -83282 
  -48806   -22482   -26712   -47129   -51846   -38751   -24875   -12637 
   -9694   -38368   -87759  -105719   -70599   -22072     4649    15376 
   16494     2547   -17822   -31325   -42380   -57245   -74139   -94346 
 -105395   -82038   -30150    10871    14368   -10586   -40247   -62371 
  -72733   -63645   -39247   -26616   -41068   -56670   -43767   -22831 
  -32324   -53970   -52269   -50657   -71174   -77562   -53214   -35954 
  -37991   -35800   -37050   -58429   -77787   -75861   -67487   -64176 
  -55464   -38367   -25621   -19830   -18184   -29960   -55809   -70592 
  -52548   -22929   -25493   -61337   -86548   -75447   -46618   -32875 
  -43399   -56165   -54137   -44570   -30755    -8205    13209    20048 
    6696   -29411   -69917   -81348   -57501   -20911     1551    -8970 
  -43981   -66629   -57971   -48263   -63493   -76729   -67004   -58048 
  -55875   -40736   -22804   -20740   -25471   -32113   -52240   -84412 
 -113251  -127959  -120853   -90555   -51289   -14883    12133    12363 
  -14099   -38423   -50593   -60933   -60262   -38574   -20753   -29609 
  -44001   -44917   -46403   -44851   -23272    -8467   -31904   -68304 
  -86992   -99671  -111728  -102320   -75648   -63482   -72333   -82219 
  -86806   -93552   -96832   -85270   -63925   -41539   -18779    -5370 
  -13347   -25485   -12302    16160    24999    15385    10655     1521 
  -31486   -75386  -104579  -103536   -73795   -42290   -31058   -32248 
  -39943   -57199   -64446   -39958    -1864    10835   -14488   -49735 
  -61462   -53565   -43981   -23614    13527    38403    22401   -24991 
  -65623   -72949   -66085   -87343  -138547  -175239  -169383  -133226 
  -85787   -36290     4411    23565    24806    25313    23031     1823 
  -28883   -50175   -68148   -85325   -83825   -63166   -41013   -19834 
       1     2457   -13019   -22441   -12760     6590    10357   -23202 
  -70877   -88807   -83084   -83860   -79690   -51163   -23673   -22874 
  -25652   -10234      517    -9219   -19230   -22921   -37254   -57997 
  -60813   -38820   -15464   -20785   -49206   -63138   -57218   -73292 
 -118419  -140092  -121705  -102065   -89345   -59913   -18139    10301 
   16856    15631    11935    -9633   -44358   -64700   -69619   -76650 
  -80023   -67996   -52397   -42965   -28136    -8368    -9278   -38650 
  -68247   -77754   -77557   -76846   -69341   -59440   -65766   -87789 
 -104905  -111214  -111308   -95577   -60426   -27785   -17582   -26184 
  -34851   -29353   -17583   -12942   -10378    -6970   -16721   -45958 
  -81292  -102799  -101761   -86340   -64509   -41697   -36360   -56064 
  -64584   -25100    36058    64029    50720    19398   -32684  -106220 
 -151833  -133452   -90427   -69435   -65913   -69353   -82549   -83475 
  -50163   -14948   -22974   -59084   -76076   -66379   -52432   -43511 
  -38562   -35633   -30137   -26099   -34234   -47544   -47663   -37266 
  -33903   -43449   -57289   -59780   -44165   -21149    -2720     2388 
  -12321   -39052   -63790   -81159   -87787   -81788   -71653   -67892 
