Origin Time       2021/02/13 23:08:00
Lat.              37.7
Long.             141.8
Depth. (km)       60
Mag.              7.1
Station Code      MYG002
Station Lat.      38.7262
Station Long.     141.5109
Station Height(m) 79
Record Time       2021/02/13 23:08:09
Sampling Freq(Hz) 100Hz
Duration Time(s)  282
Dir.              E-W
Scale Factor      7845(gal)/8223790
Max. Acc. (gal)   380.275
Last Correction   2021/02/13 23:08:09
Memo.             
[...]
   -6320   -36679   -57103   -48838    13051    58951    37261     7020 
   10127    13608     1219   -12137   -27225   -40635   -27322    11257 
   46028    61219    40653    -7936   -37935   -41771   -32954    -2627 
   25266    25870    18585    15448    15616    13192    -3075   -17211 
  -11719     3011     7464   -11519   -25756     7554    50074    31527 
  -12991   -22497   -26670   -16985    46327    71142     5579   -36070 
  -28159   -44010   -38264    34231    76684    39303     2628    -6075 
  -28109   -38616    -7136    17115     7477     2623    11727    13663 
   10762    14202    12379   -14615   -37440   -19651     9894    26796 
   39907    28100   -14316   -29486    -3742     7965     5579    13671 
    2388   -22156   -12911    11178    18828    23356    17215       93 
   -2544    -8448   -32069   -38695    -1100    49052    40130    -8513 
   -5023    24858    13497     1831     3412   -32422   -55131    -6219 
   32375    14555    11029    36586    39258    15430   -10164   -30289 
  -27411    -7337   -14673   -35640   -17105    38041    89240    85684 
    4904   -80526   -82147   -22387    24444    32563    13645    -3416 
    5188    23653    21625     -810   -25456   -35904   -16264    18557 
   37804    38858    24034    -4787   -35793   -42084    -6018    30519 
   37324    28125      286   -19697       45    20151     6220   -24156 
  -39879   -15799    27054    40514    27518    11226    -7832   -13725 
    -774    -1444   -14675    -8880     5941    16646    26936    12970 
  -18358   -26689    -7843    32050    54579     9798   -52598   -56177 
  -10947    40167    65863    40756   -11402   -40926   -41558   -17315 
   15529    17440     6771    24290    45500    33698     4444   -14677 
  -35318   -51850   -30369     3987    22387    43461    50934    34616 
   15786   -30774   -78395   -47263    12191    37285    62172    45750 
  -35035   -55902    -3287    19228    26512    27685    -3153   -12942 
   -5495    -9370    -2061    -2978    -6284    18762    41077    29758 
  -13926   -55698   -50346    -2295    52587    65041    16089   -27541 
  -23233   -11260    -6635     1007     2467     8398    19591     6569 
  -12117     1190    14308     8727    26083    41473    10000   -22007 
  -37547   -55690   -22856    47374    51646     6079   -18199   -17246 
    9138    30214    11259    -9192    -8226     6843    31619    20124 
  -32101   -46583    -1279    36128    23130    -4438    -5151    11857 
   23403    10478   -32084   -52316   -12128    38576    71266    76393 
    1387   -97609   -94578   -17929    34963    52960    42267    11299 
    7846    24796     3991   -48691   -67884   -16389    54541    69967 
   26939   -24225   -39614   -16591    20175    40896    13454   -44948 
  -53985    14451    80823    68235    -1709   -51394   -57578   -42827 
    2826    45009    28795    18380    48119    47113     -284   -67695 
 -107665   -59834    40204   111469   100450    -3693   -94697   -75132 
   -3515    47162    57859    15947   -33012   -23317    29976    55293 
   19889   -35662   -62306   -46242    -1332    46149    76420    64557 
    2162   -62621   -77182   -37844    28111    73203    55125      873 
  -24819   -18441   -21180   -25402    12704    57318    41931      248 
  -26084   -38210    -8193    39010    18288   -42151   -29752    37623 
   49341    12530   -14297   -36391   -27704    24845    44982     7179 
   -9090    24372    22018   -31086   -46515   -26358    -4753    41898 
   68755    31145   -16067   -41030   -40101     5728    50753    34722 
   -7173   -23099   -15106     6336    17986     2211   -11146    -1745 
   10201     1112   -16956     2536    38716    24815    -4660      808 
   10501     5931    -6743   -32495   -53779   -29424    36325    80229 
   66083    11291   -50714   -70954   -22464    34960    30653     -523 
    1138    17926    28890    37615    18110   -36707   -77491   -60447 
    4407    70174    90794    45694   -22431   -46531   -34218   -23764 
  -15472    -8440     2097    34919    67672    51471     -681   -37643 
  -42819   -16541    14779    12372    -1356     6419    24001    28499 
   -1941   -46116   -46801     2334    59178    75606    27731   -40887 
  -67076   -46006     3325    54495    53750      457   -37863   -28493 
    3915    26951    31480    13343   -21142   -29512   -13510      926 
   43795    69658    13751   -33262   -31120   -52411   -42616    49481 
   95258    42835    -9876   -45976   -82030   -51363    35718    65569 
   28352     1259     6744    21351    12771   -12229   -13244     2481 
    3025    -7308   -10624   -12326    -2269    38804    41269   -28167 
  -50961    -2654    24382    41542    57395    13247   -61931   -82327 
  -25211    49341    74717    44987   -22910   -71937   -32031    43621 
   64797    25597   -40541   -46268    31591    60164    11175   -17747 
  -32782   -38080    13788    47298     1980   -25766     2560    12231 
    1020    28745    52016    -3051   -61901   -51302   -30759   -10561 
   51046    84759    26347   -41396   -31375    22342    48828    29178 
  -24814   -79230   -72141    -4908    47657    58932    43071    21685 
   18827      326   -34373   -37408   -25173     5427    50310    37926 
  -10359   -11284    17232    11719   -20193   -25806     3586    33285 
   41748    21459   -18091   -27977    11483    43557    11878   -64249 
  -79416    20024   113054    86989    -8278   -76231   -73471   -14307 
   49250    50897   -24232   -70903   -11178    45160     3939   -25272 
   29170    54024     5485   -39739   -65179   -49864    46053   121701 
   55587   -64345   -67868    16625    47119    16359   -30295   -77544 
  -53291    51235   111026    71794     2758   -37573   -33681   -11503 
  -20970   -42303   -24274    25154    74682    62718   -16004   -44401 
  -11507     8985    18990   -25963  -102355   -53160    86724   148555 
  109366    10145   -92961   -95771   -15271    14008    -9158    -7809 
   -6689    -1005    53650    87718    49293    -2716   -50259   -90198 
  -56978    21925    52731    39835    10184    -5764    23633    37563 
    9693   -14038   -40849   -38102    27386    45396   -33979   -89752 
  -43861    39611    74664    67059    56081    27765   -14127   -18917 
   -8557   -36396   -60767   -43059    -5868    31980    55563    52195 
   -1507   -77897   -66496    30969    84406    58126    16389     6598 
   39417    66468     8457  -123178  -200715  -118903    67232   186340 
  152049    43401   -46391   -92942   -79012   -33462   -28080   -24684 
   40824    83303    53434    40602    54715    23394   -35418   -43745 
  -11673   -12785   -21161    12837    32188    19269    27793    30592 
  -23943   -79496   -59354    -9590     4218    36213    90757    71714 
   22513    26638    17636   -35463   -70961   -68719   -48195    -7940 
   63458   110760    68939   -24061   -85402   -71149     9094    99416 
  115279    23870   -64918   -53939   -26838   -53859   -70000   -33235 
   39783   104976   102818    36987   -45589   -96264   -83045   -54193 
  -39837    24274   126465   153372    80377   -24514  -105324   -99831 
   -3956    67177    37438   -51470  -105256   -55475    33720    84898 
  129834   108675   -43478  -150600  -104638   -63200   -74981   -18445 
   73036   110081   136078   140988    59616   -68825  -178360  -214805 
 -132564     2697   104178   182248   211048   129162       52   -74218 
 -116856  -163563  -142609   -23878   105394   167034   150460    72135 
  -30550   -70588   -19546    14535   -18414   -53627   -50989     2300 
   62320    48022   -20969   -73321   -70850    -6311    69904   111946 
  113152    58677   -17208   -59988   -78605   -74326   -45204   -20865 
    7057    54457    96356   110097    76416    -1995   -69066   -98514 
  -99215   -46643    29110    53237    45910    59459    72617    45715 
  -11719   -70116   -94292   -45316    33709    63420    41030   -12615 
  -45319    -1063    49036    44212    22636   -24822   -89390   -85064 
    5159   110235   157017   112494    17659   -58378   -88704   -60631 
  -13420   -19886   -37921   -23745   -31955   -42842    -3608    48845 
   81669    69151   -12380   -73519   -26769    64894    99945    21899 
 -142169  -241170  -156344    48168   229871   289434   179082   -26823 
 -167719  -177932   -94853    14435    89819    93792     8318   -77418 
  -41496    64474   120496    95272     8699   -91281  -133990   -80635 
   12515    51810    41562    50134    70722    57412    28028      172 
  -44579   -81892   -78422   -48419    -8314    27255    45908    47929 
   15327   -41743   -63632   -22307    47876    85657    55398   -24379 
  -90003   -82417    -3507    87075    96071     -564   -83874   -69209 
   -9586    45831    81276    56886   -26761   -88312   -53204    41881 
   97826    96128    68157    15650   -38237   -51583   -36597   -44073 
  -70704   -68517   -45225   -24079    29211   117140   157233   109649 
   35008   -46568  -142776  -163066   -84164   -17239    31812   118150 
  163775   102289    33943    43316    44479   -35102  -123978  -146975 
 -101509   -14253    69495    88140    32628     5166    39559    12718 
  -50066   -27051      893    -2223    29906    14365   -50761   -34088 
    6544   -30619   -51214     2335    49135    75493    90894    57059 
   12063    -9693   -42985   -53230    -7646    17356   -13265   -40230 
  -38088   -19915    11237    41211    72688    92024    37008   -57620 
  -75817   -12052    29272    -5852   -50114   -39899    -8371    -2168 
  -12096    -2970    34869    83874   104328    56604   -15742   -38040 
  -19843     2382    20359    20401   -17240   -60956   -36914    22910 
   24490     2964    14131    27172    47490    73194    28899   -79131 
 -140278   -96574     9977   112928   179517   163499    17712  -158225 
 -192195   -89692    18461    75915    71757    -7461   -84406   -48253 
   53122    97440    86219    46525   -40224  -116333  -114392   -50091 
   29274    55313    19791   -12393   -15304    28055    91503    70576 
  -31091  -100811  -116090   -99247    -2242   137562   179697   122689 
   11773  -159391  -238800  -107894    75363   170910   180065    98023 
  -23965   -71132   -50800   -58600   -50487    44710   112931    64932 
  -22013   -93243  -135380   -97247   -11056    46252   112764   171617 
  129465    64403    35696   -66401  -188901  -169101   -62245    21247 
   85063   111809    63868   -29088   -77008   -30762    26291    20451 
     672    -4595   -24204   -14737    95033   193564    93221  -102964 
 -166464  -131199   -83663    33357   157400   130131    32300    42132 
   78829    -2478  -118327  -148880  -105174   -11557   100535   140273 
   68890   -43303  -105802   -77962     7362    74260    86598    56598 
  -14750   -91018   -85155    -6450    54556    62001    11315   -74686 
 -112413   -48961    60370   105780    57172    -9543   -35530   -16684 
   21562    43299    26546   -38055   -90317   -54315    14127    45585 
   88958   140611    89526   -60912  -163499  -148207   -74629    18539 
  102481   113436    98938   124436   105304    19749   -17047     5408 
  -31897  -139311  -208710  -220943  -156201    29531   200460   238959 
  194764    94267   -12482   -49161   -63343   -88149   -83436   -74487 
  -59587    10563    79644    93972    94157    77122    13979   -58828 
 -101320  -115890  -100603   -21351   102120   154623    94455    17027 
  -12642      668    30750    25744   -17068   -65634  -117081  -114623 
   -9498   121281   188311   155101    28179  -101896  -146445  -106909 
  -17910    66222    82628    35212   -16881   -19926     7393     2874 
    1717    52625    78036    38824    26534    48691     -403   -92695 
 -103392   -59023   -42084    -2604    71535    73094    16486    15010 
   49666    55101    35741   -36342  -172118  -244088  -131881    78723 
  178684   103555   -11151   -54770   -18688    83177   130318     9517 
 -107245   -43923    70117    89905    39214   -23214   -57240   -42192 
    3360    27591    -9058   -68261   -63279     3200    55135    80808 
   94243    58105   -32618   -78470   -44586   -31247   -11534    58966 
   45385   -26595   -19487    -8727   -51324   -61693   -34797   -22434 
   16791   104130   114158    -9522  -106463   -71532      922    52637 
   96219    60756   -59647  -139122  -134194   -51196   100354   204719 
  191749    97611   -45948  -136405  -104861   -64257   -67865   -48390 
  -25668   -10574    69660   177826   189801   101071     3346   -79660 
 -150909  -138735   -34881    52033    66042    47464    46037    52041 
   32744    14866     5544   -37763   -72724   -32958    52258   131153 
  147499    76381   -18832  -108707  -172191  -115252    38419   138194 
  153314   135885    56764   -73523  -138595  -109012   -46188    21787 
   59925    64087    79844    87529    59081     -224  -109402  -211168 
 -189130   -49605   109848   203639   191619   119259    19144  -100749 
 -147596  -114718   -90953   -29972    76566    99715    39888    -7241 
  -45713   -81045   -38280    62060    82399     6858   -76523  -140162 
 -131677    13552   184944   211717    85322  -100568  -217904  -167371 
   -9520   151902   273304   269079    92178  -130493  -253184  -263279 
 -170880    -6320    96530    80275    53337    78520    96249    61599 
  -19091  -104660  -136989  -123670   -51233   114921   214840   123701 
   -3823   -71867  -122962  -110401   -52606   -68584   -96670   -25293 
   61182    98629   154588   222367   210571   103572   -53896  -251197 
 -396098  -301205    -9301   221066   298414   262488   115596   -37139 
  -78421   -90994  -146138  -171589  -137614   -62360    40419   111402 
  138217   164806   142722    55081    16486     6056  -108541  -247671 
 -250884  -138230    -2146   111267   191924   231863   220039   184951 
  106787   -87436  -306887  -379834  -320025  -199825    12534   270148 
  395286   338137   228595   113844   -38777  -129945  -128885  -201108 
 -328746  -282920   -51507   160489   284420   355216   269688    19029 
 -122890   -89662  -108641  -167305  -171919  -206421  -199849   -37968 
  153566   251253   273511   218292    61956   -83836  -129979  -196560 
 -282349  -209703   -21501   128656   232144   290503   241029    62638 
 -130600  -189641  -138214   -65961    21192    73026    74499   100539 
   88261      371   -48477   -59641   -69718   -40377    17743    94373 
  160979   138254    15395  -150766  -272484  -248641   -52848   181919 
  241182   124133    16082   -43945   -89714   -80025     4946   124344 
  164917    58600   -84061  -131257   -90780   -26975    46946   104199 
   72111   -20907   -48824    -4118     6156   -37034   -54982    -8811 
   44633    63729    88015    89988    12345   -65809   -72659   -61152 
  -55911   -14515    25211   -20769   -89044   -29451   137157   240106 
  211935    81240  -135780  -324595  -329784  -158598    71537   223430 
  210888   112830    44116    12371     9721    25118    10616   -43276 
 -106392  -152702  -163093  -127194   -16387   162562   291239   268996 
  135125   -25888  -147382  -204908  -220464  -131306    41836   128248 
  170561   198217    64783  -120321  -168076  -108749   -27099    19299 
   38500    53505    21482   -36332   -17008    56551    57376     4658 
  -26173  -117979  -260217  -211790    33377   184407   194077   178900 
   67849  -110046  -126490    31743   162247   198428   166961    66183 
  -20309   -52550   -96839  -130665  -153288  -180459   -87276    96367 
  164243   119421    72169    15225   -26877    24883    99570    68017 
  -31023  -123199  -188207  -154429   -33165    39108    17740   -26874 
   -9383    91488   170194   113859   -56411  -216392  -232929   -80667 
  124912   253993   268081   195465    60446   -81122  -134370   -84815 
    2894    38315   -25299  -105938  -126172   -97178   -29037    62451 
  124437    93410     8461     7835    38697   -38119   -84531    -7944 
   20903   -14839    15219    83635   116538   134557    94007   -68338 
 -196857  -177708  -126204   -46134    94699   148825    90737    51926 
   38041     4054    -6656    14812    -2461   -47255   -30447     2346 
  -54916  -118044   -64818    45084   108660    67824   -59744  -105935 
   -7846    60187    43167    25471   -13801   -45169    28506   142632 
  157882    37471  -132254  -213471  -169210   -79907    24668   149542 
  194945   108172     4024   -50668  -110694  -166083  -115433    42363 
  166077   180064   137457    48976  -111099  -228658  -165249    10902 
  163171   247731   223689    63421  -146728  -253840  -189803   -32922 
   86520   105433    46457   -46944   -92395   -17207    81567    89533 
   29465   -63945  -125833   -84612     4756    67783    98736   102713 
   84481    34318   -35272   -56722   -24673    -9074   -44273  -124923 
 -191806  -163516   -35244   146689   282523   293253   234138   139800 
   18939   -69614  -169319  -298907  -320164  -214409  -111977   -32935 
   78961   198506   281217   313875   248394    81783   -81835  -181197 
 -216868  -168158   -87232   -62070   -45546    17139    77179   105833 
   90697    26347   -26904   -10755    43005    60988    62326    77664 
   31962   -82764  -142820   -68258    62602   125820   130628    96070 
  -13950   -92165   -33866    34831    -9236   -87812  -103280   -86670 
  -55873    46053   168534   181685    92799    -6330   -76520   -86753 
  -28869    24093    -4995   -61447     4275   135402   123766    -4926 
 -120340  -199261  -176050    10686   219130   240305   120100    30881 
  -34190   -81326   -63661   -72837  -122349   -87230    24845   148459 
  255829   234661    20155  -217425  -286109  -202624   -31396   134460 
  111160   -27850   -87770   -94686    19057   198775   147407   -19074 
  -95667  -142545   -92388    37324    94948    47185   -74930  -114150 
  -30126    37039   157184   313129   256263    31788  -141363  -253262 
 -293396  -150195    49342    83731    91782   191015   211420   144964 
   58650   -84527  -198026  -209032  -154014   -39159    60801    74461 
   72913    82405    85900   101962    53057   -78941  -149015  -147584 
 -143723   -56521   111194   185846    99098   -17869   -12590    59092 
   58068    25200   -15585  -127847  -184616   -69055    63463    89942 
   92406   121872    97006    -2112   -83371  -119487  -108464   -22478 
   73080    75185   -31072  -119261   -55995    63794   124092   165260 
  126819   -18067   -90252   -65847   -61256   -37189    25685    47860 
   45099    14739   -91500  -160280   -99964    -9799    60971   128830 
  134707    91125    54718   -25681  -125230  -129231   -55406    -8000 
  -14605    11743   109791   146821    65751    -9697   -56396  -118417 
  -95018    28386    82054    30310   -36078   -69861   -34462    20903 
   19948     7646     2289   -23849   -14102    52693   100174    83324 
    3989   -88808  -102843   -54387   -49365   -67779   -24630    17420 
    6648    34354    87342   115866   190266   212576    31020  -186231 
 -252269  -200911   -61782   116838   189837    93357   -51109   -97085 
  -43857    42404   106211   130719   124680    13124  -174915  -222165 
  -87181    72283   158600   139969    19334  -141859  -235970  -186136 
  -47669    78722   160506   182417   137103    44898   -30719     4325 
   88817    46927   -94826  -178216  -143260   -23198    88003   151611 
  185542   127811   -11844   -88195   -60027   -32514   -91704  -159304 
