Origin Time       2021/02/13 23:08:00
Lat.              37.7
Long.             141.8
Depth. (km)       60
Mag.              7.1
Station Code      MYGH13
Station Lat.      38.6993
Station Long.     141.4176
Station Height(m) -10
Record Time       2021/02/13 23:08:09
Sampling Freq(Hz) 100Hz
Duration Time(s)  244
Dir.              3
Scale Factor      3923(gal)/8224838
Max. Acc. (gal)   25.119
Last Correction   2021/02/13 23:08:09
Memo.             
[...]
  -43258   -32540   -30069   -50224   -65616   -57661   -46487   -47704 
  -46612   -43148   -46913   -44402   -31376   -25209   -33571   -44649 
  -48878   -48092   -46499   -52934   -62449   -56088   -41952   -39226 
  -41944   -36015   -24883   -27363   -37812   -32028   -24996   -34383 
  -40232   -36232   -36733   -44398   -45955   -34734   -28360   -32178 
  -36822   -43378   -42939   -41104   -52984   -56220   -47110   -51617 
  -63117   -65358   -53455   -30391   -23685   -41273   -49906   -42271 
  -41629   -47780   -44707   -37822   -39765   -39852   -30712   -31374 
  -45802   -49435   -42055   -44300   -53404   -59898   -52517   -30411 
  -26125   -40502   -38568   -26626   -27768   -32719   -29080   -24644 
  -27438   -38011   -47524   -44848   -44443   -58527   -64170   -46256 
  -28047   -34217   -48540   -48043   -45210   -50662   -53977   -50302 
  -44073   -40024   -45283   -57854   -56369   -41941   -43935   -59317 
  -61816   -50957   -41661   -39544   -37827   -28674   -21806   -30990 
  -45327   -49350   -44868   -37666   -33123   -34420   -43036   -53451 
  -52195   -43691   -36984   -30213   -30721   -36975   -34612   -30055 
  -39195   -50882   -44836   -35105   -38203   -39370   -36306   -39256 
  -41038   -40821   -40572   -35914   -37778   -50859   -58746   -51229 
  -41785   -47727   -51526   -35691   -23854   -24503   -24786   -31182 
  -36350   -33045   -44429   -60677   -53639   -38319   -34766   -45841 
  -54194   -41274   -34541   -45644   -47093   -43906   -46688   -45623 
  -47302   -55278   -54513   -46179   -39494   -32310   -32962   -43733 
  -44840   -37689   -41108   -45600   -40747   -39768   -41656   -42090 
  -47958   -50992   -47093   -44119   -40194   -37076   -41855   -50760 
  -53059   -44999   -36239   -34901   -37768   -41496   -40774   -30547 
  -22438   -23078   -22797   -27843   -42745   -48759   -46746   -48631 
  -40267   -27290   -36204   -53820   -56550   -52698   -56134   -59927 
  -53852   -49156   -52393   -50961   -43479   -41504   -45187   -41470 
  -33718   -40073   -50765   -47235   -37921   -33227   -36869   -45017 
  -39511   -28663   -37770   -46371   -36113   -35244   -47999   -51856 
  -45180   -37694   -40053   -46834   -43615   -34375   -27419   -31112 
  -39607   -37520   -37241   -40809   -36942   -37164   -42198   -43058 
  -43200   -49928   -60015   -57238   -43463   -30582   -24351   -33089 
  -42282   -38415   -39094   -46531   -47344   -45775   -47291   -48078 
  -44764   -40444   -38516   -36975   -47709   -67608   -64308   -45110 
  -36725   -41392   -51667   -44597   -29513   -38199   -47209   -39820 
  -35397   -31172   -30508   -37050   -37386   -42079   -50388   -44190 
  -37613   -42971   -48203   -45382   -40061   -45736   -52803   -38520 
  -27333   -39036   -39141   -27660   -32803   -45701   -52660   -44740 
  -32460   -42236   -58563   -55922   -40811   -37567   -54730   -58482 
  -41195   -36690   -41705   -39475   -35530   -31581   -25807   -21093 
  -26449   -40201   -44937   -43209   -45420   -49262   -54178   -50097 
  -40248   -44437   -46106   -31873   -23774   -29166   -41075   -49218 
  -43866   -34763   -33520   -38666   -40333   -35181   -35114   -38415 
  -36428   -38599   -41233   -35114   -35417   -41948   -39198   -34859 
  -38761   -45949   -47456   -43067   -40332   -37858   -41484   -56254 
  -60191   -50859   -49774   -52049   -48004   -45697   -50774   -53715 
  -42045   -32895   -43266   -49075   -43714   -50885   -57751   -44915 
  -35858   -43059   -46973   -42705   -42781   -50407   -54075   -47787 
  -44169   -46993   -46670   -47155   -46791   -37230   -31742   -36466 
  -39285   -32922   -23183   -25253   -33308   -32749   -33421   -43425 
  -48316   -39906   -43032   -60956   -53183   -33907   -46097   -55698 
  -30913   -11161   -20822   -40576   -56371   -59798   -46419   -39351 
  -50842   -53825   -44451   -45720   -55668   -59485   -53148   -47576 
  -49243   -47900   -42394   -39210   -40832   -42465   -35567   -33377 
  -39964   -32833   -24097   -37656   -49932   -40338   -31294   -34315 
  -30366   -23580   -33519   -45264   -44795   -45141   -46514   -43717 
  -42411   -39910   -36132   -40594   -51300   -52809   -39649   -33894 
  -43243   -40504   -28178   -23434   -22977   -37887   -52195   -37380 
  -28806   -45331   -48405   -36927   -40178   -50376   -51484   -46832 
  -42642   -54473   -75161   -71842   -56787   -52917   -51093   -49354 
  -43887   -36873   -40921   -42711   -40090   -46248   -38888   -12992 
   -6419   -18515   -18812   -14914   -24241   -35991   -43232   -47029 
  -40668   -34987   -37056   -33509   -29558   -26072   -22144   -39302 
  -58449   -51050   -38070   -31920   -30680   -34450   -39271   -44604 
  -39756   -30337   -34751   -37735   -33647   -42549   -48982   -36925 
  -35056   -45312   -42958   -38277   -41592   -46138   -51891   -52926 
  -44659   -42634   -54859   -68077   -74356   -67524   -52300   -44713 
  -36136   -30148   -33023   -21570   -19149   -45493   -56839   -50832 
  -53360   -62804   -78911   -85487   -69404   -54267   -55444   -57119 
  -48784   -45725   -53696   -55923   -49994   -43058   -34167   -31441 
  -40589   -48284   -43688   -40776   -56920   -67502   -54444   -49805 
  -55240   -48189   -42746   -46442   -47335   -38192   -28490   -33777 
  -30160    -7597    -5431   -26095   -33340   -20021   -15134   -29331 
  -40377   -43231   -45685   -50458   -55557   -49466   -39841   -44510 
  -58639   -68733   -64563   -51995   -50009   -47143   -24628    -7688 
   -9942    -9954    -7936   -12152   -21413   -33423   -36234   -32674 
  -37358   -48404   -55788   -53103   -49424   -53388   -57784   -65726 
  -73098   -63447   -50506   -48440   -51906   -58642   -53545   -38500 
  -39302   -44231   -35372   -33786   -50560   -57882   -44728   -40676 
  -46816   -42422   -37139   -33332   -27022   -27643   -33118   -42250 
  -47565   -38611   -37358   -48656   -46203   -34929   -34574   -43881 
  -47240   -33686   -22422   -30520   -29508   -10696   -11975   -26732 
  -24483   -21982   -37845   -63063   -77394   -72782   -66503   -64022 
  -53592   -38832   -33181   -37062   -37639   -33824   -34445   -34531 
  -31004   -34966   -44471   -43634   -42159   -48027   -40240   -30287 
  -32899   -33582   -40517   -47781   -45542   -52185   -51827   -36097 
  -35016   -39199   -26661   -18184   -28664   -40643   -45297   -46818 
  -44940   -41663   -36161   -27760   -22987   -31734   -50558   -55776 
  -48481   -48695   -50379   -41667   -27264   -25861   -43572   -54658 
  -47112   -43997   -52951   -50585   -39424   -47036   -63104   -64450 
  -61754   -68098   -69564   -55333   -43071   -44860   -52262   -55198 
  -50060   -47039   -50067   -51719   -53177   -49991   -44933   -46885 
  -40146   -29249   -33011   -36622   -35417   -37160   -35939   -35841 
  -38426   -40759   -47621   -53073   -55926   -53091   -37959   -35270 
  -50561   -62874   -67477   -51520   -29614   -27739   -22971   -19843 
  -32791   -28888   -15913   -23160   -37215   -46461   -43966   -33254 
  -35752   -40142   -33363   -31480   -35112   -41496   -44921   -36721 
  -32360   -33315   -32976   -36350   -38951   -42577   -45490   -44220 
  -50558   -53296   -35791   -26461   -42144   -48722   -38481   -38422 
  -42047   -37289   -37239   -33650   -23403   -33855   -48442   -41223 
  -37342   -44586   -48829   -49347   -45828   -46793   -52159   -43374 
  -31257   -32746   -28719   -19155   -28885   -51038   -55719   -41580 
  -42492   -59922   -64007   -58546   -52685   -46373   -49766   -47490 
  -31737   -35380   -53804   -50638   -35745   -33158   -33724   -31990 
  -40859   -53281   -52077   -39993   -27149   -26144   -34792   -38944 
  -48725   -62483   -65612   -62864   -50163   -36093   -39177   -48099 
  -55069   -60111   -51885   -35542   -34435   -47066   -47193   -38186 
  -46010   -65564   -70293   -59817   -58598   -60864   -44244   -29097 
  -29212   -22025   -12987   -18208   -27846   -35517   -39529   -41430 
  -41989   -39579   -44200   -43163   -28582   -26800   -30038   -29231 
  -42708   -55070   -56555   -65145   -74052   -70447   -60702   -46710 
  -38340   -55856   -74032   -61743   -49318   -53180   -46758   -30366 
  -24526   -31584   -34387   -25277   -24852   -29424   -20399   -23612 
  -43753   -43434   -31264   -41971   -58139   -48729   -41451   -58059 
  -62032   -47981   -44246   -41843   -36647   -48199   -57384   -44088 
  -33669   -32630   -34484   -45539   -47144   -32746   -27699   -34241 
  -32360   -17477    -9528   -18531   -20721   -16006   -27673   -38642 
  -43060   -58097   -61422   -48266   -47946   -54548   -48027   -31816 
  -21892   -24931   -29731   -30430   -31482   -36451   -46853   -51902 
  -46400   -50008   -61499   -56481   -55566   -77793   -81249   -60353 
  -58340   -66326   -52000   -35410   -42403   -42365   -22110   -16308 
  -20255   -17332   -19687   -25591   -34592   -46778   -46541   -38188 
  -37349   -43266   -48871   -49837   -55648   -72966   -84403   -82239 
  -68758   -49846   -43042   -32080    -9356    -7528   -13397    -7697 
  -14544   -29439   -27476   -18701   -24088   -33778   -33025   -31029 
  -32247   -34950   -42529   -46232   -44545   -52164   -63795   -62920 
  -54033   -48224   -46695   -46214   -42041   -42824   -52720   -48770 
  -36278   -38500   -43779   -49724   -53311   -37207   -28686   -43438 
  -46731   -35775   -33521   -38519   -41631   -41746   -39922   -32985 
  -23662   -23768   -29184   -26734   -22009   -22655   -26219   -26746 
  -22836   -29471   -39754   -37639   -45235   -61878   -61263   -48926 
  -39020   -38232   -44077   -46217   -47409   -49196   -46938   -51317 
  -59903   -51679   -44572   -60457   -64962   -43258   -30535   -33396 
  -30558   -19116   -17525   -34735   -44590   -36209   -33115   -35974 
  -36431   -46548   -61083   -60689   -53573   -52870   -52412   -51219 
  -49401   -42738   -39348   -46406   -52853   -46492   -41939   -52897 
  -61985   -63161   -62310   -49168   -28815   -23687   -31299   -29691 
  -27588   -42036   -47136   -37280   -44397   -55148   -49968   -52529 
  -60365   -50430   -40933   -53558   -65803   -58355   -48733   -45909 
  -37986   -26549   -25220   -31989   -36012   -33721   -23485   -14904 
  -16826   -21701   -25516   -28435   -35448   -45435   -43661   -39430 
  -41126   -37756   -35199   -29394   -20601   -27594   -33058   -25363 
  -26176   -34677   -35122   -28340   -28165   -29019   -17628   -19522 
  -34168   -24899   -18261   -39108   -49651   -40609   -32131   -33019 
  -49574   -65607   -60195   -51383   -57345   -57987   -40568   -23695 
  -23357   -30913   -30499   -29405   -36086   -39312   -41594   -49053 
  -51889   -50336   -48798   -49149   -50842   -46954   -45142   -47815 
  -44894   -41033   -38461   -36404   -37895   -39148   -42936   -54172 
  -66314   -72939   -76014   -76343   -66390   -49566   -40936   -39991 
  -41316   -45308   -45057   -41878   -45447   -51529   -60505   -76068 
  -85102   -81546   -64890   -45306   -42691   -37496   -25135   -32159 
  -34504   -19913   -18546   -25357   -28158   -39285   -54787   -63769 
  -75436   -81550   -56889   -26415   -28810   -40868   -43055   -50801 
  -52170   -38302   -27133   -21911   -18013   -20625   -31702   -44327 
  -52114   -52305   -56559   -68971   -69903   -63780   -61403   -61568 
  -66299   -60930   -61881   -85444   -86775   -74518   -85044   -78109 
  -51417   -50522   -56839   -48103   -39228   -30738   -25294   -24931 
  -23988   -34956   -50328   -53183   -48384   -31338   -16491   -21512 
  -24997   -27276   -35286   -26800   -16541   -31746   -49457   -48463 
  -48590   -67325   -75294   -51482   -38342   -47881   -49107   -54310 
  -66630   -62954   -51209   -42700   -37354   -32148   -18342    -1626 
    4216    -4584   -13410    -7111   -13128   -39800   -42178   -25965 
  -20970    -9135     8143     3673   -18512   -36364   -40927   -39708 
  -40948   -46638   -58457   -64042   -55815   -60482   -73103   -58585 
  -42009   -43634   -37235   -33470   -42904   -45073   -46930   -57753 
  -64782   -63034   -54076   -37976   -22971   -20448   -18473   -13139 
  -33793   -65487   -69807   -64822   -65680   -61659   -56813   -52874 
  -47524   -44088   -39433   -31792   -31263   -35283   -28620   -23642 
  -33775   -41103   -35808   -26640   -25674   -30834   -32583   -43861 
  -49750   -29770   -24987   -34730   -23866   -21737   -34476   -39420 
  -51421   -61645   -47970   -25774   -21888   -37654   -43330   -36355 
  -38551   -38746   -32599   -36487   -39742   -33343   -32213   -37775 
  -45477   -51088   -40177   -28491   -45418   -61982   -47320   -44594 
  -71880   -75933   -50755   -40678   -43981   -38068   -37327   -51783 
  -58603   -48739   -35700   -26423   -27198   -38387   -41004   -35225 
  -41439   -52172   -60062   -68119   -57145   -42072   -55674   -65322 
  -49847   -43329   -46485   -35217   -17586    -7815    -5335   -12761 
  -25959   -29844   -34076   -51601   -61992   -52871   -37328   -35222 
  -49408   -54261   -53462   -69921   -82818   -75358   -65666   -65133 
  -64524   -52979   -41573   -42830   -44371   -39783   -35982   -24370 
  -11624   -20391   -32746   -32652   -35391   -39090   -40755   -43224 
  -36919   -30491   -35949   -38974   -39390   -46917   -45280   -37002 
  -35626   -19970    -2043    -7576    -8297    -8819   -32121   -48037 
  -52385   -63913   -60756   -35869   -17678   -15861   -16100   -15392 
  -29484   -50144   -51314   -46237   -54594   -62016   -67259   -83174 
  -94651   -90764   -80659   -62908   -42834   -31699   -25798   -22331 
  -24240   -30370   -32374   -32298   -37913   -39602   -34720   -31129 
  -27261   -24143   -23994   -20798   -13883   -14422   -24652   -36591 
  -53404   -71575   -76396   -76959   -79107   -68872   -58029   -56334 
  -50764   -46167   -44506   -33384   -24885   -39390   -60141   -64708 
  -66371   -67610   -52405   -35240   -32228   -32740   -31131   -28405 
  -22682   -17743   -19203   -26847   -32320   -31005   -28383   -30626 
  -36026   -32657   -27247   -35360   -35525   -21028   -26249   -49144 
  -61863   -67312   -72971   -74094   -70482   -62401   -51152   -43864 
  -41666   -41652   -48747   -61107   -64670   -65151   -72620   -70478 
  -63424   -67794   -61256   -37983   -27086   -33767   -33133   -19870 
  -25211   -48432   -47794   -27934   -30622   -48772   -46926   -35710 
  -33956   -27214   -13941    -4519     3014     1127   -14229   -23724 
  -29542   -48693   -65974   -68597   -63838   -56594   -51027   -48622 
  -50615   -56162   -56597   -47572   -33995   -22972   -14567    -4924 
   -2146    -7807    -9456   -11813   -22455   -39973   -61118   -71936 
  -69838   -62239   -54459   -52629   -49293   -45986   -50060   -53960 
  -62550   -70162   -57136   -49150   -67105   -72945   -51699   -27729 
  -15619   -18797   -15608    -5429   -22237   -43276   -41099   -43422 
  -47181   -38896   -36224   -38657   -36167   -27888   -21870   -27009 
  -38577   -51996   -58287   -56978   -62046   -64075   -59186   -59746 
  -58699   -58482   -53570   -28582   -14648   -25007   -31198   -40663 
  -59537   -65032   -72465   -87821   -78621   -68378   -80312   -76422 
  -57975   -50710   -40825   -28177   -26754   -28641   -31502   -39996 
  -43987   -35525   -25833   -15747      -22      341   -12032   -12121 
   -9184   -14619   -23588   -26342   -22260   -37840   -66221   -70403 
  -63448   -61569   -56316   -52702   -38335   -18041   -24656   -33939 
  -24769   -24094   -28341   -34146   -50052   -55345   -53615   -57954 
  -53836   -42573   -30622   -18693   -19548   -33781   -41281   -33632 
  -24742   -27233   -35370   -31108   -18324   -15292   -17039   -23411 
  -39544   -45481   -32756   -27167   -36883   -40292   -45079   -61115 
  -69223   -70582   -67662   -58922   -59790   -60663   -44775   -32971 
  -39838   -40215   -28756   -27382   -29601   -30289   -36771   -41605 
  -46839   -60550   -72792   -69276   -60226   -62706   -66812   -59701 
  -47641   -46350   -56199   -56421   -43702   -33295   -33790   -41794 
  -48390   -54706   -54247   -47965   -57715   -66079   -59652   -71239 
  -82827   -59730   -38751   -37851   -33419   -31711   -36807   -38010 
  -34722   -28799   -25706   -25065   -22558   -24683   -27672   -16553 
   -9069   -24966   -37899   -39970   -48946   -58575   -61705   -53730 
  -43191   -44030   -41119   -36984   -47023   -51291   -40429   -36211 
  -36410   -29664   -29652   -31464   -26152   -23926   -25031   -30483 
  -33300   -28852   -31225   -32822   -24305   -19411   -19246   -19298 
  -26821   -32444   -29851   -41670   -59313   -55470   -47529   -48803 
  -53503   -65481   -67747   -56447   -59718   -66399   -56378   -49958 
  -53553   -58388   -66889   -69209   -59104   -52119   -53476   -46145 
  -28414   -26052   -36699   -35797   -32074   -35095   -44635   -61145 
  -64135   -56153   -52698   -43727   -37366   -45924   -53013   -45049 
  -34662   -29513   -20154   -13759   -11075    -6285   -12870   -25640 
  -29843   -28668   -29346   -31249   -27018   -31722   -57161   -72420 
  -65896   -67502   -78075   -68084   -41570   -27465   -23935   -16245 
  -17994   -32765   -42558   -52023   -61716   -61365   -64675   -66889 
  -53080   -43912   -40278   -27864   -23866   -29053   -31483   -34842 
  -31518   -24484   -28071   -34155   -35856   -38988   -45855   -55630 
  -62131   -54976   -42061   -39141   -32811   -16467    -9833    -8487 
   -5668   -17640   -38375   -49061   -54648   -64536   -69607   -61905 
  -57743   -61557   -55487   -51426   -60534   -59872   -55317   -66754 
  -72184   -60760   -57304   -66613   -69060   -58482   -52621   -61560 
  -67367   -62117   -58977   -54843   -42580   -30235   -23105   -25353 
  -28952   -27321   -39459   -54997   -49557   -39112   -33458   -31224 
  -37185   -37581   -27513   -22484   -26418   -32887   -42839   -54805 
  -55449   -49073   -41839   -25409   -12974   -13787   -20339   -31047 
  -36437   -35040   -36148   -34103   -29490   -31087   -34354   -35899 
  -31870   -22266   -21335   -23460   -19665   -28331   -49627   -59119 
  -58278   -66426   -71496   -58274   -49580   -53963   -58472   -59483 
  -45655   -27950   -25401   -23248   -24553   -34639   -33130   -21297 
  -11782   -10231   -16799   -25458   -41544   -63452   -74268   -68445 
  -54961   -48659   -45454   -34542   -32124   -38722   -37778   -38969 
  -45882   -50232   -56972   -62733   -61287   -59163   -52926   -43769 
  -50496   -60129   -46831   -33297   -39683   -40136   -25740   -24935 
  -42149   -49674   -44401   -47752   -58222   -55104   -38199   -29176 
  -31885   -28687   -20448   -18453   -17266   -19602   -33899   -46136 
  -50820   -64504   -76945   -68139   -61396   -67919   -65279   -58951 
  -51070   -34877   -35321   -47281   -40941   -32448   -41215   -52624 
  -51236   -44396   -49113   -55131   -50448   -55985   -67467   -62851 
  -58665   -58699   -53663   -59255   -67687   -64918   -66309   -69638 
  -59441   -46003   -41256   -33162   -25058   -37338   -45528   -30951 
  -31804   -45164   -29165    -3647    -2569    -6782    -2361    -3478 
   -7187    -4449    -6343   -19348   -28433   -28356   -34209   -49616 
  -60909   -59359   -57665   -63301   -62649   -61245   -64376   -55262 
  -43105   -47224   -56147   -51349   -37579   -35156   -44205   -51152 
  -52074   -46179   -46094   -49198   -34284   -22083   -30230   -34501 
