Origin Time       2021/02/13 23:08:00
Lat.              37.7
Long.             141.8
Depth. (km)       60
Mag.              7.1
Station Code      MYGH11
Station Lat.      38.5158
Station Long.     141.3421
Station Height(m) -202.1
Record Time       2021/02/13 23:08:06
Sampling Freq(Hz) 100Hz
Duration Time(s)  229
Dir.              1
Scale Factor      3923(gal)/8224838
Max. Acc. (gal)   66.628
Last Correction   2021/02/13 23:08:06
Memo.             
[...]
  -57856   -51857   -62243   -72944   -72436   -69593   -72318   -79081 
  -82198   -74460   -58625   -49042   -50850   -55675   -61788   -66642 
  -69059   -76315   -82259   -77758   -71076   -70328   -69196   -62185 
  -57762   -58976   -57534   -53207   -52365   -63053   -83938   -93274 
  -81014   -66160   -62743   -63062   -60820   -62787   -71209   -76091 
  -70845   -63671   -64719   -69754   -69493   -65570   -68553   -79952 
  -80860   -62939   -48033   -51892   -69381   -80866   -68943   -53296 
  -57424   -71815   -81133   -76351   -66656   -67954   -66865   -54059 
  -51879   -70407   -83938   -69341   -47756   -54988   -80318   -85896 
  -71026   -62652   -66090   -74811   -83403   -77719   -62638   -56938 
  -60241   -65546   -66908   -64068   -67444   -76570   -79122   -71532 
  -61686   -58850   -63508   -65605   -58305   -50247   -56358   -74574 
  -79633   -62345   -51668   -64111   -79726   -77857   -60069   -45538 
  -46342   -57867   -69391   -69276   -58588   -56031   -70640   -80218 
  -65449   -48401   -50939   -59248   -67872   -81529   -82614   -66892 
  -57273   -62827   -68906   -64305   -59810   -64555   -72218   -73946 
  -64481   -58491   -65438   -66004   -62572   -74368   -88749   -85896 
  -70918   -61171   -64816   -74189   -75331   -63105   -52188   -59053 
  -72534   -73591   -71366   -77931   -77183   -61439   -50361   -54572 
  -67626   -78615   -76358   -66140   -64675   -71342   -73298   -67830 
  -61985   -63738   -74116   -79631   -71508   -62586   -59738   -57630 
  -58884   -68806   -82969   -85256   -72030   -62131   -63848   -71022 
  -79986   -79257   -63736   -55212   -63937   -72565   -69395   -62707 
  -70864   -84376   -74753   -55815   -50067   -49540   -57747   -67065 
  -57173   -52492   -68389   -75011   -65523   -67977   -83074   -79112 
  -63919   -69122   -79948   -71111   -55422   -54334   -62707   -63251 
  -53589   -51092   -72711   -96920   -89554   -65518   -58072   -63391 
  -67385   -71150   -65885   -50022   -46784   -55591   -53947   -49594 
  -58884   -68848   -70918   -71983   -67263   -61492   -64822   -63375 
  -58430   -69461   -83110   -79705   -70235   -69674   -76918   -78441 
  -71262   -71420   -77595   -75834   -74069   -79760   -80387   -73440 
  -73823   -79957   -73916   -58615   -51833   -52053   -56312   -69076 
  -72854   -62595   -64743   -82053   -91185   -84030   -70785   -60762 
  -59034   -64652   -63857   -55111   -56423   -67456   -76103   -83054 
  -88036   -90865   -89550   -77438   -63813   -57796   -57672   -62922 
  -68631   -72350   -70970   -64438   -68886   -83359   -80203   -63499 
  -61007   -59686   -49376   -45048   -42765   -50372   -73346   -87953 
  -84892   -73689   -69994   -73361   -65211   -50819   -45225   -45604 
  -51528   -69458   -84960   -80096   -72832   -79000   -84198   -81357 
  -74945   -60716   -39143   -24494   -24129   -34469   -51327   -65785 
  -70231   -70734   -76788   -82170   -71691   -49955   -40288   -49102 
  -62729   -70291   -65280   -57110   -65670   -79174   -72530   -56944 
  -53107   -59286   -73657   -85048   -76171   -63624   -63612   -68490 
  -77797   -86506   -82717   -71729   -64524   -59539   -55561   -56587 
  -57165   -62679   -84677   -96269   -76461   -55833   -62176   -85645 
  -96889   -79833   -55868   -55495   -75948   -91322   -80941   -53339 
  -50089   -75055   -86155   -81243   -79705   -80312   -76057   -61803 
  -54162   -61970   -65770   -60419   -53231   -56667   -76894   -90471 
  -80017   -58644   -50060   -56878   -54770   -45108   -51023   -67344 
  -81089   -86287   -76464   -58058   -45316   -52637   -78846   -86190 
  -58889   -43059   -57496   -72322   -76365   -76499   -83636   -87079 
  -68760   -61800   -79035   -76439   -52745   -47127   -63819   -76118 
  -78186   -82780   -78939   -65434   -66411   -79776   -82421   -61098 
  -34738   -41958   -74092   -83812   -65419   -52195   -55625   -63730 
  -67846   -65024   -59721   -61326   -74453   -89295   -81916   -51493 
  -34824   -50310   -69462   -67684   -60316   -68790   -79699   -70667 
  -59888   -65524   -62361   -46273   -47752   -67736   -86067   -90791 
  -78499   -61804   -58995   -73099   -82472   -75095   -68553   -64530 
  -60502   -62521   -54777   -40297   -43283   -57831   -66700   -65141 
  -63012   -73514   -84265   -81259   -69564   -52612   -41779   -50900 
  -65379   -61276   -52969   -69699   -89540   -80306   -59934   -47417 
  -46473   -60195   -72362   -73442   -67034   -64273   -79675   -90655 
  -78948   -63544   -60212   -75861   -82520   -50101   -26210   -50228 
  -84280   -95893   -82760   -63613   -69604   -81445   -71267   -66460 
  -73500   -69990   -69226   -78819   -78472   -68164   -60084   -59305 
  -67181   -76848   -81542   -77510   -67050   -57246   -55459   -63620 
  -64936   -58008   -61796   -75294   -90637   -94691   -74339   -48640 
  -40586   -48348   -57800   -62229   -70713   -77475   -71972   -74027 
  -86976   -83214   -67319   -62160   -60616   -66590   -90612   -91515 
  -59968   -51906   -64493   -62776   -60824   -67923   -74942   -76397 
  -68251   -64427   -69830   -67695   -67490   -78570   -76200   -55644 
  -42692   -46750   -55713   -59200   -60237   -66933   -78155   -93534 
  -99318   -70152   -37498   -42993   -61415   -64291   -53792   -46219 
  -56631   -76067   -87496   -76349   -43895   -24553   -44610   -85166 
 -103279   -75807   -39468   -48078   -79147   -84057   -69847   -56261 
  -57136   -72319   -73140   -63724   -68867   -73078   -66623   -68265 
  -75587   -74991   -79174   -92379   -94624   -87951   -83652   -77147 
  -62568   -41694   -31159   -39158   -51921   -56328   -52262   -56351 
  -77079   -91561   -86273   -73156   -56181   -44219   -40113   -32341 
  -41744   -71302   -81333   -76565   -84559   -92723   -77120   -41230 
  -19376   -25813   -43830   -71798   -99642  -109534  -105885   -93916 
  -84855   -78370   -61392   -51403   -50672   -47133   -54633   -62356 
  -59722   -66301   -80072   -96460  -110087   -93339   -62081   -60941 
  -81063   -93299   -92051   -84688   -80878   -74637   -60922   -51983 
  -49114   -46683   -53180   -70937   -93086  -109760   -95449   -61647 
  -54368   -64482   -65854   -57616   -35494   -15399   -18526   -31530 
  -39020   -55927   -78652   -76504   -63676   -66260   -73326   -76238 
  -74173   -71340   -72060   -66465   -61636   -72612   -85047   -86081 
  -89314  -104390  -105927   -72729   -46368   -57138   -71995   -81854 
  -84041   -60733   -55807   -89912  -103207   -72337   -36444   -36720 
  -67570   -84150   -66708   -44458   -52627   -71977   -64787   -46485 
  -41565   -37077   -23970   -25739   -58183   -95283  -109522  -100529 
  -78733   -53203   -22064    -2879   -23611   -65530  -102394  -119349 
  -85374   -25033   -16233   -47900   -51445   -43576   -53804   -60039 
  -76176  -106261  -106488   -86832   -77664   -69051   -66526   -77209 
  -85693   -84969   -81951   -93457  -108449   -99813   -84627   -85546 
 -101321  -111221   -93441   -78507   -85536   -79412   -53788   -35607 
  -33423   -40123   -48774   -45261   -35962   -39685   -37557   -36566 
  -59348   -67518   -52060   -41222   -32645   -43799   -75882   -86022 
  -73083   -58889   -52878   -64250   -71799   -59854   -63243   -85965 
  -79367   -52313   -50427   -51749   -32602   -25944   -55890  -106801 
 -130956  -108009   -83820   -84338   -90049   -97147   -94652   -62712 
  -28061   -14084   -18692   -50197   -74564   -59194   -43499   -53692 
  -74345   -82281   -70233   -66411   -78063   -86675   -78941   -48377 
  -38562   -72389   -91134   -81191   -87620  -102091   -91168   -72549 
  -67860   -67621   -74143   -86387   -95187  -100961   -89421   -59314 
  -37829   -44370   -74301  -101622  -113945  -115959   -98346   -56682 
  -20526   -27938   -69225  -104410  -116918   -95056   -48936   -28748 
  -33894   -23329   -15727   -37673   -66056   -82873   -82794   -61703 
  -41222   -36715   -32872   -28355   -34254   -45647   -57559   -71190 
  -93290  -114613  -101680   -71049   -60686   -48771   -38404   -60682 
  -81577   -71895   -56064   -48834   -48554   -58565   -69789   -65823 
  -66532   -86994   -89446   -67752   -51594   -44066   -47144   -56370 
  -59003   -52218   -48247   -69993   -94325   -85699   -63683   -54812 
  -70208  -101727  -114212  -103361   -95459   -85635   -58040   -42990 
  -65970   -85949   -83025   -82652   -81853   -89541  -115157  -119106 
  -95887   -78435   -71128   -71367   -80466   -93013  -100705   -89617 
  -65569   -57153   -58513   -42678   -33853   -53754   -53520   -18827 
   -8650   -33430   -58700   -80597   -93286   -84936   -76956   -74518 
  -42828    -2778   -23269   -83498  -113979  -115069  -101401   -79552 
  -61231   -31342   -18759   -59459   -94122   -86579   -79184   -80395 
  -67043   -52251   -55629   -67140   -73880   -73562   -66433   -49492 
  -19160     2646   -17487   -61840   -78217   -64131   -55528   -54853 
  -54450   -62856   -70603   -65395   -48097   -43546   -81892  -115639 
  -92010   -62456   -70515   -78389   -69504   -67790   -68908   -72632 
  -90391   -96178   -84138   -68748   -44714   -34183   -45145   -56093 
  -72601   -89352   -93098   -87582   -71413   -54600   -43999   -34437 
  -32792   -39800   -51991   -73438  -102027  -113821   -88807   -66125 
  -83986   -99469   -67351   -27056   -32439   -64012   -78915   -72835 
  -71847   -91027  -110600  -119674  -113460   -80499   -59769   -83725 
 -106698  -103149   -89667   -62549   -44730   -58444   -64930   -42931 
   -8206    23103    18130   -27067   -66618   -89586   -86009   -38090 
  -32873   -94536  -102377   -60673   -46402   -36270   -30014   -43897 
  -46896   -46186   -53049   -58980   -88095  -115014   -97791   -75721 
  -57535   -33520   -49361   -86248   -92265   -85013   -70432   -42313 
  -30264   -41643   -65090   -91034   -91817   -71339   -74644   -96491 
  -91142   -71532   -69430   -64050   -50090   -62228   -95458  -110868 
  -96462   -65472   -47240   -53418   -55584   -48177   -58284   -88130 
  -94000   -51530   -29245   -68010   -93501   -74993   -60018   -59186 
  -62441   -63008   -53049   -58970   -91168  -102656   -75436   -58953 
  -84840  -107671   -93457   -77781   -63235   -42894   -54949   -74864 
  -63255   -42573   -29276   -44496   -86271  -104128   -86467   -63121 
  -75891  -119345  -114162   -63147   -40232   -38718   -38030   -47378 
  -46480   -38010   -54157   -73246   -62155   -58577   -95586  -125996 
 -115113   -87891   -61109   -45698   -44369   -39394   -50190   -87200 
  -96633   -64608   -44547   -52733   -67011   -82462   -89028   -79662 
  -65399   -49315   -47803   -63945   -62671   -46569   -45813   -64524 
  -93421  -102690   -76416   -50696   -52512   -63105   -60578   -59593 
  -75983   -87750   -83057   -82236   -98563  -118319  -103389   -42614 
    1166   -16237   -49716   -71759   -89129   -76446   -53608   -61628 
  -62599   -32375   -10166   -25354   -63676   -87319   -86278   -66923 
  -44161   -55761   -87241   -87921   -64881   -50630   -57200   -83272 
 -113671  -118732   -94009   -86416  -104117  -104133   -93275   -80185 
  -51726   -49619   -81399   -89878   -87662  -100998   -92894   -72295 
  -70499   -58295   -32772   -26269   -38708   -65133   -80874   -69483 
  -72173   -78772   -58702   -54811   -76222   -91578   -85136   -50415 
  -29355   -52154   -80354   -82044   -67583   -60284   -65993   -73438 
  -62602   -33072   -24174   -44413   -59589   -63310   -72052   -78113 
  -56987   -32586   -35402   -32348   -26651   -47896   -65214   -53208 
  -19215    -4552   -40417   -78375   -86611  -100022  -126003  -126411 
  -97972   -74403   -68476   -78607   -96450  -102975   -77591   -46279 
  -64390   -92207   -82464   -77087   -76864   -66318   -65114   -66093 
  -72293   -81156   -68678   -42369   -17729   -12483   -32089   -53010 
  -72550   -95422  -100782   -81450   -69830   -78021   -75069   -68233 
  -75327   -66282   -49966   -57501   -61906   -53740   -67207   -96445 
  -88854   -46624   -27037   -33200   -64736  -109728   -96214   -43997 
  -18434    -9057   -18374   -58575  -106537  -133276  -112807   -69237 
  -66353   -95908  -107385   -97291   -71539   -30708   -11175   -51528 
 -105309   -98433   -64056   -61854   -79132  -101615  -122667  -118577 
  -98234   -72929   -26887     9940     9671    -7865   -48001   -93425 
  -93731   -70837   -57777   -28476    -4433   -22974   -37245   -27103 
  -27785   -48957   -76777   -76572   -45580   -35452   -69996  -111974 
 -119025   -95667   -64498   -49117   -56975   -57075   -44493   -41769 
  -44084   -39638   -52346   -95084  -120469  -126206  -142222  -138388 
 -110411   -72368   -26095   -23652   -79384  -115453   -94036   -66097 
  -58097   -42063   -31322   -64395  -102354   -87153   -58009   -56107 
  -46349   -31001   -34442   -32139   -37181   -81041  -109715   -71490 
   -3631    38111    31756    -9648   -54684   -58314    -4729    36979 
   28084   -12097   -95100  -159715  -127290   -74488   -85194  -137197 
 -178814  -168019  -110673   -53815   -29501   -24449   -22530   -49615 
  -97526  -120306  -120159  -108135   -63667      831    25550    -5780 
  -46944   -83589  -118692  -115485   -72709   -44389   -50349   -64527 
  -81750   -99283   -73368   -25357   -41361  -100209  -126517  -113509 
  -64477   -11164   -30480  -112588  -169315  -164230  -119358   -58376 
   -3867     5125   -33382   -57420   -59007   -90626  -110007   -51183 
   27199    43063   -11190   -74031   -80482   -62660   -70056   -74711 
  -54980   -49234  -101904  -182417  -206757  -155081   -67082    12753 
   32543    -7429   -49119   -74752   -98622  -104280   -90540   -89586 
  -86142   -57929   -61705  -117652  -146545  -116407   -64588   -13320 
    8617   -22360   -73745  -107318  -136359  -165758  -154880  -112486 
  -95179  -100946   -95577   -78676   -73095   -92817  -125882  -147583 
 -124359   -53327     6686    25205    18508   -16371   -65188   -88060 
  -65300   -10534    13282   -25078   -64189   -74324   -80881   -69020 
  -33839   -13169   -20247   -52216   -83851   -55162     5491    -8644 
  -68777   -77514   -69757   -77433   -78239  -102487  -133415  -125408 
  -92364   -52023   -50924  -102363  -122634  -103049  -106567  -117531 
 -103565   -74659   -47958   -42703   -48451   -43336   -35537   -15869 
    -176   -42358  -111985  -145287  -130873   -75543   -21328   -10832 
  -20476   -20286   -19962   -19256   -29940   -93787  -154218  -124634 
  -84329  -119823  -171061  -169159  -113336   -60700   -54885   -50251 
  -30954   -38346   -70987  -123187  -150499  -108784   -52007     3280 
   26977   -33988   -80160   -66789   -63640   -45064   -13560   -31437 
  -64979   -80288   -90879   -77503   -54336   -69219  -110038  -121045 
  -95787   -88389   -82243   -23032    29488     -216   -74853  -111090 
  -87744   -50881   -37648   -32459   -13900   -34479  -103526  -129080 
 -108874   -73039   -26260   -37328   -87142  -101695  -101517   -90671 
  -76465   -90427   -82637   -35581   -12735   -28495   -41118   -21614 
    5074    15761     4995   -48270  -101667  -100697   -65740   -35162 
  -56947  -121311  -142103  -108575   -72717   -46256   -36504   -70866 
 -115923   -97823   -49104   -42145   -55912   -56096   -41442   -24062 
  -34857   -78903  -118115  -107322   -43046     -589   -29231   -67038 
  -94834  -134034  -110457   -35329   -30959   -73537   -66599   -24930 
    -441     5686    -8692   -44289   -60107   -60048   -64100   -59526 
  -86580  -142990  -156170  -135637  -111195   -71163   -49169   -70592 
 -103725  -117883   -90759   -64694   -82057   -74349   -46016   -69414 
  -96399   -94743   -92757   -62464   -32806   -67878  -107721   -95312 
  -65358   -40868   -25612   -25766   -30298   -27893   -20669   -16063 
  -34528   -77224  -106666  -115057  -111172   -97507   -94595   -81095 
  -49233   -54886   -91592   -98424   -63907   -39915   -62876   -85472 
  -79192   -82038   -80392   -35070     6797    -1016   -29234   -71224 
 -109902  -100691   -88804   -95196   -66968   -36686   -43484   -44869 
  -47520   -91894  -130775  -120663   -89260   -54106   -40181   -62861 
  -86686   -95966   -99912  -100753   -83504   -55383   -63695   -79992 
  -56673   -40284   -43687   -30022   -18981   -35626   -60430   -74225 
  -80505   -80970   -77838   -86914   -94486   -85594   -91270  -109539 
 -100094   -71319   -70090   -91650   -73990   -27141   -35066   -89806 
 -101511   -56241   -16002   -16561   -34666   -33529   -27569   -46322 
  -68563   -68158   -52893   -35274   -35451   -61326   -77234   -76968 
  -83307   -74567   -58114   -69385   -76509   -76844   -96707   -87891 
  -53391   -39371   -36107   -51923   -67842   -50755   -45300   -69604 
  -84373   -87455  -106110  -117617   -94312   -88285  -110926   -98154 
  -64596   -69639  -104485  -118511   -90802   -48401   -18670   -27130 
  -77480  -102752   -67729   -33222   -42411   -75840  -104620  -103802 
  -72022   -49322   -62667   -84707   -81807   -65238   -63867   -76798 
  -88724   -83245   -33281     9853   -47910  -143460  -150331   -88141 
  -47224   -47402   -68038   -94105   -85452   -57942   -73824   -86408 
  -58641   -38296   -16453    -7879   -53842   -90664   -82039   -59363 
  -31568   -30132   -66114   -82081   -48833   -12668   -13887   -29663 
  -40151   -55246   -69032   -74642   -69657   -54477   -53867   -58421 
  -41499   -48498   -97632  -113351   -63760    -1607    12295   -46078 
 -117726  -117775   -60301   -23963   -33905   -50668   -58216   -70482 
  -68357   -54236   -62966   -75936   -58480   -22183   -11624   -57893 
 -122501  -140397  -120598  -113755  -115214  -104905   -99229   -99671 
  -79851   -47931   -47977   -70888   -93592  -135676  -153758  -106810 
  -62154   -51324   -52299   -81278  -122581  -113293   -48613    -3082 
   -6932   -18866   -37039   -67730   -85297   -80643   -47129    -5879 
   -4757   -23190   -18330   -20406   -64276  -118010  -126635   -84427 
  -27054     9225    -3939   -44023   -81433  -136336  -163771   -98257 
  -19417   -17332   -55038   -78621   -71882   -52602   -67810  -105513 
 -105128   -66538   -35347   -32200   -59825   -99238   -96603   -63452 
  -76054  -115225  -111782   -86840   -94722  -126577  -135284  -104900 
  -50171     1960    12347   -28734   -78798   -99003  -106725  -113120 
  -92214   -64647   -66035   -81629   -83756   -68531   -59697   -60926 
  -54754   -40871   -24564   -18736   -35289   -78170  -131033  -139182 
  -85984   -42074   -52791   -75919   -79216   -54078   -10737    -4040 
  -31456   -58089   -84048   -77471   -35499    -2778     2860   -22385 
  -52577   -70638   -79331   -55718   -27282   -27685   -32956   -42934 
  -47869   -21965    -7456   -45220   -92978  -105525   -96778   -92792 
  -91895   -79012   -52315   -24783   -18090   -25200   -32167   -68067 
 -100310   -83698   -76391   -89988   -80009   -60759   -67772  -111362 
 -158232  -160131  -111154   -64389   -72416  -110123  -123341  -107094 
  -96565   -98860   -75041   -46006   -66523   -91531   -85159   -86277 
  -78229   -55679   -64733   -85630   -84774   -70231   -48739   -31428 
  -46222   -89866  -110047   -95829   -79207   -62286   -46692   -48108 
  -62851   -70856   -73388   -83531   -81307   -60901   -49395   -59391 
  -89514  -106880   -78316   -31542   -16108   -50013   -96569  -112978 
  -95656   -59397   -59420  -101471   -97352   -54317   -44007   -47339 
