Origin Time       2021/02/13 23:08:00
Lat.              37.7
Long.             141.8
Depth. (km)       60
Mag.              7.1
Station Code      MYGH13
Station Lat.      38.6993
Station Long.     141.4176
Station Height(m) -10
Record Time       2021/02/13 23:08:09
Sampling Freq(Hz) 100Hz
Duration Time(s)  244
Dir.              2
Scale Factor      3923(gal)/8224838
Max. Acc. (gal)   33.731
Last Correction   2021/02/13 23:08:09
Memo.             
[...]
   -7123   -11268    -4221     3227      399    -5822    -4955      301 
    4033     6110     7555     6606     3164     1294     2062     1641 
   -2608    -8372    -7609     1023     6551     5171     3171     2346 
    1024      670     3410     4504    -2070   -10519   -11816    -5335 
    4429     6778    -3022   -10328    -5724     3245     9791     8822 
   -1100    -8318    -1763     9443    10748     4914     1656     4587 
    8017     3392    -1653     3300     8550     3824    -4085    -4563 
    1086     2222    -1829    -1070     4005     3974    -3275   -10181 
   -7566     2658     9192     6466    -1687    -5012     3067    10158 
    3370    -3462     1653     4363    -2250    -7337    -7346    -3464 
    4799    10193     6034      140      608     2575     1668     1252 
    3221     3167     -746    -2662     -986    -1428    -3348      847 
    9852    13595     7049    -4171    -6519     3468    11641     7897 
   -1931    -5425    -1028     -398    -5563    -7592    -5008    -1698 
   -2358    -7628    -7884     1213    10288     8411    -3354    -8343 
     864    10052     8704      445    -5923    -5159    -2664    -4561 
   -5273     1081     6097     2133    -1209     2806     5422     3017 
    1422     1247       95    -1787    -3469    -1109     5108     6230 
     623    -2501     2299     9251     8696     3057     -337    -4090 
   -6561    -2438       -2    -3423    -3816    -1629    -2025    -3832 
   -6732    -7326    -2446     2425     3435     2502      988     1618 
    6083     8791     7327     7483     9960     8050     1522      383 
    5350     5977     1660    -2810    -4515      707     7580     5975 
   -1478    -4756    -1456     1474     -302    -2388    -1279     2385 
    6332     4419    -2648    -3024     4974     9956     6561     -202 
   -3604    -3658    -2254     1038       83    -7403    -9859    -1984 
    7182     8154      596    -5229    -1386     4494     2577    -1458 
    2683     9906     6689    -4060    -5559     4642    13836    14581 
    6616    -4573    -8137    -1818     5063     4510    -2856    -8051 
   -5710    -3620    -8028   -13092   -11664    -4448     1343     2394 
    2126      977      -37     3415     6504     2412    -2307    -1174 
    1706     1933     -980    -3322    -1933     1308     5880     8494 
    5313     2054     1784     2735     6420     9107     5979     1458 
   -1300    -3510    -2851     -631    -2415    -3996     2220    10172 
    9269     1802    -2432      506     5377     3843    -2786    -2058 
    6760     8014     1081    -2057    -2832    -1795     4577     7596 
    2230    -4522    -7265    -4970      201     1271    -5204    -9640 
   -4954      513       -9    -3215    -4604     -298     7358     7117 
   -1285    -4029     2189     7697     8016     5945     2168     -413 
    3931     8081     3287    -1350     1972     5381      631    -5107 
    1594    13150    10700    -2628    -9740    -5502     1023     1648 
    -908    -2371    -1744     1575     1831    -2076       29     6556 
    6640     1775    -1233     -792     1161     -792    -7493    -9612 
   -3078     3739     3230    -4475   -10994    -5371     7024     7499 
   -3339    -6941    -2444    -3478    -8199    -5933      699     2228 
   -1491    -2509     1826     5262     2781    -1213     2698    12572 
   14764     6604      696     3950    10338    13049     8923      710 
   -3192    -2106     -487     1505      251    -5790    -8010    -4460 
   -1786     -842     -706    -2180    -3522     -900     4853     5803 
    1772     -162     1741     6891     7917      201    -3642     1813 
    7537     8723     2916    -6696    -7620      652     4303     -506 
   -6362    -8625    -7534    -4515     -598     1340      292     -454 
    1348     7489    13721     8457    -5381   -10289    -2323     6548 
    6683    -2484   -11781    -9791      288     5038     3022     2197 
    1849    -2594    -6169    -1783     6079     5408    -4707   -10841 
   -6712      572     3478     1966     4101     9207     5899     -685 
    3804    15164    16613     1819   -13158   -11967    -1771     6031 
    8140     1730    -6373    -4249     5498    11040     8351     3117 
     265     -295     1020     3615     6008     7645     5671      909 
    1863     6756     8268    10357    13679    12232     6956     4151 
    4815     1756    -4267    -2604     3006     -237    -5945    -1520 
    6679     8143     3269       21     5169     9369      980   -10392 
  -10532    -2242      311    -7717   -13420    -7003     4072     9256 
    6636      719     -724     4988     8915     4241    -6717   -18904 
  -20193    -6636     2280    -3283    -8699    -5115       51    -2439 
   -7761    -6178    -5707   -11268   -12393    -9386    -7861    -8220 
  -10785    -8869    -1436      333    -3442    -5296    -5443    -4764 
   -2662     -361      280    -1312    -4806    -6519      745    13327 
   17281    11804     7881     8924    12174    13609    10393     8006 
   12391    16449    11943     6636     6802     7376    10122    18274 
   24638    20579     9792     5298     5017     -969    -4378      714 
    5269     5729     2898     -499     1161     6268    10656    12194 
    7210    -1514    -4398     -469      845    -4635    -9207    -7670 
   -5593    -5109    -3295    -1919    -1881     -916      984     2448 
    1113    -5169   -10257    -4673     6197     6643    -7873   -23287 
  -19784     1459    15153     5962   -12356   -16695    -2952    11569 
   11530     1485    -1691     6018    13630    15203    11373     8070 
    9147     4634    -4951    -5152     -202    -3402   -13884   -21065 
  -16237    -5314    -1750    -5510    -6600      589    12156    15067 
    7036     3414     5991     3469    -1787    -2955     -270     6320 
   15499    19888    14962     5593     -666      553     2667    -6041 
  -18428   -19257   -12341    -9409    -9370    -4993      608     1988 
     421    -1093     4333    12370     6852    -6651    -9786    -2532 
    3658     2394    -2064      534     9166    11430     3543    -5748 
   -5579     3743     9082     5476     -460    -5873    -6582     1281 
    9401     9715     2417    -6069    -5152     1861     4757     6951 
    8004     1668    -5209    -4633     2786    10458     8136     -892 
   -4077    -1232     1293    -1367    -5580     -214     7268     5624 
    2951    -1109    -8122    -7889    -5563    -6496    -6979   -10432 
  -10627    -3713    -2226    -7946   -12965   -12490    -7518    -8733 
  -17204   -17562    -6991     2627     6642     6118     2697      297 
    3689    12070    16036    11063     4752     6097    12326    14196 
   11990    10044    10064    12838    12820     7754     5807     8031 
   10301    14439    16005     7142    -8050   -17880   -14422    -2374 
    3519     -864    -5305    -6967    -8622    -6038    -2196    -4995 
   -7588    -4199    -4869    -9894    -7042    -1607    -5868   -14678 
  -15912    -5564     5310     3233    -5121    -5204       70      226 
   -1048     4224    10751     8777     1146    -1917     1161     9913 
   20127    19179    13027    13745    15871    18238    21432    23044 
   22210    11647    -1560    -2108     1318    -2943    -8519    -6994 
   -1466    -1904    -7200    -6767    -2023    -4294   -14592   -19651 
  -10258     1872     2111    -2794    -1183     4896     6535     2216 
     607      422    -6860   -14100   -10606    -1370     1636    -4197 
   -8162     2266    20660    26599    15726     -403    -9059    -3628 
    3460      398    -2008     2454     8972    15984    14751     3275 
   -4928    -4357     2596     8938     8317     7291    11369    15483 
   10891      -74    -3763     -517     1183     -754    -5933    -8210 
   -8113   -11248   -10797    -2116     6527     4338    -8073   -15282 
   -9077     -562     -974    -7593   -14084   -18165   -15367    -5587 
     499     -344    -2389    -4356    -1741     2080    -5574   -12430 
   -3397     8378    10849     4064    -2644     3584    10747     4731 
     384     7746    18014    20622    13193     7350     9698    12985 
   12810    10832    10189    11398    11244     5643    -5883   -12649 
   -6324     2118    -1661   -18009   -30676   -23379    -7391    -5074 
  -17687   -29023   -25138   -10831     1228     5121    -3639   -14559 
   -8856     5440    13387    15354     7771    -2832     -484     7547 
    9741     7315      506    -9798   -17896   -13666      274     6540 
    5351     5637     3312     -784     -970     -338     1158     5670 
    2347    -7684    -2844    12465    15380     9933    10994    15951 
   15581     9229     2346     1479     7263    12742    16359    16567 
   10528     7616    13558    20252    18056     6053    -2328     5346 
   20374    22519     7647    -8569   -11778    -2517     3393    -4787 
  -15192   -15229    -9159    -5521    -6022    -8329   -10725    -7380 
    3017     6913    -1732   -10296    -9273    -3573    -2143    -6080 
   -9926    -7395     4934    18476    18712     7960     4729    17975 
   32309    27681    11716     7900    17208    24975    22337     4962 
   -9742     1669    19271    18833    11479     3624    -2334     1509 
    2454    -9624   -17122   -11446    -7152    -9107   -11763   -14180 
  -13209    -8368    -4958    -5393   -10134   -12677    -5724      496 
   -1809    -5757   -10393   -13797    -9456     -368     5907     2451 
   -9983   -15080    -3300     9528     8537    -1779    -9753    -2924 
   12469    12137     2631     9261    22141    22272    15161     7696 
    5436    10912     7169    -7165    -9772    -3777    -6265   -16210 
  -23311   -14469     5503     9254    -5832   -14130    -6343     5024 
    5306    -4611    -7353     1883    12132    19205    17840     5397 
   -1521     3036     2103    -9213   -17845   -15414    -6652    -1248 
     349     6663    14133    11857     5971     7553    15326    22365 
   23233    17581    11438     9026     3699    -7754   -11179      506 
    9898     2519   -10953   -11138     3179    15267    16243     9927 
    1356     1915    15691    24835    22038    18196    14249    13068 
   22245    29901    24061    14859    15520    22924    24038    16306 
    9404     9263    14270    17570    12449     5452     5863     7998 
    3389    -5520    -7075     2766     7985    -1782   -15631   -21724 
  -16110    -6064    -4695   -10103   -11264    -5159     4581    13479 
   16533    10061    -3060   -17271   -24425   -17964    -7303    -5745 
  -13938   -21307   -15736    -2533     1669    -5325   -11392    -7703 
    1339     3343    -6156   -17574   -21554   -18999   -14805   -15581 
  -23018   -24408   -10498     6685     7358    -6440    -9396     -326 
   -2763   -14782   -19731   -14621    -5449    -1688    -9653   -24659 
  -29428   -12376    10835    11735   -10696   -21309    -2362    19147 
   23398    17230     6455     3483    14985    19893     9772     -916 
   -4703     -399     7037     6389    -7959   -23591   -22385   -10794 
   -3140    -1896    -8812   -14871    -7932      360    -4656   -15111 
  -20214   -19110   -13890   -12043   -13046    -4129     7734     4102 
   -9265   -14547    -6245     5638     8552     6679     9730    12206 
    7889     1972       44     1921     3578     4760     4615     -869 
   -2093    11161    29010    36767    28857    10593    -4495    -7672 
   -1437     5672     4583    -5832   -13782    -6767     6346     3160 
  -12402   -17732   -10682     -203     6185      230   -10339   -11294 
   -7165    -8017   -12166   -10855     1459    18941    30284    31006 
   29269    34072    37341    32641    27584    23005    19017    16256 
    5036   -10959   -17525   -17392   -16578   -12023    -7514   -12483 
  -23575   -28858   -28636   -33021   -41700   -46032   -43266   -36370 
  -31795   -30418   -24052   -13405    -4801     -985    -7491   -14601 
     130    30456    46593    38223    21323    13516    19255    30406 
   34377    25402     9919      453    -2401    -8175    -8792     9173 
   28252    23336      -40   -19218   -17361     2621    11824    -7487 
  -30194   -29639   -13317      772     -176   -13036   -12380     6571 
   17203     8455    -6508   -12079    -6210    -3902   -12290   -16864 
   -4544    14585    19064    10111    12436    29328    34861    19818 
   -2193   -18265   -14721     7222    24765    26634    16051     1876 
    1378    10002     4206   -13374   -24291   -23646   -17416   -10581 
   -3572    -1279    -5370   -10432   -14968   -13936    -7211    -7815 
  -14905   -12711    -5636   -10318   -17161   -14567   -13909   -15786 
  -13675   -13401   -11774    -3345     5229    16571    29979    29566 
   19943    19018    27805    36344    32281    18312    14688    24268 
   29223    20788     5800    -1027     4976    10006    12205    19175 
   22609    20669    20056    17003    11566     8743     5271    -1456 
   -5286    -5383    -8737    -7543     7442    14663    -3326   -22454 
  -16741     5929    22570    22322     9121    -4260    -4243     1038 
   -3458    -6794    -1259     3010     8001    13617     9967     1993 
   -7731   -18404   -13190     2899     4708    -5258   -13775   -23147 
  -26526   -16613   -14651   -31896   -44386   -40485   -35984   -35486 
  -33648   -39154   -47429   -36971   -16522    -7769    -9292   -13803 
  -13178    -7119    -8646   -11376    -2299     5412     2600     2392 
   15518    39649    56384    48157    29577    26750    45392    70189 
   71448    43590    21535    24829    34526    33142    20537     4098 
   -4043    -2640    -5030   -11009    -6598     4140     5809     -969 
   -9343   -13846   -10079    -6165    -9551   -15125   -14227    -8226 
  -10058   -14573    -5028     9285    11834     5228     -627     -934 
   -4213   -19673   -35214   -40182   -42600   -43586   -37125   -27398 
  -18651   -12663   -11448    -6457     1221    -6532   -20235   -14561 
     291     2203    -7944   -17595   -10330    14376    27063    13320 
   -6439   -13219    -2134    15118    16395     6899    11693    24586 
   24162    12637    -1031    -9883    -9481    -6393     -299    10960 
   15047    12371    14504    14810     8726     8468    18465    23731 
   12124    -3322    -5190     9568    30742    34516    18553    14887 
   36292    56805    52051    32516    27845    34692    26222     5486 
  -13734   -27155   -25953   -15105    -9000    -9992   -15627   -19525 
  -14912    -6774    -5591   -10783   -13325   -12336   -12051   -12564 
  -13672   -12077    -3634     2181    -6693   -20997   -19980    -2120 
   13795    12015    -8010   -25137   -17851     2353    13540    10971 
     128    -2000    15456    32707    27710     9247     3285    16225 
   21905     3098   -16568   -10716     9310    11994    -4058    -9612 
    1428    11898    10110    -5395   -17193   -11597    -2694     1771 
   12752    24266    25643    24088    19287     9479     5937     9655 
   11460     5989    -4828    -8383    -4384    -9402   -21320   -26867 
  -22059    -7581     4264     4720     6282    18315    30021    29828 
   24286    24717    31438    36968    30492    14644     9157    14389 
   13525     9815    10145     7817     4395     6569     6378    -3929 
  -10795    -4920    -2169   -11013   -19056   -19710   -17442   -17221 
  -20455   -23481   -23450   -22815   -28279   -36356   -28491    -6710 
    4816     1645    -4591    -5779     3577    13888     8660     -540 
    3873     9709     9016    11672    14035    10781     6806    -3168 
  -15371   -14947   -17929   -32891   -35310   -26705   -20730   -17122 
  -26542   -41307   -35822   -18584   -10262   -12920   -17833    -7036 
   14661    20811    16964    20715    25660    24999    21170    17294 
   17537    22459    23947    16725    11389    17509    27379    26522 
   10619      332    13427    31652    36281    27599    12460     4357 
    3798     1649    -4109   -13066   -15102    -6770     -585     3937 
    9427     8858     3096    -5895   -14098   -12233     -396    12480 
   11661    -5656   -16094    -5842    11665    18485     8600    -3349 
   -3635    -1495    -3194    -4140    -5725    -8002   -12432   -19757 
  -16105      918    11944     7592    -5238   -15013   -14665   -10538 
  -14027   -27926   -43430   -46157   -34545   -26005   -28293   -31216 
  -29155   -18702    -2250     2818    -9850   -22920   -17745     -576 
    5852    -4502   -17882   -14613     6077    18481    16571    17529 
   24355    31333    28904    13532     5019    15499    28425    24584 
    7749    -2358     -564     7211    19831    25866    16159     5618 
    3966     3781     6131    14661    22253    23313    19273    16810 
   19240    17359    10021    10500    19008    21907    12222    -1588 
   -6612    -3196    -2833   -12433   -19600    -9868     6674    12992 
    5395    -8418   -17355   -13178     -463    -2515   -20185   -20896 
     -13    16575    18019     9343      243    -2187    -2840    -9590 
  -17803   -15264    -7291   -12322   -27110   -31210   -20848    -9309 
   -1104     3951    -1665   -12567   -12719    -1309    12351    21358 
   24590    26626    29809    31792    28748    19388     7558     -643 
   -4282    -6008    -2631     3150     5898    12322    23010    34992 
   44983    38547    23974    25208    32741    28815    13884    -7689 
  -15989     2493    16376     -598   -28937   -42908   -32312    -7213 
    2471   -10974   -20888    -8117    15128    24136    15745     6925 
    8120    17793    24700    19064    10841    12172    13799     6601 
   -5441   -23147   -36459   -28594   -19882   -31450   -43686   -39785 
  -24541   -13069   -18103   -26904   -22536    -8198      368   -10346 
  -27307   -28858   -15570    -3566    -8660   -17394    -8972      938 
    3889     9848     6947    -2795     5827    24192    26447    16687 
    8189     1687    -1341       95    -1682    -7522   -11006   -14046 
   -8162    12613    25245    20378     7815    -3682     2606    19184 
   18636     4897      247     6045    11025    13892    13144     9456 
   13450    19372    11302    -5238   -12167    -2905    11281    10322 
   -6902   -14314    -2670     6673     3373    -6108   -17118   -20475 
  -12664    -9247   -15735   -17011    -8455      121     -186   -11021 
  -16561    -5078     4887    -1846   -13853   -16031    -5541     6050 
    3130   -13579   -25051   -22250   -16565   -17687   -25745   -31972 
  -25763   -10555      353     2276     3973    11284    19403    20015 
   14283    17475    27626    22850     2326   -13922   -12764    -1603 
    1976    -3820    -4545     9159    25756    23649     4062    -9807 
   -8225    -3429    -1918     4275     9680     3457      650     8652 
    9994     3800     3775    13915    20908    10274    -2683    -3500 
   -3191    -5964    -3510     8878    19649    14507      788    -8083 
   -6203     2054      804   -12264   -19307   -10277     5547    14983 
   16567    15234     8938     2508     8449    14346     4818    -4533 
    2898    21099    28192    15053     5333    12675    16039     3840 
   -8661    -6683     7572    18316    15279     4079    -3235     -149 
    5853     5244     2384     1853     1210     1351     -533    -7916 
  -11534    -6282    -3175    -9234   -14103    -2249    23957    39961 
   31185    15323    14474    23260    27195    24768    16154     8653 
