Origin Time       2021/02/13 23:08:00
Lat.              37.7
Long.             141.8
Depth. (km)       60
Mag.              7.1
Station Code      MYGH11
Station Lat.      38.5158
Station Long.     141.3421
Station Height(m) -202.1
Record Time       2021/02/13 23:08:06
Sampling Freq(Hz) 100Hz
Duration Time(s)  229
Dir.              2
Scale Factor      3923(gal)/8224838
Max. Acc. (gal)   65.214
Last Correction   2021/02/13 23:08:06
Memo.             
[...]
   26574    25512    23699    15749    13591    20718    30065    38383 
   36954    25481    21200    26103    23253    15142    19634    35438 
   40207    22617     7026    13906    26666    30175    30757    31700 
   24590    14748    19282    28980    27311    24283    28679    29879 
   24551    22337    22072    21941    26632    27927    23994    23550 
   23172    22069    23220    23588    26292    31248    29998    24079 
   19141    17433    23697    32096    31882    28841    26418    19889 
   18360    25184    27166    21636    18824    27692    38635    32516 
   19759    20043    24560    21639    16607    15877    18728    22045 
   26192    31078    30754    25763    24356    25045    22360    18917 
   20556    28783    32545    24212    18409    22987    25843    23419 
   20529    18975    21706    26160    25914    24592    29687    35163 
   29554    19006    17374    23430    30045    35862    35851    26304 
   17525    16893    18736    19850    23958    32391    36050    29276 
   21201    19414    24814    31321    29766    23093    22370    27799 
   23269    14405    24787    36759    31579    26572    21127    11593 
   14245    23522    26408    30416    35530    29709    16110    10959 
   19230    30453    34138    30780    27228    25581    24536    21467 
   19032    24042    29435    31745    35654    30501    18233    18559 
   25238    24441    25409    29019    27214    24497    20001    15990 
   20368    26449    30932    31222    23410    21028    24867    22611 
   24699    35118    33785    21408    16120    14979    15657    27634 
   38119    33077    28043    31163    30098    22581    14625     8853 
   11470    24212    34715    32217    19863    12914    23657    39930 
   38911    23699    16506    20439    23527    21703    18650    23247 
   36181    44413    39853    26715    15105    14338    22689    28528 
   27101    20722    15352    17625    22485    24209    25631    31490 
   36810    25778     9598    15306    28598    24310    17365    26289 
   39584    40869    29667    20019    21562    25509    25536    25744 
   23870    17906    18770    30384    34337    22735    18320    29875 
   34283    28313    29739    33739    32466    29608    22150    16109 
   19737    20012    12267    11907    19657    27653    35607    31603 
   20868    28647    37251    28991    26739    27074    17694    16337 
   22048    20834    18144    19967    23314    24823    31337    41801 
   37633    22981    16837    17991    20275    24027    28803    31159 
   30562    30684    28161    21483    17995    15786    12136    18925 
   35406    41569    37233    33944    25385    14249    14018    18434 
   19217    17842    12729    10854    19290    27527    31506    33277 
   29450    26743    26916    24283    21797    17662    12256    14106 
   22549    31637    34403    26250    17923    20012    22423    18385 
   21311    29006    28290    32175    41154    31710    14318    17913 
   34565    37528    28985    23058    13612     5913    17780    34453 
   34068    27734    29721    34010    30847    24826    27275    31093 
   25743    20002    22222    27027    26503    22543    25679    33777 
   27787    12051    13643    27822    30485    24490    28930    39722 
   32935    16542    13278    12737    12781    26554    38724    35839 
   26534    17388    14798    21010    25988    27626    34780    40581 
   34551    24304    15643     9837    11049    19029    30647    36630 
   28922    19464    21662    25299    21060    21455    30678    34519 
   30928    27232    19989    14782    24919    33120    26925    27657 
   32763    30516    27812    19715    15026    25469    34615    35947 
   30824    17518     6974     5648    10933    24268    37358    30793 
   13628    18338    34890    30789    23477    33910    37967    26056 
   15851    12864    16347    23703    24321    17629    19245    29014 
   27973    22974    27473    27249    21416    21771    26738    32778 
   28919    17875    20499    26442    24710    32409    35811    20806 
   13035    17019    24934    34159    26349    14287    29760    49947 
   40292    21397    12441     7028    16448    24447     6956     6008 
   35546    46326    31205    17728    17359    30277    41874    40624 
   35190    29874    21467    17363    24291    28682    15500     4479 
   18212    35644    37809    34798    28798    19550    16796    23240 
   35040    43814    36659    20941    18905    29355    37455    35371 
   22511    14330    18068    16349    11408    23533    38545    39442 
   42163    39363    19356     8823    10504    10243    16214    27383 
   35031    33026    23969    21016    23409    28564    34481    27342 
   15519    17266    18596    14936    22553    31251    30739    29617 
   27679    24233    28462    37656    31550    17228    18145    22335 
   23868    28595    22767    20648    33725    33116    19672    12853 
   18968    36525    37120    18277     9844    17143    37897    45076 
   10936   -14983     4839    27433    33326    42361    47173    36610 
   21914    12687     9478    12966    20548    24664    27634    34618 
   39807    45898    47083    27202    13535    23414    27753    30051 
   41562    43282    35149    23772     9051     7427    20483    28845 
   31754    33019    26396    20873    28250    37098    41099    45644 
   40117    21639     5112      429     8248    14231    13412    23615 
   39856    38126    26925    30276    41512    39151    23881    14277 
   19469    26094    15026    -6354   -11588      268     8608    14061 
   23222    25180    27121    37250    37504    32277    37195    41269 
   36567    32763    29695    18827    11684     7445    -4899    -3375 
    9274    13506    26292    43478    45616    34155    14466     6635 
   18515    32948    41866    41817    32292    18351    14746    32958 
   51902    53331    40265    19768    10941    17032    17421     5038 
  -10725   -11315    16973    55611    77298    80670    63058    29517 
   14546    19225    17050     8830     1551    -2932    -1652    11711 
   32356    37170    31770    34699    34111    26148    26339    32443 
   27639    13710     8999    14976    17188    16163    21396    24880 
   20191    20846    36405    52154    43011    24393    28035    31518 
   23186    25639    23215    16605    28278    26023     3856     8991 
   35480    47358    41733    26576    14597    17941    21635    11871 
    7572    20738    34258    34823    29717    28888    38161    51919 
   45171    20206     7130    11125    19917    19275    14060    29180 
   43838    22069     1879    15168    21022    10717    18877    41735 
   51156    39592    28690    31864    34983    30562    20877    16278 
   27411    39834    45283    49133    40690    22842    14203    10260 
    2805    -5460    -8090     5876    22326    20256    12132    14462 
   33111    56895    58457    47034    47694    44032    26792    20574 
   25402    21463     7284    -9595   -11052     5748     8467       33 
    8047    15696    24972    56197    66096    37480    18794    19749 
   29446    40397    31637    24871    50004    77711    75928    52305 
   33774    38978    41798    13351   -10968    -6057     1707     5757 
   10427    14292    18931    11766     1819     4013     4075    12870 
   38631    50903    47294    43976    32652    19284    30920    52046 
   44728    29489    35351    45463    38799     8972   -13177    -2038 
    9694    18909    39445    32590    14380    44485    82399    71936 
   52294    53181    44543    16258    -7420    -6200    13535    25656 
   27174    30017    22543     5042    -2332     -294     6338    23893 
   45139    50731    44794    33718     2435   -22347    -7406     9903 
    5609     7321    10098    -9729   -24187    -5220    19850    32343 
   43193    53157    59811    51156    15091   -29737   -53806   -31676 
   23796    56806    53163    41287    33801    33027    40354    46862 
   35406    14381    16410    41315    63691    59570    19295   -20069 
  -24229    -3850    18242     9354   -28007   -27992    22952    58607 
   62506    72918    83824    66923    35248    18685    27018    45532 
   50816    42834    32995    18283     6440     9171    11927     9730 
   25713    55044    60025    37330    15233     5022     5175     7825 
    7001    21562    45607    35440    11676    25042    48428    50696 
   48690    45816    41407    44662    44992    31060    21682    34553 
   42822    25367     6589     1856     8726    26017    49561    71398 
   69356    39468    13836    11804    30766    54251    55831    40329 
   26584    10729    -2328   -10585   -23197   -18274    14334    44705 
   53788    34917     -893   -21830   -13552    15226    41289    50456 
   42280    19014     2293     5225    12044    11727    12058    17328 
   18237    16170    18955    32181    49071    35047    -3808   -16310 
    2297    22459    28421    21296    15665    19427    22026    16094 
   13844    19593    24093    35479    48099    40795    27361    21612 
   25718    43198    52768    50836    48779    31275     3461   -13953 
  -17479    -3465    18468    29170    28286    34927    59625    73003 
   53630    26855    17442    23070    22297     7410     1952    23148 
   55413    60583    31280     8985    10455    16915    26180    33237 
   20947     1225    -2272     2197     7021    28120    54182    58429 
   46554    42421    58731    64551    31688    11805    40860    64716 
   55502    45370    35478     6629   -19134   -14187     7457    20731 
   15707     4176    11254    31747    41463    33852    18553    15691 
   27957    33619    22050     6076    -9031   -36135   -47761    -4953 
   44327    41539    16155    17504    36963    34917    11448   -10523 
  -21440    -9007    15716    31205    46251    55856    37169    14540 
   30834    68883    77768    46190    12764     2316    -4452   -10046 
   -2388     3689     6096    20966    43104    58249    64100    61847 
   59279    63175    58776    51923    60976    57689    28300     -128 
  -15302   -13690   -11404   -26210   -22628    25956    82853   103277 
   86931    59124    25728    -9038   -24156   -21697   -28699   -37246 
   -9255    31031    35255    39864    66388    67709    52562    45584 
   30740    19776    22538    32417    39106    18343     -538    17001 
   27996    17524    25201    39753    29272    27162    58672    67608 
   30618     8680    24574    46275    54626    43233    21433     -696 
   -8197    28861    69731    58266    28996     -737   -33053   -26577 
    8062    24131    22879    15562     2181      130    18928    36475 
   32566     8244   -15796   -12636    12922    17547    -7454    -1250 
   46211    64524    51545    52064    41737     7277     2197    40764 
   73244    73716    57086    34326    21582    42896    69986    60766 
   43626    49071    62761    69199    54513    15672   -25218   -34403 
   -9586    20675    55366    84130    70410    25361    -8282   -14370 
   -6039     8451    30030    36008    17532     6515    24800    55695 
   63612    44208    23265    18786    29276    27162     6328     6551 
   43129    72523    57986    24880    10735    14952    24810    43181 
   62584    53879    29938    26786    30271    33685    43232    34854 
   24729    34195    31081    12083     1439     8480    36628    60822 
   64376    73781    85621    73784    46626    25875    33050    47466 
   26172    -3747   -12696   -20254   -34923   -54967   -62120   -36281 
   -1692    14079    11186     6725    17741    27409    25134    34857 
   54523    64257    63969    33912   -32113   -61312   -26373    -2980 
   -8888     1791    22702    26450    19552    17598    27484    47718 
   61411    48570    21474    21393    41049    39016    41929    69824 
   75270    71821    90170    68937      -51   -36097   -25066     1755 
   32622    45214    38442    30411    12406    -1291    12320    28607 
   33543    25011    -9771   -41311   -45374   -45662   -43066   -23076 
    9836    46128    55144    25087     1728     7751    17498    26374 
   40701    44505    51723    86983   117621   122580   113694    71743 
    8005   -14551    19342    66737    90801   105123   131849   136323 
  110585   104797   118617   115136    98965    82611    47075     9810 
   18585    41067    23757    -5918    -6980     4521    -2316    -9039 
   -9918   -29986   -18976    39001    56033    33467    27519    28136 
   37787    55633    54469    50005    43907     -251   -48432   -45729 
  -29554   -40108   -48983   -26194    -2016   -26561   -50939   -23998 
  -16451   -41455   -32805     4035    45014    78360    72085    16513 
  -53581   -90644   -80014   -44574   -19742   -13312    -5084   -11604 
  -35757   -32680    -6740    24584    60351    73996    64511    41075 
   13617    10281    17370    22867    43457    46812     9173   -18698 
   -7145    13217    21901    23463    19611    16314    36894    71238 
   65086    26276     7688     -666   -23202   -35237    -6293    39451 
   53574    46074    38522    21039     8723    19688    34383    27850 
   11977    10404    10268     -589   -27499   -71520   -70492    11620 
   93511   105493    75030    42705    24578    48305   102681   123371 
   96429    58484    33079    23974    12255    10392    62500   127242 
  132027    91292    44130    27805    66945    87405    34547    -7808 
  -12960   -40780   -50749   -18014   -17442   -33293      236    63733 
  128050   161692   123809    50318    -2411   -42233   -71872   -60396 
  -29114   -32985   -49426   -20023    32339    44751    26870    36702 
   78923   107188    90327    41191     6058     8750    24051    22986 
    8347     4599    16719    30289    41339    42259    33914    25340 
  -12714   -75473   -74722   -12391     -892   -36744   -48455   -50337 
  -41806   -26551   -51551   -58715     7755    67319    75898    66653 
   49549    18287   -27394   -53747   -23745    18571    19106    17933 
   66765   119589   110852    78655    80458    88319    72792    62044 
   61323    37839    23556    52490    67686    54492    65292    97156 
  105173    85608    61792    43314    43704    50365    43421    45355 
   46658    29905    34688    64239    59756     3746   -50587   -59238 
  -20668    45405    84917    59734    15499     5837    12039    17815 
   46190    77831    83513    63369     4692   -39199    -8356    20884 
   11565    10335     7539    27248    83673    86904    30083     5953 
   21273    43345    85521   106659    55333    -7311   -29045   -34003 
  -24702      951     4959    -9412    18665    73839    82582    43467 
     908    -9031    11716    18713   -10027   -55096   -85043   -75192 
  -32174    -5867    -4815    37297    99879    91935    53955    54229 
   40324    -1107   -22072   -43171   -56506   -11218    53743    69917 
   36891     7082     9063    24421    58357    95855    80331    22539 
  -22007   -35787   -33187   -15174    30898    74302    68743    23599 
   -4068    10280    27648    31760    29424    15434     8915    18724 
   21308     5732     5529    34792    41376    32324    44208    35278 
    7427    -3072    -6228    12348    37073    12073   -39368   -65830 
  -60546   -36868   -12310    28119    89052   107936    80708    74333 
   75082    46818    40963    83712   108919   109054   114508    68625 
   -2893    -5255    15751    23510    51656    61742    30412     6817 
   13119    12387    -2533    31079    95415    81319    11569    -6748 
     344   -12394   -11468   -10813    -9213    25689    25845   -31432 
  -47568   -30581   -44579   -18527    55209    61809    25533    26694 
   43055    61840    83880    78667    41701    -2297   -28443   -14319 
   37967    79991    73098    52988    55815    66671    82233    81594 
   25807   -37064   -35256    -6362     3593    37706    86513    94142 
   73629    28629   -31703   -61747   -63351   -43866   -11812   -12690 
  -39035   -47166   -41037   -20717    19006    45522    53225    58722 
   45611    26505    29843    20482    -7727    -7183     5223     9869 
   32659    66661   103327   134157   138129   115025    51042   -10331 
   21551    94624   115168   102011    76743    47596    32799    17460 
   -5722   -30852   -33617    16308    65210    68500    62213    44394 
   11892    12191    41535    42236     3368   -31321   -38053   -31689 
  -24367    -4989    21161    30461    32096    33378    19098     3873 
    9038    25280    42701    45354    28069    19508    10200    -2320 
   23750    50102    28054    14841    35310    43132    49088    65441 
   55293    45692    76547    98227    64135     5310   -24146   -14261 
   18042    54591    56652    17497   -13489     2169    40884    37332 
    2069     5660    37800    50858    40296    19660    20410    46872 
   53555    35793    15790     4349    24402    55431    45330     6010 
  -16884   -23718   -11345    29575    47634    35181    37282    34631 
   17595    20873    36115    24580     -583     5146    10085   -16993 
  -20690    -5081   -17563   -24557   -12680    -7265    15061    58159 
   82582    77469    64462    68246    74447    52705    39071    56054 
   46014     5914   -10847    -2385    19974    53547    63624    34383 
   18145    31506    26381    14737    33674    70117    99216    89266 
   32374   -19892   -17247    23926    52938    48359    21497     1112 
    4194    10998     -750   -23491   -24702    12302    44392    45249 
   61018    93139    87139    52051    33562    37106    38951    15437 
  -16518    -5556    54155    98365    73697    10697   -24412   -16052 
    8352    30140    33801    18870    16308    12951    -7948    -7042 
   -3996   -28032   -33413   -27278   -38056   -32980   -11322    10160 
   25157     2311   -35518   -30107     3221    21601    26410    33817 
   30674    10184    -5031   -18565   -26640     3327    34796    24108 
   14305    18725    10709    27618    83258   111906   101449    90994 
   76721    64786    71874    64079    29951    -1723   -32641   -46157 
  -11230    38001    55795    36718    21554    43876    60358    57754 
   69946    81714    76005    56135    30333     7164   -19368   -33412 
  -35657   -52137   -41724    10372    35699    36400    50234    58733 
   60679    54344    22562     2416    24707    51570    44127    15390 
    4202       20   -32300   -55532   -36398    -4167    22314    32965 
   30881    44938    78356    98787    87828    51043    -8765   -56292 
  -50869   -28081   -21141      430    43256    64557    41041     7987 
    5427    20448    34138    36270    17857    23820    74105    84478 
   24341    -8101    29376    74355   101190   107526    79729    49095 
   33700    17824    16621    32103    33516    18935     7003     6034 
   21286    37377    30478    16248    12128    12151    18532    22129 
   11708     5063    23585    43183    17370    -3269    31977    38794 
    5455     6848    18804    14285    19986    37215    34939    -3846 
  -38236   -28948     6312    28611    35521    61072    85247    67346 
   45524    54265    60180    49756    48131    58720    71626    64569 
   13170   -38911   -23388    44015    83829    63066    27550    17221 
   23498    25845    17259     8834    13135    38323    83254   105628 
   75327    41037    37022    34285    28540    21870   -10100   -37627 
