Origin Time       2021/02/13 23:08:00
Lat.              37.7
Long.             141.8
Depth. (km)       60
Mag.              7.1
Station Code      MYGH14
Station Lat.      38.3400
Station Long.     140.9551
Station Height(m) -986
Record Time       2021/02/13 23:08:06
Sampling Freq(Hz) 100Hz
Duration Time(s)  236
Dir.              1
Scale Factor      7845(gal)/8223790
Max. Acc. (gal)   59.566
Last Correction   2021/02/13 23:08:06
Memo.             
[...]
   -4401    -3917    -2972      384     -810    -5333    -9670   -10118 
   -7886    -9960    -9416    -4464    -4768    -3908    -1748    -8540 
  -18395   -21679   -15156    -3426     2833     2070      735     -445 
   -3866    -3831     5312    11245     2328    -4287     -317    -4356 
   -9271    -1957    -3451   -17871   -21802   -12141    -2592     -706 
   -7018   -12468    -9679    -4538     1598     5374    -1741    -7522 
   -5254    -7068    -7835    -4826    -9967   -13821    -8552    -7186 
   -9329    -7281     -302     3935    -8799   -22218   -13748    -2002 
   -1366    -5103   -11138    -9788     -594    -1107    -9369   -14762 
  -15595   -10288    -5802    -2532     1759    -2335    -5738    -2324 
   -4210    -3314     6601    10089     3202     -870     -594    -4286 
   -5319    -5016   -15880   -23674   -14824    -8074   -17982   -26302 
  -13506     1188     1864     6593    10685    -1219   -10913    -9759 
  -10343   -11076   -10552   -11700    -5682     1472    -2277    -4739 
   -5678   -15928   -17244    -1026     5965    -6756   -16110    -8961 
   -2114    -5933    -8434    -5540    -3931    -2582     -446    -1208 
    1381     6401     -583    -7258     -723    -3341   -19904   -24325 
  -13257   -11178   -18960   -11720     4762     5795    -3478    -8812 
   -7778    -1884    -1933    -7287    -8064   -13431   -17644    -8868 
   -2945    -4131    -6457   -11686   -12802    -6516    -2802    -5686 
   -5333      936     4012      209    -6872   -11718   -15886   -21104 
  -17914    -7744    -5775    -9610    -7014    -4800    -9312    -9738 
   -5954    -7007    -8683    -7069    -6174    -6952    -9747   -12163 
  -11847   -16110   -21267   -16075    -9490    -5552     3318     5454 
   -4588    -6890     -244    -2775    -7094      633     9933     9300 
     784    -4320    -4662   -10106   -12244    -6862    -8710   -16864 
  -15371    -4075    -2227    -6871       56     5509     2876     5622 
    4253    -5300    -7387    -6133   -12519   -15665    -6804    -1138 
   -6320   -10474   -13961   -19332   -14176      253     7830     7511 
    7095     4792      202    -2789   -10774   -19458   -12795    -6690 
  -12121    -8703    -4818   -13284   -14966   -10559   -13009   -14331 
  -10921    -3105     8145     8050    -1482    -3157    -1332    -4093 
   -6721    -7927   -12494   -17319   -11780    -4587    -8190   -10282 
   -6485    -6976    -6266     3200     8181    -3684   -17809   -16798 
  -11761   -15712   -16040    -6628    -1121    -1310      152      191 
   -2374    -2490     -842       33    -2038    -7554   -12393   -16208 
  -17383    -9679     1772     4689     2187     3314     2743    -2403 
   -4032    -3964    -8503    -9049    -5998   -13936   -20067   -11294 
   -8613   -16964   -15931    -6134    -2380    -2137      126     1593 
    5051     7549     -579    -8502    -2535       60    -8660    -9775 
   -5900    -7026    -8739    -6014     -245    -6750   -16146    -7180 
    1702     -284    -3447    -5965    -3404    -2459   -12669   -19905 
  -13173    -4542    -3150    -6556    -8802    -2830     2739    -3272 
   -8849    -6421    -6322    -8424    -7751    -4210     1522    -2397 
  -11101    -5675     2641      162    -7257   -10921    -8378    -5829 
   -4033    -4326    -7933    -6689    -3127    -3034    -3048    -1956 
     487     1567    -1949    -8731   -16236   -18836   -14620    -7065 
   -1818    -4623    -7480     -572     4428    -1908    -1884     4995 
   -3595   -10169    -6077   -16401   -22261    -9904    -4826    -7785 
   -7560    -2992     1437    -4860   -13801    -8163      784     -259 
    -676      444    -4406    -9385   -13207   -17695   -14523    -7892 
   -9290    -9516    -6119    -9780   -13063    -9078    -4376    -4000 
   -5771      598     7612     1397    -1749    -1701   -11651   -11047 
   -3119    -7877    -9551    -6137    -8199    -7778    -4514    -4075 
   -6454    -9362   -11047    -9198     -257     6431      261   -11716 
  -15128    -5065     2745     -739    -6039   -11711   -14499   -13952 
  -18193   -14546     1780     5297    -6902    -7427     4158     3581 
   -3222    -1146    -2578   -10315   -13636   -11241    -2056     1711 
   -9786   -12611    -2843    -2101     -195     3688    -6866   -12650 
   -4928    -5278    -9745    -3735     2519     -573    -8104   -12247 
   -8618    -8208   -11187      336     9757    -3126   -14283    -9065 
   -7248   -15871   -13026      484    -2516   -11820   -10388   -11591 
  -13636    -8382    -2118     3024     6376     3090    -4606    -5263 
   -2168    -8367   -15338   -13572   -11227    -9877    -9778   -13533 
  -10320     -500     3030      724    -2470    -1682     3080      457 
   -8598    -7888    -4837   -13853   -17945   -12852   -13342   -14715 
  -14054   -13212    -8009    -3454    -6227    -8488    -3129    -2039 
   -6794    -4932    -3326    -5505    -1466     4268     1688    -6933 
  -13032   -13335   -13070   -14640   -10272     -348     3670     -930 
   -6234    -3073      413    -7296   -12353    -8237    -4418     1020 
    1615   -11421   -18802    -7500      178    -7561    -8603    -1206 
   -2120    -2296    -2164    -8062    -5606    -4349   -12517   -10098 
   -4167    -5803    -2344     -286    -7734   -11695    -8748    -3450 
    3125     3430    -4037    -6755    -1753     1314      901     1005 
    -368    -5645   -11335   -15907   -19568   -14137    -7503   -13239 
  -14569   -10440   -12595    -8765    -3388    -6569    -8773    -7809 
   -7690    -8233    -6921    -4426    -8523   -14458    -8305     3114 
    6351     -637    -8932    -5410    -1688    -9610   -11071    -5645 
   -7735    -7519    -4841    -8056    -5656     -972    -5792    -8372 
     209     8291     4968    -2458    -7688   -14388   -16814   -13022 
   -8067    -4359   -10164   -17323   -15441   -17012   -17574    -9973 
   -5800    -2401     2188     3769     8606     7106    -8982   -15866 
  -11828   -16603   -16382    -6106     -541     4110     5192    -1440 
   -4349    -4698    -8773    -5956     5278     5837    -4326   -12113 
  -18408   -13933    -2234    -7830   -16002    -7834    -4757   -10909 
   -9126    -7635   -12383   -12100    -9540    -6616    -3952    -9161 
  -10551    -3723    -8167   -17589   -10426     1417      114    -6907 
   -9578    -7423    -2324     1937      178    -1425     3802     6813 
    4514     1216    -2658    -4276    -4018    -3631    -2014    -3341 
   -5223     1861     8199     1092    -8581    -9867    -7507   -10536 
  -17089   -10447     1895    -2828    -7631    -2231    -4369    -8062 
   -8762   -13059   -13871   -10500    -8440    -7292    -2767     3132 
   -4787   -17521    -9933     -841   -11912   -18677   -12487   -14602 
  -20394   -16193    -8100    -3639    -4816    -7088   -11246   -17841 
  -14493    -9084    -9946    -7279    -7865   -10342    -4394      105 
   -1193    -5926   -14563   -15453    -9624   -14017   -14224      858 
    5891    -1048    -7569   -13088    -9715    -6912    -9089      -31 
    5198    -4716    -5089     5524     5485    -6926   -17860   -19047 
  -17674   -16468    -9270    -2988    -1587     1831     6326     5724 
    2623     6239    12823    10935     1911    -5098   -10099   -18384 
  -21982   -16883   -13636   -12482    -8676    -3369     2990     9049 
   11236     8756     7932     8453     2776    -7524   -16308   -19750 
  -19228   -13266    -2153      314    -4550      268     8533     3528 
   -2717     3249     4889    -3809    -8187    -6068    -3527     1312 
    6903     2218    -4772    -2548    -7820   -20993   -20899   -10643 
   -3549    -4066    -7511    -1833     2022    -5775    -3312     2589 
   -5467    -8623    -7434   -12255   -12831   -11400    -9953    -3217 
   -1197    -9728   -12533      899    10601     4233    -1620    -4841 
  -11955   -16046   -16117   -14554   -14685   -18648   -16640    -8167 
   -3006     3094    10648    12811    12862    11649    11817     9076 
   -8550   -25891   -28842   -26923   -27757   -30258   -27058   -16760 
   -3576     4237     -895    -5524    -3694    -7828   -15564   -18227 
  -12077    -1394     1764    -4596   -13483   -12812    -7493   -17674 
  -24441   -12856   -11516   -19912   -17158    -4448     9782    10810 
    5414     7107    -3206   -20406   -19580   -10747    -7901    -7970 
   -6624   -10135   -20638   -20972    -7954     1572       21    -5395 
   -6939   -11557   -15592    -3501     5107   -10143   -22310   -10222 
    5070     4071    -2037    -1775    -2909    -5578    -4750    -3180 
    2025     2643   -11344   -23557   -20019   -12999   -14577    -5331 
   13749     5229   -12032    -7273    -7893   -13571    -1613     7774 
    6747     7955    -1858   -13333    -5725    -1813    -3238     5067 
    3492    -8811   -11805    -7353    -8202   -18328   -26657   -20942 
   -8857    -8938   -15028    -7325     8930    18436     9864   -10720 
  -12927    -2655   -14114   -31001   -26393   -19836   -17143     -464 
   16846    21708    19322     5297   -10327    -7069     5910     2417 
  -14418   -15728    -6451   -12220   -24343   -23836    -6585    12244 
    7137   -10524   -13126    -4162     2381     -450   -10268   -18247 
  -19483   -13344    -3208     6590     9283     4133     4194    11458 
   14052     7029    -3191    -8911   -17753   -26859   -21396   -23116 
  -38523   -29064     -708     8807     1521    -3523    -1009     3316 
    5215    10671    15704     8235     -341     1806    -1286   -17888 
  -28738   -19921   -12025   -20862   -18193     1270     4401    -5277 
   -8473    -5792     6970    21798    18396     3757    -6748    -9300 
   -2754    -1443   -12645   -14079    -1614       10    -6377    -5040 
   -8992   -12386      889     4322    -6963    -3993     6872    10966 
    6625    -9219   -22165   -23608   -19160    -8166    -3315    -7819 
   -6627    -7557   -15959   -19338   -18060   -17284   -14339    -9599 
   -8563   -14095   -19426    -9477     8390     6651    -4669   -10118 
  -25138   -31260   -16661   -12321   -11434    -8320   -22608   -26453 
     -56    17130     5661   -10208   -14750    -7210     4083     6068 
    6081     7402    -1398    -7412      542     4858      810    -2104 
  -12933   -28188   -24985   -10867    -9219   -19583   -20217    -9945 
  -15475   -22049    -4885     6408     3038     5964     7813     7873 
    9653      812    -9857   -10503    -5653     3138     4769    -1858 
    1232    -1522   -21093   -22042    -3046     3015    -3410    -7358 
   -3423     2704     4226     5069     5798     4977    -3682   -16938 
  -12866    -6004   -18268   -26820   -26827   -27950   -18620    -8947 
   -7159    -1827    -5545   -18266   -17563   -15535   -25321   -26252 
  -19210   -23845   -22146    -3573     -152   -10347    -7036    -7252 
  -22653   -21467      912     9713      932    -3709     -184     4193 
   -1921   -19296   -32967   -30497   -15144    -6835    -8074    -6301 
   -1536    -1263    -8864    -2124    14793     -201   -15495     9378 
   19290    -2108    -5829    -4018   -12627    -9109    -7970   -18763 
  -24705   -27130   -19927    -8090   -11206    -9574     1647     -974 
    3049    16402     2960   -13298      903    16653    15979    14752 
   18393    14953     1019      479    19774    25535     8259     -302 
   13667    27102    20129     1958    -6170    -5605   -11778   -17544 
  -12600   -13593   -26642   -27297   -13082    -4363    -2718    -2991 
    5655    21629     9258   -22384   -24287    -8468    -9441   -23614 
  -27627   -10663    -6971   -31564   -44356   -35467   -23093   -13864 
  -10482    -1363    13657    15982    13690    23626    29787    22187 
   28256    40541    24552    12858    29296    34038    25138    27064 
   25848     7861    -8837   -13377   -19661   -26925   -31469   -42342 
  -49323   -51664   -57640   -49651   -32579   -28915   -33917   -42831 
  -49279   -42408   -36863   -42025   -36165   -16397   -12021   -15240 
    2929    21701    28649    37480    31976    16555    19070    35430 
   50706    46465    16977    -9755   -16561   -10494    -2423     1707 
    3460    -6520   -23755   -18212      199    -1744   -15581   -18820 
  -11890   -10435   -13216    -7952   -17113   -39252   -27714    -1559 
   -4990   -12977    -3882     4707     5404     2689     2385     5243 
   10652    26775    43553    43794    38917    44035    45712    20557 
  -13802   -18989    -7304    -9640   -13338    -6255    -5717    -5427 
    9863    28421    38164    27275      448   -14944   -16806   -20528 
  -24856   -20414   -10559   -15889   -40527   -46363   -17358     8499 
    8314   -15001   -46233   -54643   -36842   -19936   -10635     7010 
   23067    17936      152   -14966    -4677    23603    23390     9838 
    8368    -9455   -20232     -787     -279   -14231    -2340     2347 
  -19861   -24233    -5260     7074     6116   -10774   -24301   -13909 
   -5514    -7234    -7342   -24902   -49198   -48678   -47268   -59269 
  -48078   -20829   -17452   -22788   -10785     4399     7681     -275 
  -17115   -26717   -13338    -4962   -17012   -11904    10442    15527 
   10989    12830     7258    -5001    -1227    11122    13049     5130 
   -7207   -13165   -18786   -28826   -20027    -2936   -11389   -32067 
  -36705   -37439   -50853   -48782   -19006    -6176   -20540   -25371 
  -22238   -30842   -36045   -24560   -10199     -872    11597    22653 
   17369     6984     4974     -754   -11025   -13917   -24158   -54955 
  -68546   -49673   -31120    -9489    15364    19030    11358    11735 
   20183    22222    15110    15287    17473    14941    18387    13900 
    -834     6482    27980    29066    12831    -5954   -27441   -43370 
  -37979   -16787      480     7196     -311   -20621   -29500   -21223 
  -14770    -9486    -2292     5327    24776    43449    30441     5556 
   -3090   -18798   -39231   -33048    -9767     7897    13386    10035 
    2407    -1757     8681    13946       39    -3611    -5402   -28297 
  -31390    -4943     6235      430    -4455    -4585      264    -5821 
  -10207    11776    19446    -2500    -5973     1293    -6725   -11361 
  -11086   -15151   -19190   -22932   -18989   -16155   -32655   -36509 
  -11206     7630     9076    -3303   -22682   -28426   -19577    -4972 
   10435    22273    23704     4465   -18260   -17905    -6027    -7229 
  -18675   -24236   -21961    -5765    18728     9030   -24343   -21093 
    7103    15714    10504     3457   -10189   -13251    -4675   -19589 
  -34977   -12973     1053   -12563   -22249   -34318   -35380     1626 
   44729    48301     7354   -23263   -15259   -17942   -30939   -23585 
  -15556   -10824    -5702    -6195      739    10516     3823    -9166 
   -6716    -3172   -13045   -12259    -3225    -8052   -16721   -18416 
  -14754    -8640    -8626   -19884   -28344   -19153    -5179    -3207 
   -3900     1566     4988    10401    12870    -9720   -31815   -21595 
   -7325     3123    22540    18172     2300    12911    11846    -8841 
  -10007     5440    23765    19782   -10430   -17037    -3836   -10349 
  -20765   -16568    -9871    -7568    -2508     2636     1976     2623 
    1618    -3882   -13990   -28796   -24657    -9320   -18773   -27561 
   -7507     1071   -16501   -21766   -15244   -13336    -5368     5691 
    7011    -2020    -8807   -15615   -33662   -35704   -10940     5274 
    5352       63   -13089   -11929    11631    20183     7549    -4716 
  -13705   -20877   -23550   -11061    13394    22154     3103   -24919 
  -34433   -20871    -6480    -8378   -12321      927     6502   -14859 
  -28771   -24252   -17178     -340    10773     5239     7916     9674 
   -3468   -10442     -391    14682    12091   -11384   -32121   -43248 
  -49341   -35419    -4627     6130    -4977    -1620     7026    -4411 
   -3186     6994   -18792   -34465   -12140    -6733    -3632    24332 
   29997      442   -25924   -28470   -19737   -20401   -18176    -4710 
     811     4837     5730    -8139   -11963    -7321   -13296   -18813 
  -15039     7182    26401    -1819   -38716   -27503    -6338    -6929 
   -5657    -3580      410    15962    16460      885    -4163    -2081 
    3928    -2149   -39757   -57407   -23804     6698     7182      271 
     355    -2400    -8380     4580     9320   -19164   -24760     2685 
    7765     3716    20970    31299    21756     3900   -10551    -4598 
    9414    10748       17   -13765   -18767   -23191   -32440   -19110 
   15180    20698    -3383   -14771   -17093    -9653     8899     -847 
  -14200     4827    11080     2824    15140    22397     1092   -24181 
  -23996    -1281    15927     7144   -13729   -11869    10300    17899 
   -3267   -25053   -11908     9234     8445     4645    -6432   -20147 
  -16659   -14156   -15697   -12883   -10072    -3191     4715     8710 
    1950   -11530    -9845     -854     2771    15676    30754    22407 
    5190     2528    -3950   -11983      621    14666    18399    14894 
    -885   -16553   -25393   -19670    -1827    -1175    -8341    -7684 
   -6556    -1965    -6970   -20351   -22958   -27156   -35878   -21136 
   11823    13058   -13393   -13690     3793     2725   -11497   -17365 
  -13347   -11600    -6955    -7258   -23660   -25629   -11430   -12303 
  -16719   -12002   -16447   -32209   -38696   -20326     4522     3180 
  -13248   -19550   -12388     1003     -696    -5598     2933    -7071 
  -23788   -21550   -22643   -16105     2243     4338    -1048    -7453 
  -14526    -6096     7072     8831      546    -8671    -1058    13244 
    4955   -11875    -9429     1833     9784     9652    -9505   -35148 
  -39884   -17343     1364    -6543   -16094   -11450     6276    23668 
    9240    -8533     -413    -5999   -16968   -13012   -23383   -29799 
  -16270   -10783    -9169    -2297     1264    -2046    -8457    -4139 
    6936     5842    -6502   -14899    -8302    -5220   -25065   -31040 
   -7192     -622   -11692    -5023     9301    13606     4237    -6014 
    4581    12900    -9045   -38264   -34971    -5103     -715   -17347 
  -18832   -21887   -23237    -2506    12579    -1574   -20610   -20403 
  -17023    -9706    11784    12718     -481    10818    17707    -1379 
  -11442    -3748    -9265   -26383   -28510   -32296   -35820    -2866 
   25502    15977     9670     3971    -6068     -159    -4558   -23583 
  -30196   -24972    -9196    10524    10920    -6818    -9455     8121 
   11572      774    -1134    -3082    -8468    -3357     1783    -1306 
   -3840   -15678   -29455   -19249    -4725    -8194   -15142   -18574 
  -20876   -23873   -22977    -5564     9073      190    -5377     3199 
    3129    -1147    -4594   -18819   -22746    -6054      522    -4495 
     873    12949    13086    -4287   -24309   -38352   -38169   -18513 
   -9136   -15542   -13886   -12845   -13034    -3576     -303    -8500 
  -13134   -14135   -15785   -16345   -21111   -22879    -8915     8240 
   10308     3888    10152    23816    21317     7746    -2663   -10064 
   -5194    10257     9710    -4901    -7792    -4176    -6023    -5255 
  -11286   -29211   -25812    -2189     5776     2417    -7069   -23180 
  -15250     7308    -1961   -23884   -18944   -11728   -14881    -2239 
   14634    18420    17797     6327   -11510   -19110   -19327   -10085 
   -5351   -21600   -22248     2829     9811     2061     1092    -5842 
