Origin Time       2021/02/13 23:08:00
Lat.              37.7
Long.             141.8
Depth. (km)       60
Mag.              7.1
Station Code      MYGH07
Station Lat.      38.1802
Station Long.     140.6405
Station Height(m) 186
Record Time       2021/02/13 23:08:08
Sampling Freq(Hz) 100Hz
Duration Time(s)  300
Dir.              5
Scale Factor      7845(gal)/8223790
Max. Acc. (gal)   518.692
Last Correction   2021/02/13 23:08:08
Memo.             
[...]
  -36761   -14064    27560    53897    52019    32161     2967   -16918 
   -8584    19241    35144    22179    -1595   -16194   -28121   -50245 
  -74062   -76653   -50213    -2323    59761   117115   139864   114899 
   50013   -30898   -91540  -109394   -85931   -39340     4333    32836 
   42407    32938    16395    -9984   -48043   -64459   -37019    18617 
   71536    92469    82055    58261    19907   -25902   -49775   -46384 
  -31498    -1719    38302    53480    30871    -6721   -48261   -88011 
  -99844   -71393   -15044    56066   114268   126235    92519    33405 
  -32760   -83411  -108673  -112369   -91073   -51360   -10608    28127 
   60785    74845    66330    38793     1017   -40855   -79469   -91278 
  -66305   -23261    21477    56741    75492    83031    71745    26597 
  -25181   -39571   -26306   -22052   -32362   -41700   -30986     1749 
   34881    58340    60575    17439   -49810   -80597   -56466   -15130 
    9663    21502    42067    76738    98901    81545    38491     1235 
  -22203   -26333    -5023    10789    -6929   -34219   -34460      -35 
   30321    11183   -20440    -4305    22353      908   -51432   -95527 
 -109881   -78289    -8915    51259    65141    54977    48417    37606 
   29776    33539    30970    32171    61982    87822    64388    15954 
  -13678   -22000    -9022    28335    62430    59819    25913    -7769 
  -38295   -81168  -111080   -94171   -50830   -14697    12550    28181 
   19089    -5005   -16951    -9173     4472    15796    24356    25834 
   17024    13103    39515    82560    97077    76122    39991    -2727 
  -31579   -33519   -33210   -46498   -54008   -31545    11152    37081 
   37497    24506     -907   -24105   -31039   -28374   -13532    13116 
   26296     6947   -31538   -63370   -75941   -62496   -25027    18404 
   53006    65041    43610     5107   -24818   -34889   -24707    -7623 
     953     4041    14293    27823    34419    35607    15425   -35052 
  -65229   -38238     7960    36342    43804    26681      828    -6357 
    2778    12349    10017    -2965    -4480    10855    16275      739 
   -7871     6812    18355     -206   -45040   -91316  -106965   -76944 
  -27302     3391    20236    42334    51765    50714    68553    83998 
   70704    53433    38901     8218   -36871   -93646  -142296  -139934 
  -88553   -25508    25488    58401    84053    90787    52317   -10069 
  -74495  -135159  -144548   -84862    -8905    53605   101079   108619 
   65799     7207   -42171   -85422   -96283   -39748    52713   113595 
  117308    89249    53619     8299   -37080   -63321   -66514   -41273 
    1128    38530    74021    81796    21643   -70233  -139788  -166889 
 -135962   -68249       45    57589    92106   113005   125663    90999 
   11032   -54969   -67460   -30808    13869    36832    45215    42018 
   38067    66479   101650    61470   -43958  -112572  -115302   -97077 
  -75844   -49572    -4139    73537   150111   188542   170395    74385 
  -62818  -146869  -139012   -86575   -54229   -61662   -64319   -18350 
   65241   152639   188245   126449    14179   -63782   -81206   -57867 
  -35942   -32989    -4854    43579    48481    29018    26755    -2401 
  -90765  -179518  -195251  -127944   -12810   107657   189328   196271 
  135387    44531   -47810  -102784   -93067   -33231    46661    96615 
  112332   128312    94873    -9186   -99015  -131345  -120557   -93025 
  -68970   -20748    61558   123626   140321   126659    66260   -36146 
 -114496  -128974   -97534   -57960   -38607   -24634    15133    74668 
  119020   112168    50537   -24155   -68951   -74686   -48370    -3592 
   29552    44267    60551    67774    47429     3993   -49662   -89230 
 -100354   -88335   -51551     9085    64181    81071    68299    52126 
   26181   -24946   -74495   -82107   -46396     8077    51732    64513 
   51934    19746   -30574   -74510  -102145  -125575  -101478     -888 
   91791   114405    91918    34693   -41432   -77631   -52224   -14166 
   -1746     4795    30885    78533   125172   124591    73206    12708 
  -49694  -113659  -143619  -114909   -33246    75332   168586   212592 
  199346   131531    28730   -60183  -111441  -148221  -175644  -164424 
  -99389    -1922    87197   137397   133687    69052   -32456  -115149 
 -133845   -77604    16897    85969   107659   104118    82537    33728 
  -37008  -108066  -156334  -163775  -120274   -38464    57242   149227 
  209970   209997   148149    45690   -60424  -120656  -115850   -77197 
  -40306   -10683    12652    25614    44474    58158     6741   -99189 
 -169785  -162488   -88180    27067   121936   147922   113479    45573 
  -20579   -66822  -100184   -94640   -32823    38562    74664    81128 
   83778    82775    50584   -26015  -117971  -171293  -151262   -64276 
   45715   121664   152791   172678   186235   164527    88001   -19458 
  -93282   -93780   -27834    65808   129496   140935   112908    58388 
  -18030  -119475  -203077  -203539  -135749   -64804   -11357    48447 
  105101   115430    88126    51475     1321   -48695   -79027   -89849 
  -78584   -57897   -38711    -1995    50067    87200    92360    55294 
  -10374   -62669   -83643   -68852   -23244     9386     8193     2018 
   10141    25496    32324    27726    19241    17111    33554    36715 
  -17308   -83810  -103121   -98184   -82332   -33378    26325    65518 
   79145    64800    34187     1576   -32548   -62056   -67941   -35371 
   22850    64516    45846   -25629   -75370   -53127    -2056    16090 
    5224    -3504   -12067   -23963   -24655   -22026   -26450   -19516 
     205     9687     8379     2185   -11165    -3383    44455    85198 
   85488    77407    77907    63263    22515   -31903   -82939  -122354 
 -151290  -157712  -121903   -53761    13760    62665    93124    96554 
   62159    17833     7236    21311    20667    -2868   -37196   -59193 
  -42723     2192    57164   114176   136147    99667    37454   -12515 
  -35629   -34982   -22315      980    31193    54891    75724    95338 
   87663    38722   -28821   -78312   -94150   -91357   -72191   -24788 
   24069    30877     1437   -22497   -19479     7164    44313    64976 
   57790    51178    53546    38738    10678   -17501   -53030   -82472 
  -75521   -24497    36745    68041    78869    90013    81255    32414 
  -41758  -107003  -125857   -79185     8650    73776    74131    40545 
   17379     3483   -12947   -31691   -40656   -24262     2358    20503 
   40660    57113    50287    25266    -9598   -45412   -50981    -6602 
   56625    89513    79945    45166    -6963   -68102  -110733  -125327 
 -120746   -78783     2215    80542   130827   139658   103906    52397 
    -206   -49090   -77823   -79084   -36323    43953   110763   137227 
  111078    19333   -93949  -150141  -122574   -61896   -20414    10087 
   36090    37554    30030    32971    29403    18334    11904    11011 
   23924    35365    21324     3920    -5784   -26006   -38632   -16980 
   21957    39648    13335   -43575   -87392   -80175   -32849    -2976 
  -22206   -59449   -83533   -95968   -87874   -49468    -6230    26846 
   59628    82309    85375    67065    19890   -36964   -74977   -84978 
  -64700   -19653    48548   119753   135607    85719    12928   -72307 
 -147846  -162870  -122208   -60025    12179    74401    88446    37125 
  -41449   -84866   -75550   -42506    -4808    32373    53590    67475 
   93965    96762    35168   -57052  -122887  -138125   -92067    -9678 
   36788    40482    55124    57395    10152   -41993   -55385   -36811 
   -8727    18573    48660    76446    72586    14454   -64413  -107977 
 -100290   -47822    27689    70445    51849    17086    12010    24042 
   18867   -10443   -34497   -21485    29118    90570   125147   115960 
   76160     8023   -75004  -120117  -112203   -85220   -51750   -14469 
   10177    12243     2826     3210     5135     4630    34977    83084 
  115705   144886   144790    73899   -36713  -131299  -173569  -151864 
  -84607    -3963    54862    78381    90582   101320    79039    17165 
  -48347   -99121  -118355   -79215   -12676    36919    93402   155964 
  162749   119804    81981    51470    29127    34518    53987    59726 
   36300     5343    13871    37327    14438   -30253   -48930   -43289 
  -20314    13819    59844   115153   126760    65153   -10403   -50450 
  -61898   -50232   -14712    30103    60976    70399    78472    91844 
   83457    43980      638   -21462   -12484    22184    59300    74007 
   48774    -6806   -50583   -64428   -67406   -68779   -65761   -59077 
  -50882   -44691   -44043   -56714   -81251   -94316   -83084   -56997 
  -29335   -13109       18    28521    57030    71505    80681    73919 
   45370     7233   -46411  -105194  -137554  -147448  -136745   -84790 
  -25748   -15400   -37073   -45296   -28692     2880    20395     1745 
  -32351   -63362   -94182  -113778  -113231   -99507   -77457   -54626 
  -42437   -40069   -34703   -24802   -17664     2309    45084    84396 
  102863    96560    58588     3821   -46543   -77488   -74892   -52077 
  -29690    -9479    -4891   -29084   -67535  -101194  -106176   -51966 
   44023   114598   124428    93071    48795    10179   -12711   -11934 
   22364    64423    60467     5324   -60021  -108680  -128946   -95393 
   -7406    68499   100484   123796   121224    80352    55756    44452 
   13675    -4626    10508    26809    28771    45415    77125    71466 
   21830   -19068   -33536   -40961   -38963    -9439    39575    73627 
   66777    18265   -46498   -94549  -106643   -60980    45339   151823 
  185164   140328    57994   -54103  -183980  -252860  -209488   -90639 
   53230   182511   246902   235998   205995   186574   151706    93993 
   24875   -46171   -95944  -101528   -52663    29016    79508    63679 
    9327   -43902   -57630   -12622    49420    69111    45882    21825 
   22530    65153   147089   203694   190289   134820    62673    -6909 
  -45108   -47479   -22797    11406    23198    17725    37635    76558 
   96537    96334    59811   -16074   -40126    35046   113833   113782 
   64003     6330   -62565  -119367  -127948  -128263  -163352  -188181 
 -150604   -66353    16668    65338    71410    51591    45019    69334 
   81083    48374    -1559   -56832  -110728  -122343   -81167   -17266 
   28586    14574   -53831  -133031  -210311  -282546  -301604  -235029 
 -120640     3303   117553   189866   206498   168367    71645   -55248 
 -148959  -171270  -124513   -14999   117927   192798   182166   126415 
   47541   -49947  -128819  -153465  -133084   -91428   -50795   -42562 
  -75880  -118449  -145054  -159042  -150346  -105579   -39723    24024 
   67185    80734    65168    33265     7067   -20510   -61836   -96831 
 -111294  -107796   -93016   -58008    10890    66776    64832    25928 
  -37458   -97792  -102614   -78217   -76690   -73344   -33060    30001 
  103450   180540   221139   198952   129687    49208    12402    44697 
  101588   123697   123961   136583   103108     -390   -92388  -157451 
 -207443  -202975  -144378   -45408    63397   123749   174208   249519 
  258452   187421   108247     6255   -98934  -129105  -116530  -127735 
 -141737  -135461  -134442  -139615  -106650     2073   161365   283737 
  322312   319331   315052   293857   224981   105742   -32902  -168319 
 -275786  -290524  -196285   -55478    89981   218853   287132   259425 
  148836     8456  -115816  -199585  -220718  -174663   -83073    38072 
  167460   260743   296271   268336   162599    14377  -110147  -191166 
 -213754  -155228   -66479   -14887     5679    11327     5251   -13721 
  -60532   -94743   -58517    24200    98788   162145   233271   269277 
  242692   197737   105750   -70718  -242541  -325398  -308400  -207492 
  -62881   101819   268497   369330   372181   334912   274596   127781 
  -97804  -278503  -328471  -287540  -222085  -130531      275   121501 
  176307   154912    68512   -52559  -157538  -201479  -175574  -111728 
  -39193     5383     7187     8329   -16735  -127958  -286089  -412820 
 -439848  -363425  -254944  -119950    56120   200387   255012   214713 
  104657     6596   -27958   -27649    -2948    67563   147634   172222 
  172639   211076   225497   132632   -23943  -150434  -209372  -216819 
 -190871  -145767  -119997  -142137  -196026  -251251  -293399  -323465 
 -327346  -257106   -90313   119901   286596   341355   266750    94001 
 -132665  -338346  -435365  -407524  -290460  -128139    32632   181124 
  295087   305136   205769    68473   -57731  -142523  -148452   -71606 
   39214   124391   198720   310635   398115   364682   209124   -24449 
 -269075  -443300  -495416  -403749  -225381   -80607    13016   112839 
  198860   241902   237108   149428     -164  -143668  -250562  -288958 
 -251895  -183811  -102467   -13787    49842    84163   123161   174997 
  203978   190524   171559   198180   256149   288778   317544   380469 
  421885   414024   385766   338172   272452   179174    51811   -70171 
 -149161  -170679  -144475   -90340     1227   112476   190533   244102 
  264037   170573    -5235  -133951  -182900  -210432  -234531  -203806 
  -93388    41786   115796   105803    74528    33976   -57519  -161731 
 -214772  -194913  -106633    15225   145827   266683   328660   275786 
   92014  -132687  -248962  -224484  -141754   -45400    38198    66761 
   54955    31846    -7403   -83944  -219418  -346594  -382679  -384916 
 -359544  -216723     -274   213657   376061   401939   305862   115527 
 -183081  -445934  -541422  -542323  -499876  -428714  -377649  -273457 
  -66567   144150   304427   384439   344979   218593    44578  -122211 
 -174002   -83656    40078    91822    76204    52332    51123    78247 
  116062   128089   107511    74082    52501    73233   136362   208179 
  267376   305230   302165   245262   150488    52668    -6970    -4248 
   41820    79978    67020    36308    64369   110795    70403   -33388 
 -131074  -232182  -330253  -370426  -310651  -156581    21161   180639 
  341655   460603   463745   351922   147864  -108105  -318860  -397988 
 -328546  -164731    16303   183076   323171   391527   369682   291358 
  139842  -108558  -342472  -406335  -275638   -68273   101011   215069 
  266584   235854   147622    14374  -164995  -321084  -356999  -247981 
  -56218   128538   257779   318375   311963   246970   104788   -91238 
 -227157  -251800  -215455  -130431    10339   152952   231687   246780 
  245145   215131   118956    -9850  -113360  -142330   -88196   -33563 
  -44027   -75613   -85438   -92871   -95202   -87894   -87909   -61555 
   14316   104295   185284   251195   295327   289662   199516    43775 
 -139492  -302892  -376728  -364900  -333521  -283932  -183227   -67616 
   10276    64885   114162   118643    44574   -82009  -216082  -344760 
 -464277  -531208  -484340  -325116  -134023    24603   155375   265230 
  324567   285103   114448  -109205  -243334  -294537  -342526  -339677 
 -261442  -179597   -89519    47005   199957   299722   282818   190487 
  125973   101881   110358   182580   251422   221717   152566    74367 
  -96645  -284769  -358626  -367127  -350385  -268064  -120302    73417 
  284330   447485   501719   448204   347149   255145   171108    61908 
  -59152  -156251  -218512  -209861  -110960    14114   103825   152757 
  177642   182012   143232    66063     5371    -7474     5595    31236 
   78302   137246   195022   246921   275910   274197   249442   182995 
   63455   -58521  -141821  -201413  -248367  -272330  -259502  -205278 
 -129244   -64848   -36197   -43009   -67663   -93145  -110432  -111246 
  -86016   -42584    -1518    19383    20349    32536    61836    65812 
   27241   -37099  -121757  -207465  -243780  -204002  -104360    20150 
  121410   162718   141542    74077   -13837   -93908  -146550  -154684 
 -129366  -115543  -117915  -103064   -71178   -47578   -52814   -88441 
 -120843  -112953   -62676    12222   100357   188303   249088   264721 
  232634   155263    51715   -44753   -81434   -15795    95337   173051 
  257206   373207   423300   348745   174268   -51544  -234916  -328661 
 -363144  -344158  -268421  -141762    13082   123788   125253    24057 
 -106304  -207320  -260339  -228324  -122534   -36077     3437    57177 
  128714   163193   153634   118012    56381   -15549   -69423   -81058 
  -35617    47628   136009   216961   282860   314103   286236   209123 
  123006    33990   -63921  -138049  -155771  -115543   -35291    50822 
  107083   134214   160570   190426   216302   242531   247984   197426 
   93938   -25089  -116600  -170139  -203219  -199215  -138969   -49643 
   37373    96502   130214   180297   239286   264271   233074   113260 
  -70579  -231700  -333094  -359274  -314008  -253679  -202084  -140086 
  -60565    18577    54761    32032   -31387  -120715  -191280  -203773 
 -177029  -126902   -69854   -29043    17504    75057   113027   147671 
  187718   173236    90468    10709   -19773     -193    54391    91191 
   59682   -15762   -79134  -124522  -168655  -206464  -228699  -222027 
 -179876  -128713   -96751   -94005  -126812  -192781  -281776  -364510 
 -384052  -319859  -223242  -134239   -25425   118976   244086   301893 
  306657   284378   234750   149746    55148     8322    24240    63119 
   98347   119248   113258    88501    66437    61431    70880    84931 
  106604   129698   139792   149173   170230   184370   178573   173257 
  178241   165387   124549    70432    -9244  -121641  -235392  -325980 
 -388523  -407527  -369625  -294197  -217927  -157007   -89992     3881 
   96615   156358   197382   240935   285880   322273   335566   305154 
  225598   120927     8554  -102045  -158571  -110585     3183   109246 
  188643   232271   205744   110007    -8220  -107399  -178298  -221829 
 -213688  -143364   -68781   -54892   -92003  -130828  -138334  -106363 
  -62788   -42115   -42704   -51710   -77421  -134697  -203342  -237336 
 -226642  -181195   -91374    32258   155275   256077   300222   243984 
  112203       52   -42898   -61006   -86470   -95386   -85954   -94020 
 -136150  -174926  -182113  -205956  -282768  -354800  -345552  -248877 
 -102070    72400   241992   355059   408646   438843   427347   333058 
  199366    91428    22572    23326    94780   150248   152398   149507 
  171005   190390   137295     2411   -98928   -92489   -24013    76847 
  200966   282749   295560   291892   281809   233528   136906    -4932 
 -144621  -220774  -224441  -159165   -45346    66968   157667   219886 
  224926   158066    39046   -86908  -159769  -135456   -25691   109147 
  213979   273028   301288   316122   316525   283432   193005    33704 
 -168589  -339437  -417282  -404527  -314109  -164474   -22179    80545 
  173485   238135   227812   132363   -50965  -259591  -368019  -359926 
 -308480  -227230  -130364   -69234   -41152   -26886   -22431   -18746 
  -42325   -87677   -87245   -46257   -16222    11219    33542    21975 
    8544    23052    23402    -5472   -33763   -73997  -128410  -146954 
 -127784  -124912  -154495  -187132  -202298  -204107  -189225  -141365 
  -72781   -17643    14551    35721    51726    59678    59763    60579 
   72937   100102   130172   152805   178764   209156   215022   175925 
  100386     3015  -106165  -200809  -240283  -219015  -167460   -99549 
  -17523    54751    89440    80091    27287   -59023  -144049  -202051 
