Origin Time       2021/02/13 23:08:00
Lat.              37.7
Long.             141.8
Depth. (km)       60
Mag.              7.1
Station Code      MYGH10
Station Lat.      37.9411
Station Long.     140.8924
Station Height(m) -187
Record Time       2021/02/13 23:08:05
Sampling Freq(Hz) 100Hz
Duration Time(s)  300
Dir.              2
Scale Factor      2942(gal)/8224139
Max. Acc. (gal)   188.515
Last Correction   2021/02/13 23:08:05
Memo.             
[...]
  119434   121891   120541   118885   119745   120151   123805   127261 
  121332   115253   119638   126639   127315   123255   121342   123075 
  123811   123772   121177   112996   114281   129595   132626   120985 
  116603   118372   120977   126297   126381   119763   120556   130258 
  132587   124279   118748   122347   126100   124179   121668   121126 
  124561   126820   118573   112499   120120   129207   130588   125682 
  119025   117738   124607   134292   133887   123115   119761   120677 
  117045   121738   127553   120757   115304   118500   120110   116391 
  116896   122964   124139   120926   116193   111219   112835   119904 
  123468   120702   118643   122037   122296   113641   111241   122731 
  128714   124934   124700   125513   126809   129332   123772   119398 
  127890   131803   121528   118801   130239   131203   121159   128031 
  143874   137551   121444   116689   109944   108552   126790   137239 
  129763   129647   140235   136960   113827    99887   109566   122424 
  126557   133412   137740   122628   110785   116425   114893   118511 
  137889   131210   104167   105413   117050   110705   115025   124811 
  113614   113331   129667   129575   125869   129524   118968    98784 
  102358   130454   142830   130936   118405   110504   111678   125821 
  137292   134435   130123   134457   131268   131326   146618   138026 
  117898   120698   114559   105232   116340   116428   108094   111416 
  108715   104507   113877   125255   131101   128074   115398   115892 
  133884   136251   121234   112907   116629   123803   123647   129406 
  136998   123998   115213   127016   140336   135216   121142   128731 
  125662   102201   116664   138824   124899   122500   134892   117996 
   99931   111524   117675   120690   132112   113787    87475    91133 
  107993   135963   147704   117643    99615   114046   125328   123597 
  111825   110407   135664   150889   141516   144998   146416   124402 
  122014   131471   123819   130454   142191   122692   105952   126547 
  137108   114501   112978   127442   112891   104522   130135   132594 
  100510   105995   135162   118696   101991   120407   117501   106789 
  119290   116505   109399   122756   120016   106556   120090   133967 
  128297   142241   163775   140036   105113   113157   134150   126403 
   95405    87783   126852   145906   118867   112612   128993   137570 
  154630   151085   109224    88442   106992   138682   157488   152459 
  160168   168829   135950   105765    95235    78116    91311   130314 
  144000   151927   164686   132703    81708    92206   123670   117983 
  122578   131167   108344   102496   117898   107640    83112    75320 
   99709   130621   125606   115380   111202    94598   105534   129007 
  113201    95686   128737   160890   144522   139086   153229   152015 
  142398   121533   104762   115932   156595   171013   126945   104009 
  101200    88730   133323   175329   127156    92882   123198   131737 
  116688   119823   129165   128004   109098   107850   134786   132983 
  122357   126272   113566   111588   116676   110097   115231   113524 
  112233   119438    89799    69870   115445   143602   126797   117458 
   93368    67231    88327   136917   164874   147491   132081   137570 
  118007   119399   154338   133253    98668   117660   126852   127105 
  153990   152439   125703   121100   104695    77067    84487    95087 
   75722    57279    83064   153084   194823   186282   176158   144097 
   87485    80628   108901   112218   114964   126409   124780   120328 
  122789   134879   126716   100264   118312   129942    99813   131573 
  167941   117039    97094   136728   156317   160911   163906   161524 
  140431   112949   111505   101437    85106   113884   131569   106677 
  118220   146561   135949   109591    74401    71217   107562   125810 
  149291   162490   139299   152724   177344   151545   115740    95503 
  102643   126989   129825   101839    49503    45169   115106   151123 
  134514   129892   126256   107796   103345   122080   145173   172184 
  184131   143869   120529   171832   195956   149652   110978   104822 
   96234    79932    96993   123219   120507   147320   184214   167775 
  155201   165923   149141   114925    97078    97511   116301   147376 
  144815   115932   124447   144552   125645   106982   108684    84289 
   65762    88330    89287    77001    95173   136584   177770   161441 
  117134   117990   134472   149793   156180   124244    88136    67946 
   76372   133424   167805   134033    90612    86100   100047    98419 
  106871   130928   139869   175343   228193   200047   137735   123961 
  104955    64548    35113    52247   116842   126700    90624   104645 
  110775    72428    84514   149594   175900   142584   110763   118245 
  115200   108664   146211   149038   103558    98551   117494   129910 
  142296   144333   129617    95462    82038   104751   113351   118432 
  152702   163140   126481   110443   112176    98841    88998    77939 
  108288   162739   147507   106847    80059    73927    99582    94504 
  101336   146210   145905   158404   185012   122316    81945   132208 
  126040    95116   131550   117702    66117    94895   143345   154653 
  142499   128669   132972   122948   124051   150817   128565   117394 
  167908   186162   166961   143240   149918   185275   148926   112419 
  143878   109431    66449   128579   172701   157948   159171   147733 
  111331    95883   112094   143746   159808   149030    99744    31044 
   51705   136972   158939   161763   185599   164702   104143    71305 
   76821    63142    74336   166176   210474   143788    90890   122847 
  152147   113728    99724   149512   164667   109703    50318    74152 
  153504   169319   140810   123560    99071   106689   137839   111325 
   66035    88257   150961   160914   137146   155864   157284   125621 
  126462   117358    80339    77826   130713   170351   155339   162202 
  171078   129629   126150   173169   188325   156417   113668    85788 
   89448    98016    69165    57465    64751    41461    61033   122196 
  135225   120447   104660    76397    84855   158980   212718   186430 
  161289   176430   158911   129343   148174   147730   112560   132999 
  153090    94539    78771   143935   145138    77647    55300    76854 
  107634   142267   140398   119395   135299   129355    64781    39696 
   80195   119092   124723   106385    88319    78860    91027    90846 
   72720    97672    88400    44182    83745   131962   135133   163633 
  204912   220457   236613   250472   197527   124241   103991    90680 
   74313    79296   106907   120005   100630   107260   104318    82436 
  107110   132254   139320   145122   125536    89002    70174    88522 
  115568   116618    83150    55298    67990    78375    86668    92902 
   73425    70243    89438   158059   244107   202967   111632    83371 
   60933    65303   102556   125167   124939   103507   113070   132460 
  120496   118789   100649    89996   119213    99067    73730   101208 
   99532    92442   126258   150379   158454   171394   179115   180391 
  189722   192616   155499   104056    84456    90952   125599   169034 
  148964   116735   142080   125091    90327   143729   173022   128254 
  114203   130944   126785   125523   159895   157365    78826    62206 
  132494   134164    83814    79473    71895    63583   100236   109966 
   89992   117173   143494   118436   104742   125437   131357   139561 
  181867   181337   134527   130385   141419   132499   143082   164440 
  139469   126112   181029   165604    92497    92159   105321   113601 
  146191   177643   155019    84672   112321   166263   100893    67578 
   74611     9780    18496   122067   143262   108625    93290    79381 
   91026   113923   126800   120931    88442   117794   174318   143718 
  112874   144571   191779   222319   184782   119597   127815   173678 
  183011   180972   183502   158272   129367   142983   178773   184117 
  160971   136387    95825    47655    35272    76815   102956    72702 
   82522   102207    72322    72708    83490    84449    70922    42178 
   98740   177637   173241   128835    89166   124753   210263   216689 
  144499    81118    74444   114957   159244   157304   137664   158707 
  150816    91933    70713   114482   183930   182047   118856   105885 
  120282   155135   198425   120630    23944    75643   139590   160084 
  213494   209336   140493   137853   178299   174168   155895   161037 
  161596   159318   155713   120341    85039    72689    64584    75644 
   88624   100480   135024   143525   120754   105494    84022    98051 
  158788   155927   116978   161739   207557   160465   126463   163232 
  174603   134323   121012   111466    76042   116372   170614   127484 
   86296    63296    39286    76150   103666    86378    93332    94671 
   73151    62390    63413    92314   128736   133366   130738   158029 
  200506   188649   132216   124974   137404   120324   130782   162990 
  149643   113958   159000   221128   156563   101101   155883   187030 
  182908   155254    62218     3415    31387    78466   113567   102647 
   54905    38065    51763    93168   134725   112953   103827   146558 
  158382   167211   203058   201357   171659   154548   125705   107875 
  127834   132883   134577   155058   145660   115267    79798    30341 
   21320    91627   153396   111119    46348    47459    51757    37669 
   44672    45300    14050    -4056    24819    67135   107395   173542 
  232573   225861   178883   163425   183263   174780   139803   104342 
   91129   158345   244680   241230   155641    71909    67146   126597 
  177604   178825   169565   151983    94196    87401   123099    92944 
   58530    69215    88445   160596   257836   268015   229598   183336 
  120503   126690   190051   236457   263984   239071   172307   108665 
   49011    33774    88754   137025   137047   145513   135060    69693 
   50511    89136   106951   118890   143849   135442    69014    63830 
  168220   198227   153624   160751   164851   177487   215608   212861 
  228707   269293   237770   148019    86756   100565   118675    78702 
   67220    93926    78649    73758   109274   126966   125644   104275 
   58365    -1514   -41860    -1047    53337    29812    19627    65113 
   87995   146647   257080   255360   152930   105344    98675    81673 
  105922   158430   200476   260598   277932   185274   100149   107215 
  127919   131877   134995   123228   115859   123310   138639   165400 
  177041   171216   150620    66741    12036    55644    -3096  -123708 
  -51985    88400   128505   118963    60644     4072    42785   121347 
  150371   128166    92271    77490   114008   171047   171404   131553 
  122820   135109   114069    63950    35957    23572    26034    98397 
  170093   132548    57164    31008     9074   -24399   -11888   -25051 
 -103434   -69391    30854    29484    44552   116654   192990   266251 
  237347   161113   161090   182733   163699    98525    48730    60708 
   65719    73784   101312    58939    25810   102811   153586    96776 
   31834    28516    90883   202250   297538   329244   297711   232221 
  213841   208813   132279    95362   132764   112590    61291    76771 
  108371    70750    22341    21744    16845    46228   105811   114228 
  130091   137629   126106   179212   217039   210034   211711   183493 
  134997   100939   105025   163007   217537   221036   219603   234704 
  182212    96695    99019   136580   130311    61130   -30528     -121 
  131728   220183   276355   316284   298595   240746   182272   154461 
  146098   142956   139653    75161   -11118   -22952     3946    52770 
  121968   156180   181673   218760   250757   303697   279591   113386 
   12375    38346    45724   100080   187855   115700     6768     8120 
   -3888    19977   188356   338010   341440   274047   198865   136178 
  116957   125284   104013    69805   141847   270322   280616   249354 
  257467   245353   256230   255364   185147   126631    75972    52670 
  110893   124185    29843   -58664   -48084    25146    36158    30750 
  134987   256112   300902   310282   270931   217956   249205   255233 
  140354    70704    79401    55845    79269   183061   254997   257187 
  220509   204595   206290   191586   191072   183702   145739   100349 
   73445    66337    39487    35444    53489     9513   -39623   -57465 
  -75736   -53368   -39860   -73858   -56764   -32293   -89117  -127237 
  -97556   -35494    81382   163404   114751    68337   124892   201375 
  211457   164554   165859   229267   259845   250634   160273     8166 
  -11997    70380    76086    34140    36790    60943    39945   -19793 
  -57180   -35446    64143   203877   263421   215566   199791   283424 
  377707   418331   392033   308044   224515   173952   164386   193395 
  216475   232085   241762   206358   155495   110041    35271   -46788 
  -93837   -79959    12621   144437   248401   290368   290001   298185 
  299193   236487   146981    73537    -7728   -59697   -61888   -63904 
  -35028     4001   -50809  -131814  -143240  -121768   -55486    51144 
   81945    59898   135001   258302   315102   373837   436546   403058 
  350738   366187   365488   318469   276111   231472   193172   194814 
  161300    49314    16218   115591   185966   187721   179586   161974 
  167952   186565   106660   -45013  -108961   -88726   -45650    34642 
   64899    51237   142693   247267   211407   104584   -15043  -136509 
 -163728   -68310    17857    80202   290871   558451   649383   649405 
  638508   546843   413550   277331   155391    94097    96198   129649 
  114373    46556    36344    43279    -7407   -21986   -25137  -107121 
 -176589  -205902  -205549   -65545   134715   210621   227199   249841 
  218012   191998   224014   275996   363363   424533   377801   320908 
  305071   289170   322913   380843   366246   302215   220711   103297 
  -36539  -108082   -54886    11603    71718   188936   243025   212097 
  228545   299145   329914   258924   156606    84993    14617   -11796 
   10606     6787     3318    33435    79479   114636    67551   -29342 
  -68350   -50872   -25536   -15192     -105    52459   113036    88557 
  -15496   -43964    32606    94408    79323     4091   -51105   -11238 
   70830    57040   -33075   -55822   -12189    63906   167437   212807 
  222521   283539   306736   207455   127714   214262   309113   237180 
  123839    46677   -50687  -122150  -146296  -150903  -157870  -210078 
 -244134  -207702  -155232   -95062   -59501   -74565   -62773    -7403 
   15655    11593    24632    21629    44537   105061   105578   139703 
  226773   202150   169520   181657    91037    61858   204888   298984 
  338665   406412   406232   347035   260664   149586   112247   107424 
   50229    13706   -40817  -170151  -224375  -136463   -45372   -30916 
   26842   165942   178923    51472   -24763   -20204    62098   165322 
  200831   219075   190455    90383    41226    70343   109695   161280 
  232308   237358   161639   113049    97791    45017   -12260   -11897 
   26680    21968   -47475   -51362    49628   123704   136206   147388 
  211125   288237   229643    77506    37068   103632   141716   122623 
   68949     5440    -7722    36045    66264    90443   160273   272073 
  398542   449366   365305   210065    76063    40959    77807    93943 
   90879   113464   147522   130401    57366     5196    36077   141912 
  223561   178823    60106   -19587   -55278   -34032    64084   144522 
  170370   216961   276667   247039   103044    -5760    52099   191004 
  292482   346302   364603   363307   350453   365091   448038   489497 
  407790   326785   315158   298965   266453   277686   328970   348613 
  298181   166617    13636   -22264    36308    65079    72534    87224 
   76713    49802    48548    69886    90456   128476   216214   320502 
  343793   248560   136420   118548   160995   185818   198252   201397 
  190005   195270   194026   174873   219078   306008   304223   216870 
  155302   147622   147683   142807   178680   238065   189993    54206 
   28576    97514   106563    96908    94651    39069    44541   189475 
  316506   312163   267931   277933   251241   103304   -36456   -19514 
   70299    82132    85641   147766   170361   160402   159946   120243 
  100259   152304   176229   132684    46951   -41628   -47255    14944 
   89085   181674   241785   175629    49887    49801   157258   239579 
  263803   200229    70405   -26368   -35044    31364   113274   160656 
  171321   152996   107465    69776    63282    25590   -29623    10111 
   78291    93691   141579   188802   179077   158545    97707    35557 
   80725   176408   204773   181533   193977   189286    55556   -74209 
  -31996    48752    74533   156963   246152   224631   144099    90340 
  100287   166399   265970   344545   318556   244930   247487   285437 
  278105   239186   178779   111937    75050   102014   220359   326471 
  292947   195643   124451    72895    73047    81560     5647   -99157 
 -155360  -128254   -29478     8584   -60801  -162002  -264388  -272241 
 -108909    61385    99117    40124   -65749   -65929    96626   198427 
  145143    30861   -63570   -81101   -69511  -102016  -132804   -96078 
  -29474    33909   113073   165132   176994   172497   113919    41904 
   46797    96453    93285    31976    19927    90458   168107   195362 
  140877    56610    25132    31719    94563   223604   272857   184110 
   92570    76383    97783   130840   185118   254109   299844   288563 
  232148   154593    66216    10143    28138    92084   118052    56038 
   -7682    19654    54294    62352   139753   198683   160612   156439 
  180883   163358   158804   181796   217541   224320   153910    82456 
   66987    91868   135093   131338   121176   168744   177024   138554 
  143476   150931   164054   237608   251942   190175   190208   177743 
  123649   194568   305741   279960   225336   208437   153844   109328 
  119892   148671   179805   214809   278275   351480   353188   296874 
  268805   238530   160393   130270   170367   159687    89475    39039 
   18434    12019   -13618   -63112   -63675   -18150     6754    26613 
   76631   145372   181939   168678   180613   224156   231141   212720 
  199597   208670   249650   292102   314089   333941   367044   382014 
  362469   335897   283716   178386    88866    87575   136408   180297 
  223096   260599   269230   275312   284617   238620   153534    71658 
    5994    10131    62414    77438    66221    78630   104118   113112 
   97341    58598    22927    16089    15882     8160    28734    83979 
  123349   107185    52220    44193   116147   161298   125039    75525 
   42753    18906    55868   167224   199648    78975   -17609   -26782 
  -79218  -155838  -145158   -56759    52024   134967   130765    41364 
  -23845    11148   118454   226778   249546   191172   159456   183330 
  188658   142697    83493    22476   -12820    32038    71528    30796 
   11182    45569    70160    90347   139837   195748   164330    18125 
 -136507  -183645   -96550    32086   123507   183559   199968   191905 
  199362   193476   157092    95659    39245    40848    52178    55239 
  120673   142241    49227    31179    92194    76484    87831   195640 
  250773   232521   235268   245637   216382   180281   176243   218290 
