Origin Time       2021/02/13 23:08:00
Lat.              37.7
Long.             141.8
Depth. (km)       60
Mag.              7.1
Station Code      MYGH13
Station Lat.      38.6993
Station Long.     141.4176
Station Height(m) 90
Record Time       2021/02/13 23:08:09
Sampling Freq(Hz) 100Hz
Duration Time(s)  244
Dir.              6
Scale Factor      7845(gal)/8223790
Max. Acc. (gal)   155.070
Last Correction   2021/02/13 23:08:09
Memo.             
[...]
    6465     9375   -12008   -10187      762   -12629   -31889   -24748 
  -12233   -12708   -10377    -7749   -17637   -29227   -23155    -9215 
  -10835   -17552   -12179      342    16455    22588     3473   -15996 
  -21303   -36926   -53446   -45501   -21855     3254    16492    10723 
   -9467   -31036   -25687     1383    11429    -2153   -26585   -44853 
  -41407   -28402   -11735     4985    -1313   -14864    -5491    11160 
   17734    10627    -9702   -23210   -25853   -32454   -28846    -6702 
   -1706   -30098   -51293   -29316    11574    24414    11396    -3580 
  -26970   -46121   -25793    10346    10831   -12856   -28215   -36019 
  -30789    -9423     8803     7561   -20059   -51086   -54973   -35333 
   -9329     1206     1337    18180    27256     3045   -24746   -37863 
  -41700   -34260   -21450   -19280   -29388   -35068   -30645   -27075 
  -22060    -8283     1117    -4976    -5598    12236    11554   -25417 
  -54716   -41408    -7063     7011     9389    11358   -23826   -65141 
  -42400     5622     8122   -13155    -8509     -839   -18886   -26442 
    -626    20294   -16154   -74933   -64288   -11121     7063     2349 
    5908     8068   -10160   -11897    31911    45407    -5023   -51197 
  -69569   -68594   -35756     3380    12933     1680   -10282    -7125 
    6454     3127   -23657   -53478   -45539    -5622    -4180   -28240 
  -11674    16951     8063   -17795   -21971   -17386   -32714   -45995 
  -44536   -41955   -28124    -5120    18215    39231    38580    18879 
   -3372   -21980   -31355   -44023   -50795   -23353     3847   -12279 
  -37543   -21182    18409    31483    18971    -1161   -25853   -39334 
  -39009   -28066   -11866   -23581   -51568   -47899   -19962     3376 
    6975    -7669   -24210   -41091   -37089     1956    30817    27766 
    2608   -34719   -39860    -6918     -117   -27666   -31569   -14958 
  -23525   -41598   -31591     1649    25652    23191    18087    20046 
    3546   -24646   -32287   -28426   -42303   -58920   -50942   -25057 
   -5466    -9602   -14111     9011    34335    26457    -5737   -25285 
  -44329   -83454   -79326   -16171    29524    33300    11205   -14574 
  -17770   -21556   -36436   -31969   -28914   -54919   -60308    -9108 
   40443    39756    21907    10243   -13905   -38659   -37982   -32655 
  -34443   -20892   -14804   -32659   -29940    -2600    19179    30924 
   21976    -2895   -15927   -18828   -24644   -25429   -20833   -28321 
  -37967   -18280     8757    -1846   -25099   -25362   -18550    -7885 
    5637    -3368   -27056   -34222   -17402       95    -2273    -6967 
  -12680   -31742   -26430     3472     5039    -8009   -12631   -27414 
  -31591   -12118     -814   -12333   -38622   -48262   -27695     4035 
   43050    45003   -18627   -67578   -59856   -38754   -32846   -35899 
  -16483    24567    46476    31842    -8930   -40015   -42658   -41588 
  -33343   -10235    -5416   -17941   -18085   -14381   -24171   -31166 
  -11372    16513    14058   -13725   -32942   -28634   -12788     5146 
   16241    -1393   -26053   -19292    -3083     2305     3110   -16880 
  -51391   -55217   -26041    -4433    11322    35970    24796   -39525 
  -86035   -73326   -42371   -21861      554     9119   -12680   -18477 
    9027    19869     4313   -10767   -17828   -18694   -21797   -25234 
  -22820   -23735   -29836   -35795   -21470    20565    37242    11402 
  -11587   -32066   -57287   -56857   -32262   -12914    -7464    -1183 
   11572    14650     9390     8702     3645   -14647   -35811   -38441 
  -16110     4540    -6016   -38115   -52663   -45414   -43150   -35901 
   -8653    24416    53249    50145     6110   -27151   -35865   -35970 
  -22202   -24503   -53900   -64606   -39456    -6284     5439     8927 
   26815    21907   -18327   -30838    -5668    -1306   -30910   -60849 
  -66881   -46797   -10809    19720    13350   -12760    -4706    20426 
   17525    -1532   -19036   -26644   -17050   -16684   -31419   -29851 
  -21810   -31037   -43120   -20972    32556    40105     1738    -2909 
   -2091   -34992   -64245   -68246   -40100   -16267   -31186   -29336 
    8212    26034    19658    19658    12690   -12218   -13954    16294 
   20648   -23224   -67117   -65661   -31113   -12187   -27868   -36329 
   -7992    12901     -857   -14585   -16980   -25901   -32190   -14349 
   14874    27841    16282   -13382   -36620   -38110   -19722    14415 
   23592   -12005   -40829   -30105    -3635    -6879   -36308   -37825 
  -24290   -21675     -764    20424    12255   -12910   -38519   -32894 
   -6023     5510    14388      -35   -56540   -83637   -48107    -4564 
    9567     2407   -17419   -39120   -24857    20995    29844   -10120 
  -37129   -35839   -37146   -26558      857    -3970   -36243   -48153 
  -29870    -2529    -1877   -10654     5881    -1279   -38707   -42689 
  -24950   -13375     3663    19206    24985    18198     8340    15394 
   13343   -21610   -59628   -76333   -62851   -26496    -5736   -15770 
  -23710    -4710     8252   -14116   -21691    15075    34226     1259 
  -44852   -66685   -55502   -23049    12457    29729     9188   -26703 
  -32541   -13234   -11047   -31228   -42457   -32427   -11824     3904 
    5238    -3183   -14913   -25131   -35579   -37403    -6826    20618 
   -1912   -28798   -18110    -1468    -4390    -3750     7982   -15550 
  -51808   -31544     4926    13474    11253      351    -4152    -4861 
  -17219   -19784   -13598   -13379   -25586   -45327   -36675   -14026 
  -19442   -30925   -30121   -20322    -1707      994    -5479     6426 
    7092   -16752   -24733    -9261    -1297   -22581   -61021   -73543 
  -46723   -16610    -4646     1345    10959    20607    21081    15172 
   17752     7719   -34254   -52948   -29524   -23301   -29506   -16236 
  -11823   -20436   -16209    -3626    10084    15867     -325   -14067 
   -6365    -1162      -16     -548   -28487   -60266   -43341     6940 
   35676    26052    -3754   -36977   -49623   -19461    21556    22802 
   -2826   -27534   -53555   -47245    -4571    -5849   -49195   -59248 
  -41760   -23498    -2516    14389    25081    17740    -7561   -24197 
  -39934   -60975   -55841   -24818     6535    29365    29309    15674 
   19661     9248   -37933   -65920   -61084   -53559   -54793   -71413 
  -71995   -39991   -16468     -540    23710    15853   -20244    -8820 
   42005    43999     5572   -15353   -33775   -56220   -56309   -37886 
  -22018   -28088   -42546   -35727   -26223   -21172     2752    15161 
   -4229    -5235    30208    57177    48945    22447    -7310   -45083 
  -80391   -79257   -37490    -4272    -5003    -5584     3981     1479 
   -4747     -831     3373   -10528   -46471   -70780   -56538   -29764 
  -13792     9818    39771    37731     5958    -4758    22014    38969 
    4951   -42574   -46263   -30397   -43459   -65962   -63641   -41153 
  -15229     2968    22882    43150    22516   -28717   -50014   -41550 
  -39426   -54286   -65885   -44238    -7655     7271    11017    10060 
   -9973   -21007    13911    56212    39333   -16618   -42816   -40509 
  -45478   -42963   -20181    -9401   -17852   -18075    -3589    18254 
   28031     7990   -14725   -24763   -36570   -32599   -17690   -28544 
  -39004   -12297    13089     7531     7400    23993    18549   -22732 
  -70156   -83029   -63239   -49908   -31507    17045    53067    45446 
   25458    20657    15030   -13756   -34861   -26303   -34754   -64478 
  -74806   -66768   -31752    17159    25986    17525    22501    13201 
     530    -9297   -35729   -47973   -28637    -9644    -4351     2870 
   10237   -12222   -48817   -46336   -16285    -1304    -7215   -15161 
   -2295    12046     1182    -8505   -10521   -17705   -15210   -11915 
  -16973   -22870   -38458   -36028     2439    18667      514    -5336 
   -8397   -42020   -99766  -130806   -91860   -29725    -1329    21995 
   59987    71346    35233   -11589   -32215   -36209   -39048   -27923 
  -14677   -34599   -63018   -57388   -29095     7134    37131    41733 
   34819    20637   -10508   -38762   -48879   -49221   -50383   -47035 
  -30765   -13959    10521    39097    18180   -47665   -95068   -84449 
  -14169    49478    60039    48844    17624   -21456   -17825     2417 
   -8568   -37558   -59428   -50368    -8691    26094    30788    11969 
  -16033   -32648   -27650    -4963    13636     2767   -23191   -38226 
  -46014   -53735   -50383   -21520     7902      630   -13684    -1059 
   10201    -2203   -23342   -28869   -15313     -379     8800     6370 
   -8410   -18480   -14879       56     9097    -2712   -18461   -27444 
  -36084   -47024   -58572   -41627     9418    31977    12167     6643 
   10265   -22171   -60604   -47910   -10763    -7577   -28756   -46926 
  -61487   -57531   -31630    -4792    25184    51112    39835     9776 
    8850    15114   -11647   -41189   -45813   -46592   -49677   -42969 
  -14461    27703    36977     5961   -25556   -46857   -54594   -42306 
  -20251      697     1642   -22168   -43826   -48384   -33886    -1773 
   15591    -1269   -17100   -20996   -28981   -19558    -3001   -13667 
  -27858   -31731   -30372   -10048     5960     6702    19846    28235 
   16684     3908    -8016   -14173   -13196   -20688   -41804   -59074 
  -44297   -18065   -18814   -20888   -11367   -15012   -17734    -9583 
  -10188   -22195   -34570   -34500   -23700   -25331   -45354   -53150 
  -21640    25774    49862    47980    26260   -10064   -35645   -31502 
  -15720   -22134   -37230   -31203   -30855   -35406    -2740    29539 
   14413    -5398    -6048   -26335   -57149   -46229    -8137     3909 
   -7836   -19535   -28116   -23400    -7057     6160    13578      652 
  -27047   -33115   -14991     9354    25921    25319    15171    -3420 
  -22212   -27129   -32543   -35089   -30289   -44664   -54614   -29039 
   -8208   -11092   -12186    -5923     7342    23531    31773    26481 
   -1853   -35958   -43177   -33639   -28401   -30785   -44352   -46214 
  -15669      301   -26192   -39175   -22350   -19913   -21289    -2833 
    4456    -7998    -9838     5189    13184    -1626   -10053     6115 
    -379   -39669   -53991   -33632   -15749    -9625    -8986   -11645 
  -15175   -24381   -37498   -42742   -37257   -22457    -6644     9205 
   35367    44208    25317    25084    30485    -2957   -46249   -64308 
  -57284   -38423   -30485   -29319   -22076   -12447     6413    23990 
   16754      -51    -7195   -16590   -29443   -30574   -29096   -34819 
  -26145    -3586    -8810   -37936   -33319     3650    20609     6536 
  -25292   -46865   -27306     3477    12827     8083   -23213   -64446 
  -62398   -32111   -13394     -837     8476    16070    29924    32528 
   13447    -4733     3013    27940    33970    12889   -23950   -67235 
  -83552   -64164   -42880   -24449     -973    12243    13656     8856 
  -13657   -41428   -37665   -17722   -34017   -69275   -71952   -66779 
  -70757   -34731    18353    30269    36347    70352   100322    85666 
   20389   -39051   -49944   -38592   -24136   -22216   -60226   -93717 
  -72589   -40342   -19097     9759    16640     1071     4365    16228 
   10949    -8378   -35093   -55058   -59567   -68299   -83899   -76435 
  -37729    12685    48205    51100    38988    31206    30920    41504 
   26554   -33512   -75784   -74900   -73727   -74102   -49457   -13155 
    5063     8727    17257    26690    24826    18739    17126     3601 
  -36242   -74420   -76121   -50137   -24024    -7857      858     4893 
    4060    -4779   -12930     -183    13171   -11581   -39864   -23053 
   12550    32105    35345    31460    31684    28399     9769    -7252 
  -12860   -22588   -37235   -46546   -50880   -39287   -11673    -6255 
  -31931   -49755   -41913   -22599   -14080   -24811   -32497   -29805 
  -37955   -42643   -12505    29286    38624    21559    14143    14330 
   -3306   -14940     6716    16416   -14420   -36142   -20518    -2566 
      -5    12706    24938    -3342   -44065   -52407   -48087   -52532 
  -59255   -59651   -50795   -55449   -82051   -90985   -70834   -52851 
  -35860     1378    49005    83120    93503    85554    65415    31558 
   -5656   -32877   -58406   -94633  -136012  -150550  -101823    -6296 
   67522    82755    70696    56805    31050     7854     3265   -11329 
  -50465   -89305  -116147  -142919  -159224  -127421   -53365    15052 
   61568    85536    78667    63228    71339    85278    72960    44585 
    1506   -64902  -107373   -91933   -55799   -25560      753     8156 
   -6768   -24887   -45392   -77396  -111943  -123171   -94282   -53600 
  -36054   -20614     7371    13433     1579    -1509   -11202   -12275 
   18420    39199    38533    41017    29187    -1048   -28372   -44500 
  -38273   -14833     9236    26887    26465    10864   -13387   -38743 
  -33858   -13510   -29222   -62347   -72088   -76401   -95134   -97826 
  -56284    -6280     9013     8753    18148    32005    45354    50862 
   46221    39441    29979    18492    11489    11275    14532    17903 
   22634    11402   -36379   -86206   -88361   -58405   -36297   -15025 
   10125    -2440   -49465   -69788   -58754   -46199   -31048   -22287 
  -20935    -4506    19755    42202    62360    56728    33362    26114 
   18858   -13320   -54419   -82516   -86094   -63868   -33556    -9058 
   15128    35195    46442    55601    33878   -35492   -93532  -113906 
 -136082  -154292  -137270  -104179   -78435   -41168    20069    83212 
  129825   148294   132129    99778    60997    14142   -22619   -41912 
  -46057   -33416   -27367   -39027   -38110    -2875    51568    76488 
   42491   -16614   -62284   -78910   -70699   -79822  -118450  -142983 
 -126431   -69234    -4534    13801    -2245       64    22401    51493 
   81429    81160    46792    14928    -2403   -10426    -6154     1256 
   -7712   -38763   -64039   -52447   -34703   -45343   -38196    17645 
   69481    73662    38357   -13872   -70821  -119227  -122173   -75228 
  -33978   -25300   -29457   -30181   -19237    -1063    11593    11134 
   -4421   -21304   -30246   -40805   -42422   -24306   -19688   -33546 
   -4973    76671   134858   125213    79663    31507    -9528   -32178 
  -41200   -56469   -80083  -100923  -109003  -104404   -95929   -82502 
  -58341   -27259     3582    23610    12129   -25047   -41979   -28887 
  -20081   -18291    -3802    26311    70023   114106   122710    76717 
    9375   -29405   -36467   -40798   -40162   -29164   -43227   -80914 
  -83795   -50679   -35866   -41933   -28151    15295    54681    53558 
   24318    10579    12237    -4104   -42412   -87401  -121991  -116606 
  -66168   -10994    20528    43182    70348    90275   105085   120719 
   96726     9398   -83999  -137374  -165489  -168675  -132780   -78375 
  -28895    20561    63815    71242    44323    15961     3613     6987 
    6439   -27523   -87292  -125845  -104372   -32521    31372    53932 
   69525    91123    77406    26820   -24725   -70569   -98161   -84748 
  -59802   -56521   -54002   -36146   -10037    18657    35206    38650 
   43721    39036     7291   -37895   -72728   -93393  -103072   -79508 
  -14688    32782    25737    15989    33480    39559    21718     1053 
  -15561   -29309   -42317   -43528   -24825    -6963     1779    10258 
   14967    15375     7365   -24520   -64015   -73002   -60408   -59541 
  -65060   -56120   -24750    21830    53080    51464    33606     3712 
  -45139   -86175   -84457   -51243   -34438   -47424   -43271     3843 
   58355    88658    88300    51737    -6654   -56956   -81205   -71055 
  -52906   -63261   -68073   -34446    -4860     5877    24705    40609 
   40963    33507    15967    -4156   -14179   -18215   -22179   -26735 
  -29952   -35009   -46032   -50032   -43020   -41755   -39610   -19633 
   10547    42422    68696    82437    83938    56544     4386   -21884 
  -14347   -28671   -81156  -127554  -146742  -140390   -91257   -20158 
   20958    38549    59354    68312    44440    -4583   -38788   -36148 
  -46523   -92119  -104109   -67563   -29061    17849    73878   109761 
  112225    63424   -15111   -56560   -58469   -60200   -52944   -35253 
  -33187   -25897    16282    63028    65770    18326   -37438   -68764 
  -88599   -99150   -82379   -55166   -39854   -29968   -16914    12642 
   60134    90630    77213    21806   -54248  -109891  -128463  -126134 
  -98424   -54125   -35392   -27854     8467    49815    67477    70214 
   68212    60232    34766    -3195   -26210   -32857   -37308   -26176 
    7009    30294    18495    -4433    -1509    17703    17598   -10613 
  -47611   -82594  -128618  -163236  -135143   -76989   -53072   -35052 
   11658    55733    77248    78293    68386    71146    74476    51320 
   16224   -13720   -45179   -78748   -92859   -74260   -42407    -9872 
   28107    54544    47448    20086    -2074   -17617   -34364   -42932 
  -28779    -7993    -8355   -22489   -34049   -41049   -36124   -21350 
  -13477   -17952   -30909   -45694   -53006   -53636   -47325   -29091 
  -12544   -10060    -7643    13497    45809    59748    52987    45573 
   34751    17375      166   -17014   -28787   -36747   -52074   -62791 
  -51975   -41557   -60717   -90926   -93946   -66685   -41922   -43081 
  -41540    -7666    22674    20173    11931     3385   -18337   -23568 
   -1613     5732    -8854   -15903   -16322   -16008      330    31738 
   50313    28750   -15637   -34299   -28857   -24707   -11323     1219 
  -11175   -27260   -27081   -20588    -8912     7140     5782   -19095 
  -43233   -64077   -96052  -106489   -67000   -30173   -28969   -13142 
   28065    47722    50426    67049    80411    60010     9521   -33286 
  -36254   -14639     2959     8972      564   -11233    -9394     1782 
    8170    -4710   -35082   -54155   -48914   -38947   -36386   -39924 
  -56173   -72571   -53771   -10766     3136   -21153   -39749   -24711 
    -450       -1   -10334    -3426     9876     3708   -15580   -24949 
  -21469   -14091   -10039   -16190   -24938   -15017    10060    20628 
   23429    37636    22808   -31671   -69178   -86406   -98176   -78447 
  -40293   -13666     7298    26280    40425    50445    55367    53964 
   29247   -28339   -79455   -87205   -65011   -34935   -13846   -16985 
  -25091   -14239    -9775   -35171   -58579   -50147   -25488    -2323 
   26750    60002    76762    79556    73970    37554   -16389   -43694 
  -51606   -70397   -92200   -98054   -85853   -58348   -26933    -3141 
   19614    39042    39037    17752    -9409   -21948   -28961   -53923 
  -76318   -72868   -57311   -34997    -2331    29735    45814    33064 
    7531     9273    33928    46994    47362    42484    25461    -3084 
  -32413   -52420   -67069   -86343  -101551   -97954   -70340   -18080 
   25548    15164   -17982   -21370   -17355   -24721   -28790   -50286 
  -85657   -83496   -52907   -38321   -31615   -17483     2693    37015 
   70106    75289    61257    42851    20113     2057    -2737   -13259 
  -44583   -68422   -64126   -54670   -52880   -49203   -42218   -27382 
   -2012    19415    32715    36952    15734   -19218   -26978     -365 
   26096    22806    -4486   -28559   -47775   -71806   -67257   -21666 
    7209    -2420    -7321    -2764   -17971   -24198    13618    51385 
   51607    29891   -10489   -58174   -75365   -56781   -39991   -47279 
