Origin Time       2021/02/13 23:08:00
Lat.              37.7
Long.             141.8
Depth. (km)       60
Mag.              7.1
Station Code      MYGH09
Station Lat.      38.0091
Station Long.     140.6027
Station Height(m) 30
Record Time       2021/02/13 23:08:08
Sampling Freq(Hz) 100Hz
Duration Time(s)  300
Dir.              3
Scale Factor      2942(gal)/8224139
Max. Acc. (gal)   70.992
Last Correction   2021/02/13 23:08:08
Memo.             
[...]
   55242    59143    71598    96095    98420    76576    52384    41674 
   59825    91752   120393   142182   131585   102061   100645   105891 
   84289    67031    67711    61213    63296    84824    84850    68405 
   75678    84651    74760    76935    88585    75793    54919    64648 
   98396   124688   132700   135388   133678   118565   117996   150006 
  175436   171607   154268   139498   145284   154739   130639    95802 
   86138   104314   141706   159112   130515    94171    89827   101097 
  103191   116438   135584   115746    78671    75243    93442   103847 
  106197   105602   106047   114875   129158   150975   170245   153280 
  123607   124054   130966   124906   110853    87976    75593    97457 
  139810   152986   124611    97125    85214    69124    47155    34350 
   28344    27402    41674    50021    48095    64716    82790    83862 
   82264    73384    65911    82065    93428    66341    29396    24364 
   48159    66600    59352    50676    66360    96363   119298   113147 
   94656    94552    80075    41667    26006    34612    47437    67824 
   89559    98886    99343   100444    99146    93970    85160    68160 
   47281    34325    45364    70530    74186    70803    94838   118957 
  118450   114075   108345    94635    81743    71280    66424    71188 
   85581    98921    91563    83473    98517   102986    82738    77588 
   91735    87691    62630    37035    20096    28081    47559    51487 
   65927    89210    81685    58460    42075    22495     3103      544 
   16721    45974    76400    89365    91245    83521    62868    61345 
   73585    72908    69985    58355    46163    68173    99785    98320 
   82358    73040    63825    71005    90202    85947    80312    92792 
   80063    60991    88830   131221   160556   188632   202926   193299 
  163756   120440    68409    31166    50184   106728   148594   166041 
  160116   141667   132410   123206   107740   100780    95659   105493 
  146450   168731   160710   151920   135897   133500   148786   153702 
  163543   176143   170013   164320   172810   170121   134748    97637 
  100052   110967    85823    55880    54052    63759    86364   115387 
  114318    99922    95604    80408    56944    37567    25227    18011 
    -419   -11049    18212    67834   103087   109907   103607   106347 
   92919    63228    72501    95405    85456    87088   106220    92453 
   59171    49720    72323   105748   114883    98301    90796    94203 
  104880   143984   169643   137864   121603   155588   156547   111813 
   81469    67201    60412    76196   108218   139067   147785   134728 
  128491   113443    80349    83621   113355   110929    94740    98679 
  113140   112457    91805    84848    93390    88763    82336    81670 
   67024    49009    47892    43798    26767    20871    27153    22909 
      37   -20248   -22380   -22509   -10987    31314    60413    35364 
    3750    12587    23680    30998    62895    64322     9428   -19696 
   34211   102319   102008    76738    76291    98597   135677   139988 
  109699    97011   108792   125277   135021   150772   166113   150192 
  142863   184037   224648   225428   199399   168831   144706   124858 
  102300    75146    66085    69168    49530    39097    65786    91282 
   86351    53469    20198    12727    30910    56546    65938    55969 
   44483    44267    51891    71913   108429   125624   110828   102316 
  106729   108891   121269   149550   161789   143399   132043   132102 
  114928   104418   109370    94309    73245    83116   114006   133817 
  135257   133705   120411    80811    58394    85399   108553    85444 
   41134    13644    17512    45380    88145   121810   117072    92878 
   90043    95665    69067    35235    46593    82196    96546    97341 
  116136   138183   106822    43525    26518    40273    34182    22021 
   29610    50560    69580    94324   118258   110640    82080    70738 
   84996    97956    99944   123395   172777   211808   211860   184829 
  181306   184203   148011   132213   149532   130928   102246    97378 
   91076    86321    96141   119854   143776   152263   139290   105671 
   83596    86637    83771    73384    70518    70757    66749    43969 
    1405   -33184   -51613   -60216   -38604     2249    29034    56147 
   75401    69542    58361    37770    21963    35160    67043   102438 
  114912   116217   133990   149596   153382   143883   127909   121432 
  107167    88497    84167    67760    41092    42088    60123    85762 
  140610   189897   185301   153885   128147    93785    46217    18766 
   27973    41095    43754    56601    64940    43009    26485    53184 
   73479    60486    86267   135433   132513   120110   124902   128825 
  146072   138667   105381   107489   132316   152643   163475   143783 
  109437   102789   107372    93209   101839   136719   131549    90188 
   67475    73210    68732    45847    45335    55075    54240    74025 
   96187    88222    79766    78421    60675    34701    26352    45135 
   59833    40342    12893    18711    57511    86427    87681    79992 
   60219    48020    66949    79145    81313    93513    83382    51533 
   41662    71903   108549   103396    85550    95555    96700    76134 
   83344   120210   138785   142726   145026   120707    91949    95338 
  103873    97633    99798   119092   136183   129722   114890   127049 
  147042   145044   147507   167549   168527   148702   144166   134104 
  107287    98004    85283    69701    85581   104440   100892    72935 
   34361    16652    12486     8923    18517    30996    24102    27002 
   56874    65056    67879   106744   126347   112365   113926   118736 
  111616   101178    77965    53298    39810    45308    81388   118525 
  144329   165542   148626   102871    86671   101853    91403    51098 
   62148   130412   168454   165956   162056   157283   149249   135072 
  109031    82443    68327    79992   116442   135271   113958    97553 
  108330   103854    80597    72257    56512    23909    23283    42210 
   29690    16032    42799    81919    93507    82129    86616   109665 
  105683    69650    42707    32976    30326    42728    59881    65842 
   62883    53971    47803    47989    49819    53909    57630    55979 
   44932    27472    19237    27909    43422    55491    70754   104515 
  143368   149250   114871    70058    41208    45820    76176    91084 
   95315   114628   114764    89864    82341    88141    85209    79421 
   72469    70004    84165   100171   109530   112153   104117   116525 
  143877   127861    88815    92360   124370   124133    99848   120332 
  169466   173755   147540   115191    62984    47748   104355   138661 
  110798    96888   107615   101467    90844    96326   107484   105013 
  102344   121389   132121   116664    96731    80042    79691    94948 
   89186    70692    80077    92515    79263    75184    86231    86225 
   95794   129145   136795    91870    49044    48562    62479    68844 
   80979    95301    96358   103545   119884   124066   129443   125024 
   97576    93827   109709   105413   109487   134235   140103   126562 
  118179   112522   100124    83820    81371   101148   117788   114835 
  115604   131125   126895    83550    53844    79726    99779    72796 
   50565    46710    42889    64687   102205    97533    73931    88423 
  100419    78888    66692    76331    91748   104521    95276    67699 
   61966    73723    64153    53717    77854   117644   134022   110243 
   80071    80327    83289    71824    86548   124854   131010   105753 
   79384    43807     9103    -5564   -12451   -16124   -10353     4390 
   17702    17231     6832    -4629     -460    29027    53993    68793 
   99684   121806   114845   113629   118332   102088    82857    75425 
   68920    75568   103977   128513   142314   157597   166247   171427 
  175371   167610   172204   187911   170658   141677   137079   126361 
  106753   108645   121223   137551   155366   148338   123611   104237 
   90589    90829   101858   109058   111369    99474    79358    71193 
   56914    31666    29702    40572    47536    75037    99939    96454 
   88628    64268    27949    32076    61037    71398    72450    64805 
   54540    71975    95877    94359    72611    51077    56767    75382 
   84489    92080    91577    90853   102016   102918    90323    89299 
  109547   138221   160462   167513   167813   167748   144769   112642 
  110972   121765   116429   113267   126222   131845   137182   157310 
  157658   145220   143044   123919    89808    59143    34476    29938 
   45522    70609   100421   125051   138897   135611   122760   124078 
  121953    82858    32147    26249    64727    94572   104121   113563 
  120096   129814   144563   140346   117001    89630    60980    41111 
   33685    17594    -5894     4712    39942    38431     2705   -19279 
  -12702     2587      970   -10883   -12818    -3511    11580    19982 
   16752    12522    27920    73076    97206    76716    69082    71705 
   56505    53865    58696    50593    53005    74865    86692    74286 
   60045    52578    52135    65433    73095    71290    84103    96865 
   82163    67659    89500   126878   144992   140733   121672   100079 
   89378    79624    59260    40805    37376    48613    67317    89268 
  117435   153851   187027   188268   151657   118249   105108    76202 
   28219     2111    15579    53541    95677   140386   168481   147143 
  113263   102741    87261    71059    72765    73440    75347    93042 
  117238   135780   146547   154477   154554   154086   156384   115786 
   47694    25902    41702    75952   142130   201526   220043   222775 
  219042   187616   149208   129622   102891    70397    71968   116849 
  179937   232903   253874   217660   162994   152008   133409    84546 
   76117    95742   104423   114943   118972   100030    65853    59992 
  101691   139596   169226   210289   207337   160396   137809   121267 
   85241    70821    74424    77799    99164   121108   105318    66448 
   63364    89279    82447    72229    86197    68481    34204    30080 
   43947    64007    63918    43534    51227    59625    18454   -19391 
   -1811    19573    -4641   -29255   -10376    13780     3728   -13826 
  -14755   -21544   -28404   -11183     8932    18050    20380     2505 
  -28377   -37771   -22261   -12479    -2224    34538    71608    77982 
   62186    41073    32328    33808    28825    29174    47773    76138 
   99199    99098    86347    96515   122423   135166   151078   167179 
  143078    92129    62592    66384    82830    97195    97861    88867 
  107541   135027   111912    61758    44381    58113    70457    87027 
  117062   130203   113728    88395    67396    55271    61006    70051 
   49415    28437    54668    87856    88002    81460    77390    75817 
   98078   133756   161715   186210   190107   162970   147050   153301 
  139788   108214   111038   146900   151681   124505   119527   136183 
  147328   147641   133388   107605   100134   128767   153927   144023 
  131341   146986   173462   184769   174272   140702   101467    82109 
   93603   133978   165433   169643   175822   174036   146672   132491 
  159857   193731   198219   190876   187515   182382   177573   170791 
  156478   137247   125579   126766   138613   159680   161427   130935 
  110728   131866   166653   168188   144427   139525   150998   135468 
   83848    42277    37139    48115    55983    47191    28629    29536 
   44707    39918    13100    -6529   -26896   -62750   -67784   -34658 
  -13821    -5602     8572    19426    19877    22640    39664    60648 
   82143   100234    91824    73367    82156    99620   106444   118844 
  126492   125320   144355   180574   204118   197149   171072   154460 
  135214   106924   115516   136371   105462    70865    80065    88006 
   72395    61901    81795   120425   140643   134802   131249   145878 
  144806   108896    84931    96973   126786   150797   145053   117202 
   78541    35168     2110   -27720   -42530   -14790    32876    53419 
   35529    26477    53006    62517    42064    52756    90886    92920 
   69734    70090    74606    56578    35403    28179    35510    46410 
   53840    57838    39853     6602    -2278     2181    -7038    -6759 
   13508    34403    40643    34839    46249    55981    20407   -23383 
  -35829   -32503   -26235   -22164   -20081     -184    43510    75639 
   73651    61416    65149    85785   111754   135913   148227   149820 
  162382   174695   165059   146975   119350    96923   140883   227985 
  255557   225019   212211   213607   190543   163101   172667   211677 
  236271   230073   209683   193143   178189   145508   100985    68029 
   72989   132522   181369   159351   121058    98232    55185     7666 
    -768    23469    37999    25840    29955    69997    94721    89502 
   84410    77854    64740    50824    37134    35788    50288    55340 
   33922    -2500   -29972   -34761   -33075   -29060   -10936    12275 
   48452   102359   153589   187014   177900   132005    92263    70888 
   73618   103499   119662    99341    71891    51179    38403    54564 
   84696    83787    63931    65362    78548    86972   111113   147987 
  165740   164921   154734   136467   131491   138488   130262   120992 
  140695   168249   156062   104616    68488    76033    95621   100697 
  111102   147761   179435   160444   112880    82640    49165     2695 
  -11815    -5166   -13807   -18181    -4969     3920    -7241   -24810 
  -43602   -79693  -109555   -96175   -52492   -21521    -9008    22693 
   69523    99673   117954   132578   136097   119314    82993    55104 
   67722   104778   113818    91426    85353    94117    68457    26221 
   30396    59202    68351    74877    81157    89434   107663   103403 
   78754    54575    29471    36914    78857   104650   105057    94915 
   96931   135371   173267   159806   119349   111267   152064   201762 
  211732   195785   201109   212905   181892   118162    86458   108037 
  132143   141625   170378   207754   221088   210466   180985   153025 
  146820   140254   131571   146808   175574   186116   159443   121964 
  113979   123314   133702   141702   128929   108588   109405   128848 
  152031   161785   152347   136078   126543   128540   130189   134365 
  158209   177388   166511   155702   166021   170698   160597   139143 
   94433    62374    68678    71899    66885    70190    69678    70783 
   88017   115591   120279    77218    18890   -19275   -47119   -72607 
  -80893   -60123   -16665    21911    25577     -822   -19256   -20912 
  -43386   -82078   -81338   -39904     2131    26275    28606    22419 
   16429    11588    22530    43895    60548    75539    80329    58573 
   14763   -31509   -65542   -78580   -57466    -5089    47470    76897 
   89874    94371    78545    43073    21118    44351   102853   149586 
  163598   167462   159013   113314    56216    35120    35594    33588 
   50564    87542   123653   139969   119745    92017    91069    97779 
   87025    73302    88265   119017   128340   136887   154743   139322 
  113049   110412    91006    56571    55273    83555   114505   128034 
  111369    91848   110496   151613   169024   162149   151780   131450 
  106975   106743   124715   141480   164119   188419   201726   211690 
  212346   181516   143357   134416   128312   120996   145548   172380 
  179725   184366   174953   156844   153453   168492   192667   198617 
  184998   174307   160745   150577   155223   150641   135992   142978 
  170610   185619   173514   154834   144570   131931   123855   127175 
  113455    90397    82798    68882    63042    87423    96736    89745 
  102593   110546    83508    27264   -18188   -12887    18976    40992 
   57767    76451    75913    33966   -27877   -72562   -84522   -66567 
  -31727     8141    33346    34850    28494    10802   -27426   -52434 
  -37088    -9768      882      103     1493     3924    -1779     1629 
   21618    29610    31230    51933    73867    69530    46318    30159 
   28259    36965    59742    94949   134704   159216   152883   129745 
  100098    61533    37293    54627    94265   122620   144796   169213 
  172308   155495   150873   144132   118370   106587   114939   122602 
  126530   131418   158055   204487   215809   175138   136566   131888 
  151576   176025   171954   142653   130115   138029   137200   122928 
  124812   153634   182669   199153   207262   206479   190628   147752 
   93353    68288    80045   105235   134553   156520   147262   118862 
  102573   100948   100961    88211    62726    39808    22489    14878 
   35830    75493    93447    88249    86767    79695    53651    27124 
   10404    -4279   -14042   -10574    -2305    -4685   -22272   -48521 
  -57252   -33589   -10964    -8031   -13333   -43112   -85422   -87667 
  -61061   -45123   -23639    13041    26520    -1836   -35160   -34742 
  -18188   -23899   -39567   -29018     6979    41409    47888    24844 
   20696    67664   111226   115179   129654   168864   183924   157117 
  119668   108017   116325   114548   106135   117718   154943   190105 
  192345   176110   178769   185700   167383   146591   146620   157134 
  164247   164327   165650   181184   206288   218991   211662   192342 
  173057   160425   140875   115704   109853   113341   102050    93699 
   99577   106253   118666   124981   104094    77248    58684    44408 
   42373    48532    61951    86702    98606    94693   102882    99405 
   58290    24224    21047    27282    41187    63447    79327    66835 
   20854   -22403   -47235   -62461   -44297    -1464    25509    44462 
   61776    66906    65479    51150    36188    56173   103765   136097 
  126574   104214   117609   151389   160482   134638    88164    55154 
   52551    59895    83392   134901   182275   200159   186516   155493 
  136266   133938   132764   128217   135411   167171   201036   211046 
  211775   217024   201289   155900   130092   160456   205104   215874 
  215392   224388   218027   193043   170345   152749   141442   148884 
  168239   179517   178808   162194   132189   110020   100608    98456 
  100476    93456    84958    87697    84897    78192    82237    86155 
   87269    95940   110343   116835    98590    66764    45472    22341 
   -7435   -19896   -15688   -10696   -10963   -13082   -17513   -34311 
  -49576   -47935   -40458   -33208   -29239   -29363   -32275   -42194 
  -43386   -20015     5714     2442   -19264   -18083     4770     8411 
   -4190     3445    26894    41195    52760    75875   107870   135375 
  143970   139784   144073   165699   187830   178179   142227   127009 
  144039   169727   195988   216048   227762   246620   260477   244286 
  224865   225131   214020   187907   176547   178564   174966   161481 
  154155   155451   152444   149208   139860   118575    98162    86236 
   93734   112239   112078    98174    89673    76580    52386    37621 
   41800    43536    37154    45507    54280    35847     7541   -23745 
  -51008   -42986   -24036   -31455   -37309   -20160    -2614    -2612 
  -11587   -11757    -9562   -25652   -51213   -60439   -47544   -20362 
   11244    36733    55107    61398    48423    37714    45601    53083 
   53696    59128    63369    59945    51472    41114    44301    56713 
   53771    50785    67745    82794    93360   119973   131377    97120 
