Origin Time       2021/02/13 23:08:00
Lat.              37.7
Long.             141.8
Depth. (km)       60
Mag.              7.1
Station Code      MYGH09
Station Lat.      38.0091
Station Long.     140.6027
Station Height(m) 130
Record Time       2021/02/13 23:08:08
Sampling Freq(Hz) 100Hz
Duration Time(s)  300
Dir.              6
Scale Factor      7845(gal)/8223790
Max. Acc. (gal)   183.022
Last Correction   2021/02/13 23:08:08
Memo.             
[...]
  -32836   -16448   -34657   -50421   -38322   -10579    -2578   -17400 
  -17015     5292    15215     -815   -21035   -26709   -14777    13374 
   27369      409   -29397   -28008   -21066   -31159   -37625   -17385 
    2635   -19364   -52817   -36632    -4914   -24015   -59055   -56880 
  -27039    13834    33642    12997     7794    33435    31202     6369 
   -1425     -544   -10471   -33300   -40655   -13315    12143      876 
  -33710   -48871   -24835     -868   -11952   -32390   -29074   -17979 
  -20498   -13842    -2146   -28213   -62085   -50728   -26268   -21439 
  -25713   -46911   -62943   -38226   -17728   -30235   -40251   -45971 
  -47108   -24448    -9639   -22600   -22014   -13136   -28568   -19900 
   36304    58139    15749   -15670   -11677   -23453   -54643   -70668 
  -64030   -29955    20248    44605    35218    20830     5942   -16505 
  -27295   -25648   -39897   -52771   -33357    -8657   -13929   -48443 
  -72736   -40574    10227     2577   -44327   -58413   -26636    16013 
   47511    53624    13718   -42055   -62390   -63526   -57079   -21972 
    9513    11773     -141   -27228   -40765   -20187   -11063   -15442 
  -11130   -35495   -70993   -52319   -13774    -8437    -8684    -5864 
  -28247   -42768    -7888    20941    -1902   -10852    28422    48821 
   24129     4159     8352     6242    -6484     7049    47497    64111 
   29590   -23271   -36433    -6515     4927   -16398   -22346      815 
   32341    43390     4581   -56458   -71612   -35029   -11863   -21982 
  -17124   -11337   -49045   -69055   -17556    34322    30165     9674 
    7645    14974    25394    49904    84098    76135     1962   -62294 
  -62062   -37453   -21505   -22837   -50076   -66190   -25070    34150 
   35506    -8006   -30250   -24659   -27279   -51611   -78366   -77360 
  -47830   -33701   -52979   -57013   -33015   -21894   -19052   -13189 
  -10569    16474    53276    33949   -31059   -61622   -28887    -1642 
  -42442   -84898   -45913    20931    41588    24510     4968    12324 
   15394   -35993   -85249   -68513   -27086   -11659   -22728   -40606 
  -47687   -43686   -34385   -16542     1598    -2257   -35336   -77924 
  -81789   -23796    31031    23704    -5023    -8772     1588    15850 
   29409    32158    23934     4974   -12752   -22466   -30431   -22121 
  -19762   -55671   -70047   -43414   -50881   -66402   -17528    28389 
   -5325   -66046   -88269   -66339   -18661     3912   -19846   -27322 
   -7312   -27217   -70023   -64937   -37021   -32297   -28671   -20908 
  -17490     1337    25281    25091     3021   -17448   -22121   -19098 
  -18700   -28248   -46489   -42770    -1790    20146   -22936   -71409 
  -65238   -30716    -3082    -5362   -29305   -12675    20715   -17572 
  -64210   -12190    86661   134654   110901    55995    15195   -20591 
  -72090  -104608   -68774    11373    48888    11036   -38172   -32746 
    6706    15988    -6416    -3010    21674    13161    13103    60840 
   70968    11970   -43707   -59042   -47406   -24786    10366    44248 
   44298    35252    60066    77773    29899   -49320   -76513   -43557 
  -35731   -82823  -101584   -65319   -33710   -13554     2887    -1125 
   -1401    13365    17446     7993   -15408   -52188   -73070   -67265 
  -54650   -40308   -22249    -9795   -10925   -17929   -26751   -44246 
  -34230    16008    29560     -700    -2050     9112    -3910    -5038 
   15311    29967    23969   -16345   -61844   -56959    -2268    60318 
   80553    29423   -36621   -42545   -26423   -51865   -77337   -62760 
  -45975   -35044    -7049    17691    23463    31941    47754    32854 
  -20765   -41031    -2513    20864    13077    19394    24637   -13636 
  -80586   -93661   -29760     8353   -22034   -57160   -72409   -70120 
  -41160   -14206   -28513   -65755   -78968   -71886   -76264   -78602 
  -68980   -73537   -66353    -6647    48374    23070   -41196   -44548 
    8432    33442    22223     1941   -54361  -119348   -88659    18108 
   52266    -5356   -40155   -13697    31553    57707    49721    29579 
   30933    44163    37508    21060    22962    15001   -24545   -21374 
   42907    55495   -15245   -79434   -83706   -43825   -12043   -32094 
  -72297   -72484   -46265   -39083   -44977   -39438   -25802   -22646 
  -34506   -40567   -26547   -16147   -26293   -24236     9676    34209 
    6173   -47035   -53073   -10471    14324    14600    22829    19712 
   -2033     9209    52655    49720   -11205   -55179   -54499   -38554 
  -18131    -4531   -12289    -6933    29559    50660    46256    49978 
   57959    32879   -20633   -25193    16362   -18168  -121730  -146504 
  -80381   -44432   -51723   -27953     4818   -20929   -67707   -54330 
  -11342   -11631   -19643    13192    32360    -7938   -42487    -4062 
   31992   -23031   -81589   -64758   -56309   -89479   -86815   -34110 
   10152    25070    40312    50795    15489   -33470   -24881    14855 
   21216    18944    49619    81040    67913    14800   -23437   -13231 
   -4924   -13263     6249    10323   -30437   -51420   -42604   -24170 
    2263     7770    -6102    -7796    -4191   -21150   -47385   -42163 
  -11653     2963    -7253   -37239   -68206   -68833   -55520   -68091 
  -95037   -99277   -74561   -36560    -3913    17016    27468    22705 
   20344    18736   -16930   -61128   -62463   -32533   -22158   -31758 
      85    65624    90510    69493    45014    29594    12262    -6766 
  -11805   -21716   -66174  -113256  -129604  -113610   -49709    28871 
   37473   -16363   -33345      349    -6384   -52316   -42628    -1204 
   -7704   -18419     -139   -18358   -68118   -63536   -13134    -6326 
  -21911    19249    64369    62874    70615    85109    58171    -6170 
  -72940   -89407   -51993   -14748     -469    -9166   -28660   -34206 
  -31264   -29512   -10497    28526    42271      189   -42439   -23041 
   10986   -10436   -47115   -52424   -59368   -64858   -41477   -28174 
  -30622    -1593    27774      892   -42101   -36301    -7076   -15331 
  -43800   -30908    17136    24375   -26061   -55560   -36952   -24471 
  -32810   -40784   -40979   -23881    -8293   -34542   -76090   -59845 
    6307    30584    -4306   -26399   -27869   -44015   -45096    -3682 
   34898    37910    28092    13544    -6859    -4152    24260    33853 
   13946     6507    21215    12772   -24838   -31182     8669    39120 
   31104     7296    -4193    -5706    -6871    -2818   -14962   -53312 
  -76086   -74559   -69824   -51721   -31735   -40930   -56741   -43957 
  -23225   -26897   -36594   -23799   -15060   -22728    -1117    22771 
   -7742   -19857    29891    52814    37585    46642    57790    32089 
  -18199   -66707   -89557   -78922   -39185      -90    13232    27812 
   27720   -25461   -58904   -17659    10987   -30863   -61246   -17132 
   32985    29562    18949    28000    17660   -19746   -59443   -77944 
  -54336   -10932     9261     3856    -3581    -4588   -21443   -59266 
  -72017   -37489    -3296   -12846   -38265   -30099    -3982    -7168 
  -28132   -20740     8534    10417   -15751   -22480    -8895   -21358 
  -52948   -54402   -47842   -71397   -79149   -48481   -28525   -25909 
  -12818    -4321   -10729    -6355    14733    28960    19087    -6694 
  -26622   -23980    -2961     3609   -21139   -35615     3287    46224 
   16411   -47382   -74119   -69545   -34912     9633     2025   -29790 
  -28158   -30705   -58754   -57325   -24823   -17377   -34191   -40703 
  -22769     9894    23288    14639    16812    32232    31496    -9591 
  -70555   -78051     -278    66837    29862   -23194     9620    41331 
    3322   -35846   -49451   -49630   -13031    36998    35316    -9566 
  -29365   -21124   -29178   -31540     1495    16252   -14378   -20150 
   21174    37812    10531   -13795   -22935   -24790   -22690   -45415 
  -88290   -85882   -35259    -5903   -19039   -36907   -19981    27436 
   53657    30662    -9568   -25546   -12973     3461     6111    -6014 
  -25938   -23299    14002    36999    31078    24221     -930   -33952 
  -30551   -20109   -24463    -4337    26187    18720   -13545   -32252 
  -35185   -33318   -19932     3148    18765    17095    -3846   -24682 
  -18694   -11341   -34121   -35167     2257   -10520   -68374   -78510 
  -59350   -55517   -33482   -16457   -53825   -71703   -31185   -24111 
  -52701   -31079    18905    29473     5867   -27292   -39726    -2902 
   26064    -4135   -17255    40487    89608    55520   -18786   -42600 
  -19197   -22495   -41534   -20403     2743   -28036   -82474  -119234 
 -124499   -89324   -47970   -38695   -33880   -10296    -3379   -21533 
  -21591    -8928   -14076    -3649    22419     5454   -14563    21948 
   45304    22451    13436    -4754   -61369   -84227   -53229   -20040 
    4880    20179    20363    30672    45933    36779    27171    38026 
   53620    69939    56671    -4195   -40713   -27943   -35306   -57724 
  -43765   -20294   -15503   -11873   -12291   -26246   -34589   -27584 
  -25207   -28278   -11557     6925   -10648   -41002   -56286   -66981 
  -65507   -59834   -65971   -38349    17733    27506    11011     8997 
  -10797   -24845    -3096   -12266   -66040   -91512   -65836   -19020 
   10751     4153   -22725   -45539   -34526     6814    26256    21616 
   23768    22107    18173    20844     7416   -18002   -13682    24637 
   43648    24117    18983    37740    23993   -18328   -34214   -16090 
     823    -8937   -21026   -13107   -13903   -21442   -15342   -11605 
  -11137   -13504   -24295   -34294   -49420   -54421   -30505   -16289 
  -17054    14193    60450    58587    11369   -15261    -3786    -8247 
  -56609  -107389   -93208   -20490     5017   -44217   -67857   -26373 
   25103    41154    18910   -24773   -76446   -96832   -61280   -37743 
  -75579  -111253   -93058   -58224   -52934   -71467   -69738   -31633 
   -3950    -6336     4723    29070    19894   -21585   -50634   -44636 
  -29647   -21631    -4054      255   -15747    -7913     1741   -12727 
   -4326    20941    17043    10071    22905     8397   -36860   -55475 
  -43856   -33970   -33146   -39852   -40865   -21346    -9718   -37172 
  -53296     4758    80434    70186    -7200   -45832   -20210      -48 
  -15458   -23338   -13015   -17678   -31159   -25362    -5331    20235 
   56859    77242    48481    10631     5233   -14249   -82923  -148721 
 -143290   -55966    30011    34161     2457   -11485   -26269   -33986 
  -34555   -54263   -60781   -33050   -12718   -14690   -20641   -19795 
  -11061    -2442     5038    16860    26947    12456   -28926   -41177 
   -1270    25866    21710    30415    34503    11989     9414    33686 
   33953     9321    -9143   -22428   -33232   -26103    11645    71965 
  116870    98031    26131    -1956    30778     9518   -47247   -14118 
   57601    65997    37034     -175   -44628   -63471   -37922    -3291 
    6813    17844    38117    23815    -6029   -16560   -44975   -72760 
  -60419   -56600   -62598   -33745     3753    14544    14138    32587 
   42110    -3697   -60029   -81068   -99150  -114089   -87642   -41775 
  -49921  -117846  -130063   -47314   -15437   -89657  -125197   -67977 
  -38468   -74420   -78381   -38176   -42597   -86395   -83644   -43146 
  -32899   -38615   -18478    15241    41983    47860    20694   -14278 
  -24857   -31406   -56000   -58621   -13408    14486   -39636  -122712 
 -120889   -33376    12631   -22910   -32393    24507    54846    12129 
  -27477    -1451    39700    35922    20983    28125    16626   -28590 
  -54130   -22395    29023    35337    -4706   -45430   -48662    -3261 
   36043    12842   -27882   -30726   -29478   -43714   -32331    -7129 
  -17555   -46840   -48230   -17234    19188    33162     7248   -40329 
  -42822    20187    53975    -1198   -68602   -82549   -73657   -70735 
  -48620       52    22273    -6547   -34129   -24455     1860    13420 
    4799    13660    43791    29616   -28838   -51842   -14922    39710 
   64362    45563    22041    27128    36877    28035    28140    60926 
  102772   107433    51997   -31183   -76932   -57148   -14068     7977 
     878   -37015   -71917   -68597   -57036   -48649    -5730    57214 
   81287    65306    55768    65900    76758    78005    71469    57906 
   39480    16146   -16675   -28773     1887    14588   -15884   -14289 
   29371    28863   -34169   -74895   -32680    36632    32286   -38857 
  -79201   -60216   -42472   -63882   -92345   -80982   -45129   -34881 
  -49248   -58797   -65801   -85626  -107019  -102532   -71840   -42187 
  -24844   -14098   -22342   -47571   -49806   -33952   -45702   -73106 
  -84959   -79477   -39981    15010    22924     3721    11303    24163 
   33906    63730    86571    72762    40289    20898    15209    -6269 
  -20217     6984     6176   -48848   -64158   -28216   -16154   -29336 
  -21513    20876    66860    69518    35452    22361    39920    35025 
    1178    -8762    14862    31936    10646   -43127   -93490  -116772 
 -105760   -80461   -85417  -104369   -84553   -54441   -72716  -106810 
  -90248   -43259   -20457    -9748    14215    21717   -11535   -39417 
  -12603    28877    27179    11765    38605    95308   122334    87250 
    8588   -69487  -103162   -90220   -79605   -92180   -95901   -74575 
  -48211   -47210   -62899   -54116   -41391   -59016   -64285   -37534 
  -33195   -71095  -105857   -97410   -47777    -8046   -34520  -100437 
 -126391   -93627   -46334   -16416    -4367    -1992     9447    44379 
   77905    78587    51902    27726    55197   141459   177132    92453 
    8120    28992    66108    29381   -13774    10411    60831    82293 
   77168    60879    46284    34098    -1186   -58486   -91162   -62542 
    1078    19457   -25841   -59117   -48821   -40433   -44436   -25963 
   -9873   -59038  -130439  -125404   -72415   -67419   -96195   -96415 
  -82185   -74368   -50122   -18021    -8583    -1171    30121    45185 
   10756   -23797   -14808     6585    10048     7086    11468    24520 
   40001    40582    13934   -28132   -71996  -107613  -104107   -48735 
    -557   -20551   -64542   -59112   -25266    -3464    10835    -2475 
  -47891   -55922    -9651    12768    -6782    -4889    23573    26260 
    1776    -8877    14654    55252    68551    47914    45225    69523 
   61566      522   -56218   -52955   -12550    -1159   -23719   -28610 
  -14072   -23359   -53106   -73865   -95427  -131245  -152259  -132170 
  -86760   -33925    18085    42626    23471    -3888    -5458   -21674 
  -85768  -130711   -89810   -14454    -1821   -41858   -50240   -15465 
   12460    11087    -1116    -9508   -32275   -64272   -55102    -3330 
   20193   -14723   -45015   -17910    17955     2118   -26053   -22566 
  -27927   -49578   -38315     3299    42330    43004   -23738  -103642 
 -118617   -83315   -51390   -36238   -29813   -20935    13421    79321 
  131380   112218    28567   -39511   -23415    50453    86379    40131 
   -4194    41112    94925    41929   -45387   -49014   -11461   -16557 
  -39228   -20467    25234    42539    16657   -18895   -22647     3018 
   13732     5584    13406    31027    26347     3152    -2775    16891 
   30358    24495     8152   -19152   -39181   -15846    35442    50217 
   21128     7923    28449    54121    69439    58758    22446     -934 
    8306    33049    55044    65524    64577    42315   -21223   -90934 
  -96834   -60615   -61406  -100422  -127597  -122318   -89293   -44608 
  -22296   -44604   -81897   -92488   -88360  -103076  -120702  -107018 
  -70956   -39390   -26833   -34631   -42214   -38731   -45381   -63774 
  -68544   -57325   -42890   -38966   -64065  -102702  -125589  -134030 
 -105750   -26098    31918    29203    35360    69048    48066   -52508 
 -138091  -129905   -70360   -25659     9023    31804    16621   -11290 
  -28825   -53551   -69365   -48246    -6747    22927    25791    26262 
   52101    72053    58692    45323    48992    42754    18573    -6168 
  -12035    11821    33241    16281    -9109   -18077   -36190   -58010 
  -44297     9562    54360    38329   -10601   -32167   -32940   -34507 
  -34843   -50928   -72831   -49050    14015    49098    19639   -47806 
  -88574   -58253     7965    27209   -12163   -35442   -15552     9405 
   32922    54919    56479    54592    67532    63336    21724   -21181 
  -31860   -13155    12565    16492     6282    12545    23599    16657 
    6340    10635    12943     4174    20096    53570    39363    -9323 
  -29428   -25489   -16060     -739     8336    18538    45458    67285 
   49536     -691   -32597   -23193    -8577    -9506   -15406   -37002 
  -66023   -67555   -46291   -21698    -9161   -20839   -25717   -10300 
  -21473   -67408   -94891   -67825    -4846    36622    27091    -2116 
  -22499   -45724   -88672  -142813  -164079  -118798   -53418   -30759 
  -36721   -37169   -31625   -25855   -30689   -50133   -56929   -36918 
  -20340   -32562   -57778   -61441   -34977    -6151     7341    11472 
   -2496   -39209   -61345   -50457   -53523   -90814  -110166   -78136 
  -13302    51413    91512   109599   109304    82275    42256     2488 
  -39096   -61616   -44419    -6974    21136    31530    26659     8823 
   -7962    -5574     3865    -1733    -5683    18123    43579    21082 
  -25479   -14154    47750    59574     4806   -29262   -10359    18945 
   24082   -11713   -58780   -53160   -14627   -18304   -49580   -35158 
   28541    78664    75174    34237    -8205   -48994  -102042  -129918 
  -91982   -33712    -6859     2716     -657   -23672   -32571   -11704 
   15169    32524    25951   -10579   -50751   -64381   -33114    30816 
   61423    21278   -35473   -53318   -41952   -27533   -16033    -8390 
   -7654   -14361   -21861   -22902   -33459   -71412  -108085  -100529 
  -64854   -50550   -64565   -89185  -115689  -121648   -93083   -61106 
  -56878   -62599   -45554   -15866   -12943   -27704   -10139    18450 
   -8618   -65547   -72474   -29918   -13892   -69704  -136151  -108329 
   -4126    47324    12791   -21057   -15304   -16580   -53316   -75404 
  -41170    -5649   -14177   -12596    41744   101974   109012    69755 
   48315    77411   102250    73495    17830   -20985   -23313    -2299 
    8549     9968    24115    37993    35893    29995    25421    21516 
   21459    19464    21550    39379    41705    -2816   -54029   -62386 
  -38502   -23460   -47416   -92568  -104679   -75159   -47902   -40225 
  -29328    -2770    25149    36660    30593     6643   -49468  -117285 
 -131134   -70320    11666    60046    64183    35275   -13868   -58781 
  -90192  -119823  -118666   -61302   -13412   -36651   -77955   -53234 
   25764    59468    -2906   -74189   -58004    10480    48087    45207 
   45935    60593    49056     1093   -39302   -39673   -17784   -21882 
  -57291   -63574   -13192    41106    32961   -37102   -83976   -48917 
   12199    22346    -6384    -5142    41393    67945    39510    13157 
   27907    29725    -7817    -6523    53063    62442     4486    -2242 
   55513    70957    22805   -23808   -35598    -4972    52791    79451 
   50961     4329   -31202   -44825   -25431    19573    48544    23105 
  -22729   -23553     1140    -2833   -16783   -21968   -49659   -84175 
  -72287   -31814   -22889   -49783   -65465   -56484   -60822   -78765 
  -71651   -44655   -25853   -21163   -23448   -26443   -35201   -51765 
