Origin Time       2021/02/13 23:08:00
Lat.              37.7
Long.             141.8
Depth. (km)       60
Mag.              7.1
Station Code      MYGH13
Station Lat.      38.6993
Station Long.     141.4176
Station Height(m) 90
Record Time       2021/02/13 23:08:09
Sampling Freq(Hz) 100Hz
Duration Time(s)  244
Dir.              4
Scale Factor      7845(gal)/8223790
Max. Acc. (gal)   554.534
Last Correction   2021/02/13 23:08:09
Memo.             
[...]
  -15398   -24771    -4089     9764    11283    22318    21898     6362 
   -2658    -8951   -13020   -14392   -15889    -1799     8143   -19512 
  -49011   -42681   -14925    20709    50155    52695    31533      247 
  -26211   -26277    -5728    11269    19930    10990   -15175   -33039 
  -47000   -55086   -24167    20679    34329    22524   -13065   -55009 
  -54909   -19467     7214    10035    -6234   -25575   -12425    39908 
   57501     3157   -31205     4918    30003    -9715   -52134   -33704 
    -446   -11257   -28229   -13149    -5560   -31186   -37423    -3874 
   14470    19654    49654    64702    21097   -32069   -36972   -18064 
   -1595    21440    40446    29462   -32015   -88933   -65164   -23692 
  -26770   -13082    34161    63898    68268    53534    23992    14659 
   18431   -11900   -52137   -50733   -26258   -22500   -28185    -4380 
   30113    19207   -25258   -31711      -41     2808   -18735   -24444 
  -27344   -15718    27990    42299     8432    -9867   -10999   -25542 
  -24629    -9008   -25132   -46935   -24221    10131    22108    44243 
   75992    59108     9603     4403    29172    19217   -13976   -23816 
   -9082    -2727   -12027    -9790       16    -8860   -32890   -54492 
  -58267   -50097   -50427   -58164   -63259   -47848    -9325     5971 
    3665    43270    78194    45462     8441    25678    65516    70853 
   42576    33014    29884     1586   -15921   -11461   -17882   -41243 
  -60574   -63254   -70416   -99516  -103011   -36297    27841     8097 
  -32174    -9790    40765    61250    64247    80501    96385    70236 
   -3919   -58846   -50359   -23869    -6455    18447    38014    25963 
  -26936   -86980   -91605   -54230   -29663    -7634     9224    -3348 
   -6894     9256    11874    31947    70349    42782   -35406   -63815 
  -45164   -25505     6187    44579    47441     6610   -45064   -75277 
  -63262   -21664    15408    36740    26254    -3990    10627    57246 
   65499    48809    42701    21891   -17988   -28293    -9721   -19537 
  -59024   -79311   -68122   -48016   -37022   -27537     8216    61160 
   76843    37623   -12032   -32344   -25806    -4953    20754    22636 
  -12708   -43532   -28366     7982    12656   -14808   -26761     8607 
   56504    50290     2115   -26036   -28606   -28256   -33421   -30836 
    -319    33151    34638     7396   -34132   -66237   -65369   -37041 
   -7423     3890    16525    46695    47208     7020    -2061    20102 
    4426   -19953    -6862    -7754   -25096   -13011     4417    20845 
   46464    47001    34047    27193   -16083   -80352   -92580   -55698 
  -16594    -1235   -24047   -54711   -37696    21312    68600    74353 
   45017    11053    -7562   -28593   -42133   -14692    22009    28989 
   13878   -23615   -58487   -40352     9526    28796    12758    -2316 
  -13097   -25168    -9119    19372    11323    -1163     6585   -12136 
  -41123   -36653   -27739   -23753    -6023     2459     4961    32697 
   55802    42477    18071     4221    -6484   -38932   -78634   -68980 
  -26712      103    14307    11126    -2139     -765      881   -14293 
  -32651   -17509    34485    64768    57688    45833    31264    15327 
   -1356   -20675   -23753   -16687   -16221   -26373   -50673   -54089 
  -17263     5672   -22391   -66955   -67848    -8721    54608    66098 
   55383    65025    42696   -32726   -79204   -69620   -34842    -3003 
  -13389   -34393   -12259    20876    30504    20120    14516    28532 
   32405    17448   -12912   -37760   -12955    15060     5779   -14629 
  -54608   -73148   -37667   -28433   -54330   -38438     1328     1416 
   -1539    39841    72207    69900    75257    91093    95397    84369 
   53071      819   -38206   -48930   -69885   -96934  -102389   -98633 
  -80430   -55105   -56474   -62559   -30852    26092    56651    38981 
   15142    31488    68608    64505    13506   -15130     2978    19372 
   25891    43623    43636     7013   -36471   -63032   -63132   -44585 
  -40000   -54529   -55688   -34117   -13215    -2641     9509    22573 
   38943    69886    82244    56106    34153    22666     3971    -4612 
  -15336   -49204   -74754   -61364   -33790   -33438   -34588      811 
   31047    23668    11859    19340    11024   -27683   -22285    17061 
  -10322   -48497   -18913    -6914   -50707   -65583   -23780    -2845 
  -34933   -27994    35707    48905    26595    58645    98292    83596 
   55952    35407    -2007   -30257   -26300   -29170   -54803   -68843 
  -48729   -22370   -43794   -84832   -81565   -76573   -76281    -4108 
   71622    51795    25116    65348    90980    69187    77622   110331 
   90972    38373    -3820   -32116   -34295   -25393   -32540   -64500 
 -110405  -115811   -81702   -75899   -86058   -68747   -44564   -18418 
   24898    38457     4761     7709    61191    85063    68353    49311 
   44918    33848    -2227     2388    57446    63184    35186    48779 
   52014     5167   -25409   -16499   -12322   -20818   -46654   -97615 
 -119145  -109516  -123094  -118060   -72920   -44003   -22393    -2164 
  -18021   -16792    53119   115531   120224   124190   142034   135097 
   96666    32298   -14967    11259    50203    16552   -36796   -58251 
  -84329  -105344  -101796  -105112  -116243  -109397   -71203   -27419 
  -27787   -50826   -43051   -26890   -27461    -1121    55044    82518 
   87323   104055   112108    98660    71061    34427    12082     5756 
   -1094     6478    27256    30956    11959   -29893   -84470  -102114 
  -70754   -52860   -73750   -77897   -61319   -71986   -72315   -46392 
  -51858   -44331    22003    78996   114164   152910   152670   115762 
   92299    59030   -12937   -72524   -70977   -30553    -1876    -6119 
  -33486   -61846   -73803   -80423   -82321   -33808    58029    93124 
   40350    -5983    -7321   -22655   -54216   -63598   -54310   -37991 
  -40857   -63576   -46168     8469    43618    60095    65628    49904 
   40315    59336    63437    11418   -55046   -83690   -86934   -86925 
  -60542    13986    69611    38707   -13732   -30067   -41087   -44587 
  -25887    -6467     6683    42422   107659   131512    80523    29970 
   15981   -14269   -81562  -118399   -68760    11805    41808    18450 
  -16405   -31687   -32703   -23766     4731    24495    24777    23172 
    9466     1829     8329   -10648   -29682   -15876   -14531   -21656 
    9174    39796    30839    12010   -10849   -51591   -99049  -130964 
  -98869      973    79170    91570    77136    51621     5188   -47837 
  -67001   -32854     4047     3531     4909    25925    32559    17629 
     734      -24    10025    10291    13390    21517     7672     2551 
   34865    59499    65952    67072    20702   -75207  -140725  -129473 
  -95980   -92939   -83760   -41474    -5594   -13840   -48055   -49411 
  -24061   -25116   -23973    23240    77835    95783   108145   153873 
  181037   141054    81922    36598    -5009   -30213   -38821   -47167 
  -63517   -91289   -98606   -66966   -47615   -69375   -98587  -111163 
 -118635  -129325  -102076   -17635    50753    69415    91179   110200 
   83727    59181    82194    93997    66328    40522      538   -63116 
  -85648   -47807    11975    49499    29319    -9482   -27059   -67312 
 -122508  -118278   -40652    63202   118401    94710    59193    45470 
   15136   -29084   -64939   -93669  -108014   -99912   -68933   -32859 
  -21617   -18045      357     -734   -18135      199    42471    71149 
  100263   130572   123269    77066    29706     2728     3835    23716 
   17235   -42680  -123822  -188298  -215449  -179909   -85286    11132 
   63734    93364   110112    65304   -11367   -21903    -1968   -17917 
  -13749    11165     4415     3719    16317     7388    -2949   -18929 
  -35189     9576    67888    52442    33978    64215    70132    51457 
   55642    51892    17687   -20020   -39286   -27819   -12698   -37050 
  -74143   -87532   -93229  -101449  -107319  -115985  -126146  -113144 
  -62569    -5421    21135    24432    49010   104530   129454   102802 
   96385   123005   119919   106026   127060   141928   110735    48782 
  -34541  -123691  -161692  -140795  -125679  -129205  -124846  -126854 
 -142500  -144780  -110326   -57771   -33002   -12760    48139    94771 
   87440    76673    85077   103050   125590   137501   144328   147125 
  108407    13545   -79782   -98814   -75874   -80296   -70248   -31934 
  -45621   -86483   -75239   -49765   -60841   -77299   -71775   -55755 
  -29354    17464    70738   108279   124611   115499    66125   -12537 
  -73446   -87849   -58874   -23071   -35004   -67207   -58473   -38437 
  -33327   -18500     -540     -345   -17653   -14079    36367    78768 
   87376    98848   101655    68737    17042   -12241     6203    46537 
   62214    29411   -32271   -94068  -162368  -207493  -165091   -65491 
   -9999   -19129   -25851   -10841    -6648    -1081    26391    59881 
   80875    86204    94736   111298   112236   100604    84430    35797 
  -43767  -109368  -143937  -156447  -145631  -110556   -75384   -68234 
  -68343   -41389    -4456    21073    49728    81490    95442   107431 
  150384   181234   142492    89334    55775   -16177   -94358   -98605 
  -58457   -36602   -30882   -26461   -38578   -66378  -103500  -138653 
 -130167   -96246   -67702     3618    94848   126808   123354   128267 
  123101    85980    25620   -23440   -34577   -29370   -45443   -86354 
 -123746  -115866   -77022   -71964   -84314   -53901    11118    80659 
  131911   139383   114669    86320    44761    -6235   -24772   -35831 
  -62087   -16420    70632    41775   -64517  -116206  -128291  -141795 
 -136066  -101521   -70654   -63693   -38036    25961    76862    91377 
  102404   128560   139708   109865    70679    52110    38221    30411 
   44911    43355    -1944   -43767   -69321  -117202  -171548  -200354 
 -201969  -160820   -83820   -16499    29311    67643    79037    47872 
   15703    21338    70721   151995   197206   169670   146164   158850 
  139537    78170    23755   -24888   -83490  -137227  -169890  -179608 
 -197657  -234092  -217439  -135545   -95871  -122176  -117355   -52438 
   26176   101422   147640   137874   116325   122215   124357   105020 
  111184   160405   196777   195439   172739   124278    49747   -32398 
  -99535  -142935  -172999  -191855  -197016  -178383  -121886   -75146 
  -90034  -115176  -100337   -64206   -17631    12679     6970    19537 
   67705    94387    82410    63647    59521    58892    44139    23928 
   12665    21020    48201    65905    74532    99827   104149    51999 
   -4419   -30763   -48209   -65221   -89984  -113101   -98528   -64242 
  -66172   -93872   -79354   -16040    25416    13181   -25397   -58514 
  -56147   -27675   -20267   -28644    -7090    35849    57105    48011 
   22431    14472    62274   135554   174753   171902   144100   102879 
   60596    23650   -19819   -67450   -81989   -75728  -106158  -148009 
 -148363  -139666  -161852  -201140  -221819  -188746  -113404   -45036 
    7885    61879    99495   100330    78057    63286    77379   106920 
  134649   179593   232741   253808   253530   241380   186285    98612 
   14933   -59811  -119075  -149750  -172172  -201960  -211208  -214042 
 -262737  -311493  -293175  -252801  -218506  -140786   -33825    41283 
   95274   151452   181867   190092   204988   209308   199196   198661 
  193105   167238   133867    90792    43659    21350    20202     7354 
  -27704   -62208   -69272   -54756   -45445   -73021  -150826  -216719 
 -215970  -193961  -192646  -200465  -202105  -186510  -158494  -127461 
  -95002   -71300   -44938    20980   126883   238459   328029   367873 
  345389   284227   217794   176148   160952   143681   121296    85473 
    6025   -95409  -183654  -259784  -312934  -336131  -359075  -391090 
 -369760  -240169   -78151    -1323     7161    12621     4546     4779 
   65989   146441   205510   262878   295195   271536   213829   151133 
   92361    46974    46219    85395   113463   125005   120244    64126 
  -17628   -86643  -178414  -290858  -350698  -326995  -245428  -155614 
 -115630  -116272   -92696   -67338  -103746  -148725  -126397   -45920 
   64679   170769   245155   301205   329890   296416   220793   169684 
  161740   144927    98656    50561    -1086   -50581   -81780  -122133 
 -184292  -261272  -339988  -363218  -317308  -247877  -164914   -95601 
  -85147   -85401   -30346    46921   104159   153802   200286   239286 
  262511   251972   229747   236892   270025   289835   270619   215865 
  119303   -12826  -118296  -167023  -221070  -329466  -437497  -464235 
 -428391  -382353  -312947  -247243  -233390  -212830  -150171   -81110 
   16695   155337   277695   361287   429767   481304   495321   478176 
  449100   411547   358061   277680   178538    86239   -15157  -168975 
 -354285  -492016  -535689  -509414  -469183  -434934  -377840  -297315 
 -259587  -286394  -281801  -195307  -102816   -24133    82505   186166 
  264172   336603   389889   411415   401268   348957   274117   226864 
  232791   274737   312669   312176   279452   247185   204315    92974 
  -98982  -296192  -427557  -493167  -507818  -493569  -497299  -507207 
 -466658  -382812  -294378  -211372  -143171   -91864   -32616    44678 
  110500   132888   128383   157423   251106   375979   479565   525580 
  502572   437212   377738   344545   309889   245910   171120   106434 
   30620   -67952  -159089  -233081  -317745  -407695  -476809  -538477 
 -585063  -563225  -477473  -387580  -303056  -199798   -90811    12852 
  120972   214394   283505   345239   384828   398216   413765   424854 
  411242   374743   315562   245135   185537   129153    48798   -65990 
 -213934  -384801  -525426  -562712  -497130  -400724  -319632  -255372 
 -201411  -143253   -74865   -21119     -452    10183    39798    83675 
  126698   175861   240401   299801   324803   316419   299828   291679 
  285661   267819   227227   155364    49693   -87235  -221347  -295867 
 -320753  -347754  -367848  -363455  -355862  -329972  -248782  -141901 
  -72482   -28929    51683   160180   236189   260189   233288   173105 
  124225    84080    23568    -9220    33284    87663   100464    98941 
   70340     -697   -38763    -4753    43668    73529    88412    64297 
   11048   -13479    -8699   -12885   -32587   -69186  -115746  -137211 
 -140809  -185228  -251714  -265572  -242877  -219901  -165042   -85429 
  -29970    12498    69628   117374   131712   131766   151784   197702 
  225732   209552   184021   160771   129123   108793    92701    55306 
    3414   -52413   -94609  -109628  -124429  -145858  -147213  -139540 
 -131172   -89479   -10957    60339    77873    47140     9020   -46857 
 -108737   -96762   -39144   -29380   -39318   -15530    34060    96483 
  128684    95176    48898    35816    24817     -606   -20864   -27527 
  -16906    -6062   -18123   -24136     2830    25790    13169    -8426 
  -18131   -44972   -96592  -121691   -96317   -56482    -9564    70731 
  147935   170170   167248   163179   129941    78794    40278     -772 
  -68081  -127591  -105063   -34582   -57171  -177391  -257860  -268459 
 -290376  -328079  -316283  -233270   -95793    47725   139488   207752 
  300315   368410   361797   306265   251519   229464   216623   164328 
   84215    17659   -40281  -118444  -214315  -289083  -293809  -211260 
 -102487   -56516   -70098   -80481   -77711   -67390   -33467     5185 
   31171    72559   127209   156045   148014   102236    27920   -30863 
  -65090  -104900  -133354  -129747  -107527   -60648    -2697    28251 
   36842    32300     2241   -47223   -76871   -35943    55127   116878 
  149049   196014   229721   211654   160014   101312    44365    -1425 
  -37701   -86657  -151092  -203673  -225389  -209706  -171729  -156865 
 -169670  -160834  -118858   -82061   -66062   -46066   -11364    16264 
   27936    40648    77407   142504   198024   215827   214407   205526 
  199995   209245   197942   154191   116687    73651     3667   -47463 
  -53397   -39483   -23561   -18910   -32506   -54958   -93046  -165456 
 -265234  -351687  -375278  -319746  -227365  -183340  -211198  -211423 
 -145156   -96786   -66941    -8144    53867   120899   210385   283358 
  317673   337043   353296   356032   348729   336806   302570   241535 
  172714   106234    51417     4121   -80288  -215465  -342523  -418219 
 -441147  -402552  -321588  -257310  -220946  -188646  -172833  -154611 
  -89490   -23782     1094    36067    90942   132286   179760   235140 
  245365   212602   195628   196978   181076   157680   145874   123381 
   74047    24767     4259     2918    -3699    -8494     6772    24236 
   10389   -43821  -114878  -168237  -197460  -218771  -237028  -253755 
 -266260  -255537  -230845  -219520  -204997  -172593  -124182   -33536 
   77897   143671   180057   242848   328426   415497   488142   502285 
  429058   320018   250816   212384   147194    59425   -31742  -160091 
 -318100  -434269  -490749  -517698  -510686  -453851  -349941  -221626 
 -124008   -72462   -13200    42105    31822    -1701    13432    63504 
  120141   191404   279202   343909   342944   286758   208079   125566 
   68211    61146    81691    95729   105764   112529    94656    46448 
  -28594  -134663  -247768  -317610  -321559  -276141  -223095  -199129 
 -190143  -170841  -161846  -174345  -161766   -86055    14408    79961 
  118152   159796   186382   183535   185630   213416   232834   205525 
  142040    77067    21837   -31579   -82537  -113146  -101360   -49577 
   -3553    -6016   -13699    38770    96441    74827     5174   -49157 
  -63614   -26087    28706    45492    30842    -5841   -84051  -167486 
 -208256  -221298  -230509  -220549  -153675   -35402    53416    45758 
    -105    17956    59327    37989     4106    17539    55108   101760 
  145480   164380   171289   192090   228843   251398   228677   175204 
  119700    70830    26383   -36522  -118914  -176173  -209019  -248632 
 -256421  -205669  -166725  -186935  -233041  -269356  -252059  -161770 
  -76773   -45724   -11234    59907   142665   214060   253328   231020 
  141022    40328     2173    39653   121589   202154   235278   231242 
  226401   184272    71656   -50728  -140738  -212410  -246387  -216681 
 -145284   -85553   -83326  -122354  -154903  -172189  -174054  -152433 
 -109684   -47679    14104    44729    39704    18219     2845     9327 
   44919    87119    97224    94485   133438   212221   285469   312749 
  273685   199276   139928    89492    25095   -38092   -91069  -132457 
 -149544  -170671  -227754  -279892  -291543  -276066  -243596  -210172 
 -167670   -90394   -14881    55269   162395   246638   259116   239387 
  174897    84712    60401    68959    26963   -26820   -66012  -129930 
 -184751  -189765  -180823  -159038  -105906   -57936   -26565    17342 
   70575   114906   162706   220110   251627   234478   179525    99122 
   21339   -25278   -45601   -51565   -66924  -128686  -192796  -160088 
  -54151     5598   -21581   -90459  -148274  -171629  -175020  -165326 
 -107794     6291   114201   165666   172050   147868    90911    14635 
  -44910   -55046   -29274    -4689    32481    99345   144251   137577 
  115060    87043    43691    -3539   -48358   -62591    -1807    92549 
  119448    57724   -44462  -145547  -195336  -197214  -225350  -263086 
