Origin Time       2021/02/13 23:08:00
Lat.              37.7
Long.             141.8
Depth. (km)       60
Mag.              7.1
Station Code      MYGH09
Station Lat.      38.0091
Station Long.     140.6027
Station Height(m) 130
Record Time       2021/02/13 23:08:08
Sampling Freq(Hz) 100Hz
Duration Time(s)  300
Dir.              4
Scale Factor      7845(gal)/8223790
Max. Acc. (gal)   260.514
Last Correction   2021/02/13 23:08:08
Memo.             
[...]
   21907    23789    12580     -275      440     8638    23647    43599 
   44301    25242     4093   -12818   -12285      920     5059    10104 
   21728    19418    11265    14034    11569    -5297   -20240   -20645 
  -10849    -3376     3059    19240    34453    30588    18843    18690 
   24619    27190    26430    14296    -8276   -17733    -3303    18736 
   32547    36676    31382    16708     5332    10804    26360    34828 
   29131    12843    -4564   -13344   -12930    -3180    14667    27156 
   30514    28192    14620     3080     6346     1518   -17523   -28545 
  -30067   -24332    -9567     1748     9911    21578    26966    22685 
   20709    28858    31477    10852   -14908   -20574    -9167     7126 
   23841    35656    28476     3192   -10736     1719    22559    34194 
   31588    20802    15198    10879     5143    15480    29330    24273 
   22929    36697    43094    34815    13267   -12463   -17918    -6875 
    1031    13095    26246    20340     2839    -7932   -10100    -4854 
   11157    32510    39607    25604     9104     1104    -7253   -14061 
   -3730    16386    19934     6629      380     8789    14449     4261 
   -5753     1256     8560     2324    -3130     -641     -419   -10519 
  -26090   -33282   -25564    -8677     7129    18833    29928    31364 
   21539    21118    23938    12442     -224   -11992   -20364    -5354 
   13325    18256    30268    36047    23168    23730    30985    14249 
   -6399    -7916    -1351     5815    17377    26206    18808     2208 
   -7092    -7473     5356    36787    66016    59243    14391   -27178 
  -30489      688    43876    65600    41982    -6050   -40255   -39953 
   -6135    25822    26636    14191      -28   -21537   -29180   -12683 
     864     5111    20760    33756    19364     4333    10588    14789 
   14958    22589    15900    -7358   -16071    -8237     2494    14808 
   18000    11670     5246    -5359    -1237    33277    58876    50144 
   33820    25604    20167    23170    32621    29419     6367   -23769 
  -37338   -18744    16864    35961    24171     6666     6976    13409 
   22025    26142      622   -30184   -30734   -19951   -11078     1070 
   12955    27984    41477    47849    52759    35320   -10858   -39946 
  -34612   -16582     5778    21273    19187    10346     6690    12047 
   25191    35166    30451    12987    -7095   -17255    -4348    23249 
   35673    20370     -168     7238    39222    55780    47833    38678 
   27529    14642    12208     4815   -14191   -27905   -33952   -30273 
   -7519    35586    76705    74221    34928     9659     6968    12590 
   25844    23828    -3869   -23184   -28929   -36867   -17425    34213 
   61925    46098    16186   -12063   -34098   -37139   -19040     6100 
   27714    32671    15178     -814    -3846    -7982    -6971    12190 
   35696    41767    27764     8198    -5710   -12630   -10137     2199 
   16849    28617    27290     3028   -17629   -11483    -6328   -11759 
   -3461    11002    17525    18081     5980   -13533   -28841   -41723 
  -47644   -39559   -21107    -1540    16094    38542    57555    52058 
   25259    -2860   -20925   -23103   -17500   -13663    -5306    -4320 
  -16457   -19651   -17554   -13614     2802    20240    40693    66197 
   71361    46438    -1327   -43471   -37095     4710    37729    56767 
   60041    35406     3947     -259    30470    69495    79733    65615 
   42831     4035   -21940    -9965     3649     4488    10065    11460 
    4529      -27    -3433    -1638     6254      814   -18385   -22094 
   -3095    10135    12313    26215    39546    35595    32983    25998 
    4683     4438    25797    27157    14250     5250    -9124   -19129 
  -10706     9690    33380    37287     4249   -36259   -54171   -49067 
  -13058    40500    61704    49142    35791    14713   -10620   -11464 
    9925    36761    57038    64245    61966    41103     4039   -14455 
   -5464     8792    22171    40888    55062    42153    12474    -1636 
   -7871   -13977     9794    51455    62586    46903    27631    -1173 
  -30244   -28561     8626    48984    62691    53276    36246    19982 
    9563     3447    -4302   -14446   -12463     6659     9367   -19950 
  -40378   -31324   -20478    -1073    45130    65248    29072   -10574 
  -29130   -42935   -49477   -47205   -40971   -30670   -12043    17338 
   30275     9656   -10775   -13585    -4325    26010    51290    36393 
   12212     9713    16552    33536    55753    50747    11853   -37976 
  -72102   -68619   -37847   -12179      -25     4336    -4491   -22794 
  -29366    -7003    40601    84057    93483    70470    35644     5568 
   -7641    -4932     -562     4222    13961    14594     2493    -2848 
    2112    15585    52849    97837   100884    59205    16506   -10449 
  -28094   -32605   -21065    -2315     2812    -7176    -4851     4148 
   -6485   -20800   -22499   -25739   -22034     4388    26858    17869 
  -15179   -54364   -79978   -72154   -28969    22827    49613    46680 
   25340    -9169   -40775   -47482   -20713    21142    40321    35965 
   34924    29951     9267    -2646    19903    61616    84589    80720 
   61653    27587    -2594     5476    40940    65562    78169    84874 
   70598    48639    39541    38323    51347    59969    32741     7121 
    7279     3937     5852    22855    25967    14551     9926     3721 
  -14679   -27460   -28275   -25589   -13558    -4985   -14504   -18237 
  -10215    -5960     4221    18115    16571     7928     1962    -6615 
  -11264    -8613    -3154     3095     6029    12127    23527    28243 
   20397      907   -11101     5217    34997    54943    57327    41042 
   16231    -2987    -7863     1036    14785    33860    48768    35739 
    9378      174    -1155   -15130   -36023   -42479   -32833   -25205 
  -17667    -7446   -13090   -23924   -12367     6944    10381     9825 
   18212    18391     7643     9949    10115   -12777   -27874   -26879 
  -27255   -13603    13031    30011    36661    32414    19881    16255 
   26233    43941    66154    78729    66271    47101    46955    50373 
   35604    15176     2898    -5510    -7789    -2585    -4527   -11940 
   -7815    -2223    -5655    -1189     9580     7411    -2304    -6709 
  -13763   -29755   -41342   -49063   -64594   -73510   -67644   -63256 
  -63435   -59931   -43332   -11703    12820    21057    28175    28242 
    8684   -14679   -20725    -8052    13782    30078    25294     6112 
   -4306      446     8982    15396    25740    34406    24668    10740 
   22269    51534    74163    85278    92446    97160    83365    50461 
   25193    14767    13738    26952    46835    57928    54893    34584 
    1539   -15206     6790    42893    58032    48332    21103   -17045 
  -48263   -47960    -9990    34840    51614    46141    29093    -7873 
  -35158   -23615    -7892      124    19973    19442   -14546   -36875 
  -35001   -23302    -3792    18982    45570    74950    93075    85822 
   49804     8056   -11869   -13034    -3805    17535    38225    40848 
   30919    19309    -1174   -21801   -13818     7210     6790    -1875 
   -8694   -25677   -35086   -21705      538    19630    31063    40124 
   47673    35403     4676   -14964   -14706   -12343   -12829    -9850 
  -13563   -26420   -23711     2417    32471    54518    59397    37467 
    4680   -21228   -39876   -33912    -2162    20814    35946    54382 
   48354    23322    21460    40940    55381    58194    51209    41581 
   29575     8149   -12163   -20023   -14180     6945    24814    15943 
   -6027   -21902   -37378   -43837   -30612   -24061   -30653   -23680 
  -12568   -18650   -28796   -29065   -19570    -1891    11824    13667 
   15095    12035    -6916   -23028   -19726    -5643     4691     3697 
    1782    11484    21672    12969    -5583    -3711    16980    34464 
   51011    59594    44370    23901    11298      683     7596    32819 
   40718    26541    23801    30183    18372     6876    23441    45285 
   43756    22932    -5158   -30288   -35742   -14320    12326    19136 
   16135    19534    13544    -7884   -23433   -28684   -26597    -8611 
   15125    25763    20120    -4259   -33795   -38322   -20617    -5221 
    2633     6031     2085    -4087    -3404    -9038   -20803    -4831 
   27560    39054    42909    44459    26372     7136     6633    18169 
   33193    43133    39191    23831    12237    10563    11114    16850 
   31649    43737    47491    44853    28644     7206     3153     7685 
    6164    12680    24031    19090    10077     7952    -4417    -8212 
   18864    34750    21217    13265     7477    -7176     -217    26137 
   35750    36788    47742    53391    53393    53785    44504    38140 
   37484    20368     3582     8270    15880    24856    40387    38221 
   19618     3827   -15628   -22634     9845    49400    53570    37061 
   18936    -9103   -30655   -28300   -26387   -27978   -19541   -34366 
  -76441   -88689   -70198   -60133   -45773   -22893   -17552   -21439 
  -25705   -36651   -28336    11608    42888    45609    40209    31761 
   20299    16402    17474    24896    38412    33714    17745    25504 
   43673    49318    55336    56747    40770    24556    15739    10971 
   21872    39626    36031    16078     6508     8885     3562   -10597 
  -14015    -6548      426     6538     5242     2648     9637     3029 
  -20695   -31633   -30443   -24308    -4234    16121    27826    40162 
   34884     6315    -6831     8897    28345    35500    32728    21782 
   -2519   -26056   -27514   -20047   -17366    -6851    12930    30487 
   45323    57554    52070    18810   -17055   -23475    -7489     8278 
   15553    14558    10065      -43   -10983    -9790    -6249     2840 
   28088    36830    16254    -2905    -7341    -1698     3568     6709 
   18827    28611    25768    22565    20738    21315    27869    31207 
   27603    19927    14399    15479    11097      -44    -1088     9494 
   18936    16274     3619    -6489    -8314    -1436     8847    14266 
   15898    12499     1790    -3861      282     2299     4934    18108 
   25219     3944   -38021   -76898   -95203   -83569   -45196     -257 
   25085    22154     6982     5879    33419    69433    88290    94585 
   79440    26607   -24231   -30244   -12172     3789    22654    31843 
   12825   -12957   -20953   -12073    11245    38029    44243    28077 
    9146    -9699   -35039   -56612   -57349   -31120     6554    28638 
   24636     2404   -18361   -16222     7148    37802    65990    75706 
   57619    22140    -7955   -10644    11410    41705    74744    96079 
   87316    57728    25677     2918    -3801    -2513     8348    32532 
   39418    18667     4317     8708    25134    49497    58487    43490 
   38885    64797    92367    88576    54811    10615   -27217   -45863 
  -43831   -30303   -11128     4153     3505    -3925    -4785    -3356 
    3792    15322     1989   -33332   -51929   -54302   -53229   -35623 
  -11935   -12286   -29671   -35112   -32074   -26401     3956    39328 
   42707    35923    22249   -23395   -65061   -65227   -43591   -15349 
   24683    62494    70380    50997    25816   -11681   -49314   -40815 
   -3302    21771    47502    59784    29855    -6817   -20804   -29612 
  -39484   -30565    -5424     2593    -7763   -15314   -25659   -35415 
  -28884   -12590     7159    24470    20622    -8044   -49890   -88658 
  -97195   -77440   -72553   -84527   -72175   -40664   -11662    30858 
   82409   111375   115821   112984   102123    68848    24102    11109 
   43973    81841    95278    99252    98263    74937    41300    27376 
   36547    52192    51889    21170   -20281   -33997    -8274    32584 
   57352    51119    17100   -26406   -58828   -74896   -68779   -30275 
   16278    32576    22557     9614    -3996   -13586     5286    46515 
   67198    57453    33555    -2704   -31534   -18704    28802    77411 
  116016   140999   137894   109525    78445    60966    60548    72003 
   82404    72662    39478     6986    -8626    -9147     6609    26102 
   27599    22153    33509    58922    87085   104140    87894    36204 
  -20904   -51804   -55417   -42097    -9769    23392    25517     -284 
  -32246   -52681   -43028   -11655     8172    10192     7233    -4336 
  -21995   -29057   -24835   -20957   -19556   -20097   -26364   -33299 
  -36175   -37710   -33872   -29907   -34627   -34832   -31499   -44628 
  -54471   -26377    16287    35977    43762    46230    23423   -18951 
  -56014   -76833   -74283   -40718     4908    34564    53179    61038 
   35430   -11713   -42518   -44494   -30091   -24167   -41971   -67890 
  -82989   -84915   -74741   -59096   -42843   -19484     3187     8808 
    4899     2538    -2080    -6751    -3928     -233    -7630   -21384 
  -28206   -25839   -22847   -24327   -28836   -35667   -32244   -12726 
   -3365    -5202     5687     9120    -6903   -11765    -8095    -8861 
    -433    -3181   -37949   -71109   -83536   -88960   -81731   -49384 
    -599    39572    54133    57473    62164    62239    74291   109821 
  143796   171468   205042   224248   211619   184198   163156   159239 
  173932   191602   197257   193236   178148   144541    99466    60647 
   34740     7603   -26649   -50371   -60249   -71725   -85541   -93509 
  -99264  -109389  -116845  -113725  -107701   -98820   -69080   -19425 
   17446    18056    -3067   -20187   -25061   -13645    23602    82806 
  136362   155065   139338   115878   107248   121382   157165   206734 
  255607   282735   277653   245619   195367   148559   122152   104271 
   87062    78250    68477    37261   -15090   -78484  -141195  -176015 
 -174868  -157173  -128011   -96554   -82493   -72733   -52211   -47592 
  -77074  -114498  -135857  -146119  -150153  -146564  -136954  -107558 
  -55695   -23799   -30649   -33667    -6355    32655    68582    95538 
   96639    70092    36360     3040   -28684   -41661   -26350    -3627 
    -271   -12899   -19723   -16717   -19264   -34101   -44867   -41345 
  -33458   -15925    20709    49404    39102    -1155   -44473   -78659 
  -96786   -81851   -34349     5386    13774    16124    14465   -15556 
  -48097   -47660   -30766   -15012     -498    -2875   -27414   -46407 
  -34377     2990    39841    56385    48743    25367     2196    -7997 
   -2887    14812    35257    31244    -9616   -55409   -80921   -89704 
  -76437   -46737   -31191   -40007   -54581   -57265   -45361   -23334 
    3824    23951    33698    46981    66371    90745   124837   154278 
  168423   171644   151957   106967    64914    45875    41133    31097 
   17767    23734    48389    64099    58730    42894    22414    -1077 
  -12954    -5791      812    -6736    -7716    23436    69354    86394 
   69236    41142     9420   -19890   -26789      976    44300    80277 
  113433   136410   125251    83305    35804    13764    30789    55389 
   61519    72391    99053   109814    91795    68311    58336    64966 
   82628    92994    67456     5409   -54106   -90981  -106023   -85941 
  -39522     6050    47564    77930    74583    39094      905   -22831 
  -45998   -75631   -90814   -77167   -46430   -23650   -28744   -57500 
  -85117  -103071  -123229  -134289  -123078  -121194  -141704  -141480 
 -110793   -93950  -103526  -109782  -103372   -97667   -87671   -63448 
  -36346   -17764    -7858    -4741    -4236    -4758    -7361    -5768 
   11962    46579    79891    96830    99091    87566    56799    14581 
  -11728    -6316    19764    58511   101524   122813   114667    96156 
   81938    81132    89463    79778    42765     2718   -28784   -54888 
  -65082   -59282   -46417   -18393    15768    21871    -5593   -40776 
  -67150   -76520   -60956   -30674    -6010     8021    13394     4079 
  -16872   -27843   -16468     9971    45990    79100    81824    49974 
    8187   -19248   -15377    11053    30480    38654    48320    60118 
   72640    78719    68851    51185    29781    -1799   -25852   -21203 
     174    19213    27614    23284    13972     3632    -2864     8326 
   35241    68547   103863   128968   142450   149588   142470   123695 
   97835    66017    56347    77288    89530    77899    60066    39577 
   26303    45733    87964   116741   123039   111322    86711    71780 
   72644    66669    47736    30834    19209     1274   -16208   -13084 
    1795    14017    30861    39714    13311   -38190   -83361  -104549 
  -91010   -47825      144    41430    75733    85949    54472    -5402 
  -62170  -101757  -120684  -103897   -47580    14909    41986    32275 
    7376   -23214   -46157   -55062   -60562   -65526   -76528   -98405 
 -117342  -128151  -128382  -100766   -49180    -6177    12954    15979 
     311   -35688   -72396   -98201  -112708  -104383   -70086   -27930 
   -1652    -1601   -19697   -47650   -72134   -75516   -67930   -63140 
  -50157   -32671   -25864   -23149   -18233   -10542     3778    11078 
   -3006   -26215   -47995   -74443   -99436  -103318   -82688   -56315 
  -40791   -29768   -13050    -3168    -8131   -14077   -14728    -7109 
   15639    44622    75008   112835   144458   156699   161306   162642 
  150113   127477   109398    98774    86051    68423    56677    56246 
   62397    72940    88550   107526   122926   126567   112585    82665 
   55285    44788    46845    59555    81203    98609    97827    75412 
   44813    19711      741    -2998    17081    47541    71220    76339 
   58363    21236   -27341   -65790   -75103   -60158   -34091    -8100 
   14183    30924    26941     -936   -26677   -30107   -11815    21100 
   45100    33917    -1817   -35029   -55682   -58943   -40834   -10218 
   15758    26623    21879     7731    -6764   -15302    -4352    36452 
   77955    83161    56544    16302   -21259   -32240   -13562    16544 
   48317    70017    62856    30194    -4873   -24597   -18058     9177 
   31710    41018    45929    38750    16750     1314      758     -764 
  -10431   -15784   -10501    -6133    -7099    -5067     2752    14801 
   22592    16850     9899     9344     1638    -6991    -4602    -8887 
  -22347   -16625     7083    14249    -5935   -31310   -47587   -61824 
  -69334   -55856   -37477   -35170   -43962   -65195   -97684  -118215 
 -120811  -110116   -73426   -26531   -14600   -34992   -46993   -45665 
  -53077   -67009   -67617   -52069   -35274   -29351   -32640   -33438 
  -20202     4746    26208    40794    53295    63055    77433    98180 
  112041   117057   121374   130983   152544   183348   212982   240898 
  262884   258477   219894   163723   107588    64983    44810    42407 
   48780    51348    36053    12471    -3082   -16171   -26744   -19867 
    4733    27783    31653    21737     9378   -15558   -49709   -60095 
  -42503   -27785   -25741   -22235   -15867   -24038   -57753  -103331 
 -136622  -139074  -106010   -65129   -48432   -40701   -19080    -4692 
   -9868    -5532    19114    30985     1350   -46417   -70569   -72875 
  -58284   -15988    26414    46812    61757    63358    33520    -4028 
   -9660    24044    64994    90409   110991   125388   115169    83012 
   40734      216    -8951    21817    52859    48578    13606   -23797 
  -40297   -23323    28668    82007    90301    57437    21419    -5821 
  -31228   -44135   -27091     7236    22032     5250   -26538   -60860 
  -87754   -98595   -91380   -61419   -11713    39162    71841    76999 
