Origin Time       2021/02/13 23:08:00
Lat.              37.7
Long.             141.8
Depth. (km)       60
Mag.              7.1
Station Code      MYGH07
Station Lat.      38.1802
Station Long.     140.6405
Station Height(m) 186
Record Time       2021/02/13 23:08:08
Sampling Freq(Hz) 100Hz
Duration Time(s)  300
Dir.              4
Scale Factor      7845(gal)/8223790
Max. Acc. (gal)   713.701
Last Correction   2021/02/13 23:08:08
Memo.             
[...]
    1877    -5900     3807    15809     8766   -14681   -33812   -33394 
  -15273    14319    44936    47869    14959   -18451   -28984   -25787 
  -12872    11199    24279     4205   -26055   -32567   -23472   -15808 
    3858    39752    49715    11871   -15356     5193    20490    -1208 
  -22175   -15778    -1179     4523    27179    63633    47424   -19835 
  -66263   -80126   -78610   -51024     4380    64068    80121    37768 
   -4684   -20613   -39834   -59076   -62640   -47043    -4264    37347 
   37951    16595    13016    25338    29519    18324     6282     9073 
   14357     6187     8406    30284    26349   -14256   -35542   -22619 
  -22164   -35488   -26458    -8457    -8920   -19901   -23630    -4762 
   25594    26524    -5687   -29223   -22424   -12810   -27541   -41100 
  -23579    10120    29573    25971    23919    34464    28628     7580 
    7053     7375   -39978  -104256  -111407   -58908    -1973    39407 
   89505   142535   130450    31067   -57169   -80454   -98718  -108006 
  -61600    -1890    30269    53599    72667    68661    34096   -18638 
  -74171  -104140   -78048   -33224   -12075    13001    43690    62380 
   88315    86190    15129   -59671   -95162  -107717   -71672   -10486 
    2799     5868    65821   125032    92928   -11200   -95629  -113672 
  -91972   -67432   -37787     4301    42014    66295    77404    71597 
   45652     -957   -44158   -52532   -25633     9624    18210     9753 
   24490    44950    32733    -3029   -38728   -56505   -49756   -29651 
   -2253    14944    -2523   -32119   -45584   -57161   -59271   -19325 
   37416    48838    12545   -19624   -32117   -37390   -13220    39966 
   59385    22636    -7272     4414     6023   -28159   -44944   -15600 
   17732     8560   -29413   -37177     -727    37042    58344    66337 
   41631   -10346   -42726   -52065   -69363   -68364   -27653    11805 
   39559    63914    60673    48190    69431    93290    59574   -23345 
  -95405  -116567   -86366   -29697    17961    30877    18717    22690 
   41793    35344    22600    20702    -8488   -30059     7460    42750 
   28551    -1503   -37107   -78873   -86539   -47019     -662    34203 
   74781   115430   116993    61025   -17909   -72918   -90436   -84171 
  -59584    -9988    36001    29774   -11622   -22997     -210     6241 
    -226    13656    24524    10103     -837     1374   -17393   -59722 
  -72171   -31106    20785    40616    23789    -8602   -31271   -37154 
  -39415   -45731   -37361     1942    46037    52008    11269   -44863 
  -73299   -62338   -39528    -3734    65755   115582    94109    48473 
    7026   -45391   -60091   -13284    24038    21689     8930    -6378 
  -15444   -10783    -7686   -11974   -13713     2628    22854     5845 
  -24615   -22752   -12912    -1601    31679    43509     4321   -44334 
  -76280   -91993   -70530   -14183    25883    46367    73669    72715 
   49366    52304    32792   -48490  -108741   -85494   -25317     9725 
   16460     9470   -24304   -69142   -58681     5728    37989    27965 
   28744    18696    -9508    -8014    -4429   -36687   -61686   -29936 
   60273   141615   125969    14986  -101966  -155029  -144672   -96160 
  -41872    -4750    37863    92943   129618   121315    43676   -75215 
 -144066  -115346   -40764    14526    60322   104475   106721    71670 
   45002    30289    -1107   -47270   -82275   -85561   -53076   -14972 
   23233    79155   105497    76682    34356   -14484   -51829   -43698 
  -21375     3348    46826    70976    58162    22243   -55771  -137988 
 -127886   -34516    45104    75165    86514    98840   101780    92537 
   77629    24362   -93687  -219211  -265669  -196396   -62480    42934 
   86547    82183    71223    87542    82051    29037   -24432   -72557 
 -111971   -97837   -30306    35392    59910    50836    47926    85779 
  112700    53497   -20237   -36940   -62785   -99810   -77866   -13018 
   44960    82117    89850    59049    10030   -30056   -61199   -88044 
 -110551  -117911   -94968   -56292   -21824     6814    20710    14624 
    2215   -11778   -26329   -24277    12039    83146   139779   116455 
   38657    -5830     8005    29841    19599   -10864   -34965   -45166 
  -54781   -79659   -94018   -51267    15503    30354     1205   -23765 
  -27222    -1907    29749    25714   -23480   -82969   -96855   -64555 
  -30979     2934    41422    57561    45330    13918   -26238   -49612 
  -49582   -48956   -44821   -11901    36992    63451    65011    64500 
   51633    11635   -25741   -43965   -57217   -46742     6041    63130 
   80593    60552    33598    18766     8009   -20029   -58450   -62317 
  -36116   -33401   -32599    17788    67498    47661    -5799   -24038 
   -4282     6141   -18482   -56913   -86764   -94560   -55988    32412 
  114964   119076    42565   -37864   -63799   -79012  -118357   -97320 
   20294   123855   141651   132371   119180    42279   -73233  -142792 
 -147588   -95166     4634   124109   207395   192808   105943    22995 
  -44388  -115118  -169778  -178690  -145978   -75729    44736   163668 
  174621    66977   -40379   -80874  -126169  -194999  -196947  -107164 
   16210   105024   138387   153974   138615    81334    39738     9634 
  -27996   -55435   -92472   -95723    -6359    85675    97644    70005 
   43846    20603     4479    -3250   -31997   -98558  -143816  -120380 
  -70395   -23818    28567    62198    72111    87766    72646   -10755 
  -89885   -99253   -69664   -25655    40454   101409   121529   100642 
   53106     -203   -31592   -36790   -35676   -30458    -3342    39806 
   66224    58071    23863    -9884   -18256   -22412   -50521   -76983 
  -81495   -74571   -62884   -54043   -42880   -25980   -22774   -22621 
   -2805     2538   -28413   -34187    25415    79251    47578   -30693 
  -64278   -38337     5710    32024    31060    34977    61834    68505 
   32799     3550     3562    -8259   -38723   -52632   -40617    -8085 
   29247    43870    38508    26923     4236   -13961    -9767    -3977 
   -7385    -6124     5155    28471    47201    33114    11601    23163 
   22312   -33262   -76657   -70514   -54989   -19072    43522    69191 
   36464   -10683   -37885   -52243   -70794   -63911    -8849    45477 
   59749    46102     9325   -38522   -63300   -73242   -83084   -63888 
  -18760    28543    76370    94809    67161    28452    -7315   -41879 
  -57520   -52849   -35667    -8205     8920     7518     7749     8986 
    3172    11431    33763    31345    -8403   -55749   -67714   -28205 
   23152    50120    48249     4028   -54938   -66457   -59108   -83837 
  -81730   -15642    42525    64099    75269    54156     5157   -11581 
    7423    15816     3777      872    19368    27903    10396    -7420 
  -15137   -21312   -29016   -30807    -9370    17876    18638     3812 
  -22257   -61137   -62451    -9252    37569    50481    43222    18063 
   -7622   -12402     5209    26075    25104     7237   -22928   -48564 
  -19716    18157   -19197   -47582    36416   133186   117286    43436 
    3869   -18743   -44606   -41802   -15408    -8916   -30294   -42195 
  -20092     5826    -4514   -27792   -19489     1992     6998    17011 
   44992    68929    85760    92199    60980     -675   -66600  -115399 
  -92430    17419   122859   130130    51802   -33434   -91693  -143750 
 -183582  -155449   -37812    85839   125331    97193    50328   -15859 
 -108868  -178033  -152853   -67656   -11230    32277    99268   135415 
  106801    32821   -65225  -136466  -157338  -145471   -76405    35569 
  103582   105088    86980    71068    32624   -47132  -118783  -134284 
 -114269   -54120    55613   136102   124538    39402   -72203  -139222 
 -143649  -137999   -92119    31583   128891   131882   107335    84991 
   27990   -25278    -5364    29166    16181    23557    70888    93754 
   86651    68561    49723    30933   -19435   -58496   -19904    24921 
   22998    20104    -6286   -78298  -125743  -128908  -130879  -128630 
  -90063   -18650    42512    64539    49179     -588   -56458   -65534 
   -6372    86128   134146   107966    65711    32043   -17581   -54396 
  -47636   -26589     3315    67107   136653   147546    77807   -26210 
  -96641  -112383  -105642   -82094     3411   124371   168363   115670 
   43567   -27508   -96850  -123493  -103046   -62707   -19665    12469 
   47129    96481   118671    76715    -2786   -72237   -98977   -79886 
  -53207   -33363     8560    59871    87397    96935    72422    -4045 
  -70634   -78521   -47579     5405    41318    24209    14512    55587 
   74139    29893   -20503   -49018   -76875  -102872  -100257   -59297 
   -4707    34052    54083    63838    55155    25521    -8201   -48597 
  -98886  -121061   -97194   -68428   -56141   -30873    14300    44359 
   45684    32860    19032    14080      217   -43488   -85635   -89117 
  -62136   -23037    26524    73993    89167    73068    64438    52185 
  -15911  -102991  -131163  -100126   -46673    -7177     8337    27778 
   46422    41945    28339     7083   -34335   -59884   -27710    39559 
   79729    45812   -38219   -87631   -66463   -20295     6781    16028 
   20001    20513    13684    -4506   -22777   -41936   -78787  -104491 
  -90660   -67613   -56857   -45306    -3638    93486   200222   236788 
  200068   127271    29967   -73500  -144250  -147550   -91513   -31094 
    6937    30375    32019    25482    38223    40940     3130   -32458 
  -28513   -11954   -15851   -32414   -22985    10949    14366    -2970 
   26663    92819   125251    90163    10382   -59071   -86179   -69315 
  -18925    15164     5263      483    23391    37575    17652   -36196 
  -82765   -50805    61423   155510   163443   114195    40225   -43619 
 -116037  -173256  -180087   -82831    76167   181660   161684    51632 
  -52521  -131153  -197945  -179609   -60442    67703   157326   178140 
  108851   -17628  -157268  -233038  -209023  -153688   -70151    81434 
  202281   203612   155444    97664   -15751  -157657  -246929  -247645 
 -170262   -49207    78761   153495   107612    -1807   -49269   -57870 
  -98232  -121316   -93874   -42275    25014    90720   123624    85367 
  -22650  -107157   -83960    11257    84159   101325    53130   -68690 
 -176040  -191687  -170563  -148926   -81711    31166   134215   203651 
  232082   187312    71521   -55495  -129795  -126014   -86567   -46965 
   20868   104976   169264   211977   194908   109690    32078    -8041 
  -44115   -87512  -129713  -151877  -120839   -35492    58183   112880 
  114367    79432    41756    17751   -21648   -70785   -62989     6457 
   87837   157357   201093   216355   197176   133292    58623    17687 
    9113   -14440   -77708  -123870  -112531   -82753   -49202    21577 
  118656   183952   174757    73421   -88048  -227511  -309514  -345849 
 -301509  -131954   128227   358948   405086   238361    39222   -84636 
 -238905  -397961  -400329  -264976   -39499   252481   462169   503001 
  386989   174669   -32096  -262137  -498525  -568475  -471280  -299694 
  -40672   250866   422963   379509   220904   124557    13559  -201530 
 -344722  -373796  -370855  -250074    16295   321621   506190   428184 
  220564   118573    25957  -201183  -365864  -370931  -352867  -261160 
  -50827   139189   214790   165009    75884    41148    -8814  -118805 
 -190857  -214906  -225377  -167101   -40691    88744   184254   231511 
  221861   160232    69323   -37165  -125667  -138483   -68234    18374 
   45206    27552    30661    35532     4959   -23346   -29605   -31283 
  -22944     3339    40369    62352    61384    83824   127661   110489 
   14607   -98782  -183163  -208611  -174143  -108032   -20363    65458 
  107333    99810    62334    31810    40262    56764    43443    29643 
   43027    58264    68423    82155    70572    27531   -13355   -34797 
  -22561    12849    -5101   -89105  -133166  -118027  -117875  -109223 
  -51765     8368    62388   136988   186310   178428   147839    82274 
  -10866   -31286    18895    31433    -1308   -29916   -49041   -52702 
  -27612    21798    74443    83824    44108    47985   119406   151195 
  116229    80002    83025   132094   152361    77522   -13244   -60990 
 -102285  -123029  -103833   -52004    44956   127336   112869    22851 
  -74194  -151677  -232907  -304496  -306537  -219152   -49712   139460 
  228124   191421    91214   -25861  -102716  -110431   -82791   -33759 
   56956   185700   293496   317906   253343   113742   -63587  -203319 
 -259965  -238994  -166048   -68131    17482    45270    22081    23963 
   74964    88113    34079   -25003   -96936  -190297  -250145  -270880 
 -242269  -131114    -1359    57005    38429   -32251  -156884  -319315 
 -421382  -389084  -300603  -219624   -80892   111766   262688   350053 
  382214   359009   308576   221548   107678    46691    45767    57423 
   80532   104904   108418   115938   175694   279909   341648   300096 
  175914     9678  -142125  -235882  -296752  -328480  -290291  -212380 
 -166673  -162229  -168991  -183717  -211914  -237438  -262413  -275622 
 -215107   -99797   -16907    48162   126193   153374   104706    33644 
  -29431   -67390   -56151     7959   122276   260348   356101   346369 
  216124    18391  -172476  -311802  -363347  -312342  -195326   -18747 
  236317   478639   565945   483530   351573   228854    44221  -164384 
 -283412  -347139  -376126  -296590   -95204   163483   343966   309552 
  102667   -77143  -170954  -306256  -447456  -456942  -358485  -119358 
  306435   679283   745741   570356   351681   164876   -31452  -263522 
 -437791  -470749  -413703  -264523    27279   351476   493792   354769 
   98717   -35097  -103102  -259595  -386245  -404252  -357971  -118608 
  281917   541192   570503   502143   410432   344603   311968   213543 
   72040   -14053   -80123  -126505  -121258  -111244  -120577  -152786 
 -210109  -223626  -131364   -42986   -83269  -161264  -183142  -189348 
 -159725   -67171    30392   129651   225234   233757   126142   -53797 
 -235076  -354195  -424560  -457189  -389461  -205827    29384   239733 
  319708   206537    27157   -32594   -23491   -87358  -131627   -69749 
   11248    91920   159451   167019   149868   114363    40414   -38952 
 -118010  -207778  -266075  -261316  -201850   -76700    97457   230555 
  264624   214016    97934   -42160  -160429  -249226  -287991  -276836 
 -225845   -98045    76488   174987   124984    22675    28634    80249 
   25459   -58180   -99189  -162503  -213835  -219169  -213525  -181480 
 -142658  -100909    26547   194880   270391   272637   273537   241613 
  114238   -87269  -264097  -375069  -411467  -330832  -189946   -75678 
   38173   145180   170375    82345   -89118  -241767  -305249  -311293 
 -270637  -183533   -89306    -9254    55952   106439   122706   115106 
  153265   230677   265268   244016   203759   176037   188418   218355 
  221707   208813   203251   184559   129319    70308    44419    22414 
  -16521   -17512    65206   195459   309665   370886   365220   317729 
  270548   216927   130829    24183   -85839  -191249  -257925  -249502 
 -169588   -35027   146969   303377   308701   222659   216102   205347 
   67150   -84839  -198562  -313834  -371339  -301229   -96967   157418 
  341840   386171   223905   -71541  -190019   -59764    22609    36259 
  132555   171579   101251    20640   -82350  -174237  -210942  -222458 
 -191928   -81791    54699   114984   100114    83529    64957    20083 
  -43676  -135469  -225927  -251514  -228752  -206571  -152247   -23396 
  103488   126306    55250   -53383  -172798  -299771  -416110  -451354 
 -377389  -254207  -109391    53167   173896   203315   146337    36720 
  -56596   -96091  -136564  -198088  -209922  -130937    10457   149384 
  235629   266375   230535   121751      -20   -86548  -169002  -260712 
 -309595  -287652  -204191   -63756   110299   251780   285249   220210 
  151393   111302    49518   -44140  -137316  -219326  -270812  -263318 
 -209152  -115823    38032   217667   330170   325923   236969   139959 
   74380     4139   -68786   -82109   -51862   -34852   -23052     5152 
   48790    99840   146665   192061   249421   317930   371548   356360 
  241762    68941  -135919  -380948  -568692  -578601  -470236  -329393 
  -92111   222781   404323   348409   201420   119720    38527  -123588 
 -245191  -287001  -321941  -292250  -184419   -55672   117566   309915 
  427735   438728   364643   237188   113413    22423   -89644  -222760 
 -291254  -276754  -205507   -93950    31923   156643   241051   241101 
  170849    85997    50310    52170    19920   -39228   -84638  -121527 
 -148447  -167683  -194583  -225047  -254221  -264640  -209169   -72854 
   91613   223738   312016   364861   351032   231291    38755  -155044 
 -322905  -452119  -488608  -390803  -202459   -13957   118098   171553 
  127742     4172  -114457  -154155  -138419  -111852   -68427   -36309 
  -41662   -41688   -40941   -50938   -12839    68689   125886   130933 
   85865    11133   -60602  -105966  -104402   -58845   -14067     2290 
    2393     4598    22599    42596    41343    24826     2397   -15083 
   -6087    21721    28536     4016   -30306   -72415   -85514    -6315 
  121196   218515   296852   358661   362134   315974   250657   162942 
   65838    -5643   -41216   -31108    46381   161126   235923   228964 
  153435    44678   -58036  -131643  -179517  -195642  -162265   -94157 
  -18307    48363    81274    74844    57368    63444   108006   164551 
  185615   148595    65515   -34519  -123225  -185908  -220410  -212733 
 -145794   -46248    19947      202   -79195  -127448  -120137   -97336 
  -48463    28512    79161   103234   131022   133371    91073    24804 
  -56728  -127251  -131213   -55394    44527   106026   115784    84959 
   18804   -54290  -104780  -144467  -174411  -187446  -203393  -210274 
 -185978  -147773   -93467     1142   128655   244807   292941   244156 
  124713    -2643  -110974  -225379  -324697  -341172  -257530   -86985 
  130997   290065   337423   323092   258855   131715    -3855   -97104 
 -149806  -156490   -91349    24929   111153   120449    76059    10137 
  -45161   -69979   -95640  -129203  -121090   -76015   -41152   -18299 
    2457    14593    13911    -3546   -24976   -29658   -41962   -94058 
 -153706  -167277  -120078   -23079   111352   247163   315284   276875 
  145147   -36377  -192433  -287833  -363513  -401079  -305718   -86532 
  144227   316271   385685   309744   141945    -5753  -127253  -242226 
 -257748  -141592    34138   226322   348309   321104   178390    -7487 
 -118643  -110440   -91314   -55636    69113   198590   272905   297415 
  231070   109015    20702   -21436   -44543   -83365  -158868  -231711 
 -259557  -242172  -175784   -72495    16919    68823    90875    72785 
   25651   -13041   -55059  -120388  -178449  -200897  -173774   -86007 
   31153   116106   142176   118598    61820     8086   -25807   -76613 
 -150516  -208618  -244094  -252355  -205360  -118249   -47868   -33070 
  -67620  -104396  -115770  -138152  -188896  -220552  -212665  -178340 
 -114937   -38615    21012    54741    58642    36279     9864   -17510 
  -62969  -104112  -100876   -41690    53271   133354   187963   243675 
  269794   231234   161341   107779    68675    14270   -29821   -18805 
   17707    43008    75230   123822   165165   182811   176999   145683 
