Origin Time       2021/02/13 23:08:00
Lat.              37.7
Long.             141.8
Depth. (km)       60
Mag.              7.1
Station Code      MYGH11
Station Lat.      38.5158
Station Long.     141.3421
Station Height(m) 5
Record Time       2021/02/13 23:08:06
Sampling Freq(Hz) 100Hz
Duration Time(s)  229
Dir.              6
Scale Factor      7845(gal)/8223790
Max. Acc. (gal)   271.112
Last Correction   2021/02/13 23:08:06
Memo.             
[...]
    1125   -40566   -62822   -50372   -30223   -48755   -52200   -13861 
  -20162   -67624   -89533   -67741   -27788   -35078   -76175   -62320 
  -11912   -17707   -69803   -73646   -13424    11522   -50124  -101799 
  -61398    -1595   -13483   -46718   -39668   -45719   -55059   -14193 
    1332   -28066   -35978   -56161   -81194   -55132   -41553   -57277 
  -46234   -43941   -56891   -44624   -45955   -75230   -73961   -25953 
   15067    -7007   -77954  -110675   -65830   -24131   -28363   -25409 
  -27970   -71941   -92711   -46591     4573     7708   -37644   -91204 
  -69221     8283     2088   -73831   -77328   -27237   -18526   -43571 
  -71622   -76122   -51133   -43092   -51425   -41932   -39850   -54427 
  -51333   -40211   -38437   -37359   -53144   -79670   -59004     4897 
   24896   -19303   -62295   -65821   -44782   -38435   -33677   -11076 
  -32328   -80715   -75729   -56633   -56234   -26341     1335   -21941 
  -48362   -62268   -78942   -62968   -22593   -14296   -43530   -72936 
  -70992   -32240     6635     4434   -28266   -58642   -71012   -60862 
  -42365   -36601   -44629   -51441   -36073   -11674   -12718   -20059 
  -26742   -67117   -97686   -56934     4340    10277   -34628   -79552 
  -78973   -44568   -36741   -54270   -53863   -42241   -34724   -31467 
  -39398   -42184   -38647   -55256   -59383   -46770   -65749   -70877 
  -31599    -5709   -10399   -55938  -114862   -78024     6883     9467 
  -15556   -32127   -87270  -101634   -32224    -2357   -52262   -83338 
  -60272   -28274   -27390   -64288   -90108   -53198    -1228   -22894 
  -79242   -72168   -17371     5391   -43212   -99655   -68935   -15345 
  -34807   -59096   -29805    -5921   -30473   -68222   -57642     1271 
   23596   -37629  -112519  -114454   -43291    18501     8718   -38375 
  -61500   -54896   -40329   -25475   -25755   -43313   -55518   -52884 
  -27985   -12993   -53015   -79454   -35575   -10457   -44452   -60799 
  -46554   -61871   -87388   -41725    25087   -12889   -98201   -93989 
  -28532     1695   -20009   -54279   -73830   -63547   -16598    -5382 
  -60131   -89800   -72716   -29903    15978   -20302   -98528   -91932 
  -36216    -9051     2050    -9479   -55027   -81623   -55300   -19589 
  -33297   -80419   -77161    -9301    23164   -30909   -88157   -88384 
  -68172   -50314   -34998   -32093   -34071   -32402   -32512   -29582 
  -20337   -37551   -83246   -84661   -29772     2201   -27803   -86424 
  -91296   -28154    -2216   -14127    -8935   -48409   -96477   -53094 
    7069    -4646   -52300   -73440   -55266   -39397   -44212   -48023 
  -36666   -17505   -20968   -50291   -79533   -76994   -39355   -38142 
  -67531   -51475   -38389   -49424   -21591    -2569   -43422   -77093 
  -57281   -25647   -34389   -63733   -59582   -32667   -20845   -42249 
  -64393   -10462    27554   -67829  -119529   -46203   -18577   -20740 
  -10174   -55124   -70119   -55104   -87714   -59502     8937     3765 
  -25874   -70572  -114732   -76586    -8872     7990   -19205   -59618 
  -64318   -27679    -4302   -35117   -71321   -46731   -23340   -43792 
  -60165   -66341   -56272   -27780   -18731   -37951   -75558  -107659 
  -92611   -35023    19307     -962   -93964  -102019   -14354     9031 
   -9097   -30241   -88665   -79884    -5418   -11916   -57451   -43950 
  -29629   -46683   -33880   -13973   -46487   -73134   -53747   -44988 
  -47279   -51104   -70717   -40986    11357   -22666   -70401   -50303 
  -43054   -78142   -80541   -28144    14112   -10477   -73826   -90313 
  -33993    12256   -13362   -54382   -52863   -52845   -86367   -79477 
    9661    71169    -2596  -137700  -179408   -75895    57358    49941 
  -57728   -93078   -71937   -60937   -29189   -13286   -24263   -17899 
  -51517   -99997   -57763     5579    17014     -901   -64840  -107395 
  -54888    -3800    -7666   -25033   -53562   -71782   -54264   -40460 
  -43629   -32860   -30360   -52687   -71612   -91022   -82443    -8854 
   26962   -39881   -67401   -11060   -19774   -76828   -53866   -20699 
  -53464   -66316   -44606   -38831   -29079   -39777   -88703   -97692 
  -61549   -46566   -41748   -10327     5181   -38693   -78233   -62600 
  -35149   -17658   -20507   -72256  -120052   -87416   -22756   -20703 
  -56999   -56080   -33070   -32732   -49366   -58839   -38180    -6548 
   -7699    -9224     2462   -35795   -90289   -77940   -19140     6181 
  -42734   -93638   -77427   -17751    50642    46992   -55119  -130015 
 -116499   -53064    15496     1398  -102114  -161477  -111480   -11318 
   65615    62044   -28237  -116792  -115028   -64385   -33918    -1687 
    7730   -65935  -144028  -115654   -11577    42148    -4120   -62799 
  -79170   -63477   -25197   -21721   -33346    -4969   -26758   -94946 
  -81427   -17842     6872    -8214   -40066   -54517   -36775   -32667 
  -63046   -55453    -3855    -7033   -52826   -60330   -44055   -40602 
  -43016   -59821   -90548   -77133   -11803    29404     5217   -55482 
  -87222   -69863   -78626  -113013   -61680    22067    -4453   -73291 
  -79092   -53684   -19672    -9967   -64933   -95889   -50993   -33481 
  -47387     2326    43093   -22531   -97425   -93314   -43430     6683 
    2031   -47174   -40369    16067    10944   -50355   -53569    -6336 
  -16919   -66440   -68978   -36753   -18418   -20406   -38618   -52893 
  -36339   -17246   -30624   -70178  -103040   -97757   -82390   -76338 
  -42830    -6092   -34744  -106582  -109779   -17554    40224   -10690 
  -98745  -120675   -66916   -46022   -56897   -26333   -25471   -58974 
  -40667   -20551   -44200   -77931  -101864   -66226    27337    71937 
   12182   -84279  -120891   -76523     6168    52137     4345   -80234 
 -111686   -81974   -11233    57136    25313   -91054  -129112   -84627 
  -69777   -40189    16125   -20461  -112041  -119003   -71385   -31372 
    5761   -14948   -84974  -102843   -64083   -24340   -12353   -38588 
  -67015   -52929   -21390   -21267   -46321   -65537   -56099   -20617 
  -18659   -75358  -108106   -56856    22948    45941   -23814  -127651 
 -142785   -44498    66993    83559    -8293   -93856   -89059   -39177 
   -9594   -17801   -41636   -48554   -38468   -46226   -57654   -36015 
  -46376  -101934   -95199   -39307   -28089   -39406   -17518     8667 
    2470   -40495  -108869  -130588   -89375   -47606    -8098    -3704 
  -62367   -92245   -63629   -40741   -35781   -37116   -25710     6818 
   -1246   -76049  -144983  -137101   -52138    31781    39105     2729 
  -21695   -44990   -39989    11855    20896   -49110  -122143  -126619 
  -41038    63586    66618   -35343  -125369  -145100  -107844   -21805 
   28101   -31333   -89579   -69126   -54436   -47069    10575    45331 
   -8289   -90720  -122993   -75660    15206    54930    -5842   -85379 
 -104483  -100751   -75281     1147    25258   -48149  -100251  -100656 
  -96001   -62232   -12047   -10825   -41478   -38831   -20715   -62843 
 -124939   -71358    52320    56450   -37066   -50206   -10131   -46669 
  -91694   -68126   -50125   -47115   -28325   -35305   -48670   -29006 
  -36074   -80954   -64077    14790    58291    35970   -63201  -170866 
 -145837   -14500    82922    57813   -59979  -149021  -157280   -85122 
   33704    73171   -18069  -119245  -121520   -62730   -14763    16661 
    7816   -56677   -90807   -53611   -19109   -21031   -39525   -67752 
  -96082   -97958   -65076   -28030     -302   -14243   -74252   -46764 
   63015    43825   -96858  -151204   -81075    11074    49500    -7303 
 -111854  -130064   -24302    61033    11136   -93906  -138958  -102508 
  -26838    16059   -13039   -87080  -127292   -74005    29959    74501 
   18247   -49685   -75583  -109898  -116557   -56517   -25401   -12800 
   30273     4210   -63622   -51941   -13774   -20939   -42628   -69936 
 -118326  -144825   -90651    30208    90393     2987  -101650  -107476 
  -73734   -45250   -36096   -48771   -38727   -46290  -104178   -93075 
   -4823    18800   -36343   -93970   -99015   -29959    36900    10986 
  -60496   -55264    10791    14659   -23249   -30443   -45960   -72157 
  -86265   -94930   -55880    -3265   -20000   -43154   -22767   -21043 
  -28902   -22893   -51695   -78528   -51510   -16391     7587   -15898 
  -99407  -120117   -71221   -58117   -46746   -15273   -24081   -46580 
  -49971   -60608   -72578   -82764   -88032   -49611    -1788   -20964 
  -83752  -105248   -45048    16594   -27005   -93017   -65259   -29108 
  -42774   -42816   -56566   -97140   -93487   -68890   -40510    26118 
   59514    -1944   -75447   -67941   -31082   -35891    -3370    60311 
    6921   -99470  -102217   -63038   -59709   -57434   -72200  -109478 
  -74835    22094    35492   -22744   -22230     3087   -25058   -77167 
 -105842   -82428   -71837  -129456  -110004    22607    67419    17984 
    2683   -31846   -99034   -88793   -11014    27785   -13956   -83822 
 -111034   -90463   -57956   -29471   -11541    -1903    -4176   -43931 
  -82159   -52894     4742     -199   -87571  -151228  -102226   -27534 
   -4000    -3388   -34805   -76512   -74595   -57250   -30727    -4492 
  -36063   -61778   -27506   -24260   -55571   -50619   -44313   -65167 
  -49432     9369     2979   -74798   -80973   -39468   -84226  -113406 
  -28877     3453   -77288  -105007   -52886   -10578    31469    30268 
  -63586  -112190   -54561     6691    62097    77611   -19838  -116834 
 -125550   -73518    28533    64457   -14638   -70251   -79286   -83712 
  -70297   -69533   -68133   -45274   -56170   -69876   -18694    41415 
   26887   -73746  -156354   -99674     1154   -15561  -101115  -119088 
  -54133    -4729    -4396     8010    17714   -21843   -76889  -112164 
 -114204   -58288     6435   -21571   -82111   -53264   -10687    -3977 
    7798   -70842  -177340   -95733    64330    79130   -32495  -136804 
 -135742   -46388    34824    45935   -11165   -48362   -37612   -83739 
 -126712   -42905    41854    32501     6774   -22148   -63336   -47736 
   26291    41832   -29911   -88416  -116036  -132178   -67143    26751 
   13011   -54382  -111292  -159996  -118467   -21255     8864    -4612 
  -31808   -65576   -57829   -31136   -18064   -30863   -70906   -57412 
  -13144   -39903   -70353   -54306   -48408   -37004   -20132   -43846 
  -72925   -79685   -86860   -70996    -7087    57681    23845  -100535 
 -153947  -103227   -25502    81945   117306     3774   -87713   -90873 
  -90288   -62891   -15853   -27071   -79060   -96056   -71099   -40830 
     761    17290   -50468  -114002   -85392   -38834   -28568   -26180 
  -43390   -88657  -127346  -130152   -66957    28229    69010    30192 
  -68219  -160474  -166693   -80937    38512    84946    12974   -59294 
  -50919   -38881   -35534     8233    15834   -54981  -113401  -105389 
  -45486    20293    33521      -44   -26017   -29704   -23654    -4572 
   15431     2813   -23662   -23592   -14173   -19911   -56262   -99004 
  -68584     1305    -1522   -48786   -52639   -21439    -3009   -27403 
  -90540  -128646   -94003   -30464    -7350   -33949   -49628   -22280 
  -10484   -34152   -50669   -54720   -55229   -61874   -90381  -113198 
  -92734   -72126   -87262   -76288   -35924   -27776   -45183   -75729 
  -83828    -4673    80433    51279   -42742   -99083   -79450   -20078 
   11811    24186    33366    -6567   -96444  -152184  -116854   -40776 
   20785    67181    62079   -32347  -147899  -172639   -97800   -23970 
   -2855    22596    45345   -27274  -165121  -213699  -102894    33231 
   24854   -95665  -167121  -111715   -34481   -56447   -80681   -19942 
  -20761  -135122  -174321   -63038    58193    66181   -47104  -171973 
 -176763   -66565    60264   113147    60338   -45006  -150738  -241428 
 -244147   -87825    72171    28544   -82452   -61736   -35253   -92283 
  -80833    22777    81284    53838   -16410   -68489   -80194  -119400 
 -166556  -105181    26642   100712    77965   -24769  -125180  -108514 
    4889    67926    12725   -69697   -86763   -73904   -90769  -110026 
  -97011   -48043    30526    86660   101174   100192    42965   -72041 
 -122307   -71362   -50067  -102011  -105545   -27506     7788   -71899 
 -161754  -133591   -42438    -3707   -10848   -28954   -32030    14912 
   55348    -6207  -149237  -229555  -152084    -5182    80846    53925 
  -45947   -81608   -22248    15049   -10376   -51861   -70506   -94392 
 -155268  -176627  -120922   -40396    19769    18844   -20929   -56975 
  -76206   -40018    31696    74310    75016    33570   -18261   -49473 
  -97114  -138079  -106019   -39723     2180    20358        5   -85942 
 -150865   -58572    97382    88742   -73402  -190360  -196911  -152394 
  -44529    76482    49353   -37126    -9533    -4500   -68249   -31827 
   35584    13813   -26314   -59694   -97398  -100946   -67147   -29397 
   -4931     4895   -28144   -90567  -101513   -74352   -77445   -85995 
  -73607   -79735  -103644   -84881   -20725    31509    43514     2450 
  -65678   -78413   -50032   -58175   -65368   -44552   -21293    35966 
   62527   -27689  -120243  -125942   -90355   -24275    38479    25713 
  -25429   -51507   -89888  -139079  -115784   -26172    36856    32995 
    2439   -25820   -68651   -82005   -13239    57763    43923   -18910 
  -40185   -18635   -58421  -151580  -170230  -102517   -51661   -59254 
  -65159   -25793    36220    65434    23795   -49923   -99841  -104350 
  -80198   -66937   -30704    51679    79871     6547   -97806  -165497 
 -113740    56845   159980    60458  -164614  -327264  -297743  -106196 
   97453   159381    68543   -71359  -185068  -199423   -79207    63275 
   95573    17135   -78183  -120727  -120097   -74854       56     3138 
  -60359   -74960   -57812   -79783   -82865   -29423   -10863   -49014 
  -65576   -42400    -3946    20463   -15781  -109792  -158105   -77507 
   35108    56465    35148    18538   -35592   -76480   -37181    12283 
   16345     9269    14917    -7780   -96822  -156347  -105433   -19531 
   55144    77693   -23831  -143282  -144902   -88311   -70247   -80717 
  -59240   -18038   -20422   -56724   -85708  -108592  -121278   -94709 
  -45450   -21386   -22376   -47672  -105574  -130040   -63232    35611 
   62692   -13559   -96639   -97675   -70114   -38935    48138   118021 
   57176   -61546  -118841  -136671  -138478   -92874   -35267    -7639 
   13818    38074    30145   -10330   -14604    12279   -30869  -129983 
 -165855   -93406    12204    54773    39347    11537   -19163   -57726 
 -105984  -110447   -45395   -16691   -94321  -186179  -180106   -82971 
   21624    59482    18122   -25532   -14523     4334     1703    -7163 
  -37301   -69849   -76808   -90229   -86989   -24108    33713    34005 
    3392   -45816  -104912  -127888   -95698   -47013   -19391   -23961 
  -40674   -51965   -73568   -84893   -50425    -3087      307   -40144 
  -64763   -56191   -69894   -97513   -55983    37249    48070   -56297 
 -137998  -127863  -101891   -92345   -86786   -84484   -59235   -19890 
  -10994   -38441   -59571   -28171    21767    23780   -14639   -48452 
  -42905     2130    24806   -22728   -70221   -38402    -4542   -38059 
  -61619   -39075   -26790   -44568   -60091   -45959    -6496    17443 
  -23178   -76896   -59201   -34715   -59169   -51526      963      203 
  -75077  -130099  -104519   -30667    27837     5448   -86605  -138496 
  -90967   -23394   -36873   -69859   -21508    10908   -53524  -120691 
 -130752   -69823    49171   104143     4067  -154187  -182474   -63182 
   35776    31843   -22115   -62368   -72077   -85550   -97787   -69388 
  -17771    21667    10030   -52990   -78734   -59833   -51883   -26665 
   -8163   -33475   -43529   -36090   -50940   -58434   -17820    32173 
   16077   -44470   -67857   -47961   -39270   -49732   -54238   -53010 
  -32593    -8379   -18526   -31745   -36911   -59886   -73471   -60790 
  -41596   -11842    32205    34491   -43363  -100456   -54244     7697 
   16444    -7927   -58874   -95319   -60390     7951    21448   -31063 
  -91000  -136748  -133795   -34075    65981    48586   -45958  -113406 
  -97133   -34831    13744    26696   -39476  -150685  -177196  -119632 
  -77977   -53959   -23236   -24726   -45937   -27495   -12717   -78723 
 -166818  -167387   -84146   -16378   -17363   -27950   -23140   -60242 
 -118395  -138056  -104171    -3056    95810    75976   -39469  -135588 
 -154371   -89530    32238   100851    48938   -30973   -81310  -115731 
  -76681    42319   108999    33195   -84372   -96218   -38484   -25296 
  -43290   -32670     1777    30817    36521    18451   -19606   -69002 
  -93368   -80393   -67077   -78599   -97185   -71645    -7847     4634 
  -37875   -68064   -76383   -54157   -28620   -38981   -29673    -2037 
  -34749  -106797  -126628   -73533   -43862  -108959  -184226  -159278 
  -47565    42776    43368    -4174   -63775  -124533  -121566   -50881 
   17552    53607    19057   -80743  -156479  -169568  -104691    -6095 
   -2988   -43102    -9821     6369   -46866   -74592   -36888    17774 
   33631     5208   -53238  -116255  -119017   -54805     2991    17213 
    9891   -15315   -58517   -58904   -13331     1231     -885     3951 
  -28580   -56820   -33331    -9679     -299    -1791   -29876   -49377 
  -31336    21115    49939   -14177   -90101   -99945   -99698   -85845 
  -48369   -65060  -104984   -71451   -14253   -10605   -21581   -22692 
  -47092   -70922   -55385   -34676   -54249   -84991   -73059   -53975 
  -58710   -49249   -52995   -80563   -80631   -74378   -81599   -79150 
  -60343   -37570   -38529   -54395   -63294   -61746   -38758   -14184 
   -8899    -8916    -8988   -15714   -34935   -54554   -49963   -22262 
     841     1725    -2650   -13495   -61117  -116679  -118291   -62895 
    1991    29029    13273   -21289   -62696   -82000   -45306    -5275 
  -23984   -41967   -20158   -27171   -72135  -104133  -108360   -59718 
   30948    64682    -3437   -94042  -128403  -112152   -65545   -14801 
  -33313   -94906   -95393   -72848   -61634     8244    78759    37258 
  -80177  -174532  -174792   -78549    24000    46172    -8792   -67393 
  -90336   -91845   -44189    25092     4266   -68208   -81710   -42871 
   16062    41268    -7515   -60538   -70683   -75072   -85567   -63154 
  -20143   -20395   -26384     8783    16848   -15233   -42153   -78628 
 -124059  -137479   -89579     1956    48207      382   -70183   -97819 
  -82082   -30065    12649    -4814   -35163   -32043   -26215   -27271 
  -15952     2101    -5560   -47799   -79537   -74201   -47892   -11672 
   11817    -8789   -57878   -96817   -92126   -27634    22037   -18775 
  -80455   -81774   -61947   -52663   -11113    22534   -49123  -145629 
 -122584   -35549   -18855   -71595   -96743   -65551   -43737   -47822 
  -49539   -50823   -27515      812   -33779   -76597   -70553   -60216 
  -43897   -27942   -51788   -81048   -82875   -47686    15466    16471 
  -67078  -131357  -129429   -72153    14662    49030     1803   -60820 
 -107813  -128815   -64038    46091    42090   -68581  -114012   -64579 
  -18566    -2101   -18011   -73246   -85695   -18477    27741     5252 
  -34206   -50329   -34450   -18684   -21305   -14508   -30731   -86040 
  -90764   -42241   -34314   -65303   -80323   -77518   -57709    -6646 
   31544     2114   -57676   -95956  -115597   -95216   -19689    33369 
