Origin Time       2021/02/13 23:08:00
Lat.              37.7
Long.             141.8
Depth. (km)       60
Mag.              7.1
Station Code      MYGH14
Station Lat.      38.3400
Station Long.     140.9551
Station Height(m) -986
Record Time       2021/02/13 23:08:06
Sampling Freq(Hz) 100Hz
Duration Time(s)  236
Dir.              3
Scale Factor      7845(gal)/8223790
Max. Acc. (gal)   56.929
Last Correction   2021/02/13 23:08:06
Memo.             
[...]
   -6524    -2970     2201    10042    12244     5779     3619     7755 
    6049     3537     9468     7649    -2351     -106     3406    -2959 
  -11817   -19739   -15750    -4630    -2029       -2     5281     6847 
    7215     8824    12953    15098     4997    -3156     1244    -3763 
  -11232    -2007    -1266   -12098    -9436    -2983     1069     8891 
    7202     -456      -17     3181     7693     7082    -3921    -4538 
    4291     3134     2818     7516     3730    -1514    -4251    -8922 
   -5514     -895    -2415     1771    -3046   -18760   -15349    -1534 
    2150     1383    -2447    -1347     8043     6173    -1613    -3879 
   -9107    -7338     1819     6461    11045     9174     3171     4392 
    4203     5144    11601     9327       43    -2377    -4538    -9520 
   -3485     -622   -16573   -22725    -8838    -2160    -6885    -9374 
   -3327    12537    25092    23780    14521     3161    -3032    -4099 
   -7236    -7662    -7929   -12267    -6589     6119     8249     2570 
   -3785    -9130    -7164     3013     7705    -4534   -14353    -2212 
    8645     2011    -4558    -3658    -2724    -6791    -9771    -2417 
    8621     9876       91    -1532     7252     -734   -16448   -16333 
   -9533    -4711    -6091    -3546    11090     9829    -5259    -4195 
    2239     2027     1440     -101      328    -1516    -9073    -8834 
    -271     1124    -4637    -4490    -2836    -4781    -4089    -8648 
  -14243    -8168    -2443    -3986    -6498    -6833    -8253   -12676 
   -6396     4719    -1058    -7230     -344     2880     2574     4240 
    3146     2806     4699     4876     2519    -2512    -6188    -6393 
   -7905   -12147   -14235    -9543    -3717    -2810      963     8910 
    8380     3438     8851    13258     5630     3982    13433    16310 
    7877     -167    -1046    -1841    -5188    -7519   -10087    -7419 
     966     2195    -3168    -2226     5152    10304    11414     7655 
    1529      105     -475    -5741   -12401   -10301     2469     6502 
    1445     1949    -5521   -17383    -8082     4506     2863     8768 
   17967    12783     5640     1817    -7103   -12175    -4306     -657 
   -7111    -2307     9050     7824     4731     5675     1008    -3519 
   -3033     1244     8064     8338     2601    -1738    -2416     -297 
   -3268   -12280   -18758   -12843     6359    13628      -63    -4676 
    5362     6151     -657     3973    12120     6112     1748     8962 
    5166    -9255   -13169    -1852    12717    11551     3474     5894 
     727   -13440    -8876     7053     8316     1219    -4172   -15379 
  -20734    -6763     9463    11452     2897    -1584     2739     3794 
    1937    -1020   -12047   -12287     1080     2072     2160     9090 
    1270   -11758   -11781   -10052   -11196    -5001    -1921    -5417 
    6436    17242      761    -6187    12309    13158      684      777 
     400      915     -190    -8448    -4900    -5676   -16649    -7446 
    6956     3094   -11664   -18619    -5819     2818    -4429    -3439 
    4693      260    -7723    -4017     2104     2014    -1277    -3181 
   -1875      125     4914     8822     4996     1745     -253   -14017 
  -22036    -2160     9045    -9529   -16691    -4550    -2288    -3381 
    9003    14239      600    -3942     5707     4603    -3654    -1030 
    4039     5840     9667     3881    -8251   -10133    -3940     7866 
   13556     3882    -1329     2511     1129    -2263     3757    12094 
    4924    -1640     4675     -784   -11472    -7801     -352       93 
   -3507     1293     7438    -1086    -8698    -3952     2172     5144 
    4091     3672    10492    10212    -7001   -21463   -17752    -6021 
     878     5952     7338     1169     1911     3256    -7873    -9238 
    4056    11880     9224     2978     6542    11291     1144    -4766 
   -5502   -15970   -13394     1869     2679      391     5412     8522 
   10427     8563     1447    -5709    -6481      503     2633    -2120 
   -1648     4804     7060     3271      405     -126     1013    -1426 
   -6465     -855     5884     -704    -6679    -3936    -4939   -11792 
  -12339    -6783    -2664     -990    -8775   -16598      -33    17221 
    3592    -7128     4537    10632    11861    10139    -3680    -8378 
   -3717    -6512    -1850     5616    -3543    -6259     4024     1389 
   -5107    -8904   -11693     3535    13402    -1343    -8376      487 
    3423    -5892    -8885     5670    10806    -2813    -8140    -4347 
   -6000    -5270      -21    -1394    -1366     6373     7979     4850 
    5821     3686    -1900    -2751    -4814    -5486     7361    13092 
    2629     2909     7299    -1063    -6750    -4878    -2384    -3295 
   -9936    -8515    -2313   -11545   -19700   -10293     -718    -3028 
  -11618   -11302     1733     7217    -1861    -5811      257     1879 
    1428     3981     -765    -6270     1626    11408     8949     -804 
   -6311    -4762    -3493    -6219    -8985    -3802     4915      -20 
   -6658     2961     8769      -87    -5059     -184      990     -880 
    2155    -1594    -2675     9386     3574   -12806    -7377      132 
     669    10126    13756     7508     6770     2243    -6404    -3303 
    -602    -3500     5441     8537    -5790    -6952      708      652 
    7871    12499     -337   -10459    -1748     7152    -2276    -4307 
    5880    -4310   -15024    -6847    -7134   -13198   -11692    -8174 
   -2258      865     2263     5374    -1379    -8133     -113     5637 
    3596     7608    10631     3944    -2266    -3383      630    11159 
   15196     7727     6376    10119     -750   -16313   -12375     -226 
   -1355    -6447     -545     7811     2266    -5094     3484     9359 
    5424     5784     7233     9655     7157    -6772   -13702    -6498 
    3001     1132    -6151     1598     6847       70     -800    -8181 
  -14218    -3807    -3441    -8680      336     5139     2837    11198 
   13096    -1000    -5243    -8698   -21961   -16096      457    -4434 
  -13413    -6693    -4631    -8148    -2403     1792     1598     2467 
   -1590    -5606    -3376    -5436    -8064     3007    13011    12615 
   11380      691    -7838     4388    13181     8417    -2029   -12109 
   -5437    -1541   -12137    -4028    13038     8090    -1912      662 
    4237     2304    -3643    -6903     -711      554    -6129    -4733 
    1526     1659    -5487   -11161   -10255    -9744    -7636    -2949 
   -3087     -518     5908     2370    -4685    -6435    -9061   -10679 
   -7952     -576     9412    11277     2280    -7342   -12586   -13776 
   -4595     6432     -556   -10998    -5223     2953     5568     9178 
    8741     1228    -2018      872      373     2246     8195     4831 
    -920     1935     5397     2201    -1756     4938    13436    13852 
   12447     6085      557     1709     -507     -900     2839     2259 
    1085     2755     4160     6000    10527    10579     6369     6679 
    3993     -970     -230     3156     5217    -4612   -13423    -4622 
    1613     3904    10851    12798    12325     8294     2764     5105 
    2914    -4406    -4718    -3985    -8282   -14480   -11195    -3323 
   -6363    -6798     1439     7353     9117     3616    -1452     -519 
   -5112   -13491   -12887    -4561    -1429    -6840   -10732    -9497 
  -10548   -11306    -3747      837    -5103    -7566     4105    17028 
   12179     5300     8691     3396    -7601   -11691    -9957    -3956 
     -12    -3144   -10346    -8573     7246    18679    15215     6644 
     190    -4014    -5013     2193    18540    22999     1318   -17982 
  -15965   -11472   -11271    -4932      -31    -6444    -7150     1086 
    5233    13786    16314    -3488   -19098   -13138   -10150   -17633 
   -7692     4511    -6928    -4884     5961   -11951   -21042    -3688 
   -2727   -14409    -6556    10635    14719     4553    -2964    -3685 
  -16552   -27907   -18578   -11183   -15685   -16945    -5437     7114 
    4122    -2181     2654     9143     5586     4001    10899     3557 
  -10434    -8324    -2805    -4472    -8797    -6442     1370     1058 
     120     -584   -12201   -14422     2929    12777     5544    -1398 
   -4777    -9964   -13964   -14997    -6949     1890    -8124   -17325 
   -8614    -7395   -11084    -5455    -8268    -4021    13130     7946 
   -4087    -2997     -340     2097    -2377    -2565     7902    10508 
   12329    13231     5439     8968    15493     3866      715    14320 
    7755   -12174    -9582     3007      760    -1497    10968    14841 
    1441    -4388    -2508      777    14211    21807    12698     8635 
   12831    10207     7713     9358     3122    -8689   -14859   -11273 
   -4637     -926     5259     6732     4089    13718    16532     6993 
   13749    19485     3028   -12710   -13741    -7473    -6319    -7399 
   -1410     1247      606     8178    17086     8522   -12343    -7524 
   13690     7709    -3249     4380     5039    -1047     -672     1715 
    8170    12244     6791     5235     9683    12208    13775     8070 
   -1894     -668     2146    -6305   -13575    -9265    -1578      376 
   -2265   -11935   -20752   -12866      972    14480    25770    17882 
    2636    -3273    -6571   -11740   -18473   -16019    -3495     5004 
    8232     4831    -3658    -7380   -11048   -16866   -10355      189 
   -2847    -1236     7383    -2764   -18133   -15147    -5578     1009 
    4414    -3038   -14241   -14727    -8195     1622    12811     6245 
  -14837   -12487     5167     3750    -1155    -3649   -13047    -7450 
    5339     3908      233    -8561   -17730    -7929    -5130   -16494 
  -10029      996    -2104    -5256    -6338    -6507    -4067    -8465 
  -12933    -4302     2050     -164     2427     1777   -10724   -22539 
  -23110   -11597    10432    29188    20320    -9540   -24884   -15676 
   -3484     -561    -1674    -4707    -2413     4009    -2671    -4503 
   13304    12937    -5078    -3878     -441   -10721   -14099    -9148 
   -3723     6100    16838    13366      513     -963     1325     5695 
   17971    12409     2002    12657    11319    -2879    -4727    -8685 
   -8795     -176    -3840    -4614     6682     4607    -5741    -3686 
     441    -3991    -8399    -6554      244     3450    -1514    -1525 
    5946     5331    -1911    -8719   -11063    -2227     1030    -5896 
   -2795     1107    -1939     1304      876   -10554   -13000    -2326 
    7141     4926    -8645   -12451    -4365     -437     4811     2658 
  -10925   -13791   -10295   -11676    -9315      908     6374    -2531 
   -6640     8788    21305    10840      780    11655    16727     4702 
    2222     9085     2319    -9227    -6180     -351      795     6945 
    9366     4734     8083    13159     5992    -2457     2209    14195 
   19905    16969    10758     1925    -9435   -16387   -13068     2259 
   21694    28759    27708    28053    21753    15205    14262     2397 
   -8984    -1119    -1737   -14856   -13046    -2496     7693    11290 
    4055     1873     8166     9729        0      475    23426    31623 
   14893     3611    -3723   -18789   -23706   -11797    -6095    -9134 
   -5255    -2215    -7091    -6482    -1286    -6478   -18276   -24131 
  -18350    -1182    11005     3292   -13443   -21563   -13441     1362 
    1135    -9598   -10943    -6571    -3897      623     7726    12437 
   14801    14710     2880    -5931    -1239   -10135   -18153    -6829 
  -13014   -24942   -10523     2435     2320     9772    23660    29628 
   29072    28256    23309    23660    35255    28825    -4669   -24104 
  -12448     -827    -5682   -17045   -26662   -25524   -12779    -4733 
   -4379     -635     3346     1657    -3145    -3434     5930    14435 
   14056    14014    23500    27688     7261   -13030    -6677     9965 
   20140    17894     6739     1152    -2000    -6732    -1404     7857 
    7156     5868    19386    35275    25613     7257    11878    18110 
    9535     5395     7786     4463    -1665    -8160   -28270   -48805 
  -41581   -22427   -12457    -6682     -614     -299   -18038   -40412 
  -39985   -21718    -2164    10022     7608    -1741    -7102   -13414 
  -18428   -13278   -10442   -12189    -2552     3225    -9100   -15387 
   -4279     7622     9059     3414    -3931   -17343   -25158   -10670 
   -5439   -26293   -35303   -23962   -11168    -4351    -7446   -10709 
   -7114    -1863     4810    10644    10131     2045    -8684   -15844 
  -20781   -27024   -25524    -7843    11454    22252    28444    27168 
   23010    25297    31672    32030    23573    15190     5019    -3100 
   -1790    -3395     3424    20830    16108    -3357   -14620   -20556 
  -25544   -27945   -18144    -2155     -784   -10783   -11342     3006 
    7402   -10905   -23874   -17240    -6971    -3626    -2627    -1671 
   -1220    11446    24885     7053   -16671    -6639     7800     -993 
  -12537   -13371    -1449    12463    11388    13340    30357    36416 
   18971    -3076   -16191   -30990   -38284   -17293     2142     5629 
   20331    26678     7792    -3726    -7014   -26975   -44807   -37196 
  -25978   -19190    -8552   -10048   -18995   -22643   -26302   -16659 
    1225    -1347   -14521   -22759   -26968   -19164    -7109    -2208 
   -1377    -1194     7898    11862    -6200   -17120    -9938    -8930 
   -9792     4814    14148    -1741   -10627     2041     6000    -1030 
   -7350   -15475   -15819       20    19511    25639    28615    47715 
   59054    41493    23155    20245    14769     4437     5516     8066 
   -2085    -5533     1337    -1622    -5000     5324    17347    21566 
   15367    10910    21400    20664     5740     9404    21177    20056 
    6120   -10569    -9961    -7177   -14010    -5674      922    -9540 
  -10214    -6704    -5005     6894     6201    -7380     4186    24410 
   22543    25234    38638    33870    15357     6203     8455     3028 
  -11443   -13551    -7786    -4066     4770     3515    -8283    -1707 
    5580   -12229   -25519   -13868      534     1912      318     -419 
  -10922   -21454   -17689   -10782    -6378    -1991    -6200   -13518 
   -5413     7759     -969   -19704   -18177    -2825     3408    -2473 
   -3820     2143     -853    -3956     1821     6677     5269   -14920 
  -38172   -36286   -23885    -9371     7645    13007    12166    14341 
   14800     8318    -8513   -22488   -19035   -11568   -10285    -8993 
   -8899   -12968   -21304   -23091    -7900     6976     8883     7767 
   12214    18133    10625    -5391    -6431     6438    16255     9347 
  -23103   -48817   -29594    -3530    -1533    16012    36140    15778 
   -4240     -189    -4314    -8370    -6332   -11346    -5722     9216 
   16983    23841    22302     9504     6743     8569    -6177   -23036 
  -21045    -6615     7707     6089   -10743   -15323    -4765     5775 
   11121     4868    -7426    -8658     3848    13009    13514    10399 
  -10756   -31568   -16869     3203    -5586   -31293   -45022   -26815 
   -4828    -6112    -4671    13043    28711    29006    17971    17459 
   27699    17896    -6667   -10862    -5459    -8185    -4827    -7811 
  -20501   -14094     4641    12588     6791     4495    20486    28948 
   16777    12525    19074    24741    25432     6029   -16121   -21508 
  -32706   -36157    -7989    19904    21039     -186   -19280   -11387 
    4499     4024    -6323   -15176    -9454     3794     3287     1354 
    9028     8151    -5692   -13703    -9836    -7977    -6197    -6253 
  -23041   -32783   -16914    -4369    -7686   -10242    -6774     2824 
   15140    10130    -6644   -12164   -14562    -9958     5618     3708 
     203    17949    14488    -8201     2833    26871    21317     4824 
    -233      666      247    -7040   -15215   -13188    -5166     1614 
    2577     2870     9101    12910    14288    12660    -3750   -27888 
  -34415   -14372     5795     3177    -8993    -3727    21378    30740 
    9493   -13705   -18021   -13014   -18520   -13987    15950    24829 
    -129   -18962   -13616     3927    12711    13076    13764     5505 
   -4801     1694     7557    -4673    -9994      483     5211     6327 
   16233    24285    27328    35959    30069     3437    -9250    -5161 
   12021    40076    36954     9200      654     -105    -3951      -93 
    9456    12588    -2111   -10894     2867    13324    14771    13099 
    8141     7511     5595     6701    15265     8734    -8100   -17046 
  -26547   -28129    -9747     8407    13652    13486    13159     9836 
      -5    -5598    -8538   -22562   -28156   -13524    -1167     4318 
    5749    -2910    -9163    -5274    -5173    -9184    -4973    -2879 
  -10721    -8677    -6431   -19364   -21917   -18235   -16182      -40 
    4930    -4525     -141     8074    10393     6544    -1489    -7159 
  -18171   -27264   -23916   -18835   -13879    -5239     4058     8617 
    2020   -13178   -20340    -9590      449    -7064   -17238   -14750 
   -9217    -7042     2835     9274    -7811   -20880    -5296     5494 
   -8260   -17230    -6790     4761     7103     9258     6515    -7948 
   -7820     8437     4473    -6296     3584     4044    -7373     3510 
   11229    -4085    -8257     1066     1953    -2083     3235    16448 
   17728     8181     8953    13475     5429    -7630   -13346    -9387 
   -3295    -2521    -3505    -5520   -10233   -11777    -1865    12299 
   14381    18164    25327    12669    -1379    -3283    -5394    -3222 
   -4336   -14574   -20158   -19120   -16006   -15556   -11411     7763 
   18127     1131   -13450    -2934    14423    20040    25230    32950 
   25535    12448    10511     5113   -10345   -15383    -9197    -7627 
   -6393    -3947    -1208     6204     5614     -747     3954    12352 
   17448    16946     2058   -11126    -6628    -5136    -9671    -2821 
   -1598   -10570    -5857     2713    -1610    -5692     2466     6426 
   -2262     2214    13981    10480    -1111   -11510    -4463     8735 
    3092    -1854     1833     5435     8010     1983      168     7160 
    2945    -2953     -548   -10226   -21818    -6588    13338    13306 
   11079     8478    -7506   -22235   -19178    -6493     3141     5926 
   -3572   -14532    -4577     9736     6648     6219    12555      305 
  -18967   -17698    -6471       63     1229    -4488    -5343     9026 
   22281    19426    10068    -2733   -20201   -22029   -10287   -11315 
  -14412    -1668     6413     1348     1144    -2074   -16506   -21313 
  -13845    -3213    12216    19711     7773    -9146   -13304    -3789 
    7650     8930    -1729   -19433   -31722   -25201   -13934   -17427 
  -25605   -26489   -19511    -2030    14916    15942     8402    -1937 
  -14650   -19431   -16395    -8411      911      264    -6250   -12472 
  -16272    -7740     5599    10654    14393    15196     4411      550 
   11142     8359    -3511      502    12677    25868    28926    12394 
    2651     3865    -1053     1350     8550     -176    -5058     6906 
    4739    -6130    -5162   -10976    -8806     7072    -1128   -12437 
    -594     5694    -3774   -11433    -8657    -3635     1676     9882 
    6407    -4371     -437     9915    11169     6266     1522     1073 
      44    -3785    -1283     4965     5189     -965    -8841    -9093 
    2975    13406     7015    -6694    -8505      575     5694     1449 
