Origin Time       2021/02/13 23:08:00
Lat.              37.7
Long.             141.8
Depth. (km)       60
Mag.              7.1
Station Code      MYGH14
Station Lat.      38.3400
Station Long.     140.9551
Station Height(m) 48
Record Time       2021/02/13 23:08:06
Sampling Freq(Hz) 100Hz
Duration Time(s)  236
Dir.              5
Scale Factor      7845(gal)/8223790
Max. Acc. (gal)   292.157
Last Correction   2021/02/13 23:08:06
Memo.             
[...]
  -13084    -2843    18648    35264    38770    30003    13977     2070 
   -3358   -11589   -23955   -37766   -51408   -57792   -51761   -34439 
  -10088    13244    24372    17821     6469     6782    12075     8862 
    2893     2562      342    -9467   -18554   -21910   -20746   -13371 
   -1939    10243    22747    28192    18299    -3952   -29980   -55467 
  -75903   -80312   -68480   -55985   -46260   -30306   -10717     5390 
   19001    28671    30700    29956    29076    21655    10507     5556 
     675   -15654   -35278   -42371   -35901   -22765    -7535      -28 
   -7075   -17697   -19345   -11847     -882     4321    -2764   -19197 
  -39426   -53681   -45732   -19618    -2945    -2929       -5    16195 
   36278    44496    31167     -785   -31622   -39283   -29785   -25087 
  -27589   -26377   -18759   -14121   -19267   -23187   -15340     -272 
   16008    27301    28560    22985    12989     -183    -3700    15511 
   42132    48282    39256    40458    50091    47324    26628    -5580 
  -41759   -71783   -89228   -93205   -90078   -86528   -70301   -35118 
   -2018    20513    38912    40803    17867    -8681   -17307   -15032 
  -20776   -32571   -33855   -24391   -15954    -8822      264     3983 
    -101      -56    10389    20549    17045     2339    -3889     8388 
   23749    29575    30742    27066    16564    11657    17724    23159 
   23419    20398     7520   -17416   -41808   -52362   -49983   -45929 
  -43047   -32705   -15853    -4749     2998    15340    19448    12349 
    9135      958   -21007   -40215   -51992   -58747   -49843   -26075 
   -3345    12513    24660    30735    33208    39195    40933    29907 
   13441     -549    -9900   -13386   -11313    -5375      989     3721 
    4294     7329     9244     8699    15772    25425    21644    13528 
   13397     7275   -12858   -32687   -43177   -49187   -52353   -44838 
  -26079    -5489    13502    23117    11596   -10912   -26505   -30281 
  -24549   -20078   -19966   -10104     8271    18273    16002     4712 
  -12168   -26374   -34954   -43552   -52982   -55976   -50890   -45304 
  -40433   -30072   -16911    -6448     3117     5540    -3759    -6970 
    3658    13770    21690    28628    24609    14274    11020    14485 
   17007    10516    -6822   -22157   -25425   -24729   -29398   -38739 
  -46988   -46676   -38192   -28408   -19155   -11746    -3669    13807 
   36902    54625    60149    43429     7450   -26512   -44891   -45975 
  -36663   -33824   -44734   -54754   -50828   -38843   -24251    -9759 
   -6297    -7898     2637    19715    33934    39953    21371   -15013 
  -36339   -33378   -17463    -2689    -7554   -26955   -36324   -37058 
  -43602   -48122   -44113   -41137   -31567    -3534    23387    32351 
   33544    34191    35175    38304    32390     4557   -32796   -50288 
  -37771   -13598     3110     6565      144    -8176   -15720   -23846 
  -30892   -33862   -30445   -23592   -16707    -6664     3499     5439 
     -89    -7848    -8321     8077    29686    39733    42317    37732 
   17671    -2720    -4324     2821     5648     9563    14106     7086 
   -9140   -17271   -12388    -7859   -12020   -15322   -10046    -5347 
  -11493   -29783   -51111   -58349   -52597   -43758   -19360    22503 
   57956    74193    72463    62332    55112    41931    13381   -18346 
  -42527   -57649   -57781   -39758   -12992    10690    26816    35658 
   35866    25608    12830     7770     3217   -11176   -22419   -13844 
    1852     2095   -11839   -26527   -36007   -38005   -32890   -24506 
  -16078   -12067   -14631   -20695   -28950   -34456   -29120   -19273 
  -19282   -27082   -25064   -11264    -6517   -12253    -7091     7342 
   15930    18374    10775   -11550   -30743   -27972   -10794     4950 
   19499    38853    57329    63721    54211    35037    15793    -3971 
  -30750   -55456   -62549   -55358   -49901   -57226   -70799   -68855 
  -43974   -14636      769     3076     3919    12810    32130    49678 
   52116    51829    60635    59378    36634     9497   -10281   -25915 
  -42344   -59468   -66856   -56358   -38488   -27888   -23589   -21790 
  -30186   -43575   -37492   -11780     9146    19083    25763    27074 
   14670    -7323   -20819   -26352   -38344   -44770   -34909   -30159 
  -36799   -31093   -11736    -8320   -24856   -29405   -17316   -14098 
  -19587   -21768   -22631   -17925    -4573     7253    11715     9246 
    5595    14011    32841    42218    34834    20596     7573    -1152 
   -7524   -18484   -32418   -38171   -34017   -27931   -25146   -34685 
  -59840   -79829   -77814   -59435   -31054     1156    23714    31077 
   30466    26476    20621    18414    19485    20699    27143    37057 
   37035    24852    10017    -8199   -33139   -50896   -50367   -44741 
  -48139   -51830   -36495    -2288    26821    40491    46746    43568 
   36047    38252    42381    36594    25371    15368     8976     5131 
    1040    -4365   -11685   -25867   -49793   -67616   -62266   -46867 
  -43225   -48358   -45809   -30611   -10764     7641    21527    26936 
   29482    37174    46036    49678    41970    21739     3531    -7159 
  -16193   -10459    10548    15773      302   -13559   -23120   -32506 
  -37872   -39023   -35735   -32131   -34402   -31000   -11770     5792 
    3126   -11952   -20054   -13826    -1634     4348      422    -7160 
  -12935   -14937   -11759   -11796   -19554   -19785    -9213    -2971 
    2959    21594    39941    40297    27398     9556    -5768   -10061 
  -12093   -20574   -27434   -26434   -17340    -7776    -9323   -17442 
  -18542    -5771    16931    30462    23760    14034    14161    13383 
    3793   -10416   -21960   -26393   -28116   -27506   -15407     2247 
    6270    -1136      171    11966    21798    29416    35368    32123 
   24322    21610    18976    11090    -3977   -29365   -48776   -46992 
  -40149   -36957   -29166   -21741   -13456     4941    22007    25748 
   21755     8891   -17100   -38808   -42888   -47638   -68006   -90274 
  -97879   -90031   -72566   -44795    -9620    13228    18597    29488 
   51015    60351    45010    15417    -9680   -19326   -17614   -15284 
  -13882    -8780    -1877     6451    16181    18569    10702     -919 
  -14986   -36890   -59053   -58837   -38284   -20142    -4681    12777 
   22909    23834    17590     6162     1100     2228    -9709   -35939 
  -55350   -61641   -64876   -67171   -64571   -54853   -39156   -28059 
  -25820   -18382    -2470     7176     8286     6296     -872    -2358 
    9424     7755   -18175   -34836   -29234   -25157   -27977   -23332 
  -14087   -10012    -5647     6655    24495    41073    49011    43171 
   27414    15357    16391    21460    15861     2303    -7003    -5243 
    9950    27145    28989    13315   -15107   -40393   -43079   -35473 
  -34092   -31685   -27985   -25045   -13504     1733     5589    -1154 
  -11962   -27715   -44622   -51193   -38566   -10683    13370    21246 
   19384    13296     3665    -6380   -17104   -20652      -47    37278 
   63076    64602    46981    21128     2308      232     5008    -1390 
  -18470   -32140   -34303   -22823    -1576    26034    58572    78649 
   78796    84888   105418   118119   114065    95786    64455    33898 
   18262    12286     5921    -5115   -24699   -46695   -58823   -63076 
  -64331   -59179   -50099   -39090   -23313   -14073   -20769   -31176 
  -41287   -57852   -68539   -60388   -39114   -14577    -1624    -9768 
  -26370   -39787   -52621   -64266   -68430   -64297   -55381   -47147 
  -47665   -52016   -51609   -56317   -62856   -52926   -33732   -13340 
   13417    28313    14574    -5656    -8533     3658    21058    33308 
   36826    41053    45512    39934    29683    23377    11651   -13014 
  -35125   -40386   -37951   -33239   -19118   -10450   -27553   -48783 
  -45515   -32705   -32517   -41061   -46336   -40458   -27540   -11583 
   13720    38790    53249    68492    83605    89673    94269    92527 
   68814    33419     5491   -14372   -31374   -48980   -70939   -91007 
  -95041   -80449   -61080   -51381   -52793   -55784   -55053   -57055 
  -64994   -71159   -70831   -67196   -61055   -43839   -12699    12190 
   18090    22469    32117    31203    17329       79   -18967   -38774 
  -49293   -43171   -30784   -26362   -28048   -30883   -34852   -33458 
  -23656    -8974    10929    28345    36710    42450    40686    25652 
    9472     3195    11188    25280    30507    35318    50938    64349 
   63806    47038    15846   -16016   -36310   -40911   -24667     3456 
   18862    16391    16075    25639    30952    27299    21381    12106 
    7339    24273    53693    69153    64174    51709    41154    26581 
    1323   -28406   -56992   -80657   -91515   -89826   -79812   -62208 
  -41909   -24221   -14868   -17651   -17442    -3192     8297    13729 
   27985    43475    53727    68310    74484    51692    15668     -761 
    5678    14677    14631     -805   -32232   -59895   -68616   -67036 
  -68542   -78729   -86004   -65842   -21119    12268    18473    11708 
    -468   -11331   -10287    -4711     3628    27297    55611    71923 
   82350    88059    80122    61889    38068     6766   -22982   -36424 
  -34096   -30311   -39264   -58600   -67427   -56837   -40952   -30609 
  -24510   -18534   -13243   -13969   -17267   -15992   -15531   -17937 
  -15466   -10620   -12663   -27334   -51237   -69260   -79008   -87536 
  -82574   -55205   -18657    14607    37457    47196    53503    60589 
   54286    28651     -253   -17382   -19863   -14254   -13035   -17424 
  -19161   -20216   -25712   -33716   -42817   -53538   -61371   -55058 
  -28683     7001    34350    45546    46453    42857    26947    -6786 
  -41613   -55445   -42615    -9383    29230    52570    51494    32448 
    9159    -5869   -13680   -21254   -24645   -17929    -4340     8737 
   13541     9383     6525     5868    -3369   -18574   -33286   -50406 
  -67817   -86042  -105557  -111110   -96942   -72318   -40100    -4280 
   32347    71544   103148   117952   117016    94547    51237     6081 
  -28223   -52073   -69194   -83963   -93642   -96060   -96569   -91733 
  -79151   -71046   -69418   -62835   -45211   -11994    31098    59891 
   63779    54261    39249    28328    32258    38543    33246    27137 
   23431    10994    -1043     4070    22963    42827    55576    63150 
   73502    87188    96873    94720    75408    42309    11280    -4473 
  -10312   -16460   -23550   -31916   -44490   -58675   -67852   -70650 
  -71867   -74108   -75730   -74262   -68227   -54477   -24295    19334 
   45765    32967     5194     1385    26325    54522    68708    68970 
   50710    17501    -3357    -4072   -11993   -39499   -75340  -113341 
 -141512  -147449  -143480  -136305  -112693   -76540   -43800   -15515 
   10856    32256    48946    62260    70787    73550    66614    49042 
   33808    30870    34290    39031    45106    48945    49400    47290 
   40065    30850    26203    23357    16858     7919    -1350    -9150 
  -10669    -6415    -3923    -5344   -10061   -22975   -39363   -39132 
  -14476    21209    56596    88356   113776   129870   131170   117401 
   94057    62694    32163    14245     3076    -9778   -20772   -29072 
  -42812   -68467  -101918  -130303  -142805  -135567  -106903   -63691 
  -27970   -13135   -11547   -17585   -26744   -27299   -20065   -12575 
   -1243    15381    27365    23569     2879   -27811   -63923  -102929 
 -138994  -163674  -173558  -171751  -156150  -122879   -81163   -42172 
   -3943    32910    56115    66245    81020   104512   125687   142740 
  152687   131862    65361   -19352   -86379  -136661  -177994  -194039 
 -184827  -176266  -174837  -168820  -152782  -123600   -79866   -24686 
   37644    98910   150541   188730   208874   207635   186993   152350 
  115643    89033    74505    70640    74287    74590    61339    29330 
  -18991   -66132   -95955  -111429  -124692  -138951  -147070  -147920 
 -144857  -135905  -126625  -125983  -128476  -131269  -142138  -153621 
 -150191  -126781   -77355    -7917    54764   100225   138715   170067 
  187134   191897   190389   188279   188515   186123   175751   157198 
  127950    87594    47838    20642     3285    -9482   -11002     1688 
   18118    34040    51613    62633    60777    52292    39199    18777 
    -503   -10809   -20208   -37316   -59135   -82399  -113649  -154758 
 -193147  -222876  -243950  -248287  -238191  -229455  -225790  -210579 
 -173890  -129811   -90903   -58437   -32844   -10728    11196    35251 
   64548    93224   109757   110681   106428   113991   131888   140258 
  134576   120634    90819    41893   -11368   -56529   -95962  -130432 
 -148254  -143216  -122146   -88272   -41764      946    11461   -19215 
  -67786  -105345  -124665  -132020  -129778  -118459   -98429   -64400 
  -10960    55777   116572   150273   151320   133015   105906    74744 
   59522    74490   102297   123493   135675   142635   149629   156487 
  157877   149486   126774    91500    54577    23716     -152   -17821 
  -34568   -58869   -91035  -124425  -157611  -192025  -225067  -252105 
 -265272  -254708  -221506  -185876  -167026  -155313  -131851  -102269 
  -77460   -54237   -30570    -6369    19327    43740    68413    97256 
  127138   155310   183906   211553   235064   255534   269626   271115 
  263480   248379   220506   184750   148184   108171    68222    37924 
   14666   -12294   -45189   -76291   -99855  -117510  -131191  -139455 
 -141347  -141511  -150857  -175878  -212440  -253326  -290252  -313109 
 -313027  -282109  -222508  -154423   -99616   -68490   -62587   -71967 
  -80473   -77444   -57530   -20378    29774    87578   144204   190576 
  225921   255239   278657   286896   275680   259492   254002   254102 
  243926   219599   185194   134149    64548      247   -34929   -46164 
  -50287   -54452   -65713   -87210  -108197  -123813  -137620  -148963 
 -154122  -145543  -126644  -115620  -116910  -120857  -121339  -115057 
 -103663   -89017   -65130   -32792    -3167    21799    49766    80319 
  104341   115979   114008    98784    74790    48764    21631    -8509 
  -35208   -50541   -57520   -62064   -67024   -76555   -88407   -91436 
  -80360   -57673   -25259    11890    45620    72126    89571    95644 
   87350    56220    -1134   -67813  -121149  -153067  -163892  -155235 
 -135225  -115732  -105540  -104681  -103775   -99156   -94359   -83590 
  -59413   -26744     6550    36829    63104    87714   110906   128073 
  139803   152743   166854   174329   168490   144055    95377    27299 
  -37804   -81614  -111005  -135955  -146665  -137980  -120749   -95932 
  -61376   -31109   -12595     3893    20185    30707    41743    64104 
   98680   135438   161528   169469   150993    98020    27793   -20888 
  -38114   -48948   -66016   -86308  -109051  -130518  -148015  -155671 
 -142844  -110130   -63320    -9136    37652    69723    94529   117001 
  135225   148846   159270   165928   164347   148343   113960    65781 
   23893     5142    -1749   -14760   -33799   -55397   -76289   -89572 
  -98389  -109005  -117599  -116189   -97487   -63844   -32270   -17423 
  -18072   -26019   -36103   -40161   -26311     5216    39198    63718 
   81020    96380   105220   102227    94741    94289   103763   119306 
  135697   146188   139263    99199    25226   -51335  -102849  -142218 
 -184040  -219442  -248028  -270704  -277506  -272926  -269343  -269331 
 -267150  -246811  -198003  -138974   -99675   -85530   -79886   -69865 
  -48604   -14859    23071    60246    96865   129316   156177   178341 
  194104   202223   200920   192859   187124   184266   176397   160010 
  135688   106523    79922    59655    39771    16822    -6052   -30451 
  -56735   -79016   -97283  -114642  -128900  -136877  -137685  -134759 
 -131683  -125066  -111978   -93141   -62102   -12631    36860    59113 
   59317    55188    44153    26951    10180   -11091   -36921   -57333 
  -64547   -61813   -63078   -73576   -85608   -91434   -85850   -68997 
  -44404   -13540    20306    53161    81178    97100    98051    89289 
   77085    65597    53997    38404    20015     1219   -21123   -46647 
  -65967   -74028   -74572   -68524   -57497   -50240   -50656   -54434 
  -58232   -61384   -63936   -67066   -73062   -78753   -74175   -57024 
  -35186   -11696    16888    49844    80176   101875   115183   124083 
  131998   140512   150498   162549   174571   182862   185288   178202 
  154575   111955    58923     7607   -35922   -71018   -99283  -122355 
 -140235  -154986  -170534  -183331  -184594  -169601  -133689   -77317 
  -19156    20075    38944    45770    46083    44876    45995    50895 
   62352    83101   110533   134550   140121   115473    63741     6736 
  -34931   -61547   -78656   -83848   -79764   -72675   -63224   -53177 
  -51084   -66522   -95110  -116707  -121988  -122249  -123076  -116176 
  -98649   -76977   -58558   -47675   -43387   -42796   -45671   -53140 
  -61358   -61453   -51459   -38036   -23963    -7626     5934     8460 
    4278     5281    10694    10702     5293     3763    11092    24609 
   39258    50719    56982    61801    72719    90092   104928   110600 
  108361    99187    79112    48571    17317    -4681   -14983   -16260 
  -11740    -8959   -17046   -30484   -36655   -40437   -52639   -68928 
  -82382   -92591   -97407   -94323   -86204   -78833   -74042   -69780 
  -65060   -56461   -39233   -18434    -4955    -1591    -2691     -364 
   11399    31899    54170    72628    88807   105376   116880   116459 
  103133    76216    39264     2529   -28147   -48145   -53878   -54571 
  -55435   -45458   -20926     6534    25995    37538    44787    38335 
    6000   -37359   -59475   -54476   -38176   -10725    22659    38608 
   39029    44622    57377    70170    78956    80562    74104    57076 
   28077    -4862   -32058   -52191   -65295   -69503   -68859   -68187 
  -65024   -54198   -33353    -8650     8710    15298    14404    10238 
    5958       27    -8780   -16536   -20309   -20278   -15242    -4706 
    5181     5400    -7186   -27595   -48119   -65739   -80480   -90864 
  -96623   -99254  -100134   -99526   -94667   -83992   -72364   -64921 
  -56798   -37782    -8788    17470    27241    10662   -24987   -51987 
  -51717   -30900    -3001    26705    59929    95850   123709   136676 
  142111   144535   141372   135685   131122   124341   109335    81735 
   45582    15881      221   -14451   -37301   -59050   -78460  -103985 
 -129463  -144235  -149443  -149103  -143654  -133531  -121852  -110762 
  -96171   -74829   -52061   -32765   -14007     5173    19913    30577 
   39640    43287    41554    39372    36371    31688    28248    25664 
   18333     3743   -12961   -26260   -35607   -42843   -49365   -56106 
  -63536   -67605   -60567   -42182   -24432   -17143   -14107    -4710 
    9416    20413    26585    31541    35981    36564    35299    40751 
   53411    63846    68997    73365    77012    78601    82817    91297 
   95739    88256    69047    44058    21863     4305   -17732   -46626 
  -71518   -85004   -85530   -71660   -43775    -5217    29984    42773 
   35625    28802    26928    20254    10345    -1282   -22948   -46190 
  -51063   -35405    -9946    13545    24395    22739    20196    24113 
   31237    33840    25415     5846   -17243   -32101   -32460   -27306 
