Origin Time       2021/02/13 23:08:00
Lat.              37.7
Long.             141.8
Depth. (km)       60
Mag.              7.1
Station Code      MYGH11
Station Lat.      38.5158
Station Long.     141.3421
Station Height(m) 5
Record Time       2021/02/13 23:08:06
Sampling Freq(Hz) 100Hz
Duration Time(s)  229
Dir.              4
Scale Factor      7845(gal)/8223790
Max. Acc. (gal)   316.702
Last Correction   2021/02/13 23:08:06
Memo.             
[...]
   -5089   -17362    -6650    15596    33088    25571      -27   -11298 
   -6318   -10566   -10470    14978    27064     9147   -10816   -26334 
  -17581    18854    31727    10683    -9857   -21892   -25120   -10712 
   19403    43676    26433   -25489   -49684   -23101    16942    44969 
   49798    20501   -18015   -32212   -22874     4149    29228    23278 
    4318    -4765    -9290     2477    26258    27658    11037    -2236 
  -14458   -17074    -6806       98     6254    14214    13944    17830 
   25666     7928   -16668   -12159    -4479    -7457     2751    17348 
   23827    28177    22295     -716   -27087   -33882   -20007    -6066 
     870      403    -1910    11294    29308    29060    13417   -11034 
  -22550     1705    23851    11218    -4252    -8286   -13594    -8294 
    4984     8492     9877     8295       71     2461     6390   -13784 
  -35885   -22967     5965    25080    41065    41107    16912    -3488 
  -14808   -29023   -21438    10959    20251     7593    14408    24260 
    6771   -14386   -24624   -36117   -27113     7267    26947    20866 
    -837   -22712   -14420    13737    21703    15071     9096    -7958 
  -14130     7645    18181    10137     7728     4769     4538    14139 
   13369      102   -10219   -13856    -6293     5128     8461    20078 
   42784    38280     1013   -30260   -41917   -31599    -5258     5329 
    1848     2435    -4035   -15034    -4970    21236    26634    10289 
   -2245    -1186    12221    10111    -6173    10843    38732    25141 
    2662     4426     7036    13730    25701    11907    -7229    -2463 
    1509    -2643    -2587   -13670   -37181   -41982   -20491     2678 
   15299    18858     8413    -8527   -11855    -1161    11475    13463 
    5377     5732    -1337   -25694   -25254     1717    23522    30546 
   11642   -14700   -12974       78     8634    34998    55638    28957 
  -11796   -28134   -30195   -21678   -11973   -19079   -17406     9057 
   22218    13828     8758     -643   -13582   -13734   -13574    -8730 
    8668     8541     1405    14342    18636    13402    19129    15358 
   11611    13956   -14485   -43282   -33637   -17077    13053    61889 
   67347    24960   -11723   -31363   -29762    -1127    17716     3443 
  -20862   -35152   -28279    10936    58288    67298    38279      472 
  -29296   -29340     1278    27243    19228   -16237   -47673   -51387 
  -15921    45562    86836    78872    41011     5973   -15414   -21558 
  -13026    -2259     1736       74     1642    14215    21902     8349 
  -10633   -21208   -27581   -23051   -11372    -6269     4838    21228 
   22137    13570     2066   -10570    -5853     9405    17435    15163 
  -14909   -52347   -42526     4440    41264    54564    52114    29003 
  -11434   -37454   -43276   -40744   -24484     1264    30700    39656 
    9593   -17571   -23418   -23877    -4881    24813    33092    23457 
    5913   -25245   -44151   -17813    23542    38385    27738     8627 
    1977     9089     5632   -15734   -32613   -29567    -9386    27630 
   67807    79988    46457    -9320   -38430   -33602   -16814     2400 
      94   -20467    -9134    23234    26651    19676    18723    -8313 
  -40536   -31194    -5516      803      429     7804    10002    -6944 
  -22396    -9117    17728    22477    10997    13765    10183   -11087 
   -4808    23047    35614    31422     2450   -29091   -26739   -13981 
   -4546     9887     9715     -283     5128    12000     3025    -3740 
    4932    23469    39256    27986    -8295   -35171   -33655    -8125 
   23911    38583    19672   -10457   -17697   -16891   -20329   -14787 
   -3532    20698    53584    49948     5987   -32220   -47035   -37827 
   -7528    20700    39131    34214    -4202   -14737    11834     1563 
  -16919     9776    37910    43432    38516    19052   -11834   -35449 
  -34809    -8552    28298    38183     9597   -13173   -20287   -24775 
   -7150    11223     4198     1888     9969    16402    25124    20935 
   -1837   -18218   -11858      507    -2794    -7788     1048     5471 
    1474     7843    14979     5676    -6112     2161    30484    37646 
     735   -34888   -44581   -34308     1510    29513    26096    10763 
  -17034   -44734   -39933     -961    40262    44512    15936   -16029 
  -30376    -6103    37060    58668    51165    16565   -20568   -26789 
  -14369    -1167     3123   -10281   -13937     -598      360    -3906 
    -926    -6033   -12029     1698    18297     9724   -14886   -30022 
  -33689   -27090    10828    58078    56600    21049    -6974   -18685 
   -1857    28119    32405     -148   -36871   -29903     4876    23635 
   28382    22191     2332   -17274   -27792   -24401   -16081   -14266 
    7615    49212    59782    39861    21485    -2624   -31380   -36435 
  -21402    -1059    26654    22867   -16421   -16866    17917    28360 
   24356    30057    26090     5686   -12780   -31766   -34013     5852 
   45006    40159    13078   -11345   -41693   -54415   -11832    36046 
   37064    13122   -19341   -29709    12141    49914    43383    22929 
  -19029   -72574   -71127   -31187    -3345    25054    37709    15334 
   -1266     1749     9902    30339    50448    43231    15727   -17945 
  -35121    -3771    35372    36814    34828    10303   -65566   -88662 
  -25791    18183    33970    50922    27811   -23487   -51937   -55467 
  -35233    17662    69290    77726    59304    28998   -36439  -105082 
 -111626   -62692     5144    64935    81514    59329    34246    16249 
   -2091   -21514   -22775    -2693     9757    14585    19005     3457 
  -28804   -66012   -94176   -69661     6216    76393   104541    79996 
   23356   -32854   -63810   -35267    30657    64199    45489    -6984 
  -52798   -48176   -10747    20876    38929    33216    10674     6192 
   24992    44174    49852    28071   -32768   -88179   -73803   -12363 
   43956    90760    93502    14798   -80603  -120303  -108067   -56440 
   12537    53114    44381     1788   -37355   -39491     4159    64488 
   87725    67225    27715   -27089   -62176   -43167     -206    32962 
   49466    54303    58916    60258    39587   -12339   -71609   -98312 
  -72095    -6115    51093    65820    52780    20078   -29045   -52142 
  -34412   -28231   -44429   -35248      904    51109   111396   123619 
   66351    -5425   -63856   -81179   -34442    33153    92542   121833 
   70762   -24553   -70390   -59968   -47725   -42418   -30032   -35688 
  -41566     1836    45465    39604    18107   -11797   -50064   -51605 
  -17459    -6733   -35645   -59899   -42948    11662    68863    93722 
   86633    51530    -9958   -53696   -44490    -3743    39469    66372 
   52629     8136   -17221   -17378    -9622    24273    63778    56515 
    5387   -51957   -85684   -85290   -60187   -24687    23272    75830 
   80920    32557    -1998    -8973   -23296   -24090    19414    63894 
   70950    58614    24576   -22756   -32800    -9364    14154    27477 
    2365   -46788   -74399   -75624    -7979   109437   135712    71649 
   11904   -61379  -123418   -88499   -10821    14031     2596   -30581 
  -74649   -59250     3311    39623    56729    58642     4351   -76218 
 -100361   -47073    45064   121288   135062    92408    30900   -41829 
 -113684  -126904   -60932    32674   114307   150346    95229   -25830 
 -132887  -179918  -138519    -7954   112382   138009   110721    65295 
    6628   -18935    -1566    21271    26281     3362   -39926   -62289 
  -29401    19878    33693    36440    57358    64729    42454    22851 
    2087   -44254   -90711  -111982   -99445   -49968      827    20638 
   12426    -7202    -7865    19184    47272    67147    77147    48878 
  -17635   -63517   -55780   -13594    59574   137080   150985    95945 
    7929   -80800  -108430   -58671    10960    58881    68172    38813 
   -6770   -66881  -122851  -124812   -99816   -85210   -44371    14222 
   54477    83668    86746    40497   -29157   -80453   -93823   -65314 
   -6172    54268    86483    83047    63038    51827    53118    38674 
   -5120   -56749  -113875  -156807  -116401    -1869    89325   117144 
  103049    62033     9320   -31595   -34573    -6339     6967     8770 
   22383    12850    -9211    12885    45716    35700    28186    51202 
   30589   -44270   -84300   -64035   -18306    27515    51150    45481 
   13203   -22836   -32113   -30663   -19556    11194    13416    -8542 
    4752    45067    83857   100869    74714    30013   -16105   -63898 
  -79895   -55386    -6613    43544    46372     2255   -38302   -56377 
  -58598   -47154   -20121    16089    36301    30046    32066    45164 
   22820   -21425   -43364   -46207   -40327    -6230    68823   123106 
   97735    35684   -41184  -138541  -155717   -45999    67419   107617 
  104899    72157    24344     9999    24198     1787   -51329   -67144 
  -59339   -69595   -64573   -35795   -24001    -7460    41685    72057 
   54284    15665   -25847   -55918   -70956   -54344    11307    59142 
   62397    71508    48799   -23326   -65614   -67836   -52123    11168 
  101825   148832   141480   116094    79535    25933   -31896   -85137 
 -126162  -132582   -83901    -8010    34535    54927    80507    54896 
  -18709   -45152   -29922   -40836   -39239    16343    62328    65542 
   55355    33907    10852    20704    40788    20811    -9409   -25242 
  -64470   -79165   -15935    38481    41926    41534    18609   -29916 
  -50310   -46669   -38025   -18659    -5336    -9034   -15353    -2817 
   18474     9532   -10048    -3460     3616      810    15909    43754 
   46766    11026   -36551   -64912   -57184   -12783    49963   101024 
   92905    14172   -61794   -70513   -20383    33073    33511     3943 
  -19618   -56039   -66991   -17076    22077    14929    11241    25189 
   35993    44301    38371     9706    -6651     3935    16960    21718 
   31325    45315    13653   -73550  -121988   -86109   -22881    43160 
  119819   166735   144378    67136   -41805  -147641  -178506  -116132 
  -38045     -704    15851    23525    14632    21327    57049    77471 
   60589    10527   -55237   -85241   -68146   -21269    66606   141191 
  126499    56489   -18474   -83207   -88879   -26659    29639    44705 
   36194     -692   -53771   -84001   -84389   -60396    -7908    57823 
   91795    63053   -10374   -81214   -97029   -45576    28020    71030 
   65030    38782    29411    52149    96273   106012    44325   -42453 
 -108048  -145019   -97194    46857   146291   141133   110785    47744 
  -71838  -163128  -155178   -84184   -13940    59298   114039    86437 
   -3036   -90829  -126588   -94149   -30570    45986   100938    72752 
    3022   -39528   -55216   -29025    24402    56315    84032    80574 
     814   -55989   -41931   -22036    17865    67786    69619    38681 
   -9586   -65011  -103300  -116610   -72404    28903   102590    92846 
   32586   -29524   -68396   -58774     -500    57140    65784    26225 
  -25111   -48628   -11608    70939   131029   143853   125772    52666 
  -65180  -141443  -136190   -64810    57468   162498   155510    66676 
   -5603   -72227  -127140   -86142     9813    59949    60890    27450 
  -50762  -140428  -153123   -64384    38986    97854   113039    78227 
    8793   -49249   -58792   -28559    10935    46681    43136     2735 
  -19418   -39368   -70957   -71771   -45715    -8622    38847    60862 
   40343     9794    -7420   -15921   -20979    -1773    43160    55880 
   24352     2554   -12289   -27814    10582    73863    73114    33488 
   -9591   -77815  -120075   -82825    -2544    74703   127454   128197 
   65362    -2388   -15628    11138    53640    85162    54369   -42971 
 -149253  -219234  -207342   -77556    71871   119002    95866    43070 
  -48546  -114513   -93247   -36813   -16861    -7342    11199      414 
    4881    39040    32918    15556    28902    64071   115418   142692 
  127030    77336    -5481   -89980  -125491   -72747    57138   178841 
  216342   183334   106199   -23800  -164829  -232333  -180601   -41324 
   85756   128278   104068    43771   -53622  -141709  -133411   -38373 
   34442    56863    95234   136768   129895   102259    46576   -76636 
 -197473  -267603  -301347  -235067   -72632    83463   210795   287508 
  244328    90238   -69118  -154851  -181102  -135997     1362   139977 
  200846   199505   144568    38244   -65944  -111414   -87831   -23606 
    6529   -35382   -70468   -60883   -47983     4680    99227   135265 
  112534    96356    77934    47511    10072   -56816  -142742  -191953 
 -168203   -93388   -26308    10940    34376    19761   -32987   -28418 
   62388   146265   165663   134789    61797   -60016  -175597  -190494 
  -88026    65076   178888   220602   199092    74347  -112849  -228158 
 -255696  -211189   -83980    30338    70505    76804    51580     1034 
  -27589   -26593   -29376   -14706    59274   116175    83380    -2774 
 -101061  -154932  -118612    -8932   119496   190570   196399   156096 
   47804   -83705  -149667  -106035     1713    73481   112072   132066 
   74853   -16630   -56907   -43642   -24981   -51498   -93214  -125694 
 -168741  -141585     7352   173391   269349   291586   225312    71219 
  -83681  -188379  -267613  -275352  -167520    -6007   111908   115728 
   49966     2369   -26906   -10708    69750   118123    85761     1293 
 -129756  -262634  -307832  -222133   -33382   151822   245928   278171 
  245214   102585   -78538  -219388  -289299  -230999   -65614   118397 
  274176   334455   259646   132244    37172   -18573   -41851   -41296 
  -44081   -50538   -57229   -80268   -80167   -38589   -34254   -50699 
    8708    61356     9193   -44801   -47270   -76486  -122172  -111836 
  -60347    -3844    69419   134682   149976   138500   113447    48648 
  -27253   -76979  -103836   -69961    31999   113894   132667   111761 
   59328    -5173   -36501   -22094   -20294   -70758  -103588   -82840 
  -66225   -31974    55044   107109    92593    83737    66096     6107 
  -49275   -85538   -92345   -60027   -56864   -96306  -114091   -96950 
  -57686    -7645    43721   116436   180960   163436    88422     9923 
  -89047  -174263  -169904   -73395    72962   191897   235349   231877 
  168867    49410   -51268  -117560  -149590  -125878   -72890   -11268 
   29916    12576   -27525   -70829  -118686  -113445   -33064    88595 
  175383   148113    58784   -13293   -74139  -103281   -58718    45226 
  147642   188161   158257    75180   -34489  -114736  -144798  -134341 
  -76788   -15853    -1925   -11577   -23461   -21413    19030    50414 
   29259    14882    46381    70236    54805    45242    63498    51718 
   -2139   -28887   -10330    15849    16865   -17540   -61738   -91681 
  -97258   -49063    50099   103300    59096     3792   -30036   -67425 
  -39691    50639    79543    28919   -31284   -70989   -85082   -55667 
   40163   131571   120793    60145    -5840  -117304  -197027  -148996 
  -36722    61084   166421   265771   256572   142920    33744   -46238 
 -111572  -154128  -151515   -93613   -64754   -98554  -102212   -50719 
   29289   120829   160416   116696    42853     -238   -23961   -55586 
  -23276    87181   140957   107176    62023   -13794  -120642  -138858 
  -54804    -3632    -3821     8274   -10405   -72473  -101802   -89977 
  -58635     5007    69977    76302    20348   -49558  -101101  -116179 
  -57029    51100   116487   127769   116607    62634   -16914   -61681 
  -51271    -1391    52891    86919    95135    79490    57296    30735 
    5836    10908    20414    -6270   -38881   -50842   -60390   -67096 
  -45034    10489    65358    80595    39638   -31280   -76106   -89812 
  -95416   -62907    23901    95223    86402    17510   -70077  -146855 
 -174214  -122424    -2891   117451   180631   178906   133674    77589 
   10706   -55998   -81568   -75756   -51511     4260    52728    49063 
   24838     6389   -33609   -60710   -20773    14023   -16548   -26098 
   18181    23842   -11236   -14705    10613    37011    58892    83218 
   99018    65776    -6318   -66393  -101992  -114407   -73257    20672 
  103368   149634   154244    85891   -27280  -129701  -175849  -132445 
  -58419   -28983   -17983    20173    58432    64879    60963    57165 
   44230    15928   -36344   -71155   -39754    15776    43048    61047 
   79189    62843    11862   -26150   -27506   -24941   -43471   -55773 
  -44440    -8868    45814    66325    45235    40327    23623   -41219 
  -91644  -107187  -118901   -90493    -4129    58573    58797    51634 
   35120   -22964   -67566   -67937   -51295    -4646    57125    77494 
   58488    30307    -4645   -43344   -47594    19596   105495   111423 
   58147    38022    38190    14368   -16943   -44960   -52247   -28480 
   -1035    32412    56577    36347    21338    23931   -16718   -61353 
  -51058    -5605    59644   102870    69388    -5036   -63887  -105310 
 -102686   -20088    76870   113479   109224    77638    15596   -40240 
  -59297   -32553    18064    48459    58490    55683    26099      920 
   18837    49450    34438   -29095   -87601  -118349  -130339  -100692 
  -24144    56640   104904   100431    34048   -69360  -138164  -113182 
  -25890    36348    44740    46078    49044    21258    -7950   -12066 
  -36556   -72783   -47079    15566    46402    62648    69377    38881 
  -10957   -48421   -50298   -30782   -19622    22931    95925    96844 
   24169   -28436   -60293   -87480   -51332    50102   126720   131209 
   75452   -35910  -146761  -175709  -135714   -53507    66722   150202 
  134979    49978   -45566   -90983   -65379   -10459    33481    52918 
   48097    32362    10849   -10899    -1213    36000    47432    36647 
   29754    16991    16036    14125   -24618   -50842   -37960   -49518 
  -93132   -96869   -43785    26855   106246   190112   220274   126850 
  -40498  -160448  -241193  -294366  -209818   -32765    78420   144159 
  180473   121170    20175   -56072   -93066   -55705    26646    83664 
  100769    77774     1107   -96070  -143410  -120683   -50067    40980 
  119909   169539   176361   127219    37268   -53835  -108218  -107482 
  -40780    70001   146792   156983   129647    48421   -71489  -136571 
 -113977   -36273    44566    82775    86305    51578   -24085   -83045 
  -86873   -54928   -34782   -35552   -18292    22061    76685   122652 
  125158   105676    48571   -73835  -168033  -176488  -135369   -49293 
   54992   134777   180202   145644    20390  -121128  -230154  -265574 
 -172362     4186   138096   166418   115668    25799   -68154  -127654 
 -130709   -66991    28351    92349   125999   132345    78688    -7430 
  -66773   -82127   -53388    -1540    20017    -3715   -36402   -50602 
  -44817   -29604    -5437    24321    47548    55638    38983    17018 
    5414    -4252      -52       12   -31001   -57150   -34369    37118 
  102087   114269   100194    66807   -17136  -113555  -147972  -107069 
  -31025    46998   121340   167412   142534    54198   -53793  -132750 
 -134362   -84997   -36084    24655    73082    78707    58498    -6798 
  -70370   -47740     7231    44513    84291    82547    12241   -42055 
  -19735    25084    48774    71230    81704    54271    -5250   -81716 
 -163163  -226929  -224700  -133689     7848   138699   221321   238019 
  157208    25532   -58183  -109287  -115402   -26002    46719    59961 
