Origin Time       2021/02/13 23:08:00
Lat.              37.7
Long.             141.8
Depth. (km)       60
Mag.              7.1
Station Code      MYGH09
Station Lat.      38.0091
Station Long.     140.6027
Station Height(m) 30
Record Time       2021/02/13 23:08:08
Sampling Freq(Hz) 100Hz
Duration Time(s)  300
Dir.              2
Scale Factor      2942(gal)/8224139
Max. Acc. (gal)   103.760
Last Correction   2021/02/13 23:08:08
Memo.             
[...]
   49827    35607    38515    51781    59991    59277    54855    51711 
   56643    66220    63940    54301    52084    51173    45554    35117 
   22894    23808    38408    50336    53360    49239    48540    62723 
   77892    78563    75095    70150    56180    47696    49905    44396 
   36907    38907    36161    36844    55047    56970    32397    21141 
   28312    35961    43167    46728    49122    56030    64990    75281 
   80168    78078    76495    65406    44115    31579    25606    24707 
   34161    33112    20540    25010    43773    54499    53557    50373 
   50881    59119    70222    64955    55900    67352    78262    76129 
   71787    61098    51853    57109    70549    78552    61686    30225 
   26582    49991    66507    61805    42039    33400    44487    55359 
   60885    56617    41262    40543    61384    76252    77248    77072 
   66487    45358    39798    45361    39758    26572    13387     2427 
    5871    27569    44739    44292    48571    66842    76798    76099 
   78337    73912    58623    51792    56710    58915    57979    54075 
   42006    36915    43482    42287    40296    49638    50519    35068 
   20552    13023    10648    18873    31819    38809    47205    60732 
   75080    93244   112477   121367   111838    90250    68219    48435 
   36995    40720    51217    44212    14264     2609    27841    50029 
   46242    30974    24529    40563    63281    64072    48031    41485 
   50564    64083    74071    71895    58781    49508    42358    24822 
    3427    -1840     8851    14331    14133    23545    40581    52390 
   51849    50587    62721    72343    63354    52130    51570    55518 
   60440    56263    37926    26470    28290    32184    39669    42565 
   34839    27452    18503     9740    12580    24268    39773    53092 
   60103    62006    49886    30693    28975    39436    44910    48015 
   45983    35328    33670    48483    63513    70950    75944    80515 
   80469    68936    52469    45021    43487    49350    68721    82170 
   80805    79317    77600    71967    69805    73014    77511    76677 
   66565    56427    50760    42080    35954    43864    53590    45827 
   29625    26227    42897    67568    76461    71363    75000    89052 
   97897    95246    91485    89892    83216    77907    81700    84140 
   71425    54429    54666    63514    66343    65893    49972    20169 
   15149    35885    49654    55557    50907    32574    31540    47817 
   44867    25609    23418    46727    74837    93511   102766   104949 
  106343   101810    86341    76507    76273    69044    41422     5097 
    -491    22123    30318    25431    22762    20482    33571    59329 
   69407    59557    44899    36585    30221    18778    14600    16490 
    9271     8475    28192    50747    70399    88699    86818    69669 
   60516    50939    35962    25065     9031    -5678     -444     9254 
    8962    13671    32968    59278    79393    75763    53670    46252 
   53643    49067    30677     8426    -4359     2015    21309    42327 
   41504    13606    -2304    10260    31342    52216    56235    35943 
   28553    39658    44085    57535    79596    81943    71023    64243 
   67197    71741    56444    34446    36193    46608    45099    38870 
   34678    39746    46873    46959    57133    66328    56270    50822 
   45509    21317     8283    19290    21763    11398    12140    22690 
   35087    49377    58394    64037    70649    79647    92205    90432 
   73367    68422    74858    75340    67477    46430    26266    44143 
   77577    69472    40069    32624    37407    37461    30736    23936 
   28850    51962    78634    77583    73314   108827   132283   112584 
  113638   134451   125018   101020    80191    52200    30225    33689 
   45478    43686    44597    61689    80392    88804    85302    69792 
   59051    79555   109108   106571    79072    49006    38067    55545 
   68837    53869    35414    49693    95914   134604   128092    83469 
   54352    68874    94907    99111    73612    27773     -313    16158 
   43353    47672    42048    38200    43440    67155    87775    79409 
   48483    20561    20248    37609    36116    18550    12043    12799 
   15388    21236    23175    37303    73392   109147   125540   112348 
   92915    97981   107906   105455    94003    73248    52116    35066 
   34643    58089    68716    50217    28100     7399    -9242    -1679 
   16390    16256    10285    15947    28806    41504    43754    37771 
   35359    29501    18462    18862    29037    43316    62210    69726 
   64725    52735    31093    24367    37602    32071     2497   -15638 
  -16464   -18342   -20366   -24138   -23776    -2452    14690     6124 
   -8139   -18126   -16110    -5772   -11672   -17838    -7119     6701 
   23510    30225    16488    11379    36844    66930    60026    36549 
   39457    45623    33559    29505    31722    20324    17269    32092 
   31353    10184   -11090   -16503     6705    28300    31464    47711 
   63900    63175    69743    77188    71342    67292    72752    82846 
   94375    86138    45985    21296    42064    63412    57917    52201 
   52155    42628    41619    57910    69985    77414    80665    70074 
   58453    58548    64617    68192    70780    67068    51011    54418 
   76432    73539    64660    70533    69576    63877    59173    61773 
   76817    79192    60885    44496    40608    44259    44194    36872 
   38773    59445    84079    92638    84210    86263   107088   110389 
   85513    62596    50760    44282    40373    31976    28046    36516 
   55772    77484    80234    81864    99894   105208   104468   114169 
  115518   107401    94036    79959    80450    86478    94767   113898 
  115065    89950    78146    83127    82598    88836   104471    97368 
   80049    97336   124289   116307    96406    94320    96576    93573 
   94663    85205    53580    40282    58895    66660    60718    53397 
   29450     9544    15221    21296    10427   -12883   -22535     6713 
   34190    22800    15761    43128    74094    83259    80431    77386 
   67641    48377    17134   -25166   -52677   -60745   -66233   -56134 
  -30056    -5618    15886    17582     2331    16259    52498    64075 
   59563    51884    29172    20584    36337    32917    22239    35313 
   35021    13117    10497    24803    27063    13367     7690    12942 
   10060    17509    31943    23349    18959    36711    52339    53757 
   45268    43991    51911    57069    56748    39808    12330     5410 
   15944    17585    10235     5436    11313    31326    53951    60597 
   55170    67501    87758    85511    83434    89833    84249    81500 
   83006    63795    33053    19660    21575    14922     2636      661 
   -2378   -11094    -5935    13167    22580    15072     5320     8274 
   32130    57319    57632    47703    45202    49558    65921    89376 
  100973    93047    77989    64596    56180    69184    96546   106737 
  100044    97497   106600   118613   126168   134181   135292   123722 
  112819   101177    80836    63212    59879    66444    74054    80397 
   84284    85509    89198    89583    71691    44717    37813    57564 
   72918    59067    40266    45223    61905    78366    99462   111588 
   99303    83533    85198    89318    86321    87669    94724    94687 
   78717    61055    55237    49021    41910    46471    46606    24798 
    9510    13703     -731   -23872   -16479       -2     4583     7732 
    8167    15102    51386    94494    98404    78075    71667    72775 
   70086    66402    60115    55719    52879    43987    38908    39075 
   28325    10794    -2332    -7257     -764    10269    16470    20177 
   33693    47490    39586    27837    28904    25482    20622    31380 
   50611    59206    50924    47822    59902    57657    40954    40941 
   49636    56288    77221    93016    76808    51170    40709    50797 
   69566    68939    44236    14748     5752    21856    33297    28725 
   20943    19005    29251    34106    17720     6666    13378    13525 
     453   -10520    -8147      594     7319    17001    17126     5360 
   12738    48649    86644    85887    51502    37077    39310    30682 
   27168    35779    46884    56501    61248    58533    68293   106319 
  124969    98375    74742    73140    70926    61376    52317    37123 
   15789    13992    21078    24822    47609    66106    64000    75502 
  100116   112326   108679   100890    96770    88986    84939    94095 
   89502    81206   109921   134623   115013    84038    55279    38564 
   47140    49545    30659     9737     7144    19132    11434    -6531 
    5620    32341    45430    59007    72204    64185    59823    80677 
   94733    87812    75749    63690    62113    80198    91775    66047 
   31607    35762    59147    68199    70486    61854    39008    35684 
   56409    72069    93942   129529   143185   128902   111769    96408 
   75097    58800    67247    76962    56563    38618    53856    69423 
   56910    36779    24460    17853    33489    56386    44987    28189 
   52222    87686    91828    84838    99922   111505    97630    87644 
   86136    74645    61684    58627    69267    83569    73400    47194 
   45216    55204    40404    20865    25304    40053    45985    39756 
   29246    25735    29524    19329   -17514   -43260   -34477   -24217 
  -19762    -5220    10152    23240    37343    40873    24887     9602 
   15930    14215   -13624   -35334   -42738   -39175   -18692    -1921 
    8796    22396    15014    -9568   -24961   -34489   -40354   -30080 
     -48    29998    41021    51576    72472    72986    41324    11943 
   14800    25115     6663   -14096    -7523    16353    57059    82134 
   55887    35480    54785    58253    36925    30661    38384    44664 
   46724    38412    27548    29516    34755    35081    46045    67107 
   68879    42762    32863    69161   109780   118864   113297   108693 
   97918    72395    45627    29538    11084        6    21317    49534 
   53854    60937    83261    89588    84272   101934   136229   148528 
  135978   130100   130438   115096    94131    90356    96171    88237 
   74687    77882    87467    84863    69372    58533    68192    72812 
   65707    75980    76962    51015    43549    51533    40922    33659 
   49960    58352    39795    30979    54017    77188    86474    96961 
  103018    97884    95180    98030    93247    73654    42649    21417 
   32429    49678    43405    46449    76279   100961   116873   133259 
  138291   128289   106486    83987    75239    81433    97447    98821 
   74571    65654    85488   101722   115956   131868   125344   110664 
  114470   111890    81488    50769    33473    16930    15371    35290 
   50296    53981    55182    50315    47838    59786    66818    54935 
   41867    35388    30334    19624    -3322   -22423   -26622   -20644 
   -2022     9645     1705      467     6621     4749     2629     3130 
    1567   -10449   -43991   -86314  -108977  -113638  -118034  -110513 
  -78256   -40084   -24155   -38597   -66642   -85234   -86015   -89519 
 -104214   -95395   -63736   -44602   -30481   -15739    -6786    14446 
   36621    35842    29463    29062    27353    30878    38745    26055 
  -14206   -44058   -39494   -27785   -26323   -21222    -7113     9104 
   25313    44018    60778    65920    64069    80667   125297   165931 
  174420   162515   158094   170536   180220   170985   154476   144459 
  142499   147360   152159   145266   127103   112465   106694   106988 
  112603   112965   108091   103792    86603    67035    69303    77800 
   68642    44493    24067    18138    20726    20972    13747     9741 
   10277     9278    25475    51781    55583    43202    30267    18775 
   15614    26044    50220    74000    78017    64702    53198    54002 
   55328    49297    41914    25941     9636    27338    61981    64466 
   57096    86036   130711   157728   167872   162822   150867   151974 
  165561   182104   183852   147762   105611   100133   111835   112955 
  103526    98010   110562   133745   156679   176565   176839   156567 
  149817   169582   199536   223809   227786   219516   220769   215005 
  184902   164586   163012   148072   123631   104503    92051    93428 
  105808   114486   100741    71261    60100    59240    44672    41546 
   61491    70456    48857    15380      877    12680    20326   -13447 
  -78139  -122273  -124748  -113540  -108874  -102937   -98936  -100156 
  -88134   -65585   -50278   -40297   -42894   -68121   -96882  -103626 
  -87922   -75454   -75883   -74547   -74321   -76304   -63013   -36551 
  -11317     6802    -1957   -40383   -55927   -30797   -15133   -21334 
  -23213   -19734   -11927     5929    17208    10112     7306    14472 
   10185     3817     8195    19174    45401    74669    85117    84334 
   81602    71388    40894     4509    -1185    21834    50450    66576 
   58422    53736    70166    76202    64498    55560    56924    65961 
   69628    69595    73164    64940    54661    58349    47258    19329 
    5638      302    -5200    -7515   -16299    -9972    34758    70047 
   58307    36175    29316    30597    34226    22461    -1229    -7693 
   -5472   -17136   -37635   -62878   -83926   -77423   -52348   -37840 
  -33269   -34184   -39081   -26723     5104    39090    77791   110893 
  113186   110524   132101   146512   147240   159104   162442   152047 
  159657   172577   159645   146369   173168   221229   243500   241255 
  253692   292681   326934   326560   315233   327539   340213   328253 
  300100   263062   235805   233520   233841   214902   196245   191614 
  169308   116537    63482    18562   -22260   -37773   -32409   -28024 
  -10535    22619    53478    75748    80038    77683    93091   117389 
  129363   126169   131340   161824   188065   176343   131719    89338 
   74024    61761    36063    27463    36927    26565    -4727   -24672 
  -21199    -8849    -2717    -8704   -25554   -41710   -55111   -89964 
 -151360  -203731  -219935  -211030  -216274  -237022  -225822  -190826 
 -175648  -182673  -197415  -199519  -189324  -180256  -155976  -125020 
 -104062   -61353     4386    54506    75562    63124    28877      537 
  -22842   -44671   -52474   -45304   -30218   -23414   -30672   -24112 
    3699    22392    17587     -120   -15857   -21431   -24117   -40308 
  -64971   -71563   -57173   -35893   -18296   -26346   -58114   -71099 
  -52162   -42001   -63613   -79911   -57296   -14254    34241    87851 
  113271    97772    79574    69824    60538    60338    57107    46516 
   47966    47316    39425    59834    96622   108934   107373   110014 
  107586    95732    90940   100163   101170   100727   119376   129691 
  126331   141631   157088   150117   159348   183965   161388    95655 
   49407    39807    55274    96826   146888   180561   211087   251041 
  285237   308086   312826   296403   284582   285338   280374   270743 
  270414   276847   269017   244390   235764   244844   235060   211010 
  200610   202752   199404   171618   121022    74061    47154    30562 
   14909     6936     5640     3385    10827    32868    49002    48101 
   39337    34240    32425    18669    -1495    -2986     8064    15664 
   43757    97501   110722    52517   -11191   -29366   -28814   -53765 
 -105189  -149698  -170078  -168428  -150776  -133398  -121730  -104741 
  -83832   -75100   -79807   -70164   -30568    13077    25431    -3744 
  -46797   -68434   -68273   -63775   -64374   -65530   -57126   -55872 
  -72684   -71787   -33011    10493     7026   -44695   -67394   -33000 
   -3663      950    -1406    -8715    -6949    -1152    -3134     6261 
   19562    23005    48716    98085   135306   166639   194745   196392 
  189303   197722   210120   208805   181791   140645   121647   136309 
  153095   152267   160834   186551   193639   179231   162002   134832 
  110774   113865   123384   116106   106705   110995   123006   136448 
  150522   150462   130042   100399    59724    26200    30708    45667 
   32613    18115    37439    68142    75394    69685    84362   115115 
  121436   103233    92303    84846    70498    53715    26069   -20463 
  -78679  -131269  -151164  -127718   -93953   -72581   -43443   -17004 
  -18210   -26754   -41214   -67479   -71905   -51976   -29666     -118 
   33723    53077    64945    92688   122554   118100    84597    67521 
   85257   105837   115782   138834   166023   170822   163926   155105 
  131328   103600   104835   134765   173982   218601   247274   246514 
  240795   229215   219376   246464   272137   255170   238447   242545 
  237053   210600   183498   175041   173384   165426   159804   150190 
  129173   115338   115916   117991   107403    82085    63275    58580 
   58661    64543    59697    38136    20204    -3923   -37600   -67358 
  -93698   -90294   -61485   -54031   -51821   -30769   -10260    -8124 
  -35923   -73715  -103466  -127395  -118048   -85770   -82802  -106011 
 -121119  -117636  -104787   -92342   -86838   -85068   -75315   -76994 
 -115924  -168265  -196735  -199003  -196453  -201692  -200878  -170056 
 -125666  -112029  -117494  -106839   -97687  -106974  -109198   -90540 
  -75624   -74263   -65569   -56461   -64520   -66993   -39313     4135 
   29803    32062    39718    63171    78109    68585    54553    60967 
   78575    87278    93853   112036   127951   122863   119792   154288 
  201283   217772   224394   250263   279807   296507   308874   321452 
  311659   279852   265045   267216   260660   256815   261651   249856 
  215237   181863   163949   151224   141312   145498   146481   119157 
   86290    71633    52952    17776   -19646   -50425   -58747   -35286 
    8085    60866    95137    92006    88086    96174    72912    18060 
  -10874     2133    12640     3190   -11373   -36435   -52921   -28386 
   -2663   -22721   -68239  -103225  -106510   -82329   -68234   -83932 
 -100175   -97510   -87756   -59718   -11037    19052    27380    36510 
   33528    16212     8424    17820    30735    28888    16758    20320 
   41759    56998    61029    64449    66201    63526    64864    80165 
   96048    99323   107798   117162    97509    50660      905   -17251 
   18191    70279    99544   126647   163462   182574   183883   186441 
  186726   179078   172667   185997   220999   241686   224472   196666 
  177982   157675   133878   109505    94533   104328   128560   152814 
  172444   173291   154545   131067   106948    91936    94554    88871 
   53852    11632   -15777   -33035   -51151   -73589   -86508   -86557 
  -97945  -112807  -108619   -98394   -79397   -60531   -74839   -79983 
  -45941   -37793   -64296   -70580   -55950   -34017     -199    25492 
   14297   -23052   -38696   -24555   -25064   -38105   -28416   -13500 
  -18208   -26685   -23801   -10399      774    -4149   -11880   -13564 
  -16474    -6029    19294    38985    51159    55699    64478   101988 
  143062   152556   148902   140495   115176    93032    78445    51915 
   31191    30600    24159     6841    17365    64503    92529    82964 
   85997   110505   126778   129506   123010   114389    98879    77433 
   82838   107002   112098   111181   123404   131450   113691    74034 
   36323    10142    -8434   -18766   -25542   -45100   -76306   -84581 
  -58148   -26819    -1625    26719    56045    85730   108454   101892 
