Origin Time       2021/02/13 23:08:00
Lat.              37.7
Long.             141.8
Depth. (km)       60
Mag.              7.1
Station Code      MYGH07
Station Lat.      38.1802
Station Long.     140.6405
Station Height(m) 44
Record Time       2021/02/13 23:08:08
Sampling Freq(Hz) 100Hz
Duration Time(s)  300
Dir.              3
Scale Factor      3923(gal)/8224838
Max. Acc. (gal)   93.275
Last Correction   2021/02/13 23:08:08
Memo.             
[...]
  114426    74873    33161    25863    47706    42237   -21014   -78915 
  -68671   -21574     9571    26785    33358    23814    31158    57732 
   66391    64975    56980    27121     2980       49    -3117    -2305 
    9991      182   -41112   -60447   -24436    26504    43734    41565 
   44446    40990    34692    32713    21305    10978    16688     5389 
  -35078   -45739    -7244    18256     -406   -14067    15495    46156 
   50847    67022    82965    61952    42797    53576    62831    47105 
    2547   -35518   -23495     3052    -5225   -12658    23604    55190 
   40096    25798    35830    46120    48070    29087     3670     1696 
    2093    -1021    14557    21114    -2273   -13925     3037    18053 
   23769    22292    13113    14403    24707    24610    14970     7107 
    6091    17362    30350     8669   -26237   -16112    12526    23631 
   23477    14644    28613    52161    40922    43807    66961    43312 
    9047    18210    31230    18666    -1051   -14801   -16227    11804 
   53580    57447    34965    39283    58610    57618    51592    58136 
   51247    24641     8707     3157     4264    22999    24125    -3929 
    1448    50971    85241    81342    57971    31602    16850    19692 
   22839    14662     7410     6235     1208    -1270    13521    25030 
   18393    26465    48178    43536    34411    59355    69688    18204 
  -24842      924    28979    12630     2369    24691    45257    41072 
   40832    67221    81594    65533    61152    73747    64195    31826 
    6097     2681     9765    -2758   -20591      712    40896    48154 
   17506   -14690   -11173    18117    37274    32290    13660    16912 
   38522    23835   -11786   -11113     5044    -2856   -14170    -7662 
   -8972   -28468   -26542     1971    13628    13085    27888    51802 
   79929    80040    24574   -23711   -22126   -11311   -14767   -27733 
  -32799    -7520    21813    25918    20062    11223     2292     4091 
   22540    56328    58681     9904   -24456   -20383    -7599     3133 
   12895    40343    74898    64039    23768    22121    37642    13512 
     129    38385    55077    30651    28302    46102    50596    39555 
   12920    -4000    17606    37359    13608    -9217     2567    16653 
   30091    54348    49229     4422   -14627    14785    45659    55150 
   24163   -39487   -43143    13109    15142   -20331   -16665    -1526 
    6691    23067    35645    37886    22370   -11549   -25894     2282 
   31468    28196    26069    43155    40273     4611   -25861   -21089 
   13560    46449    52483    38466    28113    27830    20322    12110 
   25783    46322    51682    48448    47370    38565    14497     6042 
   21178    18073     8415    22113    19198   -10092   -13559    27330 
   81697   107638   102037    85687    51383    20722    31361    51548 
   47734    24738   -21594   -66515   -57052    -3917    35565    44257 
   32454    28368    68874   108086    83718    49326    45333    26050 
    4595    22511    44346    38823    30018    28178    16160     3474 
    6751     8113     9498    25756    23923     3950     5005    -6967 
  -42186   -27847    15452    12553    -4356     9792    37033    55224 
   54375    60392    86206    69947    10774    -7912      -14   -28782 
  -57601   -38041     1439    20667    23485    39923    60593    49392 
   38346    70195    99642    81970    43521    20753    19805    27796 
   26131     2234   -31321   -43777   -30210    -6361    23878    37914 
   23456    24533    55401    76696    66981    48070    53164    48837 
   -2191   -42253   -51788   -62112   -33226    29816    60195    72490 
   87311    79172    61561    52080    32547     6839    -6453   -13778 
  -20139   -17625      -97    19236     9443   -18395   -20260     7173 
   47899    88169    83205    28402    -6150   -12972   -39394   -48176 
    7981    57750    29527   -14997    -9482    11469    22905    33404 
   12043   -26131    -1383    62982    82472    64810    41629     8294 
   -6222    34844    78648    69276    58063    60970    27669    24046 
  105730   136506    56909   -12102   -31460   -11385    48747    54375 
  -14003   -39297     2849    51349    83292    85970    58818    32478 
   28580    47826    55819    11654   -38840   -36103   -17489   -18670 
  -28590   -38572   -26241    13036    57041    95905   113435    94297 
   61973    60177    74082    43083    -8113   -14391   -10848   -38971 
  -42504    10249    48892    35311    22154    25475    18701    13154 
   28082    50801    36308   -26171   -75038   -73390   -38786     2475 
    9747   -18134   -13470    30570    42634     7122   -41688   -64654 
  -27494    36217    61700    42132    15292    -4313   -32626   -30181 
   48594   125774   107239    26827   -22727   -11573    18739    36648 
   44753    42001    25701    16137    46426    84927    54498   -11970 
  -29403   -16108     2407    36676    31542   -29454   -51256   -16243 
    7619    32686    78912    91029    54167    31564    58149    89846 
   77637    32962   -10056   -41299   -53387   -35122      490    29589 
   40770    45558    63067    72674    44724     6982     6011    26920 
   27847    16039     8807    12129    28885    29623     2245   -35915 
  -66706   -50457    -7190    -6725   -17525     3727    21050    35434 
   54599    51051    42152    58492    82043    73882    39070    19159 
   24969    42268    54905    55734    52656    42762    27743    32217 
   65808    94373    82003    45312    16237    -1344    -7786    10377 
   40275    38186    26551    48775    59292    34736    16451    11848 
    5975    -6679    -3595    30059    42391    25197    30403    45632 
   45686    41813    39361    40157    41246    40576    36790    29533 
   12873   -33107   -67270   -29959    21936    13211    -9244    14053 
   43869    57595    72690    44706   -23691   -58861   -63686   -46291 
   -5232    -6652   -38907   -33515   -21787   -37272   -43097    -6556 
   51478    72983    47727    34589    55131    54294    10758   -21109 
   -3408    33902    40117    24826    38284    60858    39591    19099 
   57929   102933   102211    67235    23140    25316    77730    94036 
   37293   -35973   -59945   -39467   -13856    23009    60237    60043 
   40043    28183    29438    42271    31773    -1721     6782    45150 
   47436    30940    11388   -22923   -35229   -31012   -24264    23249 
   66240    50980    42649    66395    52894     9166    12491    43907 
   38747    23210    34769    43823    31136    10423   -20656   -48465 
  -39020    -8878     7055     7736    -1998   -14050   -20569   -31810 
  -44254   -31067     4185    21768     5094   -10004    12164    29443 
   -3813   -34942   -30315   -23923    -5505    37104    63464    58248 
   55729    81496   100414    72507    36088    28603    29158    33103 
   34956     9498   -21907   -20784    13466    57798    86670    95538 
  105012   118038   100603    42260    -6123     4853    38105    18083 
  -20991    -7912    13019    -3545   -28904   -39158   -21595    30828 
   98178   121844    84865    57199    50726    29131    19840    25567 
   15191    -7020   -38691   -75205   -93359   -67614      351    60284 
   76458    59096    44010    54608    57437    46647    58733    60174 
   32136    32576    51711    39106    16505     7227     4610    16112 
   29620    19982    16116    50141    86024    87836    60062    29149 
   28096    35843    21230     8806    10118     8507   -11892   -47656 
  -62704   -51540   -29673    16263    53970    42614    29490    21891 
  -14573   -13247    41330    52728    21728     6589      776     7099 
   34391    48411    33485    10933     3106    20918    41204    39440 
   27093     2143   -27931   -20865     7911      216   -42016   -60072 
  -17020    43363    61580    50198    32362     4769    -8712     -656 
   -4274     2709    52128    71869    17170   -33390   -34165    -7608 
   28204    24858   -13856     9092    72932    67608    17336    -7724 
   -6323    19296    52864    68146    71901    54814    10341       17 
   42672    40587   -34167   -66745   -16929    15603    -5205    -3073 
   27801    20628     -252    19656    63823    94656    67089     9420 
    5062     9105   -18041    -1644    39843    31550    11010    45249 
  105318   109162    69124    59926    52474     6767   -19751    -5940 
   22162    55989    58603    21072    22546    85203   111712    71713 
   35873    32854    58326    93575    97594    80620    79768    64027 
    2053   -27160    21766    59927    54402    39729     9427   -10251 
   -3379    -3480     7167    23209    -5092   -26044    30528    90288 
   49466   -35627   -33748    34474    48496    16279    19332    34385 
   15094     -661    25494    65893    74596    47976    22346    23376 
   30346    27035    43785    64052    32371   -15853   -18789    -7705 
  -32277   -39391    29052    86112    71019    50700    24999   -42047 
  -83593   -37918    39690    63494    26469   -31693   -56467    -9180 
   60246    91000    86493    44543    -9402    -8583    29644    46699 
   30437   -22042   -53680    -1472    56968    49447    22032    14844 
   30443    48030    35175     1404   -13455     3321     -537   -39006 
  -24462    15858   -17224   -28347    44286    63120    11333     4348 
   37381    46738    21798   -18341   -25443    14289    42635    33318 
   25050    30537    15219     9925    65637    96757    44211    -5009 
   -9498     6120    18589   -13662   -63049   -59803   -30211    -8432 
   22898    41388    42195    45160    31368    19468    20664     4577 
    3118    35523    50226    32695    18766    35649    72999    82887 
   42553    -4787    -1692    37658    34592   -12073   -25060    -2357 
   13180    10669   -11153   -14906    10100    20852    37108    46765 
   12604    11032    47129    42174    20869     7199   -11453    -7746 
   15855    34990    64331    91366    67467    19396     4054    -2235 
  -15295    -8565     8252    18890    29830    40498    36790    20086 
   10278      872   -14401    -7688     6512   -20174   -61121   -70440 
  -64763   -53226   -13838    45112    64457    34692    32485    64939 
   81247    78086    46503     7439    22389    67070    77923    62156 
   48834    38402    29555    39490    84412   124093    93587    29425 
   11862    29748    39999    33724    26518    34712    31147     3981 
    8935    46691    45242    14943    14656    28358    31047    25737 
   -4255   -29830     3701    45859    37027    25609    42998    50261 
   34861    23773    34902    58688    73444    56380    -1243   -50971 
  -40228     -908    15958    24406    35873    16486   -15739    -8352 
   14296     8739    -2351    11624    36934    54129    44170     5258 
  -13886   -12833   -21851     3327    52608    53553    29498    26071 
   25423    21581    40061    71359    62151    10948    -9502    12177 
   11202   -16204   -36246   -57794   -74208   -48822    10066    43931 
   25385     3061    19568    36170    18895     9707    37423    62943 
   40528   -11924   -21062     -125   -25142   -39721     3172    13004 
  -19299   -13941    39827    94841   103358    79189    68717    50560 
    8997    -3647     5243       99    16822    32184     2567   -11533 
   -5252   -24536   -29974    -3406    29724    67806    75525    37793 
   21590    46417    63666    64615    60278    41251    28036    51949 
   76522    61437    39700    38222    57848    88790    63401   -25493 
  -60656    -1086    58654    51977    10370   -27272   -55995   -47332 
    8398    58124    66004    37710    -2840   -15066    14193    41407 
   29039     7932     3442   -16756   -38025   -12923    24143    38516 
   64708    96066    89598    51718     3850   -24352   -12981    -7188 
  -32729   -51895   -37721     2874    25084    -3299   -40940   -48271 
  -25425    29801    83893    85680    60208    51120    42708    33937 
   43328    43382    17547    -3396    -4444      160     5682    20440 
   47360    86628   123898   122455    80400    42674    34711    48555 
   56617    41704    26724    17682    16267    54220    87048    45771 
    -958    26950    74480    77957    47156     7377   -13657    -3875 
    9575     9080     4720    -7238   -22307   -17948   -17163   -32220 
   -4734    57159    80431    76189    61798    26582     6623    -1463 
  -10346    12501    28999    -8295   -40375    -9080    49620    81378 
   71772    25261    -9516    18603    63134    67450    52053    45269 
   48203    37438     7541     1800    24749    32462     7867   -50386 
 -113121  -119032   -86622   -82777   -81726   -39040    -1078     5648 
   31212    74595    95616   111789   133343   137921   114245    63536 
   29313    36649    30052   -15768   -57203   -56743   -19645     1934 
  -13174   -15240     4814    -3694   -35681   -36543    -4284    13895 
     -83    -4696    35534    82317    98293    85511    43926    13566 
   12680    11989    44764   112216   160332   177260   134858    58923 
   34569    42109    46980    65387    68458    48514    41895    30164 
    4072    12077    37183    30750    36849    75932    64359   -11399 
  -44178     -661    39582    59211    79674    64565    44023    81116 
  116804    97494    62846    31955    12758    31105    52296    34345 
   15800    19855    15655    14854    44182    77399    97058   117192 
  132734   116355    63798    37307    65569    78571    58278    38526 
   12179   -10527   -19337   -13046    36170    93627    91216    37368 
  -30357   -72443   -52490      507    27426    -1502   -92013  -174069 
 -145436   -52747    -4110     5294   -10339   -37785   -22569    14995 
   50473   102752   119242    78606    48897    51957    65227    83087 
   98621   101302    99231    98000    80373    36906   -10497   -24397 
   -4410    12750    21502    39340    62170    56450     3978   -26384 
     700    -9119   -67104   -76685   -39120   -12198   -21751   -60115 
  -77670   -68582   -68229   -54052   -10473     9613   -17132   -38751 
  -19222    12096    12911   -26038   -58830   -29008    30618    54344 
   54402    45890    20335    22021    59464    57487     -795   -36666 
  -10432    15585    -3152   -40486   -89799  -145457  -162818  -137509 
 -116718  -111032   -98811   -99477  -130720  -147829  -118072   -67822 
  -32965   -31027   -28864    24794    87327    95632    87354   101047 
  105906    88225    66051    32788   -21290   -76704   -92256   -48425 
   -9081   -32190   -62001   -50387   -33007   -12272    40598    83115 
   68403    27179   -10319   -42480   -49439   -35383   -34643   -40224 
  -35892   -32244   -11182    42630    99596   143533   151271    95087 
   23170   -31279   -81315   -83713   -39062   -12877    -3916    -7622 
  -40602   -67231   -59888   -32757    -2153    11549     9135    21064 
   31723    22920    46738    90868    82636    54272    54807    66297 
   94497   142330   180268   201356   204028   183195   153330   129278 
  111191    88526    58098    37690    47925    80959    98158    84847 
   75034    89904   102161    91412    87571   109796   132466   142375 
  132737   102791    85571    72662    40279    32717    50325    38364 
   23409    48141    84705   112876   141384   161943   161234   148059 
  145709   161823   164803   115071    41168    20129    60350    98020 
  105260    98030    84384    80850    88387    90412   108900   132611 
  116109    71969     7794   -65990   -95407   -89314   -89120   -78715 
  -54133   -56762   -87929  -100136   -93112   -88987   -87137  -112781 
 -141513  -103014   -42718   -31149   -27276     5424    53877    96597 
   97821    72600    57426    34665    17918    35129    47283    25533 
  -15994   -52373   -60238   -46561   -20740     7916     8668   -12221 
  -24451   -25176   -22052   -15696   -12062   -40994   -83313   -66451 
    2628    64272    83361    40188   -23931   -39449    -3858    42614 
   40632   -38437  -104529   -82071   -44192   -64606  -107307  -128549 
 -134227  -114142   -69736   -45604   -40047   -39121   -53499   -42762 
   14689    61732    68054    69795    88092   102019   114340   132424 
  129139   121373   144213   157851   129514    95794    75363    38770 
  -14721   -31641    -8445   -11614   -30423    -3932    41551    68798 
   85959    71082    19882   -12456   -16085   -18897   -14941   -12302 
  -21490   -32618   -52893   -60188   -23080    17953    23596    22237 
   34167    41669    41959    48508    63931    67404    42619    16911 
   16729    32448    26122   -26319   -70715   -57584   -19241       12 
   -8464   -13342    13968    52170    65396    73618   120093   150354 
  103119    55991    66193    58996     -468   -35741   -20306   -26813 
  -66604   -69778   -27650    -2435   -31263   -70502   -60851   -17622 
   22276    47159    45378    10476   -43665   -59728    10897   108951 
  142722   113065    85328   101601   129451   118519    86200    75820 
   88520   103210   113073   110361    87643    69624    83193   114813 
  121135    80892    39399    37381    46546    39650    16768   -16486 
  -33913    -7294    47799    73534    53674    28071     8391   -12291 
  -23116   -20244    -7871    15287    49053    82636   109933   132129 
  133867   114750   108170   123817   130774   110778    84103    59946 
   25242   -14268   -36648   -21452     7362     8321    14512    52830 
   63146    18565   -21617   -24198   -18765   -27465   -42299   -40061 
  -25921   -44086   -77446   -75354   -71335   -95436  -109663   -98621 
  -78129   -62563   -59969   -61935   -69948   -83135   -68162   -26138 
    5915    40856    81518    79066    46296    36289    30366    -6262 
  -39314   -42072   -45616   -46701   -34954   -45057   -65607   -71046 
  -74209   -59309   -19687     5894     -245   -20752   -22314      492 
    8827     2532    10413    28714    50870    72748    76481    52728 
   31558    44934    69291    72717    53738    26287    20085    49898 
   95620   130736   132424    96923    66604    73222    83416    79466 
   92596   119951   129490   120361   108255   110637   142516   157998 
  103617    43834    42823    56263    71386   101885   108847   104905 
  131314   160479   166704   155135   116777    60235    35853    72292 
  120000   106867    54248    28729    19900    25463    67517    96735 
   93675    83299    48394    -2303   -30036   -23585    -6791   -19113 
  -46003   -55466   -53087   -33127   -10404   -10949   -18242   -26473 
  -33238   -35737   -51952   -66576   -62176   -58588   -62942   -60223 
  -57781   -84676  -119909  -128646  -133180  -130269   -87917   -42880 
  -42047   -52365   -44105   -49037   -61237   -31700    19543    29025 
   -1237   -26775   -42380   -64039   -84919  -102274  -118405  -115398 
 -103432  -108546  -105463   -77710   -61303   -59894   -35379    -9035 
  -27075   -50980   -41526   -32706   -33045   -17822    -6366   -23329 
  -39607   -32819   -33243   -52343   -57079   -37675   -14299    11556 
   37216    39245    30150    41743    61562    82740   124075   164936 
  175752   162965   132225   102317   102184   106748    81245    48108 
   30835    15844     7757    20553    31677    34720    47579    57828 
   60266    83288   127592   154661   148062   129317   118003   115321 
  117720   120097   115727   113571   125748   127881   103627    83660 
   65059    30821    21107    53338   107808   169921   192939   154917 
