Origin Time       2021/02/13 23:08:00
Lat.              37.7
Long.             141.8
Depth. (km)       60
Mag.              7.1
Station Code      MYGH09
Station Lat.      38.0091
Station Long.     140.6027
Station Height(m) 30
Record Time       2021/02/13 23:08:08
Sampling Freq(Hz) 100Hz
Duration Time(s)  300
Dir.              1
Scale Factor      2942(gal)/8224139
Max. Acc. (gal)   114.780
Last Correction   2021/02/13 23:08:08
Memo.             
[...]
  116517   104728    99331    97642    97260    92778    81931    71932 
   72370    85067    93903    92634   101155   119392   129938   131395 
  125375   123537   135395   134468   112309   100822   101333    98076 
  100151   102290    91848    79926    72875    70303    75783    84109 
   93201   107223   119242   116433   104862   108814   132544   154994 
  157025   138694   123325   120494   117806   119196   126088   125836 
  119218   111404   106043   101324    88928    81179    88925    96427 
  100336   109260   119958   139180   169938   186366   176326   159889 
  145855   127168   110578    98339    80044    68164    75035    86792 
  100117   112550   112930   112892   115885   109109   103418   109564 
  118870   123935   127911   139160   149783   149350   152802   162279 
  158221   141683   119877    94015    73033    59084    49570    51611 
   62552    61813    55290    70198    97529   117803   133442   140333 
  138233   143823   156987   166787   172166   158082   128461   125991 
  143145   141382   128085   108544    85687    84786   100585   109368 
  113325   118246   123021   141409   164326   156346   137232   138118 
  139618   134505   126819   107813    84933    76203    87085   105786 
  117645   114420   101849    99868   110909   118254   112367    99797 
   95089    98675   103373   107759   106825    99863    95283    96557 
   98680   100465   110644   126497   129038   117544   111277   113845 
  115071   117174   123214   120170    97812    64949    44983    52953 
   76319    96635   109242   118081   124020   115465    96113    90485 
   99004   102998    97372    87594    82333    84885    91058   104236 
  118442   118980   122038   138011   147513   148315   142183   128202 
  121725   124826   131010   138763   134940   118089   108565   108896 
  102118    94220    95908    89302    78070    81244    81981    76738 
   81542    90428   104849   122513   122220   109760   108997   123384 
  140320   151383   151645   139066   124522   118347   125712   135899 
  122068    95620    91061   108176   129007   138073   130241   121620 
  123024   122640   114188   104742    92118    74830    63057    63462 
   71869    78204    84867    99195   118779   145874   172427   178673 
  172739   172326   167786   154307   145454   137658   125778   121910 
  124576   127843   138144   145417   129874   102975    94608   101733 
  101999    94421    84029    74954    73589    81135    97006   113799 
  125952   128428   113552   100624   111106   127695   123043    98475 
   81743    88153   109534   127699   123421   113784   126625   143973 
  143986   134318   133632   148917   152520   128159   110767   120640 
  135114   139642   132294   116515   110355   108137    90487    76071 
   76277    72841    73785    93459   111597   111785   105351   113441 
  142510   163259   158537   149519   138960   132742   150272   156011 
  125919   106321   108692   105111   108388   128973   137767   125558 
  116199   109567    91201    76987    75397    71001    73499    97765 
  123633   130806   119977    98648    85637    93016   101304    96522 
   87910    80181    82972    97087   101611   100101   106366   110740 
  109016   108957   115345   125209   121859   105715   105005   117416 
  116432   100934    71324    30568     4032    -1405     -665     -976 
    3372    23761    57215    97846   142763   174518   179174   169009 
  170545   180357   165437   121829    83188    74228    83045    90389 
   94331    94620   103299   130970   149332   137234   110902    85449 
   80272   105938   118030    87874    66953    89773   121042   133944 
  131612   115947   103041   115284   147569   182421   202131   184666 
  143553   128677   148517   162868   152362   136414   133308   139124 
  143885   142190   140510   146469   150002   141340   122324   101954 
   89021    81976    77310    72585    61285    49547    60007    83566 
   85025    78192    89644    99107    99809   107939   118369   127998 
  144382   166607   184176   179861   159337   153353   154676   141575 
  140011   151872   139429   114756   109182   115858   122469   122953 
  110752    97451    94390    90142    86346    95887   103546    97335 
   98821   123234   151798   169971   189868   204874   198297   190109 
  193914   197039   201818   203164   180931   144840   117987   103393 
  101097   112762   130073   147911   159409   145571   104376    65396 
   59908    75751    78082    63702    39974    24493    35563    50710 
   61992    77338    80277    75852    87486   113940   126501   118320 
  119205   126087   118723    98788    74691    72415    89212    90921 
   76407    51983    35793    53277    75820    79402    89544   111746 
  122971   125705   138364   154368   164047   164783   143572   115292 
  110477   113385   103912   100310   104492    98113    95331   115029 
  131861   123121   114015   120069   128541   141504   145581   118330 
   89800    88014    89289    82256    75718    70019    79000   103489 
  114858   110369   106398    94612    82595    96655   107582    86148 
   66687    62322    58078    65805    85290   103781   126365   138181 
  129633   131364   149607   169110   180615   162672   129057   113745 
   99196    68959    51642    58384    70672    87407    97891    77259 
   56030    70357    96568   116109   129359   132977   129492   117432 
  118882   153162   179718   173747   164670   165420   158156   147756 
  152536   145085   118503   125030   156516   162949   156778   156298 
  151210   146986   141913   119088    91997    97054   131518   160324 
  176446   184187   179953   166129   146873   134713   125163   101034 
   81022    76628    68050    62186    79816   101152   101498   109271 
  145326   173965   179535   184338   189908   185561   175609   160239 
  134044   109958    96616    81602    67312    60712    50128    41331 
   49588    60562    64547    73467    86394    97204    93559    70758 
   67994    89172    91224    89652   106475   115018   120479   147904 
  174838   168647   143468   136453   142608   125508    93714    83393 
   86715    82435    81629    91388   100812   106205   106764   103496 
  105424   117900   137768   153778   150963   127075   102710    94290 
   91152    90424    89901    81178    91014   115739   115689   111950 
  129928   146958   148610   140904   137732   147552   155488   143838 
  123522   109938    91971    68875    62490    67205    56319    35195 
   35973    64813    88592    88215    81256    70802    47761    32748 
   45180    72463    88381    85137    79396    76368    72374    70444 
   66799    64947    68357    72642    84728    95453    91656    91422 
  103554   122604   150018   166581   150385   123840   113470   107835 
   99021    93800    86449    73197    66071    71528    86688   106608 
  117217   124833   145270   158230   154795   153511   151665   142389 
  138458   142923   150387   169634   187918   184561   177805   178506 
  183242   196921   198606   175539   160128   158472   145473   139013 
  150172   153019   158963   176199   176521   159428   141054   132221 
  140341   151467   141393   101610    61067    53742    63950    62554 
   48779    42163    63706   100298   124642   130258   116109   104202 
  113653   118347   120058   134690   132687   123330   134528   135837 
  116245    99162    89203    82480    77168    81724    92796    89093 
   82237    92616   111423   131750   148647   152270   146743   143316 
  142639   136453   128410   129863   131649   126171   131963   151066 
  163482   179473   203157   197140   169776   157948   141451   117855 
  119373   126519   109941    92649    98844   106951   103049   101926 
   98469    96392   106570   103300    80680    63047    51591    41378 
   39455    40409    35608    42394    59984    58549    54274    70719 
   81675    73660    68755    84256   110604   129276   126677   104944 
   99731   112680   104086    89546    95014    99580   102822   119082 
  127989   115572   100866    97405   100527   103518   108395   115273 
  114648   109736   111234   117896   117404   106257   109216   126987 
  123758   104236    95420    96164   102728   111268   110022    98736 
   91646   100286   111908   101949    85432   102352   140792   156266 
  143357   117197    85417    68411    80596   100587    99754    78910 
   71876    97795   119304   112876   106691   112108   127353   151047 
  156838   134937   107882    98031   105583   111415   118230   127375 
  115325    90417    77785    71498    63225    72991   111446   139779 
  134844   132683   145147   145714   144768   155841   147495   119500 
  110334   110967    97375    88565    95736   101873   106147   109459 
   99065    98038   123056   133330   125547   128602   127168   130478 
  167017   203935   204380   188955   186552   186732   179096   170545 
  153620   137246   139503   147179   148713   140817   121370   107422 
  111451   124887   137369   144639   152165   161802   158558   148996 
  149955   139131   113481   103389    95249    75254    71728    79456 
   72519    70475    91833   117030   132000   130102    99881    67905 
   73764    95439    96203    87774    94008   111550   113513    98053 
   92611    93715    91181    98822   113563   122008   121512   114566 
  114849   127623   135807   131458   120592   109278   109574   119017 
  117431   102082    81955    70079    73376    71500    65839    76646 
   80607    66000    74583   118268   144489   125319   106909   119639 
  125771   112492   118764   130459   112544   101660   113857   121691 
  136954   161667   171747   170981   167308   153293   131156   106983 
   78143    63153    81114    98971    89432    83500   100353   115186 
  118003   118678   116144   114096   122304   131521   126712   116112 
  104240    76943    51692    57200    69458    58905    52239    78491 
  111483   123403   130253   141436   136857   116467   108575   117000 
  125776   134797   135309   120258   108504   108629   113405   117536 
  122585   127182   116860    99998    97754   104646   116438   128078 
  123503   112460   113283   115044   108954   109291   109495    93167 
   77309    76312    87920   115761   147482   155844   139301   118972 
  106301    97858    83547    63964    54147    63315    84046    88911 
   76877    90328   126508   152235   173453   181151   160047   135996 
  115782    95717    93714    85131    46989    26176    37307    38275 
   30172    34375    49065    79745   118177   133539   114119    84937 
   76237    78815    84005   105140   132759   156925   168282   146326 
  114367   113513   138524   165600   184437   190115   185684   180643 
  177209   177993   188592   209187   224560   211815   183232   166391 
  156109   137853   111524    90494    92102   110727   120830   117647 
  121640   132873   127059   107194    96731   103608   130948   159761 
  163402   168205   190845   188005   158889   145581   134069   107383 
   93484    91484    76493    56087    49044    58787    82166   110304 
  124490   113719    98151    90942    72381    47034    36651    32586 
   29944    51235   101614   138264   132223   120140   129240   132630 
  112676    91224    87774    92252    96820   108708   127394   143131 
  145736   138844   134330   130090   116017    87916    60644    60501 
   82583    90963    77901    72384    71699    57901    69520   115796 
  134577   120930   111288    95929    75622    72727    76468    78637 
   93168   110767   109840    84657    48640    29952    30149    23742 
     248   -28259   -29334     7711    53943    91849   115219   128619 
  145939   152315   135467   107507    88327    97056   114879   118342 
  121776   125352   113023    93186    83381    84549    92070   108159 
  118214    99698    70197    65672    88538   116837   135291   140451 
  123623    84551    52590    52903    78664    99725   103778   115013 
  136374   147094   149901   152138   152134   159907   188296   220368 
  223344   199528   171977   147719   136182   146981   174912   212383 
  237473   230926   215720   220059   243190   268263   268438   234034 
  180723   130037   118044   150919   166833   132846    98259   106467 
  146847   193847   230964   246488   236590   205893   162990   127418 
  122021   138129   139629   118602   107272   128644   160490   168353 
  166375   185869   208834   205434   183458   163020   155197   153674 
  139041   119554   120991   129209   108926    66611    39756    39321 
   41924    36283    39208    49885    46151    33419    34911    56200 
   85884    99324    83324    62125    61609    69383    56019    24838 
    7237    11461    32116    70654   111808   132683   118189    78159 
   48807    35629    27768    30150    26150    13095    20553    40359 
   48276    54379    58118    48876    52828    77436    85185    77371 
   85378    97706    92402    83560    85434    79768    55784    41052 
   44695    35865    15221    18189    41513    49550    40922    43440 
   55873    47497    16525     2181    11280     4124   -23144   -45262 
  -53692   -45095   -40629   -59740   -65453   -31490     -201     3713 
   17193    57406   113389   176141   210851   205129   209795   238688 
  239398   213561   215789   236569   239623   238700   247525   263040 
  281464   286731   277808   273168   284481   300639   282576   217991 
  145750    93449    62554    45123    21933    -1432    -1680     8795 
   12186    20906    37107    49539    73368   121543   171032   205243 
  233275   260987   290860   333558   388786   430164   433912   413488 
  400303   390646   373836   378310   393834   373292   338646   333980 
  349334   356938   346473   323735   294475   259108   212808   148343 
   74073     5212   -35452   -32921   -24660   -31992   -26271    -8806 
   14563    57557   106182   135666   131920   108685   103779   110154 
   96365    75297    59690    46963    62660   114401   164988   194599 
  207319   202225   193680   199156   205218   186802   138435    89078 
   71074    79674    94778    99985    85633    58081    31725    27064 
   53133    80989    73122    35704     8078     6022    24138    56862 
   73295    49576    17578    11186    16783    12472    -4074   -32805 
  -59827   -56085   -23269     6682    18327    22273    23211     6427 
  -21054   -24999    -1212    20449    31909    64535   120044   152042 
  153441   139612   103931    67309    49717    46974    63251    81738 
   74713    38512    -5643   -22815    -8511    15298    22720    -7582 
  -48771   -62714   -58333   -51644   -47804   -55166   -62676   -41887 
    3466    45242    91107   152234   193496   195033   183479   175940 
  165649   151325   143415   143195   138005   124969   121440   155555 
  221487   258763   238211   195762   162218   156361   183209   201937 
  184323   158903   154769   171694   197383   215738   220634   214069 
  192333   163753   143905   143193   180408   240898   275000   291033 
  331142   378449   397125   383709   350518   319018   293267   265127 
  249917   240017   200881   149212   126970   135452   157982   164425 
  115803    37620     -739    13622    44942    70538    87080    93421 
   98967   117394   127367   105047    76509    66037    66806    77823 
   99219   123585   144940   160883   172301   168087   138402   104997 
   95114    99115    94269    83932    73332    55313    29469    -4860 
  -41818   -56864   -39120   -11782    -3789   -19994   -40176   -48551 
  -49607   -34379     -114    22728    35267    52124    56239    55718 
   67922    71959    56758    41554    29062     7636    -7662     2149 
   21871    33060    42267    57931    75019    81598    84861    98290 
   84245    30330     9370    30183    28355    22485    61638   121594 
  165489   173202   141003   116210   127784   141612   140433   135822 
  136796   151025   162761   146256   108233    71852    55918    71894 
  105711   132977   134038   103999    88689   116931   136958   128725 
  138838   165585   171155   163831   151464   119014    99365   128833 
  154846   127993    96075   100845   120293   134956   142915   142668 
  124587    85631    60691    85009   141798   197361   243222   276987 
  292866   283809   250188   228137   243527   253239   216684   166099 
  147108   159659   183874   204121   202792   177129   160829   186062 
  233996   262719   252279   211029   182312   208776   258097   263815 
  232420   205815   181213   150134   119925    89591    74996    92913 
  120260   130740   117073    89658    90753   137916   194899   246751 
  288495   281628   235064   209509   205977   183566   145326   110808 
   85468    84946   110107   129579   123271   103127    90502    86597 
   71454    37030    -2010   -23727   -17950    -5780    -5944    -3075 
   10524    27066    51819    80299    88479    63134    15066   -28409 
  -47140   -41418   -24305   -11473     2317    35595    78030    97524 
   91284    90489    98601    87556    58545    35559    42859    89903 
  133550   134292   116260    95827    56961    19175     8652   -10856 
  -65785  -112896  -128941  -129910  -106890   -70268   -62028   -69668 
  -52216   -21173    -3604    17194    55408    78985    78683    90644 
  120005   145331   162734   170812   167702   146245   100611    57684 
   40954    41380    49565    66575    93819   123465   141208   147974 
  159198   171506   163991   130769    85509    60455    80372   121423 
  147955   166806   196200   218366   214963   203489   194116   184329 
  192107   226785   267409   288796   290129   294379   311411   323929 
  315735   295278   280752   263642   221744   172801   149392   144614 
  155144   191340   223836   222637   205680   195108   182584   157747 
  137810   143739   160532   165585   166363   163235   143758   120897 
  116438   136486   167987   182694   167737   138877   118810   114143 
  104043    75541    53987    58507    78428    98699   108102    98923 
   70775    40599    23305     6648    -8289     -756    22454    43275 
   55131    60438    81101   125320   168912   195365   198624   175640 
  146342   138840   147726   148771   144744   142537   144398   166887 
  196518   203075   193314   177955   149978   120680   114789   119253 
  105771    82332    56492    34330    43110    72214    87582    94926 
  105810   110594    98093    61657    11580   -18184    -1649    47791 
   83902    70448    33790    27438    44809    45858    22150    -6655 
  -13240     4187    16384    15313    22486    36265    36188    30828 
   42132    71217   101274   109011    86587    64075    80370   127026 
  170619   209150   245293   255451   231967   207998   209571   219127 
  214520   198698   179111   160247   140467   114574    91189    76588 
   65981    66348    87026   111789   117477   116104   128530   143517 
  152520   167902   185276   183165   170249   173445   179984   169832 
  152975   119619    63738    41489    85054   142788   174148   194633 
  223882   251861   252934   231336   211171   189275   166288   161894 
  162153   141944   109946    80632    59540    49824    48894    51848 
   49923    37293    29987    48508    79149    92171    86593    75699 
   64407    68729    95357   115597   118342   115493    96171    69048 
   70621    86273    79597    61815    46462    37629    57570    98674 
  128684   143687   157663   181282   202716   204172   201772   205232 
