Origin Time       2021/02/13 23:08:00
Lat.              37.7
Long.             141.8
Depth. (km)       60
Mag.              7.1
Station Code      MYGH14
Station Lat.      38.3400
Station Long.     140.9551
Station Height(m) -986
Record Time       2021/02/13 23:08:06
Sampling Freq(Hz) 100Hz
Duration Time(s)  236
Dir.              2
Scale Factor      7845(gal)/8223790
Max. Acc. (gal)   54.982
Last Correction   2021/02/13 23:08:06
Memo.             
[...]
     -71       70    -3516    -2289    -1092    -8280   -11705    -7074 
   -6561    -6816    -4334    -4475    -4279    -3904    -4855    -2583 
     858     1885     1285    -2168    -5161    -4195    -3952    -2791 
     195    -1717    -3676    -2624    -4498    -4781    -1914    -3427 
   -5174     -164     2309    -3389    -6246    -4837    -6438    -7260 
   -3014     2677     4009      803      101      635    -4302    -5082 
    2351      652    -9397   -11430    -6354    -2660    -4471    -7481 
   -4407    -1586    -5486    -7411    -2790     1752     1872    -3121 
   -7434    -6910    -7798    -7681    -4757    -8059   -11572    -7098 
    -461     4345     3480    -1235    -3678    -6408    -7479    -5269 
   -2889      143    -3133   -11901   -12148    -6417    -3599     -419 
     687    -7025   -11693    -3885      172    -4132    -5167    -5287 
   -4849    -2930    -6303    -9390    -6731    -4658    -3134     -676 
   -1285    -2984    -3103    -2655     -750     -288    -3443    -4000 
    -985    -1863    -5607    -5686    -2295      -91    -2370    -3605 
   -1059    -1495    -3072    -3268    -5867    -8208    -5232     2613 
    6118      972    -2529    -3908    -8502    -7668    -2029    -2489 
   -4973    -6272   -12181   -15130    -8179    -2361    -3306    -4573 
   -3013    -1579     -899     1772      360    -5915    -2612     6616 
    3719    -6033   -10563   -15808   -20260   -14017    -4382     -507 
   -1270    -2357      352     3010     1803    -1027    -3800    -4580 
   -1107     4588     2578    -6619   -10968   -10025    -2361     4006 
   -6948   -14675    -5350    -1528    -5248    -3229      -63    -3483 
   -9333   -10215    -6084    -2891    -5325    -5350      473      198 
    -265     5741     4626    -3581   -10702   -12891    -5707     2471 
    1514    -4039    -4124     1278     -442    -6895    -4082    -1838 
   -5344    -1524    -1491   -11638   -11573    -3240     -714     -993 
   -1001     -896    -1339    -4052    -4347     1109     5417     6831 
    7908     2803    -2949    -2416    -4869    -5317    -1009    -5444 
  -10139    -6131    -4453    -6712    -5385     1053     3364    -1381 
   -1780      329    -1144    -1061    -1561    -5393    -7029    -7294 
  -10347   -10062    -5956    -8356   -10264    -5813    -7857   -10215 
   -6180   -10636   -14709    -5567    -1277    -4359     1075     8303 
    4995    -1100     -255      823    -3804    -6922    -6488    -5926 
   -5798    -9239   -11516    -7323    -3543     -581     -696    -7275 
   -5996     4191     9652     9772     3923    -8403   -15383   -11946 
   -8966    -9729    -6720     1491     7191     4149    -2381    -5460 
   -3350     -984    -3137    -3187    -2945    -7152    -7088    -3754 
    -908      720    -7958   -18775   -15809    -5645     1819     4054 
     -82    -4047      294     6292     2401    -3439     -403     2659 
   -1849    -4926    -1763    -3802    -9013    -4469    -1065    -6035 
   -8534    -8058    -6687    -3446    -3546    -8451   -11955   -12280 
  -10192    -5005     -549     -704    -5368    -8143    -6054    -4858 
   -1375     1489    -6690   -11307    -2768      178    -6224    -7970 
   -4361    -1424    -1364    -5081    -7067    -2192     1910    -2839 
   -7842    -1490     6824     4263    -2932    -6728    -7739    -9568 
  -15088   -16375    -5136     6149     5822      962    -4245    -8236 
   -5892    -4367    -6666     -957     3651    -2864    -2014       85 
  -12592   -18154    -7981     1088     2177    -3308    -5590      -56 
    2087    -2380    -4672    -3198    -4737    -8031    -2772     4990 
    1204    -4294      178     5166      -76   -12299   -17988   -13163 
   -6376    -3404    -6905    -9950    -3973      769     -878     -996 
   -5173    -9541     -720     5289     -561    -3303    -2214    -4021 
   -9042   -10179    -4950    -3335    -3118      310    -1213    -5448 
   -5683    -5799    -6647    -7554   -10941   -10316    -2521     3496 
    4441    -1991   -13930   -14581    -5094     -392     2604     4132 
    2050      959    -1767    -2990    -2466    -7549    -8553    -2076 
   -2698    -9602    -6717     5795     8594      116    -3658    -2594 
   -2808    -2598    -2428    -4394    -5192    -3221    -2403    -2006 
   -1620    -5255    -8823    -6158    -1688    -1375    -4356    -4901 
     414      831    -6615    -4487      882    -4599    -6062    -4576 
   -9949    -6619     -814    -7766    -8291    -1140    -1829    -1877 
   -2652    -9244    -9255    -3034     -139     3808    10679     6091 
   -9097   -14129    -8171    -3631    -1467    -2647    -9703   -14002 
  -10224    -5229     1005     5984     1129    -4882    -5709    -8235 
   -7584     -915      137    -3041    -3819    -6704    -5540      743 
    -781    -4394    -3042    -4915    -7558     -815     5394    -2884 
  -10870    -8248    -7384   -10131    -9609    -2694     3680      194 
   -4842    -4787    -4872    -5190    -5093    -6193    -5208      569 
    6407     4606    -3634    -7163    -6195    -8276    -9382    -9728 
   -9502    -3048      568    -2666    -2025       18    -2319    -1674 
     388    -5220    -9385    -4116     -332    -4356    -9359    -7646 
   -3484    -5166    -6678    -1107     5105     2011    -6808    -6147 
     209     -340     -274     2273     -499    -4735    -7624    -8098 
   -2320     2679       45    -2192    -3983   -11963   -13591    -3564 
    2508      895    -1026    -2250    -4598    -6304    -6735    -9221 
   -7852     -433    -1200    -5328    -1509      -48      -97     -163 
   -4881    -3557    -6088   -18669   -12777     3276     1674    -4279 
   -5184    -8100    -9178    -8078    -7014    -2913     -307    -1991 
     132     4252      232    -5584    -3415    -2278    -4293    -2357 
   -5165    -8440    -2382      -33    -1188     -136    -3133    -9234 
  -13771    -7308     3145     2328     4128     8365     2613     2080 
    6285     2481     -550      947     2404     3098     1829    -1664 
   -5898    -6609    -3861    -4051    -5934    -4383    -3690    -5583 
   -3403    -1541    -5050    -5826    -4730    -4936    -4525    -9498 
  -15477   -12434    -5910    -4494    -5332     -916     1480    -4382 
   -9184   -10995   -10072    -5737    -3527    -1308        8    -3896 
   -7734   -10903   -10584    -1142     3180    -3570    -1198     8892 
    6330    -2369    -4569    -7963   -10246     2019    11890    -1849 
  -15716    -9321      292     3954     2909    -6362   -13566    -9895 
   -6370   -10134   -12757   -10747    -9988    -7712    -2893    -5552 
   -7136     6716    17253    10089      252    -5042    -8114    -9051 
   -7719    -4145    -5161   -11469   -13678   -13435   -14974   -11076 
   -4700    -6578    -8309     1320    12857    10323    -3153    -8495 
   -3169    -2512    -7248    -7329    -4974    -2446    -1204    -7248 
   -8687     1367     3773    -2484    -3142    -3883    -8213    -7433 
   -4210    -4407    -3667      913     5325     2670    -6496   -10357 
   -5737    -2459    -3638    -5305    -4816    -2015    -4677    -9752 
    -715     7803    -3636   -11060    -1429     3403    -2311    -8256 
   -9282    -3858      263    -3122    -8992    -8052     3204     8696 
    1255     -176     9922    18612    17763    10821     8109     8251 
    2209    -1317     2326      129      866     7472    -2573   -14932 
   -6602     1204    -8953   -20525   -14278     1783     8434     8510 
    8835     2587    -8298   -13582   -11404    -8336    -9790   -12113 
  -11223   -10566   -10081    -4909    -3465   -14149   -17739    -2191 
    7071    -3947   -11146    -4244    -3812    -8673    -4884    -4889 
  -12969   -14353    -7298    -3769    -6523    -2312     6543     3102 
   -6463    -5957     1842     4980     2675      221    -6147   -13143 
   -8966    -3275    -8522   -14794   -16490   -15657   -10404    -5478 
   -3996    -3088     1545     7580      808   -12448   -11765    -2272 
   -2349   -13717   -19611   -15176   -13147   -16048   -18636   -17806 
   -9162     3724     8434     2874    -3024    -4067    -6054   -14131 
  -19386   -16181   -10723     -425     9020     4945      -68    -3441 
  -15142   -15219     1867    11038     5625    -7607   -17991   -16301 
  -16055   -25235   -23469    -4166     9317     8791     4857    -5674 
  -18250   -17151    -7939    -1003     -445    -4500    -5849   -11826 
  -14350     1287    10883     8777    14019    15458     3646    -9127 
  -11218    -2538     6762    13984    16598     5044    -5783     -110 
     827   -10407   -15068    -9613    -2798     -901      434     1628 
     693     4658     5844      419    -2706    -5368    -7504    -7105 
   -2488     3040    -1177    -2494    14057    28275    26011    22233 
   18198     5436    -7430   -18975   -27680   -21986   -10982    -4530 
    -410    -2662    -1262     9428    10384     1586    -5228    -9640 
   -9879   -10891   -10674      774     6987    -2637    -4020     5004 
    2717    -4629    -9883   -13080     2694    21528    13475    -3819 
  -15052   -21460   -18613   -21208   -27842   -15615      255    -1011 
   -7106    -8901    -9626    -9587    -9111    -6687    -1273    -1341 
   -6385    -6003    -5370    -7896    -6160     1267    11380    12835 
    3319    -1719    -2643    -7129   -11591   -16394   -18688   -13323 
  -11222   -14968    -6963     7724     9333     6542    10616    12156 
    4078   -10841   -26331   -35471   -32040   -16831     -815     3701 
   -3485    -4365     4284      187   -11138    -7982    -2007    -2031 
     353    -2589    -8374    -7338    -7915      723    20717    19807 
    2772    -5682   -15533   -25937   -19272    -3591     4830     4116 
     572    -5968   -17470   -17550     -818     9630     4826    -1555 
   -6534   -13435   -14362   -11005    -8299    -2255      658     -907 
   -3364   -10462    -8966     4509     2876    -8523      348    11136 
   -1323   -10808    -1543     4804     2994     4012     7708     5050 
   -5297   -12287   -18168   -28210   -26639   -12879    -9107   -14499 
   -5032    19758    27436    10455     -346     4826    12825    14885 
    3863   -13764   -19843   -11520    -3989    -4045    -7572   -12856 
  -13529   -11699   -14517   -13555    -8156    -3757      702    -1393 
   -5987    -4014    -6596   -11813    -3445     5082    -2625    -5578 
    8352    15711    12638     9873    -1981   -11973    -5254     -727 
   -1761     3705    11827    16290    10374     2174     5829     4135 
  -11034   -20044   -19537   -10227     2617     -553   -10682    -6678 
    3353     5962     3113      457    -3024    -4214    -1026    -6343 
  -14650   -10166    -6517    -4473    15471    34123    24661     6166 
   -4583   -17007   -20352    -3723     9702     2857   -13961   -22593 
  -17305   -13309   -16964   -10670     5223     2006   -14712    -9364 
    6312     4109    -4271    -6561    -9401   -11530    -5887    -4899 
  -14585   -10114     7773    17172    18289     5574   -11075    -6222 
    1779     1043     9686    10609    -9116   -21343   -16430    -4868 
    3157    -1386    -4888    -3717   -10484   -13689    -6201     3677 
    7615     2273     5044    17359    14847     2606     -156      992 
    -332     1381     6744     8348    -2184   -18061   -17189     1194 
   14868    12877    -1179   -12213    -9015    -4563    -6424    -3092 
    2119    -3631    -9153    -4799    -9818   -19741    -6744    16125 
   26696    22015     1009   -14567   -13359   -12980   -14207   -14627 
  -13558   -10586   -21830   -36285   -29281   -12677     1690    13556 
   12849     2373    -3574    -2573     6307    17328    14187     8175 
   20464    25056      383   -18793   -23487   -34410   -36078   -26006 
  -16758    -5406    -2431    -8446   -17105   -28366   -23814    -1291 
   18792    20472     1093    -5617    15466    27179    25548    30146 
   21929     1115    -2404     1329    -4783    -7360   -11269   -28836 
  -38545   -31413   -35306   -50928   -50789   -35457   -15603     7875 
   27298    36652    27703     1923   -12733   -18431   -38088   -45535 
  -15689    15979     9217   -18447   -31207   -30657   -23415    -4396 
   20066    38751    40770    24367     6365     8665    30967    40377 
   22797     6334     5989     7796     1582    -2357     4410     2517 
   -8900    -4472     2822     1372     8633     9960    -9856   -30113 
  -33214   -17355     3250     4298   -18301   -38086   -37503   -29336 
  -14840    11982    27133    22249    20285    14644    -2813    -5035 
    7018     4311   -14914   -26900   -14277     5521     9663     3488 
   -6619   -15624   -17879   -20439   -19138   -11267   -15903   -26229 
  -18657    -4602     2026     6342      464   -21548   -36787   -31428 
  -24599   -16915    -2327    -4888   -10559      747    -6912   -22989 
  -10303    -1433   -15867   -28150   -38124   -50394   -51358   -47183 
  -49185   -39343   -13116      919     4338    11751     -576   -23538 
  -25779   -23722    -7514    30075    32553     3491    -2224     7497 
    4459    -5664    -9809   -11240   -13315    -5948     7758    12177 
    5679   -13288   -37214   -38946   -24858   -19822   -11041     1347 
  -11943   -34587   -25550     8241    27562    17331     3110     5741 
   10022      369   -12475    -8379     7884     7809    -9018   -19187 
  -11353    12799    28462    24583    25111    29550    20993     8527 
    5470     3960    -1443     2700     9439     3534    -7014   -25659 
  -51332   -61331   -48676   -14031    23279    34275    39675    46295 
   27862    13548    18982    10597    -3369    -4492    -3586    -7973 
   -8569     7584    19900    14517    16850    25278    26376    23441 
    9535   -10922   -22932   -22804   -10532     7507    16286     6399 
   -8276    -8392    -5668   -17317   -21821    -2176     2917   -20615 
  -21531     1175     6565     -367   -13690   -27075   -18619    -3551 
    2016    11684    19963    10670   -10706   -25037   -22214   -17335 
  -11739     4734     4567   -16533   -31689   -43501   -44917   -30210 
  -25438   -34326   -35419   -25859   -21702   -19576     -641    12263 
   -5455   -10338    22207    45956    43190    34793    17487    -6732 
  -14640   -12009   -13959    -3053    12113     3203    -8587   -14571 
  -36121   -52720   -31514    19110    52277    42556    21770     6106 
  -12077   -18284   -19325   -33650   -33535    -4276    11059     -406 
    2389    18196    14964    14886    31193    22428    -7391   -21047 
  -28779   -35824   -23834   -10430   -13147   -11535    -9984   -15013 
    1683    16271     2990     1046     9202    -1879   -21810   -23978 
   -7441   -12846   -29758    -8903     8976   -18204   -31166    -1846 
    7410   -13571    -8694     9823    -4800   -20688     4684    39833 
   45461    31930    35280    50506    26595   -22891   -37139   -18280 
    1372    12252    19742    20490     6366   -10165   -21192   -23477 
  -15880    -8779     6376    17050     1088    -1260    21390    20748 
    1945    -2477    -2747    -7712    -1714    10916     6501    -8233 
  -11392    -7447   -12382   -31800   -42469   -23704    -2755     5224 
    6016    -9162   -16108    -2335    -1340   -11194   -20281   -28239 
  -15935      789     5089    13567     9103    -9722   -10066    -6486 
  -12762    -2107    14281    -1659   -29313   -21342    14476    31885 
   15835     2138    12475    16444    -2488   -14956     -270    19670 
   15169    -8791   -23660   -12352      838   -19367   -40707   -20513 
    3476     1182     2018    16110    21443    10363    -4631   -20622 
  -31770   -24498   -18431   -17578    -1375     2937   -10177    -5221 
   -1607   -13167   -10683     1177    13261    26823    20864    -3063 
  -12841      -49    16841    30504    33708     8264   -23552   -24764 
  -22690   -34669   -18634     5709     2189    15319    27650   -11311 
  -31102     5274    27383    18512     4725    -9236   -11151    -6389 
  -13109   -17491    -1972    16831    12912    -4243   -12768   -16140 
  -14963    -1422     6384    -6170   -15240   -15304   -17020    -5900 
     638   -14458   -11230    17425    29400    12980    -6613    -7666 
    2317     7042    13356    22623    14609   -11846   -37052   -43735 
  -23653     1736     4075    -2889     2894    13680    15819     3484 
  -15755   -24449   -18225    -3596     7645    -2003   -26842   -34441 
  -20229   -14748   -17763    -9423    -1876     4515    20214    22678 
    7503    -3026    -8650   -10949    -4207      764     2478    11601 
   17879    10719     -314    -6999   -11476   -10458    -7207   -17475 
  -26572   -14993    -6604   -17377   -26338   -20335   -10552   -12198 
  -19537    -4884    17161     5227    -8202     5406     3528   -11288 
   -8378    -3797    -2039      810    -6801    -6754    13444    20328 
    5664     2012     6424    -4954   -23507   -26372    -2330    22995 
   20684     9119    -1399   -18103   -26708   -27095   -23504    -3257 
    4276   -22700   -30034   -12908   -16376   -18816   -14777   -24378 
  -20264     -252    15795    17185    -9825   -22037     9090    22677 
    -992   -13166    -4580    -3838   -15422   -27171   -27730    -6390 
   17483    17443    -1549   -20996   -18027     1437     3711    -8984 
  -11862    -1593     -993   -19867   -22007     2988    17385     5520 
  -13348    -9840     5162     3087     7296    21267     7462   -18739 
  -15970     -243   -10736   -24660   -10277    -4083   -19381   -15310 
   10650    29845    30423    12283   -10168   -17739   -16447   -17324 
   -9204     6376     4498    -9578    -7209     7454    12569     9868 
   12857    17694    10486   -12684   -32462   -28827   -22253   -24771 
  -12460     5252    -1688   -15916    -6470     9779     8912     4580 
   11362    23375    22581    -3253   -36517   -49477   -34276   -10122 
   -3890    -8792    -7955    -8888    -5447    10972    15165     3098 
    5159    12124     2228    -5648    -5665    -2411    12074    18634 
    7642     9956    25174    19676     6058     4650    -7755   -14593 
   10685    15022   -11506    -3919    15638    -2187   -12684    -2101 
   -6987    -7083     8695    15168     9888    -3288   -16294   -18306 
  -13898   -10473   -12930   -22731   -28813   -19311   -14187   -28879 
  -26203     2307    11132    -4533   -20919   -36612   -39093   -18045 
   -6265   -17506   -17874    -1452     8712     1709   -15642   -12121 
    9491     8199    -2077     1336    -1283    -1441     9679     6426 
   -6878    -8536    -6130    -5277     3087     7252    -2910    -3119 
    7873    -3343   -27190   -26426   -12719   -16000   -18945    -3577 
    2928    -1227    11308    20591    11152    10527    14212     6767 
    3618     2991   -10261   -23681   -15114     1278     2775     7659 
   21373    20810     7034    -2995     2046     8376    -4735   -22658 
  -26013   -18582   -10659     1493    12208    -3273   -17872    -1081 
    8515     5201    12185    10527      322    -7369   -19075   -20713 
   -5575     5240    -2197   -13263   -10390    -7118    -5776     9305 
   16887     5699    -1869    -8036   -12725    -8098   -11195   -12901 
    3337     5232    -8816     -430     5297   -14627   -17362     -540 
    3608     -966    -1864       59    -1745    -4779    -3719    -8363 
  -21378   -26704   -17367    -1980     8900     6639    -1590    -2189 
