Origin Time       2021/02/13 23:08:00
Lat.              37.7
Long.             141.8
Depth. (km)       60
Mag.              7.1
Station Code      MYGH13
Station Lat.      38.6993
Station Long.     141.4176
Station Height(m) 90
Record Time       2021/02/13 23:08:09
Sampling Freq(Hz) 100Hz
Duration Time(s)  244
Dir.              5
Scale Factor      7845(gal)/8223790
Max. Acc. (gal)   276.535
Last Correction   2021/02/13 23:08:09
Memo.             
[...]
  155659   103574     1518   -40265   -36633   -64678  -116748  -111549 
  -37929    -7005   -53771   -63632    -7229    24096    19847    40382 
   94832   136439   110448    40003    10704    14297   -26538   -99220 
 -126462   -90549   -43939   -19542     3343    25735    14999   -11626 
  -14316    -1432    25257    62156    80446    85403    62131     4837 
  -13127     2749   -19288   -56195   -53526   -13509      853   -46840 
  -76532   -41654    -9022    -1107     4965     4118     3252    10759 
   33046    69518    84407    73064    51957    12325   -16788    -1139 
   14546   -26670   -76604   -58213   -22604   -26140   -11458    24707 
    9000   -54793   -97272   -76882   -21813     5783    15754    60035 
   95377    67832    42935    68196    82269    46145     4585    -6284 
  -20869   -60852   -84705   -84009   -74880   -29506    33191    45291 
   15483    -4311     -594    13189     8656    -7974     -103   -12793 
  -61669   -33235    58765    87300    72243    68511    63347    41246 
  -18470   -63892   -43006   -38137   -65820   -38267    11377     1024 
  -41991   -50842   -15426    17077    15356     8973    31893    63136 
   50593    -2070   -16141    21317    17400   -25786   -15781    15066 
   -4232   -31773   -22800   -15187   -59105  -109125   -85565   -28170 
    3578    37031    78929   100645    94057    62958    25323     6910 
   15892    30763    33574    20792   -29695   -93542  -107207   -88654 
  -57211    13979    70981    68420    60496    60640    40320    17277 
   17111    22138    -9061   -57754   -64797   -42067   -34884   -43198 
  -45835   -29764   -13455   -14939     9570    71309    94868    57177 
   26979    40860    42627    -7480   -55097   -62024   -59051   -68628 
  -73646   -44718     2000    19981    20279    29466    28462    12252 
     876    12870    48246    63470    45846    37613    33924    10531 
     -97    14625      611   -50394   -63624   -21732    15001    27060 
   25475    20316    24220    15099   -13402   -28937   -26346   -21123 
  -29519   -40670   -30242   -33833   -64955   -51225    20598    57136 
   15855   -20979     8527    36709    11718    15183    94221   148767 
  107123    39154    16001     2886   -48039  -103218  -113055  -107524 
 -133014  -151875  -108456   -18640    69788   132931   159964   135344 
   64423    14466    49482   102786    71069   -18327   -78487   -81703 
  -64897   -59339   -53757   -51753   -50770   -21460    21103    49145 
   70027    85202    70106     9761   -47873   -47800   -18041    -9667 
  -10072    16050    28412   -15805   -49457   -30721    -4800      598 
  -15611   -23643    -3244     6455   -10470   -23668   -14206     5539 
   18858    34902    47920    40355    23904     9802    10327    18555 
   -6948   -45982   -53276   -57404   -68647   -38915    38905   105780 
  108207    77016    66125    49482     5922   -35483   -66361   -76447 
  -59314   -43060   -35174   -18597     9526    34290    26808    -7256 
   -8305    19951     4305   -24034     4833    16846   -37471   -60936 
  -41015   -53904   -56528    18762   105972   107087    61119    62789 
   65429     4417   -49092   -49890   -32057   -17199   -37871   -80254 
  -77429   -45681    -6343    51478    74908    57920    44446    30252 
   26701    41716    40378    -1941   -62472   -74700   -36436   -29710 
  -59701   -55830    -7516    37176    40815    27337    40942    52971 
   40481    43630    58095    43563    11318    12841    39417    13154 
  -39650   -39151   -34560   -56810   -47320   -17397   -16906   -33720 
  -20996    31687    76954    83374    66148    35795    -9331   -61697 
  -91241   -74965   -43139   -22023   -12451   -36147   -56905   -11919 
   35653    29845    37007    63193    54467    44872    54531    34462 
   -1080    -7928    -1082      691    -1964    -4302     3801     9549 
   -3650   -14381    -7173     2099    11911    17867    -4378   -27909 
   -6820    17793    12294    32622    56955    -4812   -90794   -84431 
  -28421   -10743   -14872    -7199     1309     6484     1092   -24665 
  -39629   -10494    45148    86647   102473   100043    67888    19661 
   -6651   -43141  -110650  -141836  -142870  -158332  -125682   -35830 
   32413    82632   133346   149844   134258   109282    69172    23016 
    -463   -11284   -41175   -69284   -48340    -3476    -2728   -21259 
    6710    39752    16066   -27360   -39889   -37249   -45393   -55178 
  -56602   -53269   -53087   -49392    -7400    69379   121972   125022 
  105243    86753    67921    46418    25907    -9991   -63647   -99535 
 -103283   -97043   -86310   -57211   -28472   -24112   -15257    24151 
   66646    81328    75135    68593    57268    35149    31291    56608 
   65263    34796     2700   -23383   -68454  -108303  -113130   -83255 
  -21508    25632    13498   -20197   -28452    -9390    16853    25280 
   16657     9536    11317    29845    66344   105587   126833   108068 
   54734    10118     5958    19387    11304    -7758   -20764   -40834 
  -55314   -54661   -67518   -87292   -80109   -58052   -38641    -2475 
   42149    54955    37404    15535      513     -318    -3258   -28525 
  -43880   -20834    11302    27391    32142    47237    96592   139045 
  117979    75571    65718    56519     6115   -79154  -165429  -217798 
 -227331  -207819  -159792   -80079      199    53509    94977   129285 
  140059   123793    74293    12769   -10874    -4928    -2801     5362 
   15134    -2787   -40132   -53088   -18828    19672     3581   -44930 
  -53893   -15842     9158     4282     9182    11713   -25010   -60477 
  -49626    -7152    55100   107932   102587    59428    10686   -59489 
 -125539  -142839  -127035   -86756    -4475    80944   116706   123142 
  129092   116722    80701    36320    -1275    -5678    17733    21902 
  -13381   -72200  -126756  -151804  -155262  -147131  -107707   -49746 
  -14671     9810    44957    55696    35982    22187    17547    38198 
   96884   141635   150129   132283    71100     -372   -34742   -55485 
  -76312   -82416   -88348  -103038   -92421   -14173   101903   157351 
  117447    33903   -52766  -101422   -55075    47490    78340     4939 
  -74459   -95670   -83860   -59622   -26526    -6899      234    25450 
   68963    94524    83251    58241    36008     9849    -8700   -21271 
  -45339   -50210   -26929   -16533    -2801    28283    25938     -513 
   15966    73364   111370   102231    62398     7767   -36147   -37045 
  -30273   -69946  -120290  -132447  -122041  -114646  -113467   -85846 
    3434    98980   116815    88117    74865    51846    19257    29068 
   52695    28489   -34461   -96955  -127888  -112928   -64125    -1013 
   55891    88836    97050    94208    94351    93087    72856    34747 
   -6637   -51333   -91222   -93530   -57715   -34893   -49982   -70137 
  -63589   -20518    52577   120575   147587   122156    61975    16114 
     587   -32344   -94065  -130192  -127917  -117668   -89077   -35822 
   10006    53712   105715   118947    78336    29485     -676   -11915 
  -16306   -29956   -48837   -53604   -32235     2786    34612    65577 
   90024    87075    49944      993   -14118    13286    14989   -37192 
  -67278   -51491   -45300   -34048    19880    71667    77006    48278 
   -3720   -69534  -102195   -72310   -32854   -42290   -70875   -69026 
  -43451   -17714   -11847   -30909   -33710    14029    83235   129564 
  137550   101683    37700    -4311    -8155    -3223     8372    31968 
   56184    86043   105232    91743    75339    56833   -11863  -117387 
 -194371  -208778  -172042  -137655  -137651  -115422   -36042    49025 
  119426   178802   194371   171509   142207   102938    59779    30735 
    3098   -35664   -62140   -59917   -57179   -61192   -30832    31469 
   67555    49318    -7028   -73986  -118835  -116222   -79540   -53428 
  -43312   -10054    34574    52953    68424    89395    85536    64978 
   33161   -10434   -35966   -43688   -29974    32382    79482    37812 
  -37231   -90549  -130304  -128205   -69884    -7898    18947     9576 
  -21656   -43919   -29124     9501    23619     7041    -3674   -17348 
  -45844   -41620    -3122    13043    15472    36958    63768    83951 
   92071    96188   116866   142447   162441   164103   113013    24347 
  -60053  -128792  -170908  -186254  -192523  -176891  -115965   -34425 
   29625    73028    92865    83396    65692    56012    49580    29311 
  -16799   -49231   -37797   -21204    -7719    17864    22554    -1197 
  -26929   -35370    -3514    36636    30431    24433    72378   110853 
   77301     4256   -61742  -122534  -187884  -217919  -179980  -121586 
  -87470   -65859   -30520    46008   139928   193087   209958   196939 
  133643    52527   -20497   -83652   -98732   -74058   -56860   -25336 
   31086    63576    55653    25955     6096    10251   -18073   -93430 
 -120555   -75805   -26109    23994    73049    86861    72388    35444 
   -9830   -31095   -37308   -22295    22816    50267    56488    75296 
   80102    45716   -18835   -95609  -136823  -121439   -67791    25520 
  121194   163900   176291   166336   101013    17726   -39761   -76624 
  -80204   -69110   -97873  -144930  -152158  -108780   -28341    43368 
   56601    32667    15631    22392    52027    70051    42014   -26527 
  -97784  -117930   -72692     2698    80835   138925   149418   116591 
   82868    71525    32829   -70974  -166594  -177943  -134553   -91686 
  -62391   -37278    -3485    36011    66572    81704    83311    83737 
   94670   107601   104371    78055    29793   -34888   -93193  -128255 
 -149862  -149123  -107642   -48713     2428    50391    99372   121753 
   86100    41914    45860    49389    16533   -24151   -62359   -77043 
  -53357   -21323    13595    38142    13718   -22052   -26023   -30190 
  -31199    -6069    13194    26549    56073    80978    95411    94764 
   62148    27854    19153    16443    -3765   -41308   -70197   -85170 
  -95786   -73966   -19646    23664    48622    62360    62303    53293 
   30537    -7064   -45828   -75987   -90656   -95077  -101792   -97761 
  -57115    12719    64565    70232    54935    44545    41245    51393 
   74089    90247    88809    64706    10882   -49349   -74602   -63904 
  -55267   -71555   -92213   -87670   -52132     2511    43380    49545 
   42295    16541   -50514  -102575   -83799   -38665   -12915    -1678 
     951    13054    45991    72283    81811    92643    96898    76148 
   36429    -5440   -32919   -40925   -40817   -30669    -1242    24933 
   16387    -9621    -7226     8488   -11219   -40826   -36910   -13053 
   15249    30742     2299   -46935   -46129    15568    70054    81392 
   68230    33188    -1880    10291    40765    33092     1938   -30024 
  -53245   -42319    -2608    29717    24831   -17636   -52664   -44986 
   -8337    30728    31072   -37346  -109040  -109197   -76732   -48435 
    5462    71686   103828    96608    64449    19437   -10867    -2664 
   25132    37833    34825    27569    12047     4282    21432    31976 
    5949   -60166  -160713  -246667  -262109  -203087   -90809    27081 
   95184   124510   140574   123034    89185    78925    76439    77380 
   85716    49087   -42931  -127742  -171694  -158110   -80789      708 
   41964    78223   130090   160586   131884    62225    21382    16837 
  -14823   -73314  -123209  -147690  -109424   -29436    26450    62333 
   70114    21616   -16441    10266    53839    74059    67701    49613 
   51429    51401    18432    -3771     4704     9184     7844     3931 
  -30904   -94684  -136752  -141172  -138954  -120329   -64989    -4282 
   37241    66752    95220   123315   132891   116955    84966    39521 
    1980    -4972     -882      835     7163    -4017   -43189   -79505 
 -101777  -106016   -74476   -41501   -52570   -74190   -59977   -15593 
   40564    88323   102643    86526    60806    33809    18218    18241 
    5131   -31108   -50419   -20835    33658    70947    82503    75111 
   54743    43873    40964    10257   -36694   -72593  -104884   -87033 
   10500    98331   129876   116932    25872   -90853  -132925  -146535 
 -180941  -173341  -112804   -47769    21325   106371   181425   210262 
  183720   112927    23278   -30762   -20237     3079   -15318   -50623 
  -54743   -28872    -1086    10450     2469   -11156   -10972    10368 
   38412    45246    14642   -52801  -126863  -153694  -135303  -132522 
 -149655  -116644   -18138    63742   101233   160749   227379   221471 
  155973    68161   -36016  -104008  -109873  -113416  -130327  -116442 
  -79461   -42244    14872    77755   107335   120243   132220   114106 
   62056     8033   -28605   -47166   -63428   -92298  -113390  -103572 
  -74703   -43291    -3672    54271    98814    85723    40153    17284 
   37531    84655   105912    68692     -861   -64412   -92430   -68597 
  -10885    34287    39873    25882    -1111   -56177   -99474   -91392 
  -68729   -63039   -53736   -21533    22948    59309    96021   141524 
  152586    98421    18748   -42188   -85795  -114363   -98516   -22152 
   62459    66819    -7049   -71004   -99665   -94576   -41442     3329 
    7662    16038    34782    45999    54126    60817    40979   -22635 
  -83133   -97483   -81851   -49208    -2547    40936    72092    84356 
   69877    49470    50615    70687    85392    66501    25147    -4627 
  -29104   -46774   -48597   -62837   -70776   -40063   -17741   -29949 
  -58729  -103287  -128189  -103067   -72770   -57357   -14887    57667 
  118893   170039   240765   290429   255098   176436   116955    31507 
 -109630  -220911  -247039  -227446  -178613   -86485    11317    46423 
    1699   -57780   -60273   -19988     5428     1421    -9752     -907 
   26505    34446    28112    56222   100310   111342   118365   146601 
  144009    99802    58978    18285   -30784   -66349   -91247  -113198 
 -126823  -127116  -109372   -90061   -68250   -24456       -2   -17023 
  -15400    13428    21743    23761    54112    84840    77687    60488 
   85118   128555   121031    56910   -20461   -82150   -95598   -45978 
    7874    -2319   -48238   -54824   -14565    35118    74520    86660 
   50915   -17211   -64381   -73126   -75622   -80446   -74610   -54340 
  -13159    37396    72112    79745    49176     2685      260    33542 
   44764    42287    44605    22935   -20849   -57786   -80649   -83486 
  -61164   -25731     1620    13158    21806    27275    11408   -23514 
  -51115   -43209      -39    28748    17074    15728    42246    63363 
   99293   141141   105129     -328   -70729   -75088   -77274  -111435 
 -135762  -130593  -124052   -97424   -14319    81170   125477   125227 
  112996   104018   107644   107762    79443    33322   -14575   -50234 
  -47957   -23209   -12460    -6567    -5517   -41789   -97272  -121971 
 -107563   -66496   -23808   -15169   -25204    -8573    31185    62252 
   75921    75894    57734    27006    16252    39370    58796    57931 
   62155    56053    18469   -17967   -52631  -111063  -155484  -148921 
 -108878   -55752   -13790     -144    18794    67273   108747   107840 
   70074    22007   -16032   -31189    -5772    42727    65801    42768 
  -17186   -68832   -78638   -73920   -52196      681    34989    31129 
   25490    25357    -3181   -63741   -86408   -38064    14890    27480 
   21544    19318    14486    -5714   -24786   -22860   -13406   -10864 
   -6601    17377    61125    93811    89266    51707       -9   -47983 
  -89455  -127124  -127909   -58638    31091    73827    83577    92620 
   92853    66430    16777   -31044   -71585   -82309   -23368    47368 
   67601    58927    11577   -69622  -113298   -93600   -46327    -9936 
    8506    30203    60569    93059   120113   109996    56047    -3434 
  -46021   -53743   -33246   -32586   -38861   -22485   -18851   -23545 
   -1884    11990   -15153   -61620  -105165  -121173   -84773   -17212 
   61543   157496   224487   206733   138381    86017    49360   -19720 
 -111839  -173290  -212067  -229857  -181122   -86053     2224    64243 
   92713   108422   120625   110290    90670    73606    57559    54495 
   40062     1032   -16472   -23882   -62480   -80354   -57181   -64660 
  -97821  -102338   -81342   -27882    50309    93600    93083    79374 
   53175    24445     8613   -12166   -40396   -48336   -26231     2077 
       1   -24514   -42719   -64891   -68835   -24410    11680    12617 
   30867    73920   110361   121243    89700    29154   -23769   -56461 
  -59626   -25448    -1524   -23693   -32799     2168    27207    34600 
   48635    30894   -37897   -90462   -87185   -68154   -48753   -12683 
   20467    29578    17181     -253    11341    49553    73130    78903 
   77449    58976    26870   -17859   -59809   -56760   -26920   -18632 
  -17521    -8634    -8217    -4220    19710    42992    38290    15947 
   12121    13927   -11182   -34519   -33862   -13054    25038    28304 
  -13354   -35395   -34075   -20746     4885    -1062   -21500   -10305 
    3487     7666    16515    25515    50234    88545    98733    81820 
   74721    51406   -32366  -117078  -125471  -101834  -107122  -107211 
  -78957   -54989   -32162     6895    39599    53889    51727    23265 
   -9979   -14663     1382    29444    69318    93503    87107    67710 
   42711    18967    15788    15134   -24283   -76414   -86082   -78633 
  -84267   -60349    -7852    19101    25893    37786    51286    66266 
   60285     7609   -48872   -64616   -71176   -84909   -65119   -12777 
   32139    74171   124220   147514   125135    78980    35052     4453 
  -27299   -61481   -90350  -133814  -172666  -157917   -87840     5917 
   68704    77438    84879   114650   124866    87038    17042   -35413 
  -42294   -23075      638     7867   -14978   -51637   -74537   -58928 
  -14204    15390    13425     8893    28714    59803    78047    67698 
   22755   -18013   -24896   -21636   -13999     3769    12652     1167 
  -30015   -63639   -65871   -37584   -21636   -29577   -18239    18107 
   23549    -4941    -9200    20807    49993    61673    52389    27045 
    3339    -9386    -4176     8650    -8634   -45912   -63763   -54329 
   -1474    64843    70519    41326    23159   -15441   -50868   -32910 
  -16337   -37735   -37625    -3289    24572    45524    61753    53019 
   28393     8307   -20448   -50284   -43895   -23560   -26283   -17845 
   20754    41323    34430    36259    38308    29340    19359     3318 
   -1602      120   -25952   -47857   -36909   -20351    -1574    19352 
   21456    10307     6831    13112    21358    20312    -5471   -39880 
  -46585   -35438   -24468    -1314    17232     7298   -12434   -16336 
    5143    32722    35953    29860    28116     3653   -29452   -36055 
  -34719   -33500   -12021     9327    11484    17361    34133    55703 
   81054    90115    73314    36598   -21343   -75060   -96556  -103157 
 -105314   -85579   -46148    -7574    15061    25899    39672    41890 
   23332    21474    37777    26287    -5844   -25980   -39830   -45428 
  -33925   -25351   -22721     -441    30296    35795    36294    55278 
   63113    57375    51409    26118    -3515   -23791   -63973  -104491 
  -97384   -57296   -27117   -12128     5709    27885    46811    50166 
   33065    27905    41297    34596    22296    34246    32379     1813 
  -13178    -6755     -380     7584    -1819   -41069   -56636   -25625 
