Origin Time       2021/02/13 23:08:00
Lat.              37.7
Long.             141.8
Depth. (km)       60
Mag.              7.1
Station Code      MYGH09
Station Lat.      38.0091
Station Long.     140.6027
Station Height(m) 130
Record Time       2021/02/13 23:08:08
Sampling Freq(Hz) 100Hz
Duration Time(s)  300
Dir.              5
Scale Factor      7845(gal)/8223790
Max. Acc. (gal)   257.033
Last Correction   2021/02/13 23:08:08
Memo.             
[...]
   62216    52265    41611    25567    11105      490    -3555    10617 
   31826    38665    37619    38529    41872    49839    47321    33612 
   45071    74823    71776    31764    -2293    -2184    11884    12449 
   22391    65141   110463   122003   100079    70964    58361    53985 
   36354    16576    21254    49418    72823    72426    66298    69944 
   66793    55432    53204    52817    35656     8453    -2691     7465 
   14261     7614     5274    17416    43507    84667   124424   128299 
   87561    45436    43343    56182    44413    20661     9999    14554 
   18318     3634   -14102    -4498    28233    60835    87106   102513 
  100079    91694    83982    66552    39332    11210   -11892   -24857 
  -25616   -20251   -11350     8236    31716    41331    40308    42175 
   46643    44566    23714   -11094   -30457   -26238   -15537     3904 
   36832    66545    85226    91735    77197    57983    61896    77969 
   84303    81305    72207    62522    52477    30219     2110   -15055 
  -13954     6488    28597    33116    27338    26821    33561    36078 
   31629    36269    43992    28267      888    -6952    -1456    -4284 
   -6118    17201    57342    84268    85066    58471    15919   -15128 
  -25782   -21852    -2801    14458     9242    -4056      648    16914 
   12564   -13219   -23745   -10139     4684    14580    26110    28539 
   14052     6253    21689    39101    30461     1902    -7148    15507 
   32220    20749     7939    17674    37458    51430    59351    63730 
   58190    35626    16626    27517    51376    56066    43281    31835 
   28437    29590    28725    28944    40224    54141    58000    56737 
   60870    78819    96669    87863    68557    66375    66090    50610 
   31162    28275    46876    63051    58749    47575    41929    31996 
   13517     4527    13045    23886    30561    40883    50616    45412 
   32748    30291    32671    28591    13652    -7096   -14266    -4032 
    8976    17162    26292    45241    58135    47729    38545    50174 
   57191    43164    34069    50071    70877    73722    71550    75563 
   68451    53127    55088    72088    79074    65460    50264    47499 
   31440    -2455    -9404    14084    28337    31658    44394    63266 
   67657    53092    48998    70582    91395    98235   104665   105676 
   86931    61970    50711    46361    34469    21559    24520    36676 
   32930    20143    25554    42920    56826    71811    87274    88994 
   67284    44119    48351    58769    42392     9661   -10253    -2046 
   19294    25531    17135    12892    15635    10912   -13680   -39498 
  -34909   -11754     3835    23194    55332    80698    80860    61601 
   45724    34946    18982     6232      209    -5217   -10399   -11757 
   -7148    -9620   -28686   -41202   -25793    -2097      861    -6214 
    4266    22492    31257    46580    73645    93496    94809    75266 
   44857    21348     6528   -16077   -45836   -43143     5539    48752 
   58754    67594    87003    94046    87539    81743    71732    54287 
   45458    44994    31650     9940     5204    19074    31018    24455 
   11893    22250    43822    42576    23008    10708    14243    19418 
   10933     1929    10728    22100    17243    11226    22526    41021 
   49322    51831    59791    62610    47837    26175     9702    -1506 
   -4122     3514    13936    28503    54157    78956    80731    61325 
   47592    50009    48085    31725    24084    40069    58909    61222 
   53615    47757    44857    40126    35757    39951    50923    58442 
   50924    29188    18994    31284    40601    35538    32476    34549 
   34013    37697    52315    73087    90942    96572    89977    78741 
   72507    75431    70880    48077    33012    44058    60058    62997 
   58001    61892    80515    83513    57435    31205    11176    -6945 
   -9229    -2458     2586    16956    41284    63525    76654    77233 
   67487    54156    48082    53526    51939    34133    14577    -3148 
  -14937   -11539   -10230   -23939   -27950    -9057     8098    11541 
   17107    32996    52412    62661    53048    29241    12857    10512 
   -1274   -25197   -24914     6270    34404    48705    64686    74406 
   53212    19572    18179    40533    46352    32136    18111    20204 
   38726    52088    52780    61226    85600   107306   107611    94725 
   85320    68461    33502      727   -11800    -9549    -8251   -13741 
  -10100     9842    23364    18347    15407    29720    43291    31239 
    5894     1876    16926    23240    17721    11727     9020    11917 
   20872    32281    42986    50341    57534    68895    73935    59165 
   30802    10609     8893    15184    20314    26750    31251    16499 
  -11870   -18720    -5663      796     7152    19680    34848    57055 
   70156    61794    55148    63548    69066    63848    60536    61242 
   55304    35039     9537     3055    14874    19799    19429    31525 
   51270    68725    78603    69082    53883    65645    84539    70474 
   45867    43868    46495    30962     6856    -2772     9428    33628 
   59462    69569    55979    45638    55930    67737    68029    58930 
   38244    16364    16459    37282    54828    55786    44890    39584 
   54450    71946    61191    30011    13821    25690    43355    40541 
   25011    19568    24687    29295    22562     5310     2222    23413 
   45261    47719    27022    -3527   -17115   -12424    -9834    -6705 
    8795    34034    70634   111801   132854   132815   124089   102039 
   73681    56914    50490    44637    37702    31498    28549    32722 
   39398    33204    19516    25713    38701    30727    27743    45770 
   58876    62120    63011    51367    32710    29797    34350    30491 
   32823    43081    41465    30927    30770    44868    59655    59467 
   44795    35133    42716    50820    33839     3136     1884    29949 
   38599    20915    15475    28459    30350    11905    -1641     4548 
   14342    17068    18636    20576    20934    15919      244   -18893 
  -29775   -29644   -19309    -5683     1054     4356    12172    13703 
    2539    -2704     -720    -5570    -3811    10080    14503     6264 
     658     3790    11731    14806     5464     -999    11659    24754 
   28489    32686    25497    14046    22257    28699    18546    24877 
   58337    88133    95000    83473    63286    48740    48595    48446 
   39279    39991    59902    83014    93906    92754    91250    95341 
   95031    76084    48899    35121    18858   -11773   -23133    -6141 
   13317    29428    41998    50939    68580    87008    85441    64848 
   40628    26886    19940    11118     7678    10494    19132    37783 
   52239    54731    56748    62322    68721    71589    67880    57843 
   38890    21475    24430    39972    50534    58293    65928    67927 
   57221    34780    20056    16324     8974     8810    25269    45453 
   60403    64948    63738    62745    52281    42099    49974    60061 
   59134    49478    28196    12372    19448    29039    27006    21654 
   13439    15529    39702    53931    45773    58534    95634   105015 
   72727    32452    14539    18380    18867    14470    25574    51507 
   85376   120035   136775   128240    99014    69161    67331    70390 
   38291     1128      330    21762    46014    70907    91670   104935 
  103761    89541    80121    73688    62164    55626    50118    38745 
   31041    25239    17007    14611    14127    10141    16133    27567 
   20093    -5616   -30331   -44313   -52988   -69025   -94207  -111871 
 -107262   -91287   -82470   -74811   -50572   -13306    10770     6289 
  -11358   -23808   -37150   -64281   -94466  -106064  -101614   -94981 
  -88651   -80943   -64882   -36374    -4193    24707    48186    59035 
   53404    36628     8175   -16148       27    39846    55714    56887 
   72013   100845   130057   143571   145382   148612   146020   137640 
  127340   104456    74274    52415    38195    23213    12441    23515 
   51432    75254   101922   135290   146704   133820   125200   118743 
  102343    86779    76485    67969    63270    64667    71791    74952 
   64567    43961    25165    15712    -1490   -32105   -34074      936 
   21035    13128     2941    -2452     2508    19566    32321    33758 
   33164    32313    17995   -11859   -34040   -38464   -38453   -35999 
  -31752   -28611   -16877      793    15543    30160    44925    57820 
   60786    50164    41904    42071    41827    43183    55718    80063 
   99827   109462   129504   147437   125833    93776   102051   119144 
   96075    64349    78553   123400   141592   128833   126517   136823 
  143838   157084   171814   171761   153644   119550    82197    52478 
   26469     1323   -13512    -6806    14130    33150    51517    85239 
  130476   145822   112342    76754    72531    63282    22405    -6122 
   18103    64034    80303    59352    28351     7750   -10378   -36925 
  -54784   -53811   -58531   -68674   -50903   -10808    23707    50792 
   67514    69758    71745    63779    19633   -34774   -62989   -83047 
 -109667  -127751  -136428  -140321  -138977  -135811  -121834   -87377 
  -46587   -21278   -20143   -31579   -29500    -7470     8129     5942 
    5675     9294    -1003   -23016   -42201   -52790   -52998   -42176 
  -14512    33606    79358   105106   130135   159252   162633   126559 
   68542    17659    -5067    -7499    -9126    -1786    33326    82251 
  115568   129551   143340   168690   190977   184495   148186   111121 
   87540    62803    39287    30549    26025    18247    20360    33073 
   38202    30940    23730    18634     3006   -24340   -44386   -43675 
  -26387    -4170    15531    33070    39222    24383     3900   -10044 
  -31284   -66870   -97174  -106488  -105231  -105699   -97653   -57694 
   13061    72607    90925    89217    95488    99738    74973    24389 
  -17167   -27923   -15626     3190    20059    37189    53630    58756 
   49743    37825    30906    28512    30234    34659    48072    86679 
  144355   191089   211801   211870   206321   211500   217999   206826 
  184530   155610   117891    87134    75201    79344    87760    89884 
  101039   127985   144945   153241   175788   198556   205227   214496 
  236591   252776   242257   201032   144984    90601    35669   -19830 
  -56521   -66623   -66064   -65821   -65909   -64320   -59427   -53844 
  -54611   -62104   -60799   -43575   -25263   -14640    -5287     9258 
   27739    42480    46156    36614    15334   -14828   -47853   -77784 
 -102879  -118929  -119928  -105952   -76700   -33482    11209    50446 
   86325   110956   111832    79065    21051   -20185   -26022   -27367 
  -41605   -64481   -91457  -111685  -126138  -143953  -159668  -164107 
 -154778  -127329   -82991   -43418   -25358   -19584   -10216    13174 
   41962    44386    12087   -17431   -17857    -7670    -5217    -5375 
    1489    21978    51175    76751    91582    83155    43409      584 
   -8394     2235     2286    14065    62691   121528   163803   188893 
  194154   174150   122338    36499   -53287  -102898  -106505   -96404 
 -100446  -110965  -103245   -73384   -35116    -4054    20544    50951 
   68184    62149    76472   119115   141455   134603   127372   129028 
  131473   125437   108946    86062    64314    55551    59984    70312 
   93951   136134   178835   201226   199396   183068   164727   142380 
  109539    79999    71014    78200    82001    73138    62540    57392 
   46989    28246    20437    25269    19172     7446    10046    21847 
   44934    84113   116533   128493   132713   136684   133031   116380 
   95617    82814    77338    70629    63117    69271    99639   139711 
  164451   178422   206509   241825   246307   206691   155042   115852 
   72121    13896   -36620   -65959   -84248  -102267  -119086  -132372 
 -142469  -138607  -110390   -68656   -32213   -14986   -28210   -63545 
  -86895   -83930   -82904  -106645  -137547  -145192  -125285   -96858 
  -78624   -78664   -88692   -92188   -86323   -83790   -89793   -89133 
  -70606   -44074   -14941    19759    49037    67340    88808   109495 
  102686    68389    35081    12645   -12630   -45500   -64922   -50021 
  -17393     5389    25922    62257   108371   153133   184917   179424 
  137365    96746    78594    74518    72684    64110    54982    70929 
  119992   160245   149195   116500   118270   143074   140826   111688 
   97085   110508   131615   145704   154117   163742   168739   147550 
  106520    80235    67112    38281    -1632   -21613    -8275    25161 
   60289    85857    97220    94709    80848    58631    22842   -26088 
  -56862   -49226   -30739   -24861   -22284   -12181     4837    13545 
   -3133   -34744   -59293   -70569   -73658   -76308   -76763   -64116 
  -39683   -12271    24302    76075   126400   152699   145774   108598 
   55445     6309   -31720   -65128   -93938  -112683  -121726  -119060 
  -95103   -47569    11789    76076   142407   185450   183182   157677 
  135978   111152    76785    47727    40308    62411    99015   120360 
  126939   132499   123016   100263    90790    70954     9791   -39114 
  -21771    32537    83628   134327   191215   233721   243125   231213 
  211333   176851   136857   112507    89988    51179    17000    14108 
   45135    89638   121914   137930   141266   129698   113992   105124 
   99615    91629    81648    83394   102162   114917    98417    57697 
   22553     4963   -19589   -55146   -74146   -78615   -92736  -111003 
 -118416  -126473  -147559  -174823  -201294  -223589  -234208  -228626 
 -212992  -202201  -200017  -184875  -139580   -80804   -43195   -42588 
  -61681   -80639   -96900  -109402  -116078  -114189  -101352   -83724 
  -62691   -32694      228    29269    55588    66313    52141    29739 
   11897     5462    14875    31935    54974    82969   113827   152435 
  183582   188211   171221   139081   101155    75829    61813    41854 
   18846    15499    35957    57966    75720   110493   164425   207513 
  221883   216278   195673   164331   138327   122935   108908    89108 
   68318    66441    97541   144239   175265   186552   194085   201583 
  200750   182688   147746   108916    82737    71876    61747    50467 
   52409    67259    76153    62055    28375    -4769   -26617   -45877 
  -67286   -78642   -74619   -66074   -59417   -52392   -45307   -40818 
  -42554   -49758   -52174   -49032   -46180   -32404    -2829    23467 
   34294    35822    35773    34384    25666     4256   -29695   -70536 
 -106586  -122071  -116610  -108454   -95764   -59606    -4845    47251 
   78192    76662    50797    22686     8214     9185    14655    13459 
    8915     9369     8943     3427    13508    51204    89225   100160 
   90308    80752    84886    93472    84325    71490    91150   136127 
  174355   194211   197334   191142   182529   162395   125173    90547 
   69488    49257    34141    37473    45469    50819    73001   116046 
  163031   199424   213684   204282   177850   133632    77970    29358 
   -5022   -25609   -30612   -28260   -36763   -59768   -74638   -60490 
  -24772     4205    10497     6515     3897     7684    25304    41948 
   33492     2481   -36859   -78013  -112711  -133208  -144891  -154611 
 -157442  -147247  -124245   -95858   -70513   -42466   -11308     3029 
    3067    15163    37242    44138    28885    12307    21537    55459 
   77774    69241    67058   101182   137610   136316   104267    72098 
   50665    25300    -2818   -15547   -19853   -33083   -42673   -22026 
   27491    71686    89172    98420   115010   132156   144938   143640 
  125308   115703   129258   148389   161052   172041   185773   192026 
  166612   107127    44366    -2693   -41463   -70024   -73221   -56494 
  -38524   -17699    15666    59684   104048   127539   117396    88790 
   58283    28486    -2039   -42646   -94950  -131703  -131479  -106203 
  -75747   -52709   -41647   -31405   -10609    -3312   -36979   -81819 
 -107913  -130007  -147182  -145092  -123820   -77561   -11078    54915 
  118120   171944   187366   176246   177909   154827    68226     5933 
   22341    48240    61896    86071   112278   140863   162897   162639 
  154700   154144   150484   127569    87772    49592    27041    14666 
   11106    31961    72732   114087   141887   141677   123854   110205 
   88410    43394     4382     3555    15271    10975    18368    48556 
   70852    76800    77410    72978    59985    36671    -5058   -57466 
  -84812   -74823   -45428    -6772    36047    80572   125847   157570 
  162234   151152   126204    76825    37557    26310     6953   -12071 
   -2330    19383    39509    66954   105537   135252   131309   103711 
   72280    33647   -15757   -68112  -111103  -131808  -129289  -111157 
  -78273   -32911    10289    45716    81761   106493   105943    94054 
   69429    20437   -23106   -37243   -49577   -74896   -88369   -77218 
  -51190   -26208   -15606   -12922    -4981     6262    15847    17837 
   11673    20610    53041    81673   103711   144495   191930   205227 
  174186   120961    71224    43218    32336    16876    -1013    -3067 
    7182    18773    32336    49225    60621    59154    60342    66907 
   49061    10424   -11040     -178    35189    71447    86536    89432 
   99307   114022   116295    93903    52047    17798    14644    32247 
   51892    71296    86287    87794    79161    69169    56799    42283 
   26589      572   -31102   -47811   -52968   -66064   -78948   -66491 
  -29644     5255    25515    39043    44089    33731    19584    13000 
    7940     1605     1757    11646    27352    42399    52130    60658 
   73546    85986    91416    92678    94706    86782    52184     7491 
  -16768   -31083   -51937   -57889   -41639   -28402   -19963      257 
   22866    31106    35689    55826    82279    87006    63641    36597 
   28240    30107    26184    26676    42041    55398    52853    46091 
   47872    53311    54703    49279    33203    15826    19654    46353 
   72274    82314    86464    98871   112436   109408    89284    67066 
   50843    37534    26265    21435    23715    31779    48937    73484 
   94938   109233   116980   113641   101993    88867    69418    45168 
   28271    16436     2651    -4862    -1139     1664    -2351    -2913 
    -866   -10021   -26905   -36795   -41601   -51112   -61064   -62195 
  -61400   -71101   -83697   -87902   -93637  -105185  -104518   -86879 
  -68312   -52853   -32999   -10628     8953    26141    39006    44489 
   48996    55890    50399    22056   -12818   -31367   -33246   -31927 
  -30032   -23946   -13628     2288    23006    46587    75234   107095 
  135074   153758   160447   158280   155484   154098   145172   120429 
   85232    52002    26838    13806    15885    24644    32614    46882 
   70856    96107   120228   149766   183730   210257   225019   230148 
  213302   165192   104859    56353    23996      762   -18104   -27391 
  -19440    -1308    16978    40221    68500    81621    70251    59940 
   66156    59580    22291   -13258   -19429   -12317   -13919   -23234 
  -30136   -27005   -14686    -1524     7314     9090     3103    -2863 
   -1957    -2617   -12307   -17602    -9108    -1251    -2980    -3763 
   -4139   -14627   -23724   -22123   -24225   -27537   -14153    13556 
   47721    84503   111034   121991   126064   124983   121197   123425 
