Origin Time       2021/02/13 23:08:00
Lat.              37.7
Long.             141.8
Depth. (km)       60
Mag.              7.1
Station Code      MYGH11
Station Lat.      38.5158
Station Long.     141.3421
Station Height(m) -202.1
Record Time       2021/02/13 23:08:06
Sampling Freq(Hz) 100Hz
Duration Time(s)  229
Dir.              3
Scale Factor      3923(gal)/8224838
Max. Acc. (gal)   56.343
Last Correction   2021/02/13 23:08:06
Memo.             
[...]
  -19427   -20807   -22975   -18376    -6623    -8093   -36509   -41183 
   -7315     3404   -12461   -21412   -22792   -16005    -9113   -13055 
  -17752   -20436   -23585   -18276   -10162   -10723   -14166   -16132 
  -14678   -11739   -18735   -23765   -11585    -6127   -18609   -23217 
  -16137   -15156   -17348   -14943   -12078   -12177   -16652   -19403 
  -10493      342    -7948   -23098   -20898   -15867   -15377   -12580 
  -15831   -14661    -9510   -12856   -11488   -16202   -34608   -35711 
  -17757    -3113    -1524   -14493   -27471   -31313   -32405   -20501 
    3726     5602   -17451   -30069   -25979   -20534   -19772   -23163 
  -18428    -5227    -1737    -6976   -18006   -28310   -14474      369 
  -12887   -23359   -20919   -23895   -27464   -23151    -9541     -170 
   -8760   -25420   -31175   -18517    -4594    -7169   -21347   -27349 
  -18127   -13035   -13157   -13342   -25404   -30153   -15064    -9402 
  -15226   -11326   -11399   -26464   -30153   -16484    -7932    -9774 
  -13338   -12911   -14381   -20058   -11064     9063     2573   -22831 
  -20093    -5265   -13027   -13828    -5441   -15894   -14374      391 
   -5309   -11842   -17158   -25223   -11951    -6648   -24428   -19588 
    1316      -79    -9967   -12702   -24285   -36767   -25965    -7663 
   -5603   -11414   -16991   -23765   -27742   -21401    -6220     3657 
    -742   -22393   -35241   -16714   -13459   -31719   -21016    -4133 
  -15826   -27108   -19276   -22702   -35645   -20532    -5481   -19584 
  -27541   -21664   -23874   -24950   -17420   -13508    -9661    -8407 
  -15086   -17448   -17038   -10324    -3280   -17101   -24376    -9471 
   -5250   -12640   -13644   -18712   -32590   -31521   -15901    -8189 
   -5644   -12064   -30358   -36612   -24243   -11990    -5341    -2200 
  -16486   -26573   -14553   -20139   -22944     1213     7210    -2543 
  -13130   -23545   -19677   -13801    -3192     8943     -301   -10222 
  -18490   -28575   -13836    -2519   -13409   -18380   -19028   -22252 
  -29114   -32582   -22968   -16749   -18350   -17012   -20175   -28787 
  -19803    -5962   -21130   -33030   -20171   -18775   -17388     3345 
    -399   -23102   -10309     8766    -3682   -10764     -541    -1471 
  -14438   -20313   -13336    -6520   -11411   -21590   -24659   -16490 
  -13301   -33130   -45630   -21701      797   -13867   -42259   -41455 
  -24445   -30339   -26874    -3029   -12483   -36526   -35414   -29311 
  -21431    -8414   -10158   -18107    -7924     1934   -12950   -20318 
   -7068    -8981   -15880   -13591   -20960   -29605   -29971   -21597 
  -10906   -17724   -26115   -17178   -17377   -24954   -14565   -15344 
  -35070   -37454   -29840   -23633    -7111    10455     4272   -19062 
  -25532   -15223    -4440    -1204    -7240   -11473   -16843   -22497 
  -16146    -5404      -95      596    -5058   -17159   -34630   -42562 
  -24579   -11260   -20271   -20202   -10243    -9622   -11014    -5402 
   -1714   -11901   -20741   -11708    -8191   -16008   -16433   -20942 
  -23591    -7188     3198      -10     -205    -3736    -7086    -2906 
   -2933    -3940    -7711   -17490   -14922   -10465   -12194    -9729 
  -17397   -28063   -21367   -10809   -12564   -19330   -22052   -23939 
  -23017   -21232   -31338   -43406   -29610     2482     9925   -18706 
  -41894   -39264   -31504   -13512     8579    -2918   -29085   -25250 
   -7130   -11728   -28431   -28719   -20333   -17335   -15491   -23483 
  -39212   -38653   -30271   -23938   -16374   -19738   -16247    -9374 
  -30364   -36375   -16221   -24339   -35432   -16640    -1011     -118 
  -10543   -19889    -9420    -3635    -5603    -3044   -20644   -35019 
  -16069     4349    10532    10773     6169    -2525    -5454    -5013 
  -22241   -36579   -20466     8131    17910    -6648   -27591   -14046 
     -28    -2571   -10623   -20899   -28656   -37351   -38569   -18582 
   -2903    -8274   -12656   -12421   -18833   -20673   -12771   -16567 
  -32756   -26071    -7986   -18501   -23629   -15728   -28136   -25328 
  -11329   -18121   -25726   -32422   -29058    -4828     9774    -2798 
  -15534    -9015    -7720   -20248   -28687   -26711   -11924     6713 
   10268    -1952   -17734   -38348   -53545   -40848   -17853   -10754 
  -14517   -13713    -1351     4772   -11765   -31175   -32953   -27278 
  -16681     2151     2273   -17292   -20344   -12491   -16540   -22557 
  -20117    -7986     3445    -1721    -9316    -9597   -11418   -12233 
  -17572   -22484   -15761   -10152    -8108    -5788    -5296   -12652 
  -24109   -13321   -11755   -43394   -37169    -7449   -13871    -8684 
    1645   -21929   -32664   -29419   -28807   -15803   -19741   -35318 
  -29131   -13185    -4488   -13385   -11956    15801    11141   -24610 
  -32159   -23217   -16218    -4468    -3943      893     8363   -26302 
  -48848   -19310   -13670   -17474     4298    -7114   -29058   -27198 
  -28566   -16591    -4787   -13375   -14918   -15827   -22862   -19413 
  -11326   -11229    -6763     -264   -13216   -24491   -22634   -23355 
  -10758    -1281   -32903   -54961   -26869    -3019    -7002   -25293 
  -40757   -32340   -25560   -14967     1437   -24189   -43734   -16174 
   -4882   -15056    -7971    -3346   -13386   -12260   -11176   -21381 
  -12806    -4892   -21146   -16114     1090   -16731   -27838    -5348 
   -3604   -17748     5355    16935   -36282   -65573   -23029    -1582 
  -22688   -18270    -3303   -17185   -25829   -17085   -12586    -7688 
   -6849   -16718   -29340   -24869     6907    15403   -11873   -24074 
  -29370   -25172      337    -6535   -20598    -4681   -14736   -23888 
  -14955   -34447   -27244      630    -6685     6631    19764   -11520 
  -19310   -11163   -17857    -7323    -9432   -17209    10498    12900 
  -20113   -25192   -14586   -17907   -21911   -13637   -10098   -22238 
  -31928   -39955   -31295     5819    15083    -7533   -10015   -13803 
  -34844   -30380   -17119   -30484   -27147    -5167   -20383   -37960 
  -14617     -916   -24048   -44501   -29309     -754     3603    -5154 
  -20401   -40433   -34461   -25257   -39367   -36799   -25771   -38500 
  -40560   -22395   -22565   -33839   -26547   -15417   -10461    -4090 
  -12136   -24865   -22187   -20075    -8303    18148    14806   -15228 
  -30107   -21614    -1393     7753     8688     9459    -1567     -642 
   11065      464   -22404   -35526   -31357   -17764    -4619    -4550 
  -29670   -49941   -33134    -2388    -1124   -23565   -31045   -17219 
   -9360   -31892   -42662    -9081    -4877   -37984   -31233    -7604 
  -17527   -28930   -16241   -13113   -32088   -35595   -22597   -14180 
    7348    21134    -6525   -29224   -18026    -5398   -10584   -19280 
   -9572     7439    10431     1383    -4278    -7535   -24705   -31741 
  -10397     4900      878      140      575   -23055   -47741   -28880 
    3923     4583   -12576   -25185   -21324    -6268   -14860   -34766 
  -29076   -28181   -44072   -35051   -19901   -27097   -31091   -35534 
  -48051   -39174   -18551   -15101    -1651    21346    14355    -5305 
  -19692   -18607     8371    31023    41354    29641     -930     5115 
   24927    11697    -1165    -3484   -13979   -17559    -6134     4477 
   12629     1305   -33173   -34376    -7885     4216     -384   -32994 
  -51475   -35194   -39771   -41153    -9613     1595   -18906   -28837 
  -23838   -31973   -43914   -47989   -62887   -66718   -52978   -50071 
  -38433   -21147   -15981    -8410   -18789   -38284   -34997   -40579 
  -40882     1293    26430     8201     7830    23743     6066   -21963 
  -29856   -34121   -29926   -17432    -9979     5684    27955    20962 
  -19541   -31330    -2351     5549    -5822    -8139   -22104   -45481 
  -41224   -24459   -30078   -25714    -9019   -15666   -26952   -36239 
  -38770   -32301   -48057   -52127   -19207     -175   -13185   -48612 
  -81857   -75259   -42627   -17371     -307    10754     1048   -23317 
  -25990    -6670    -5058   -32093   -53528   -27622    14181    12324 
    7630    16823    -6407   -15496    16386    19553    -3605    10689 
   31673     9428   -15215   -28605   -40981   -21928    12272    24071 
   11596   -11662   -20972   -15354   -22140   -43827   -58284   -66243 
  -71427   -51545   -16725   -15419   -38153   -31136   -13914   -25563 
  -49021   -61831   -41342   -11245    -8946    -7294   -17347   -46773 
  -42460   -20812    -4602    30807    52874    47935    41158    20486 
    4207     2466   -12563   -21030    -8581      446    -1984   -11597 
  -22118   -16968     9848    22859    -9872   -38623   -20240   -13000 
  -30762   -24584   -11519   -13061   -30721   -53406   -41187   -13941 
   -6778    -2056    -8414   -41848   -67032   -48471    -6272     5262 
  -18071   -21782    -2397    -6494   -27803   -41809   -50986   -40107 
  -15183     1462    10516   -17913   -65137   -50692     3828    24228 
   13828    -7258   -37650   -38071   -17523   -26935   -10808    32398 
   12915   -24700   -19739      703    17219    10935   -12451   -18169 
   -4891     1412    -3420   -15093   -27144   -16123     1850     5715 
   -1159   -27723   -38319   -16364    -9136    -2740    12788   -12494 
  -47727   -41481   -19611    -6669   -13396   -19514   -13663   -23049 
  -12621     4313   -35147   -75203   -60075   -19989    -3801      872 
   18642   -11036   -42584      449    15892   -12800   -18756   -35028 
  -34620     3241     2670   -12079       33    -3716    -1852    18181 
    8013   -17834   -25717   -27028   -30010   -23746   -20024   -37206 
  -43459   -19565    -6912   -15479   -12478    -5940    -8021     -352 
    -379   -18712   -24922   -18886   -11815   -18511   -39586   -29447 
  -17409   -33744    -7195    25961      594    -4376    16164    -2798 
  -17575   -13772   -38778   -58311   -43675   -37002   -34481    -9703 
   -2826   -38659   -63572   -43127   -17082   -14590   -14531   -16565 
  -32512   -27876     1765     9722    -2446   -12916   -22364   -16753 
    1618     9790    11485     8745    -1001     1674    11920     4430 
   -6729      831    10944     7103   -12413   -36109   -23467    11722 
   14413    12970     6592   -43402   -60934   -36346   -32479    -7042 
    8144   -43337   -70667   -38063   -21760   -38245   -37728   -30115 
  -43665   -34573   -10787   -26507   -50766   -51625   -54322   -59505 
  -49891   -39968   -33389   -17608   -16856   -31679   -23673   -11564 
  -22982   -36814   -35137    -9221    18526    19998    14818      575 
  -27361   -26870     -703    -1818   -38259   -52181   -15948    15633 
   13799     6180     4764    10264    11935    -7993   -19942    -6814 
   -9427   -22335   -29748   -51220   -50710   -11682     7042     4889 
   19387     9873   -29856   -26276     2234   -12533   -36813    -9062 
   15570   -22211   -43168   -23653   -26284   -30618   -20694   -14643 
    1102    13131    -2323   -16440   -14831   -25587   -32633   -20617 
  -23549   -33265   -33862   -40059   -33219   -13838   -16684   -28324 
  -33971   -50857   -46222    -2795    17720     6828     -839   -10268 
  -15082   -17770   -28717   -17741    16954    30046     7028   -17122 
  -23981   -39598   -53449   -33054   -20660   -38827   -31507    -7708 
   -6328    -2116    -5707   -32429   -32111    -2146     7365    -1075 
   -4789    -8364    -4630     9564    31649    45323     8041   -28055 
   -5293     9018     3855     6616   -11631   -22549    -1671    10392 
     635   -20268   -39548   -36416   -21803   -28246   -43879   -42577 
  -33596   -34474   -54488   -52474   -10683    -9981   -32962    -9823 
  -15438   -54623   -35784    -7626   -24124   -31536   -15408   -17423 
  -38650   -41428   -22341    -4573    -7931   -24206   -17208      321 
    -853   -12665   -17031    -1740     3273     3815    34331    24563 
  -23652   -11211    14284      -86     7846    28077       -9   -28175 
    7407    34159     7196     4791    15321    -4903     1305     9629 
  -36418   -61577   -33789   -22102   -33219   -25304   -10161   -25007 
  -36127    -1725    14752   -28975   -53106   -12834    12025   -11971 
  -38711   -69718   -67963   -16663    -8957   -26759     8716    35334 
  -12224   -62938   -54677   -39280   -33566   -14589   -15865   -29783 
  -24493   -21640   -21559    -6095     5921      540    -8846   -19039 
  -21000    -3909     3248    -5933    -1584     9302     7738      272 
    -828    -4928   -16379   -10639   -16960   -50333   -46291   -25965 
  -24958   -15685   -34805   -71869   -60967   -38083   -26736    -8787 
  -26831   -54091   -34763   -35789   -47547   -16981   -21558   -54091 
  -34352     6998    27741    24899    -1829   -14847    11695    29332 
   18897    19627    24244    10092    -6131   -20923   -30352   -13302 
    6046    -8758   -19396    19049    58930    73440    87559    66186 
   22712     4066   -28359   -45177     6632    56160    68100    72215 
   52273    10242    -7808    15307    20721   -43964   -81153   -27569 
    -946   -32842   -50180   -50743   -40103   -17431    -4738   -27198 
  -83938  -124222  -123978   -87091   -35523   -38946   -87015   -93536 
  -55089   -17810    21073    49061    20416   -16632    12553    49731 
   17170   -20907     3715    29627     7906   -29342   -23367    36869 
   70422    61005    68388    64312    18843   -35349   -73735   -65786 
  -36864   -36242   -29497   -21288   -40964   -42569   -22689   -29717 
  -60289   -82587  -102610  -109919   -77650   -48105   -33987   -34674 
  -92354  -133956   -80520     5308    39679    -1579   -63517   -90595 
  -91019   -88009   -77271   -41928    -4716    24217    29999   -20353 
  -68673   -72185   -56698   -43131   -50562   -34094     1568   -24853 
  -53034   -21995     9521    22162    -6014   -70537   -91338   -83272 
  -84029   -66055   -48486   -36637    -8379     2127    -5915    24039 
   47515   -13740   -57454    -6832    25035    12154     7842     1665 
   12973    39170    57285    75529    82896    86027    63421    17622 
   23544    36020    -7129   -41983   -30499    -5170   -11796   -33388 
  -33299   -43204   -60808   -62437   -53291   -44928   -70548   -76634 
  -39760   -50371   -46948     5803    -8731   -39310    -8953     8008 
  -16208   -35646   -19936     6108      294   -33174   -56214   -25105 
   13421   -12271   -35055    -8688     9501    13657    22937     -310 
  -60415   -74362   -17204    23076    11896     -711    21355    55642 
   25004   -47557   -51842    -7005    12438     8151     3025    -6041 
  -11915    19465    52176    24036   -24877   -51499   -66384   -59536 
  -42701   -34627   -22770   -27753   -36514   -10585     8942    13774 
   22970     8071    12653    51332    29180   -22746   -21622   -35829 
  -78869   -51156    20657    47336    51888    57500    19777   -52339 
  -81162   -43033   -19300   -50496   -70033   -76546   -93667   -60496 
   -8538   -12406   -28912   -48541   -77754   -55449    -7292     5763 
  -12248   -31233    -7932     3794   -42234   -50766   -11840     9576 
   22820    35078    35596     5973   -40682   -27959    28634    34699 
   22896    30080     2419   -18864   -12345   -29258   -24877     3955 
   15091    10604   -32535   -47391    19072    53538     6205   -52771 
  -55568   -20611   -19191   -13115    20158    10127   -16762    -5976 
   17111    27490    19823     3909    -2404   -15034   -47028   -48539 
    3559    36570     3612   -42048   -46689   -34542   -28501   -25281 
  -45131   -62128   -41769   -32713   -52209   -47622   -35969   -56031 
  -46926    -3931   -10534   -42445   -39406   -19784   -18503   -42491 
  -41513   -17406   -27571   -33102   -16602    -4207     3011   -14793 
   -9894    26326    14457   -19988   -34217   -36614   -23341    -5933 
   24274    32564   -17127   -25436     6671    -2068    -4870     1193 
    8559    36099    26453   -10373   -21732   -10215     9323    14195 
   -3387   -31201   -24898    27945    53707    21627   -31648   -49053 
  -11916     3581   -13936    -8517   -16923   -50125   -66025   -81851 
  -86652   -63103   -33617    -6714   -30207   -80781   -71510   -62679 
  -79088   -40193      221   -29870   -67791   -61800   -38518   -19894 
   -3338     8640    20456    16988   -21501   -47445   -31660   -31583 
  -48492   -15925    20507    -1831   -15492     8546    21338    20642 
   30469    50981    55694    33542     6588   -10991    -4020    18343 
   11369     6029    33374    18187   -32112   -33070    -9740   -14389 
  -29020   -34302   -48776   -56151   -27955    -8712   -13790    -9543 
  -15396   -26569     3183    28062   -23252   -88271   -75016   -15151 
   15745    -1039   -27591   -31777   -39991   -65831   -63567   -12209 
   35769    32977     1521   -18090   -28877   -31895    -1197    20058 
   -8865   -26859    -9899    -2083   -13473    -7149    15681    -4673 
  -48053   -54908   -56673   -62089   -51941   -67041   -73882   -33671 
  -25922   -44257   -36301   -40132   -58283   -57030   -29609    -7190 
  -17248   -20502    -9621   -13096     1814    28939    12522    -3420 
   34349    57559    23754    -4124     9103    38611    64620    66746 
   30111   -10534    -6693    13744    -5213   -16393    13757    -8245 
  -56515   -25586   -13132   -57071   -32485    12097   -22207   -53345 
  -20923   -16406   -67703   -73120   -43684   -53892   -48205   -19791 
  -42053   -69943   -55696   -26962     9296    17099   -12922   -34720 
  -66005   -85101   -31585    15923   -13979   -39267   -19295   -14507 
   -6183    25635     3628   -34268   -19359   -30801   -46056     1507 
   16870     6687    49496    56323    -5390   -33412    -9526    24124 
   40143     7738   -36595   -24335    -2002   -30564   -54545   -41405 
  -21119    -4530     -650    13740    29747   -16951   -51223     4480 
   39999    12276     3438    16742    22063    27228    27456    27723 
   23072      514    10775    43235    34167    27075    24872   -17180 
  -29897      778      800    -2548    17284     3264   -47029   -68570 
  -42994   -32545   -50228   -40840   -22123   -24305   -30474   -49553 
  -79230   -90490   -86109   -78781   -52234   -20888   -20497   -18939 
  -18138   -57002   -76478   -78842  -105773   -67274     -396   -33007 
  -73687   -54459   -60963   -62803   -20255   -18256   -44802   -35590 
  -20254   -22261   -26983   -24698   -20139    -8247    -1027    -8619 
   22404    50035     4855   -14737    33296    67234    56632    23967 
    -727   -11561   -11130     8721    40055    55755    47484    41104 
   36275    34815    49104    27851   -25911   -43194   -43380   -33033 
   17594    30485   -20638   -36197   -21284   -22492    -5570    -6613 
  -64048   -92510   -52524   -16198   -30789   -68413   -86746   -79389 
  -72985   -80160   -68928   -45447   -54811   -72517   -66637   -47997 
  -28216   -22204   -33376   -67267   -92851   -62380   -31517   -32386 
  -12586     2110   -22299   -27083     7375    20947     2914    -7362 
   -6666    -5987   -11947   -12748     7682     3559   -25790    -5607 
   23787    -6751   -24529    12880    27314     2192     8638    39074 
   37049    23168    18696    12021    19631    36633    32286    18118 
   21660    37434    32551     3464    12529    44702    14295   -19873 
    5324    11043   -19732   -25941   -21355   -33208   -34356   -12248 
    9026    -4476   -32169   -27344   -28352   -63522   -78823   -62640 
