Origin Time       2021/02/13 23:08:00
Lat.              37.7
Long.             141.8
Depth. (km)       60
Mag.              7.1
Station Code      MYGH11
Station Lat.      38.5158
Station Long.     141.3421
Station Height(m) 5
Record Time       2021/02/13 23:08:06
Sampling Freq(Hz) 100Hz
Duration Time(s)  229
Dir.              5
Scale Factor      7845(gal)/8223790
Max. Acc. (gal)   238.948
Last Correction   2021/02/13 23:08:06
Memo.             
[...]
   17454     6872     -436     5719    18873    30774    33967    27137 
   23765    24379    20763    21852    25099    21532    19344     7668 
  -14118   -12336     8618    26082    43654    55668    52571    36134 
   13987    -3456   -10077     1148    23149    34912    36439    35734 
   23805     6262     8970    26557    34423    33902    28642    16953 
    8838     5239     2122     6990    18675    26823    28181    25424 
   28189    37021    31537    13394    11815    22385    23041    20457 
   17841    13674    15900    14251     6627    12722    29224    36270 
   30325    23850    22863    15623      820       99    17810    27257 
   19604    16426    22071    23579    26595    31270    19780     7620 
   16768    23180    16586    19327    31329    37091    30161    14380 
    3505     3181     8010    18760    30388    34051    37504    40674 
   29477     8224    -2442     7326    21467    25577    25693    16050 
    1857    10450    26952    30545    38190    42126    29038    15263 
    2029    -5478    11056    33876    39634    36092    26163     8248 
   -1931     1472    12688    30975    44933    43946    34285    20158 
    2806    -5881     1872    13166    16839    19260    26796    36328 
   37219    28777    27047    30373    22754    13949    15676    16796 
   16677    21537    27286    29371    20513     9772    12777    18535 
   21154    25704    25485    18786    10058     1702    -1629     4665 
   18844    35221    49248    47513    27052    14727    15435    11547 
   11295    17154    23026    31537    30238    23855    24984    20565 
   17084    21351    14397     6308    14170    18461    12093     8314 
    8449    13887    21095    23534    27529    37962    47680    41299 
   19738     5641    11531    22561    11583    -5127     8403    23372 
   20486    30570    37098    32601    47038    46653    21587    17273 
   13699    -2301     -197     3673    -3638     1479    14775    22449 
   36757    49758    39630    24464    19522    12738     8694    12685 
   14503    17126    26320    32336    34898    39645    35407    21390 
   12388    10033    16272    30057    27020    13602    23032    31909 
   15669     4270     6702    16935    37404    39118    18208    12555 
   16444     8536     2848     9933    19742    20038    14681    22428 
   41589    45122    28497    10949      784     3234    19669    33054 
   31437    28058    30300    27421    24240    23603    17145    19718 
   32694    30435    19167    15542     8739      -81      571     4230 
    2782     -218     8348    27703    44413    55371    50622    25159 
   -1756   -13972    -7962    13630    39074    52132    48293    32263 
    4973   -18235   -15222     4189    22268    44803    64928    60891 
   35980     4410   -18972   -17918    -5258     1804    13065    30419 
   40648    34175    18682    21246    33763    27251    22902    32765 
   31490    24796    22164     8305    -6596    -1435    12318    28063 
   49138    55189    43499    31224    20684    15063     9166     1784 
    8352    19884    21529    18963    17019    15025    13261    21585 
   36433    34175    23183    22320    14825     1676    11063    28941 
   31483    36575    42010    27962     9802     2359     4024    10052 
   15761    26180    34955    31993    25918    15819     3730     7146 
   18846    27916    29038     7476    -8935    10717    36297    46484 
   45827    32229    19923    17496    10947     2376      159      -95 
    7825    27754    41854    42234    40159    39715    35182    20935 
   -1316   -12964    -3184    11669    24437    37601    42245    40513 
   35785    24189    14558     8677     3316     4126     3689    -4599 
   -6095    14667    46408    57910    46395    31147    11792    -1258 
    7678    14467    12613    25937    42882    48402    44876    27649 
    6160    -6010    -4951     6582     9828     4595    13015    30775 
   38757    38727    42022    39047    18366     6519    13797     4248 
  -16294    -5405    25342    36848    31845    33237    38448    34693 
   26430    19593    13300    12116    14461    13527    16549    26030 
   25220    14251    10224     8087     5223    11799    18011    21963 
   36456    48999    43330    30244    19948    10223     8505    16063 
   16800    15669    28869    35245    18770    13902    26275    22700 
   20544    29505    15984     5848    25093    33180    32057    42345 
   34705    13355     4638    -3126    -3559     7874    11283    29938 
   56694    35044     1082     7681    17312    17504    31293    39773 
   33629    26211    17872    17703    20362     7726    -1881      826 
    5761    19356    30955    35318    46167    47683    36109    26848 
   13639     8716    11522    -1260      129    17286     6242    -3882 
   18144    41179    49609    48552    34414    11290      160     2254 
    1340    13401    34168    33412    39285    50951    20200    -7846 
    7794    14688     7688    18052    28125    30203    33620    22169 
    1499     7668    31712    36364    18004    -3755    -4170    16210 
   29466    34268    36286    23637     8969     5749     5224    18567 
   43903    51725    52039    60142    56824    37997    11657   -12235 
  -10949    10184    18307    11578     8082    12557    27708    35010 
   18119     8935    17417    20719    23155    16945      174    14125 
   41482    29018    12657    20866    14639     5691    10768     2095 
    -368    24402    46781    56309    61284    62387    60573    50352 
   26014    -8075   -31970   -29739   -23923   -25162   -14527    -2490 
    4465    17014    26315    31571    36397    34264    33023    40066 
   44604    44558    42241    27615    15048    25636    34658    17685 
  -10311   -28540   -25736     2956    31653    27341    26474    64716 
   90995    76532    46321     6070   -26689   -32564   -29959   -17948 
   14563    40220    50755    64126    65961    46732    20949    -9930 
  -27190   -12618     2556     3948    15466    43862    76233    89552 
   80603    67342    34037   -21303   -50980   -50830   -53028   -49670 
  -26474    16187    68708    98069    92623    70885    47228    35357 
   25315    -2488   -23591   -21737   -24528   -24943    -3300     8742 
    9910    33863    56440    54942    61420    76809    65107    33805 
   15427    -2204   -32791   -34668    -4887     9549    24749    54290 
   57867    37616    20136    11272    14580    21774    26806    31248 
   20873    -7163   -29744   -30450   -13834     5073    24367    50835 
   76324    89162    85060    61099    18453   -23020   -31492    -7048 
    9721     6077    19283    43383    34682    12900     7670      394 
   -5154    15830    43958    47290    39425    36193    25721    18179 
   25293    22154    12717    32420    57766    49265    32486    22690 
    8814    14532    25388    -2322   -38043   -47331   -43154   -17042 
   34368    70482    74331    66749    51618    32138    21857    12455 
    4868    13610    28217    35131    23006    -7365   -22473   -16652 
  -14562    -5803    22449    44423    42500    37997    49094    58207 
   41388     5833    -9829     6247    13312    11923    41944    83416 
  107840   114808    91289    37516   -31560   -84195   -88663   -66773 
  -40296   -13759      380    28660    75151    83417    48154    14413 
    6918    12407    -9127   -31301     5923    53802    58976    56099 
   56415    55491    64407    62583    44628    39725    53203    59578 
   36489      214   -19943   -34341   -52451   -44586     2544    47927 
   61950    76133    84528    40849    -2532      862   -17146   -63093 
  -67948   -34074     -184    24912    47453    52871    26196     9374 
   17925     9128     5836    40919    62650    48725    33933    14332 
  -11110   -10316     4251     7080    15695    36162    52677    59656 
   45858     7011   -25840   -21919     8102    37164    51590    37025 
  -10303   -63126   -88276   -73128   -25756    39887   102020   134886 
  137224   118625    74987     6088   -63938   -97953   -70837     8978 
   84767   117421   119813    83829    23576    -8742   -35185   -80555 
  -87951   -32624    43605    97907   114585   116586   108793    63953 
    6251   -19759   -17691   -16869   -27102   -18021    16584    42434 
   51358    48134    36332    29150    33849    34069    -4241   -48216 
  -26879     9883   -12629   -27537    18936    59247    63406    71031 
   86201    89850    76755    58907    56995    53666    25709    -1806 
  -18709   -38944   -43347   -28460   -21452   -18327   -16174   -17829 
    7240    49732    70263    86616    93409    52887     8275    -7474 
  -29101   -35569    -3275    16899    16582    37928    61458    39928 
    1799    11132    50618    54472    27436    17666    20758     5459 
  -15631   -16487    -5231     3179    15773    37885    33288   -13593 
  -39950   -17973    12148    39509    64547    63555    39876    23739 
   13447   -14076   -39082   -30990    -4703    35569    79857    79162 
   48097    27027     9300     9733    12179   -18701   -18415    42576 
   84909    85387    81915    77793    62847    49752    45607    28992 
   -8209   -45949   -71653   -84511   -84564   -63023    -8410    56803 
  103013   142739   168110   137818    60103   -22113   -83637  -119971 
 -122283   -77202    -9726    49229    98722   123510   111597    88254 
   64165    31684    14324    23677    20040    -6736   -13948    -6362 
  -16686   -23544   -11223     5968    19711    33354    63294    84384 
   69101    55730    51470    28802    11846    19145     7731   -40614 
  -71914   -62267   -36443    -2943    19905    31849    59887    69838 
   41250    26765    25245     5724     4187    31681    34774     7720 
  -10875   -26003   -29812    16825    65842    66067    72721    90591 
   72752    44161    13203   -34341   -68139   -64727   -13954    58395 
   88331    73519    46252    19029    20406    34889     8345   -33604 
  -38215   -17586   -14735   -37632   -35330     9752    52083    89966 
  132075   131249    80831    37644    23695    11892    -2806    13409 
   53689    63837    41704    14195   -21697   -47025   -53272   -62388 
  -37704    48789   132379   153796   122022    62120   -18820   -95706 
 -131283  -136090  -129810   -83358      697    58072    95575   154653 
  173668   131141    99960    73352    24075   -16929   -41470   -40265 
  -16046   -11453    10701    95038   149956   130071   103133    71402 
   16987   -19900   -41196   -70572   -80850   -58745   -17131    23766 
   31455    21560    16141    -1794    -5740    23931    33389     8064 
  -11853   -23824   -33735   -31332   -20488    -3235    26769    67447 
   94903    98948    96553    71874    14233   -36498   -39846     9250 
   58561    59764    42226    49279    63706    54221    42296    30782 
   -5767   -21292    21932    76455    87021    50407    14615     2613 
   -1915    11179    32452    21041    -1722    10484    36782    23264 
  -32259   -67971   -51748   -17104    25807    89718   142296   142555 
   86104    19662     2752   -11314   -74475   -91401   -31075    10265 
   36444    80206    97330    84365    60489    14505   -35742   -45137 
  -12654     2110   -14351    -1671    45905    85442   102199    89137 
   48271     3246   -12001     8398    17001    -5509   -10941    20714 
   51505    61210    48000    10493   -12614    -8183   -13161    -9907 
   22092    49434    73523   107258   120008   106625    89419    49960 
  -16294   -62338   -75945   -72966   -54183   -33334   -10515    18069 
   23598    -1048   -26925   -31959   -23240   -14512     1086    16368 
   19955    24983    26315    20895    29452    42221    43775    43708 
   44518    48523    45482    15633    -8388     9640    40922    61685 
   78433    84935    79498    64995    36115      388   -33492   -65304 
  -72195   -25159    46367    84852    93989    97965    86950    59865 
    5722   -73333  -106967   -75857   -42857   -15086    43775    96921 
   88246    55521    35662      182   -44068   -66816   -65650   -50346 
  -36466   -22158       62    28988    67171    96117    96626    74142 
   42963    37361    61114    60964    34645    34869    62779    86509 
  105853   125936   120717    68702     2837   -31591   -41766   -35626 
    5752    61137   114470   174405   195968   165510   128202    76497 
   -6347   -96414  -163848  -175606  -134207   -93475   -56898    16831 
   84254    98896    95203    74980    35014    -5162   -69442  -131878 
 -122300   -63393   -19404    12981    67682   126482   149608   134607 
   94366    45307     1525   -43888   -85596   -91856   -51939     4153 
   37120    48033    56323    37728   -17741   -74358  -108899   -98821 
  -48755   -16765    -9683     5676      657   -28097   -22843    12253 
   36301    51370    60288    42194    12166     8974     9018    -7651 
    8348    58087    91253   120513   163760   178252   146383   100543 
   60305    11006   -60515  -104063   -58895    21259    35191     3187 
   16877    58490    57199    35104     6620   -58668  -108067  -103935 
 -106134  -109969   -70019   -25894    -6444    18457    56157    93920 
  127811   144424   128807    82533    24220   -25396   -65801   -75888 
  -34435     3295    28402   106995   189567   190389   146246   112608 
   97850    91584    75122    51351    21400   -25170   -51738   -20464 
   14481   -11342   -51664   -44501   -25836   -25385      407    43929 
   42149    11013   -10674   -37377   -61141   -67536   -62010   -36644 
   -9255     4563    45216   134638   229693   270903   233463   147139 
   60313   -28660  -132121  -182962  -145781  -128069  -161437   -83385 
  103983   188962   187872   215623   205393   145482    88696     7376 
 -107927  -204153  -218389  -180590  -169061  -109879    34362   109209 
  133961   213813   246312   182231    59273   -85409  -167883  -196901 
 -211937  -194764  -157743   -84472    22524    76022    83319    93348 
   93816   108345   120703   105880   107374   112723    85862    37417 
   -7334   -15573    10416    36988    62334    95652   135066   168955 
  167833   136894    92938    13791   -81055  -127942   -99901   -16445 
   51146    57453    74056   114488    77449    -2236   -31239   -52844 
  -83398   -72301   -34442     6635    52339    77263    89931   110843 
   90433    11862   -56340   -64552   -40815   -25895    -6193    29664 
   74001   107847    95910    72084    80955    92944    79547    28179 
  -43884   -93162   -93526   -37458    19716    28193    33191    58507 
   63657    45646    46403    61446    30273   -33480   -36737    11377 
    8806   -52060   -87210   -61430   -21502    -9653    -5055    17879 
   57672   115986   156864   138990   101559    71610    28086   -17973 
  -57450  -100804  -143939  -166769  -146302   -82734     1491    76869 
  131996   173141   180516   144455    95827    36265   -45914  -121097 
 -148628   -93806    16846   101650   157114   197105   175879   119570 
   87805    57426    -5672   -98460  -176902  -182258  -130292   -68334 
   10115    93047   120043    88456    48375    14407    -3557      993 
   -9054   -24557     2212    37282    41530    56446    93968    95759 
   45967     3123    -1401   -12141   -57067   -87255   -57608     1112 
   28837    37156    64717    57219    -6480   -32355     3966    52843 
   98575   125099   131575   145195   155723   124984    58151     6617 
   -3762      741   -12020   -43572   -61256   -28109    40371    84442 
   82588    59541    26952     -257     6674    16445   -17039   -47358 
  -38003   -31580   -39677   -47027   -55993   -58580   -53546   -45114 
  -20997     8178    10659    12422    57597   106227   104380    78482 
   80727   103107    93645    59622    72377   131866   149978    99655 
   32933   -28395   -84049  -118524  -109424   -37700    33890    41202 
   69458   142331   132981    42855   -31869   -99054  -177048  -212317 
 -165338   -69770    24480   101335   159792   191479   155474    57750 
  -22204   -71690  -112804  -126326  -113888   -75820    -4934    63846 
  127606   203072   230754   200522   171657   126026    59989    23136 
   -8203   -66853   -91702   -45746     8397    50841   106722   152720 
  166500   117725     1776   -94768  -127457  -117846   -66885   -23626 
  -25702    -2926    68698   125014   111866    35995   -28858   -67786 
  -90200   -50835    20399    71775   103816   103435    85276    68334 
   25959   -37975   -81965   -94969   -87357   -53662     6106    71050 
  116019   128494   117286    92205    60245    30532     1800   -21678 
  -18488     7527    11446     1429    33669    68037    43024    12603 
   24376    38578    19485   -14258   -13880    31572    67217    50116 
   16249    19404    37739    34317    31450    35440    16719    -7037 
   10342    45129    52058    49782    38011     2454    -8703    12657 
   15880     8928    11728     1344     1112    28777    12071   -47486 
  -42585    26692    64623    43035    -2338   -28919   -15623    13378 
   23471    11557    -5080   -12433    -1584    25731    37647    16664 
   -2400    -1837     4692    10170    11923    22558    29749    16012 
   23211    52536    57245    57146    90274   137339   153330   124089 
   74310    29362     3388    -8556   -29085   -55432   -66907   -49940 
    -232    42314    39560    27550    37477    36726     3933   -31949 
  -32526     9849    50103    35995    -9377   -17398    24432    58841 
   48219    22497    11924    19233    43687    55946    30534   -15129 
  -48517   -26717    42242    87748   100051   117825   135818   136151 
  126485   108970    61119   -21451   -98028  -127472   -95427   -21470 
   28641    25639    28066    44691    12806   -45021   -69697   -84181 
 -104488   -91226   -44223   -11639    -3142     -446    -9197   -21408 
  -23749   -19950    10384    68145   112309   114897    61144    -3063 
    9693    59872    57032    52384    86209    79825    35629    17296 
    6555     -481     5135   -11796   -24386     7407    49026    97038 
  157485   168720   118616    57942     4402   -32259   -55078   -73273 
  -63366   -46830   -56303   -39584    26757    88850   112422    92144 
   51607    38383    53939    49708    16960     5049    20590    20443 
    7894    12120     9821   -28382   -74556   -92232   -68825   -17658 
   30207    82919   137980   141409    98703    62918    42175    19893 
  -18932   -67838   -98054   -95611   -63830   -35621   -44127   -46461 
    -915    40090    39055    43811    79813   105792    97236    80279 
   71058    39429   -23704   -65716   -57808   -36155   -23947     1158 
   47644    96689   129324   129089   114567   109578    83775    21937 
  -37897   -53898   -11794    41891    34609    -3855    26886    97808 
  116854   110073    92200    16464   -68424   -81444   -54128   -51783 
  -57867   -42789   -13348    29101    59170    67356    81697    72891 
   23355    -6411     6643    18058     3731    -7657    15851    56330 
   60180    23604     2342     -904   -26612   -45777   -22538     -791 
    6080    44369    87257    69782     9333   -29876   -19705      889 
   -5435     1902    52196   105109   122941   114196   118573   124154 
   79174    10817   -23151   -34659   -65196   -99689   -72268    13678 
   80005   104626   103243    72947    54233    62834    31032   -33218 
  -60280   -46643     3591    55819    48239    34227    61271    59246 
