Origin Time       2021/02/13 23:08:00
Lat.              37.7
Long.             141.8
Depth. (km)       60
Mag.              7.1
Station Code      MYGH10
Station Lat.      37.9411
Station Long.     140.8924
Station Height(m) 18
Record Time       2021/02/13 23:08:05
Sampling Freq(Hz) 100Hz
Duration Time(s)  300
Dir.              6
Scale Factor      7845(gal)/8223790
Max. Acc. (gal)   375.260
Last Correction   2021/02/13 23:08:05
Memo.             
[...]
   17274     6940     4376    17149    30196    29027    13616    -1532 
   -3132    10254    25142    30892    29932    21131    10064     8456 
    9165     2713     -434    12021    30333    33633    19737    11797 
   23444    28881    14617     8765    15291    13836    11450    19989 
   28998    26704    21459    22243    18065    11294    16621    24171 
   22237    17586     9942     -106     7379    23338    20852    15878 
   16764     9969     9171    22275    26740    12592     9015    26172 
   26094    11919    24490    39958    20306     3739    16594    18756 
    6615    16591    28325     9085     2717    33787    41150    18110 
   17874    19211    -3327      -18    30647    32719    27010    45242 
   37621     3636     6817    27112    15125    -2979     7011    25651 
   22308    21112    32861     9077   -17829     8086    30057    25517 
   34581    34484    14972    14139    11622   -14526    -3021    53512 
   68314    33199    16592    10203   -27301   -36131    23753    52805 
   25227    30036    43272    11411    -8340    13763    38071    52597 
   57218    37489    25447    38696    21898    -1726    18401    15469 
  -15815      294    32992    31730    18400     7951     8013    17246 
   16681    22724    40134    29408    -1279    -4970     9539    16005 
   20950    33498    38749    -4648   -58380   -22562    49728    44840 
   19966    33662    25154    12644    34446    27868     3954    21658 
   30674     5298    -1321      796   -14760    -9714    34649    61149 
   16972   -39993   -31133    12954    37211    39988    28854     1395 
  -11854     6849    13757    30265    57082    13612   -22642     3345 
  -19202   -50934     2957    57418    59366    54905    17455   -21498 
   18883    57564    60343    71610    46739     5246    -2253    11003 
   29382    29952    27719    47479    40128   -28062   -65649    -7628 
   39135    36842    63790    63069    -8556   -30045    15963     8766 
  -23079     7962    38848    41350    46558    21739    -9887     7102 
   35644    29443     9256    12695    25262    17176    19074    19336 
  -25774   -28150    55848    79635    27602    33663    28803   -32017 
   -1520    68455    45628    11488    34920    63016    64247    47817 
    7472   -37966   -33293     2870    19450    48347    76985    43445 
    8779      -22   -36003   -38951    22459    91623   135340    89930 
  -17108   -48459   -20559   -30931   -29440    37422    59822     7523 
   13653    50369     8525   -34360   -11286    11155     8669    18482 
   32101    21165      -25    -4438    18096    47981    53221    58314 
   82483    68380     -265   -67281   -70144     1213    62260    81662 
   92842    49839   -27706   -22434    17328   -14739   -27641    18836 
   30082    20873    15191      874      869     9825    45553    90499 
   60389    -6821   -23785   -15685   -27735   -28741    27796    61506 
    8467    -9778    16953   -16131   -39108   -15099     -901    35981 
   44154   -13707     2145    74563    73533    56004    81855    87108 
   49932    12253   -12364   -18828    -3429    10432    40421    79478 
   54091    -6943   -28387   -20497   -11897    -8464     3423     2475 
  -30570    -4288    83088    78588    11103    25362    37627   -19002 
   -5557    34111   -11190   -27569     8982    12187     5732     5852 
     279    15751    31911    12326     2350    14845   -10226   -38913 
    2952    40971     6689    18341    99819    86528    21423    52470 
   54454   -40930   -46009    34311    37380    29106    94250    76797 
  -60205   -91376   -34155   -44388        9    98498    69708     8181 
   32327    20650   -37255   -26680    24345    50588    57238    60193 
   32863   -46633   -86169   -39168     7596    55528   138040   163702 
   88126    24066    26400    -4595   -47050    11572    70915    26887 
  -15450     -619    -7715   -13859    55363    92823    46136    61198 
  101821    38072     3813    53739    11221   -60814     8122    92773 
   54692   -20007   -35938   -37377   -57113    -8937    85538   103076 
   48427    -4816   -10339     7115    27950   102389   154608    77022 
  -32518   -56049   -16684    11018    -7888   -20952    22729    62109 
   38674    20918    44020   -26069  -155201  -103839    33227    47206 
   48231    96512   108889    87162    34045   -32930   -25967    38515 
   44228    11893    -2763   -60428  -117703   -65870    43533    83843 
   26792    -1848    24710   -18958   -41089    36728    46938     1806 
   13830    20409   -15549   -43560   -17004    27102    20302    24865 
   35306   -28931   -26747    86647   107727    46707    22450    -3623 
  -17350    12060    37241    46074    29883    -8941   -54820   -70526 
   13521    78285    16272    31911   139557   103712     8509    22999 
   65167    36679   -11673    -2516     1868     6500    54159    49465 
   28422     7187   -69419   -85776   -46340   -33010      633    31345 
    1926   -24093    25528    67732    21265   -11311    62320   132305 
   82919    18403     9795   -65272  -163790   -91006    31927    -2177 
  -13126    99285    97610     9745    55189   131634    93294    56235 
  100269    80682   -32767   -56612    -7963   -10258   -26655   -51248 
  -80765   -74862   -64015   -39870    13710    94220   186962   164918 
   52177    34095    46850   -44146  -104548   -20865    20925   -45204 
    -444   105352    65682    -7788    13085    46392    36946    24178 
   54257    93969    76052    54768    71085    51964    -6251   -45393 
   -9863    76472   100989   100835   115738    32838   -78868   -59139 
   14087    37030    67247    88761      465   -96051   -73381   -23857 
   15649    79859    96307    56481    21471    -8419   -35996   -53244 
  -42547    10003    16704   -48070    -6843   126732   144529    99916 
   95439    64463    12353     -352    16494     3430   -61801  -124410 
 -120031   -47237    23722    97271   187131   172750    69654    -1165 
  -69772  -104737   -27233    21767     4009    69789    83373   -13695 
   13952    38916   -94643  -139396   -57161    -3423    60187   114963 
   77075    16343    11545    31460    37353    47135    44136   -10416 
  -31830    24777    27854    -1301    27152     2081   -60170   -77791 
  -54646    32732    49800      810    70993   134478    63227     7119 
   59179    59341   -70256   -68831    64918    59618    24702    75552 
   29725  -124653  -128973    40733    63355   -15888    55119   106068 
   45129    24175    32624    13743    -1984    16426    33232    16306 
   -1555    16592    57581    54160    27653    35276    46770    47680 
   47737    73712    52917   -28313    43351   118243   -41334  -125645 
  -26959   -14053   -41040    17853    47460    36864    47733    19890 
    9540    15021   -97622  -157069   -27035    78169    59977    48679 
  115028   132949    43691     -157    46758   114714   143376    80146 
   -4028   -25829   -18073   -36293   -88086   -94078   -10813    40788 
  -30148   -97141   -30712    54876    49569    45037   113992   174514 
   80358   -86643  -104716   -45338   -19535    48107    86103     7303 
  -42076   -30672   -85831   -83061    66440   112692    37407    33886 
   37924    31716    74297    76680    39341    30766     1097   -73473 
  -86306    22511   148317   152320   104620   135722   109899    -7973 
  -45979   -51102   -58656    13945    82645   101116    88322       89 
  -76721   -79477   -38601    59050   124576   106228    40146   -67732 
  -92299   -29330   -48061    12634   235611   228187    12182    -4209 
   37682   -83351  -135904   -42989    12052   -31780   -85013   -44567 
   40585    53769    19435    52324    76894   -18954   -45933    45219 
  101808   127175    88769    25841    43152    38132   -26892   -61901 
  -50484   -18003   -29070   -70969   -52820   -15029    -2979    34709 
  106542   132370    50020   -14567    20829    20452    -2424    30758 
    8694   -37376   -13682   -18142   -18616    18438   -15642   -26900 
   21292     9706    26349    86649    54781    23009    67197    34857 
  -56570   -44273   -10365   -42780   -30157    22211    39927    43675 
   37633    35667    65369    73739    21417    21577   111539   136135 
   94043    53596     5636    25710    31172   -53028   -32518    40703 
  -19530   -53379    40022    43718   -90653  -117772    39349   165971 
  144543    98513    43082   -67304   -80600     6926    31293    24088 
   56203    55591    -9074   -16092    26840    -9381   -14744    48404 
    1621   -54712    36139    79521    18084    45615    71855     1144 
   -2386    41509    29901    16679     1023   -37802   -57979   -24335 
   73498   133717   100024    62885    50232    41679    28051    11556 
   18287    55962    57784    -2825      460    44031     2968   -56565 
  -68141   -51884   -27792    27812   114253   124696    49350      155 
   -3377   -14939   -29625   -13394    34573    59570   -10813   -40212 
   52099    37450   -50905   -13864    64770    71147      621   -17363 
   55100    39407   -26478   -11708    20672    22122    -3704   -25721 
    4417    22258    12891    58338    40238   -81244   -83855    34739 
   39633   -72200   -21066   131319    63347   -36783    59880    99967 
   22662    65452   125167    24464   -48259   -29019   -37922   -36628 
  -13720    -4905    17240    24139   -54573  -111828     1251   108314 
   72446    81060   144215    88101    -2567   -11734   -19021    11465 
   50984   -18982     1873   140143   121941    21865    60589   122258 
   20429   -68497    13591    83835    89440    73116     7284    -7388 
    5873   -53715   -64323    13080    52011     9657   -39426    37355 
  136551    54878   -36513    -7466   -12521   -16371    26732   -14322 
  -48408    22432    51972   -20071   -78376    -2012    54450   -57175 
 -105120   -26466      596    -7573    39561    79309    32621    25837 
   61137    -6461   -37459    24571    46364    74680    75471   -24285 
  -65520      184    34481    38975    78248    83392    -4081   -74204 
  -34281     2795   -25774    -9549     9180   -46498   -26353    75411 
  118682   130118   112437    34080   -44266   -40474    29274    43232 
   41370    77085    55848    37897    70020    57873    20526    11638 
   38016    32688   -57357   -43312    91860    74679    -8896    67890 
  112401    -4970   -36640    17100   -39345   -38466    63895    20085 
  -66285   -28200     1935     9695    42619    26531    20795    69854 
   55425   -12658   -39957    -5512    17633   -64062   -91976    57634 
  146435    65682    -2899   -31094  -104959  -103774    41922   143892 
  121070    52034   -37076  -101753  -102388   -78663   -20155    59333 
   53152    -9865   -39888   -42635   -32656    -7006    53561    83992 
   43233    23454    33550    66445   100476    73838    44143    22530 
    4083    24287    10933   -25995      167    69358    99727    57272 
   32644    52220    38777    -8256   -16552    61858   103380    59401 
   71371    78047    46581    82298    51765   -51331   -34150    35263 
   48899    13811   -16244    33133    63397    18643    -7742    -3329 
   14806    14885   -32535   -54167    22258    99631    53504   -18418 
   -5603    26973    -7476   -58920    10786    72783   -12267   -21173 
   43336      762   -19448    25145    34017    37208    29921     -634 
    2157    -5157   -50776   -13176    51163    13177    21392    81558 
   32598   -40938   -42464    31072    75554   -36089   -87035    15144 
   53673    43514    35560    39216    89004    80520     5204   -35087 
   13356    65770   -14717   -98440   -32707    52339    44053    35988 
   31720   -27091   -19938    43671    69820   116160   125838    35021 
  -38686   -38601     8415    64883    64038    35910    48321    80678 
   26493  -106483   -68823    61800     8305   -24991    52575    18549 
  -10488    45493   -44685  -181962   -91492    76457    91883    46496 
   81751   131942    56440   -96581  -122386   -24675      365   -40120 
  -27059     1992   -20942   -60536   -28534    51058    41087   -17037 
   19232   103524   137994   118677    62044     4503    -2810    -7431 
  -60736   -49437    28040    15627   -10386    16900   -17031   -36895 
   32638    74671    22968   -20794    42776    70163     6166    17535 
   74471    55229    14662    53223   151744   175360    68454    -3126 
   17645   -33288   -54233    80235   112272    67379   141671    67270 
 -133853  -110307     2160    19138    34932    70501   114280   168636 
  151028    73635    73916   113906   101804   115222   130473    50931 
  -16198    11253   -10162  -113412   -93006    46503   113258   131776 
  133558    78047    69489    85600   -30681  -131364   -67586   -41053 
  -79907   -37775    22916     2349  -102699  -113381    11570    30843 
   15147    67275    12997  -115230  -215455  -245934  -136212   -28294 
  -24651    28563   116602   120888    95038    37334    -4433    79452 
  128726    72223    76284   125490   157121   174474   111631    44513 
   86845   131635   108750    56166    -3384   -40883   -62066   -49318 
  -19228   -48635   -80721   -52519   -38226  -104869  -172443  -129506 
  -84419  -113105   -97519   -53410   -15557    41156    15345   -30966 
    9208   -17798   -39244    70866   105012    83633   147106   164592 
   50445   -44952    67691   206693   170764   201334   265854   138528 
   79209   190356   185627    69928    41326     7072  -177607  -253633 
  -61018    62676     2574    -6245    26904   -56444  -187685  -217077 
 -215269  -299332  -375503  -337477  -236845  -114149    29185   106054 
  105077   154835   263906   327443   301337   202544   118368    98443 
   33218   -60189     1131   104002    38352   -30273    46984   110369 
   81568    63049    40370   -96811  -249898  -218413   -56805    63124 
  130400   163848   110582    19853     1690    -8757  -115412  -218643 
 -202003  -126665   -64532    -1962    43260    34510    15565    49499 
  140162   263632   336387   277528   176370    94119   -34504  -105560 
  -41774   -20218   -82455  -111661   -97187   -36657    56992   109721 
   98551    44292    13944    42994    54962    56008    99484    81087 
  -60065  -164273  -101301    31337   117054   193680   272371   315496 
  372847   388731   226948     4245  -119303  -187128  -231218  -245386 
 -225850  -133108   -34258   -38597   -37933    89955   167633    89511 
   62534   122314    87712    15905    40772    48917     4434    41796 
   93788    76626    96408   128205    82656    19498   -39298   -99115 
 -143837  -218627  -249072  -125894    22549    83793   140485   188025 
  128650    15512   -68472  -106494   -67234   -30342   -61900   -40275 
   48570    67878    31376    40265    54402    17099    15284    69079 
   66811    26065     1071   -80395  -158140   -95299    11751     9286 
  -90008  -167031  -135527  -102186  -184870  -224662  -128385  -101729 
 -154884   -93658    22998    86872   116353    77176     4487   -21176 
  -37430   -27261    86632   202204   170866   100986   116928    95754 
   48184   115782   143734    25562   -20646    64635    96545    29886 
  -10554    32300    86555    92865    76711    81676    86721    22373 
  -58564   -37295     1408      -59    89199   165669    61377   -58062 
 -103295  -166492  -175875   -91116   -23295      905    17996    71211 
  141953    57788  -154734  -198747   -83376   -62877   -87606     3433 
  137336   195116   147549    92242   164204   245513   193827   119632 
   86622    55996    36270     8650   -57742  -141727  -175717   -97714 
   26184    55487    49804   137201   151638    20391   -17643     3145 
  -69457   -80597     -556    16156    28009   108406   108992    -5805 
  -20109    44579   -39924  -112279    17814   116460   100191   139761 
  210736   202481   120051    48849    28084    27217    83712   129521 
   54336    49563   142099    92082    43129   137056   154618    99824 
   73240   -12754   -40379    48645   -16011  -144807   -39692    57296 
 -103588  -238091  -160465  -103705  -138084   -71166    14261   -54340 
 -112730   -45855    -9229   -72698  -144005  -159268  -118887   -32370 
   59942    62920   -59441  -167714   -99867    65361   151378   163117 
  143880    80472    50392   109576   154363    93270    15268    69207 
  199620   230445   176539   123412    30766   -73507   -93916   -92700 
 -142790  -142063   -43525    38142    58356    62696    60419    53773 
   41264     6264   -17115    15936    61503    71429    49620   -27452 
  -81290    30042   156478    87066    -9436    50341    83802   -36061 
  -80727    41474    55273  -100820  -153061   -79191   -65065   -54823 
   27697    74439    81803   102713    85527    45837    28065     7253 
    9412    61368   100487    62714   -10876   -18589    -9153  -100959 
 -191439  -138329   -41922   -26399   -22705    24856    53910    62089 
   71581    70224    89465   104431    88759   120262   139626    41010 
  -21493    41661    54789   -13765    -6296    55652    29300    17705 
  138360   156686    -5259   -73171   -26107   -41215   -80495   -36950 
   46147    59308    20825    45484   109715    76000     -514    66969 
  163836    78044   -19472    18283    25709    -5961    20193    30063 
   38591    88732    66866    30227    97478   103442     7267   -25579 
  -23962     -569    39042   -30960   -55301    53497    41628   -15431 
   39456    30285    -7589    42129    36647   -39773   -96272  -111966 
  -13946   119114   123558   109309   142981    86871    -6824   -22164 
  -14520   -32817   -42884    19881    81990    -6925  -123010  -108568 
  -67131   -48443   -34099   -56025   -24382    69813    99477   111052 
  130326    96202    67193    34749   -28408   -50676   -70854  -112085 
  -72040     2812    -8110   -22180    26875    15754   -38079    12198 
   87440    73114    29286   -32865   -98374   -67956    17876    62106 
   75016    68462    57936    41164   -22104   -41804    36934    60331 
   10440    20353    58743    65948    65496    28529   -11682    32263 
   66279    38719    54133    19322  -102521   -90310   -10679   -46492 
  -23068   125320   159618    56355     7886    23153     5544   -37451 
  -78274   -57778    93712   220997   150110    25975   -17316   -87201 
 -198621  -210255  -108241   -36103   -43806   -10037    80719    95936 
   34465   -27684   -52230   -15796      788   -13413    59463   142339 
  109223    58440    48357   -22615  -139638  -157725   -76096   -11003 
   49507   162928   217587   148487   114517   114860   -23122  -145828 
  -30728    89325    10746   -40878   -22473   -99134   -91266    62908 
   72864   -33131   -23445    54402    64561    42978    89856   109166 
    1240   -41962    54217   100101    90857   110176   104391    92380 
   91409    32563     4923    63822    49771   -27568   -26487     3304 
     838    17366    59875    78150    48343      573   -11821    -2760 
  -37022   -62270    -2417    57238    80482   130196   129055    32590 
  -38369   -78186  -123005   -80431    15394    40516    35241    50379 
   53982    39078     -175   -53836   -60698    -7069    22227    15433 
   73633   149050   138125   110037    93583    57403    31901   -15835 
  -53721    35484   152953   154728   105459    68825    11591   -81225 
 -144594  -123709  -109485  -114957   -10720   110798    75003   -22854 
   -8016   105077   128225     -179   -54726    37963    61472     6589 
