Origin Time       2021/02/13 23:08:00
Lat.              37.7
Long.             141.8
Depth. (km)       60
Mag.              7.1
Station Code      MYGH07
Station Lat.      38.1802
Station Long.     140.6405
Station Height(m) 186
Record Time       2021/02/13 23:08:08
Sampling Freq(Hz) 100Hz
Duration Time(s)  300
Dir.              6
Scale Factor      7845(gal)/8223790
Max. Acc. (gal)   401.709
Last Correction   2021/02/13 23:08:08
Memo.             
[...]
  -34808   -21134   -16479   -19311   -31764   -32980   -11894    10962 
   28291    32016     2857   -39542   -61767   -61649   -44828   -23712 
  -23276   -41351   -48879   -38699   -19764    11793    31752    -4307 
  -54147   -39402     5294     9455   -23371   -73094  -104431   -63850 
   16231    40390    -4008   -50102   -68666   -67664   -33556    26362 
   63941    50935   -11310   -86188   -92882   -16417    26369   -56282 
 -176467  -169908   -21208   114979   105653   -36991  -175340  -155916 
   18098   178876   193004    61342  -112112  -181368  -102346    15198 
   62245    22100   -63593  -107401   -68071   -24821   -20449    -2592 
   19900    -8793   -67273   -94749   -69546    -7072    32907   -17047 
 -111412  -115520     -157    99288    58660   -83253  -175483  -125273 
    2875    96581   107982    23572  -102791  -153743   -91785    21859 
   97556    50600   -99824  -198506  -128707    37964   136413    99177 
  -21023  -122300  -104730    12222    84098    44251   -32664   -73070 
  -62756   -21855    -3699   -36749   -74509   -71410   -40119     8789 
   73916    96813    17119  -126370  -216452  -164987   -16615    92516 
   78609   -42186  -165211  -162110   -31961    89467    91836   -17863 
 -135785  -147775   -42487    84435   129855    64297   -37318   -84449 
  -88275   -82154   -32089    51480    56263   -64095  -174657  -141139 
   -8428   101806   101964   -15068  -115242   -84798     2741    51927 
   55212     3646   -71084   -80905   -34051   -18418   -43240   -51713 
  -20825    28327    60555    41022   -26379   -66771   -20686    56976 
   70258     1885   -83330  -109776   -62599      230    15453   -19072 
  -62727   -80272   -54172      697    40323    41574     6538   -64592 
 -132958  -133766   -71942      746    54575    53654   -22250   -96790 
  -76038     5983    62550    76615    39225   -53075  -101741   -14430 
   99856    66101   -65017  -120251   -87164   -49061   -17999    17358 
   29157    -1806   -39220   -41980   -32038   -34693   -23657     2563 
    4280   -29385   -66538   -57496   -11051    -5780   -49418   -75271 
  -60115   -23673   -13401   -60309   -97094   -43938    58059    93545 
   24490   -57817   -68697   -43719   -39758   -35997   -15900   -17321 
  -41029   -50232   -59346   -85082   -87656   -53541   -24823   -22130 
  -24834    -3271    50870    77727    -6605  -161758  -226170  -122451 
   34569    92623    52874    15674      915   -35861   -73525   -68366 
  -41592   -25895   -10328    22257    35640   -15213   -89062  -108429 
  -60615    12884    78753   119306    86921   -46516  -177938  -164497 
  -37987    49064    61912    53458     8884   -64077   -85693   -39276 
   23773    41076   -37898  -156818  -171528   -50728    67541    61986 
  -38955  -111133   -64970    45085    78379      969   -91905  -119520 
  -55104    61488    92935    -7076   -75357   -27699     3445   -52516 
 -109950  -102019   -37885    25290    25281   -33794   -98814  -124432 
  -81411    -5583     7639   -40470   -50400    -6849    21712    -1159 
  -67294  -119292   -67568    82057   168205    58353  -136413  -189318 
  -64644    80603   127205    81607     7346   -35873   -37061   -44346 
  -68434   -56023   -29130   -59710   -96545   -71982   -56027   -83559 
  -58276    47933   117409    79853    14007   -19326   -57933   -97888 
  -68060    43744   140235   107318   -47065  -182272  -158180     8927 
  146723   132714     1379  -132386  -154456   -63173    21636    40197 
   29548    -4676   -64708   -91540   -48454    25856    73924    47922 
  -48257  -116430   -83972    -5687    32767    -7412   -95531  -132156 
  -91345   -64979   -77697   -56432     2407    24432   -26573  -100793 
  -95177    10183   105895   119975    64589   -44181  -132283  -107784 
  -23569     6066   -20205   -32449    -6799    15639      -56   -33324 
  -55711   -66457   -50680     6035    60160    61395    15789   -38439 
  -61376   -48851   -44173   -72118  -116380  -146063  -113239    -9194 
   80547    67369   -23491   -71204    -5416    82825    62625   -31700 
  -70379   -41176   -18920   -28999   -54357   -48829    32810   128848 
  126137    27745   -59657   -72392   -56400   -77449  -115246  -120874 
  -90283   -23498    46634    36949   -47457  -109287  -118662  -107347 
  -78347   -41075    -6859    57719   112968    49480   -78096  -122303 
  -86944   -23876    60720    89394    -3353  -127062  -150770   -66060 
   42047   101574    65662   -47646  -103885   -26100    68835    62410 
  -16968   -92982  -107790   -39667    41794    50984    14659   -20785 
  -78106   -90841    34623   153269    88871   -80840  -202764  -194848 
  -72102    18108    -6173   -56612   -55482    -4433    45657    23620 
  -43784   -53217     3931    52806    30442   -70186  -143382   -87043 
   36563    94516    25780  -109293  -166467   -72526   104438   230419 
  182316   -36173  -214901  -155093    37998   105398    12961   -79234 
 -118858  -148077  -125172   -27093    37679    -1975   -81822  -133791 
 -151860  -125713   -26418   100865   135553    34561  -131649  -251938 
 -208610     5012   197920   180673     3443  -136660  -133868   -58961 
  -43255   -53677    37509   160726   142878   -11124  -141392  -158846 
 -117432   -39490    94763   184662   109468   -86713  -248690  -247664 
  -71401   126566   173862    79747   -41430  -107264   -94140   -52807 
  -29003     -322    30576    13516   -42975   -91239  -130108  -121034 
   11465   164628   136097   -42030  -144637   -75127    52461    94478 
   24198   -73005   -96561   -30825    45515    33710   -62950  -120969 
  -82193   -25600   -10833   -18936   -36401   -68661  -108892  -131383 
  -82101    32352    94024    37808   -61983  -100773   -46531    34049 
   21069  -122796  -242863  -160038    61226   187717   101972  -100296 
 -209503  -111469    51929    82730      943   -60837   -55863   -27058 
  -15072      -48    51051   115534   126747    55547   -39727   -81319 
  -47923    29774    84226    59192   -13771   -63321   -85167   -98259 
  -73688     4268    77018    69296     5617   -30564   -41474   -63795 
  -78165   -69574   -58765   -51853   -27448     -309    -6413   -20445 
  -13689   -12658   -33984   -52957   -41431    -8951     8133    -5733 
  -28722   -29836   -19913   -34651   -65514   -72781   -55551   -62781 
  -93816   -73712    12220    94767    81318   -70968  -237043  -256945 
 -146693      182   106644    95616   -10489  -101104  -126011   -90116 
   -5494    82447   113142    60254   -32023   -49871    33693    67455 
  -15805   -86119   -76894   -42458   -11209    10623    -6774   -62581 
  -99577   -79331   -28259    19041    52833    19602  -106255  -180349 
  -82048    82489   140744    38905  -124584  -192172  -116347    39216 
  183816   206097    75143   -86846  -137928   -52099    59825    92861 
   84979    74694    18153   -75459  -155822  -183783  -124773   -39696 
  -18962   -28323   -22185   -15746     6027    21373   -48897  -152188 
 -132503    -2894    69433    26130   -53119  -104166   -98736   -18419 
   59080    15591   -99787  -142792   -98570   -44961   -13031     3921 
   -3002   -39258   -74590   -64515    -1768    54855    26859   -63994 
  -98361   -48654   -10793   -22110   -33571   -12636    47553   105146 
   70305   -36728   -83511   -43672    -6655   -20043   -55140   -54587 
   -7612    35591    39838   -13026  -110810  -147884   -49038    84253 
  102868    16866   -28757    25888    71059     4355  -114211  -137484 
  -28371    86003    84832   -11688  -104160  -134015  -122146   -90798 
  -15052    91505   150913   100165   -40537  -155871  -163628  -103343 
  -25656    45873    66773    23318   -57200  -139391  -157042   -71397 
   61731   152648   125847   -23814  -171077  -185607   -64663   103064 
  182549    70771  -142172  -229128  -127815    11111    63120    16186 
  -79824  -152886  -169150  -122690    -7658   117778   151433    61723 
  -88916  -182888  -131697    22260   148875   156286    42318  -105837 
 -170968  -124723   -29612    56407    88777    58606    13937   -23820 
  -71541  -133770  -174267  -112313    44863   139749    67358   -91875 
 -182995  -130522    -7109    57716    33767   -24553   -71467   -72909 
  -33276    -4359     9040    27348     9714   -57118  -107272  -114536 
 -106112   -61955    37355   110332    74622   -26044  -101561  -127681 
 -120852   -92573   -51422     6704    83857   125722    53068   -98832 
 -167491   -81625    35206    53006    -8992   -43922    -9967    22898 
    5881   -29378   -57415   -49763    14647    67392    45133   -26244 
 -104106  -134342   -76663    -8202   -37143  -102957   -65148    32019 
   46098    -6369   -33318   -24285    -8679     -666    19737    47156 
   25713   -19766   -25956   -28035   -37357     5314    75878    93494 
   40258   -41621   -93557   -83764   -23870    37739    23384   -84786 
 -182844  -175339   -74422    67930   169342   128135   -24078  -140287 
 -153376   -95530   -21945    39237    93515   104226    32097   -45360 
  -17863    64705    53771   -47490  -112583   -99901   -46809     1873 
   -1917   -59576  -105349   -93672   -58423   -52512   -89193  -122646 
  -65191    65422   101348   -23384  -132062   -66194    74606   114374 
   34379   -93806  -176416  -104723   100261   253056   217829    50845 
 -103331  -173858  -171132   -97355    48852   181730   154684   -42137 
 -220845  -244652  -166033   -37046   119677   162248    15082  -157481 
 -208143  -172991  -105798    10080   127467   121714   -15434  -165643 
 -220382  -121757    84685   239912   201812    -7125  -205667  -245755 
 -130657    33673   107268    28405   -93717  -101158    -2293    54638 
    -689   -84433   -86139   -18409     4048   -59691  -106555   -50515 
   36678    47611   -17093  -112033  -172042   -93576    93638   179744 
   57148  -137648  -206940  -107967     8572    12838   -46642   -88985 
  -85476   -17490    73676    88271   -10706  -117896  -112938   -16524 
   78256   105039    60918    16546    14499     7264   -44919   -87053 
  -40842    58820    87156     6836   -78557   -84360   -44169   -25932 
  -57971  -123668  -157898   -95424    22495    85824    73372    33450 
     598   -10577   -45009  -128424  -158080   -68427    31889    29265 
  -58617  -142551  -137030   -49998     3492   -19302   -53107   -61117 
  -36926    -8989   -15635    -6621    45038    55560   -11965   -79794 
  -67964     4918    45501    30828    36396    70821    50930   -45939 
 -150024  -180723  -115794    -8266    71585    77487    15947   -42847 
  -57511   -48143   -38410   -41723   -45131   -24281    -5875   -36996 
  -88323   -93928   -52660     5759    62857    85806    44261   -25747 
  -46195   -10779    25466    25710    -7933   -23346    13868    49654 
   19642   -51673   -86368   -62912   -17577    32256    73126    66231 
    2459   -72490  -113215  -110447   -78957   -44086   -24275   -12704 
   -3916   -19633   -50627   -51082   -20320    17721    43116    25563 
  -32132  -113833  -192543  -177839   -39384   102389   129008    41994 
  -65389   -93861   -46175   -13440   -28327   -31518     1969     7952 
  -59512  -137384  -120348    10358   149627   164292    32533  -134964 
 -220467  -182019   -42769    88053    95050    18185   -32159   -38863 
  -36667   -52169   -80778   -68004    -5684    45158    54309    12220 
  -64710  -106432   -85314   -41731    -8347    17679    29166   -17373 
  -95420  -112216   -77287   -46930    -6882    20081   -21003   -75358 
  -72141   -51690   -50494   -35823     1804    15576   -37702  -111582 
  -93077    29303   101607     2415  -169523  -258134  -237400  -109381 
   96830   221063   130319   -71130  -154261   -56886    73008   102324 
   38152   -58887  -126384   -93613    12209    88223   111183    67918 
  -57601  -161773  -138673    -9976   119969   149154    78621   -16723 
 -102878  -150180  -105268    10025   103998   102816   -12071  -154845 
 -163876    -9432   127094   102594   -32061  -133382   -87643    38510 
   56670   -53127  -148913  -132160    -5634   125425   120251   -33050 
 -177484  -173634   -41374   114546   187911   113590   -54722  -177990 
 -158768   -19930   102861   119164    57090   -54456  -160863  -173287 
 -116328   -49985    31959    80443    31556   -79662  -176658  -177022 
  -57736    68085    71178   -34588  -114783   -86730   -10899    26277 
   17332    -9545   -23804    10881    80015   108375    61330   -19580 
  -85756  -109316   -64859    34927   102091    64184   -41354  -121392 
 -125104   -82692   -37143    17552    65148    65146    15147   -80882 
 -163945  -104861    77495   186487   101490  -113413  -256015  -155110 
   88271   193307    63522  -114133  -135283   -19774    60901    20682 
  -79308  -143640  -120448   -35515    24264    -3816   -83527  -108502 
  -47162    34119    91752    92889    11601   -59961   -33223    -9678 
  -79587  -153457  -147529   -66602    25033    21605   -61767   -96811 
  -74983   -75011   -87581  -106249  -158148  -155564   -37015    97530 
  167020   157855    71868   -31199   -90562   -95389   -25832    81681 
   88542   -32054  -136367  -149666  -119688   -70301    10369    76974 
   44892   -72054  -161023  -164265  -104298   -16995    54081    64273 
   10235   -49396   -42036    40107   101734    41686   -92369  -158359 
  -97403    26492   103688    81495    -2845   -79123   -89325   -41091 
   -2007    14882    43838    72940    60871     4251   -36479   -34672 
  -47927   -85756  -104716   -76032    35623   199889   293087   203777 
  -58372  -318806  -368760  -149661   189441   396820   314759     6438 
 -269585  -304260  -144738    50047   164322   123543   -22775  -136080 
 -168315  -130666   -17973   125879   195156   113223   -77680  -237695 
 -226050   -29687   167529   169380   -31469  -263186  -296840   -77815 
  188586   260610    69853  -243449  -427509  -310027    25122   296067 
  316186   128914   -86813  -174897  -152699  -120371   -63265    69160 
  180706   134137    -8943   -79771   -39923    59587   163258   177850 
   56384  -111507  -210848  -195122   -58696   135249   246657   172899 
  -47561  -232428  -214732   -49594    73238    66970   -42587  -151966 
 -127152    16591   138028   128865   -36929  -239842  -302267  -198111 
  -29979   100129   141812   123259    86043    21385   -58480  -115869 
 -137342  -103623   -22122    42934    45959     7056   -17793   -27364 
  -70818  -124256  -149143  -180279  -199574  -129500    25313   170507 
  181236    11776  -200780  -265833  -122643   131267   284276   180015 
 -107681  -355884  -397469  -256459  -111827   -73260   -98829  -124497 
 -111099   -53244     -365    -7889   -82478  -151899  -127440   -27747 
   37318    15286   -40567   -70228   -46665    11583     3377  -120602 
 -230926  -188113   -26763   132414   205772   135957   -62444  -238927 
 -236309   -69894   108112   184086   158039    90811    28574   -19739 
  -47268   -40545   -18519   -22318   -50039   -68324   -80103  -107883 
 -112862   -33619    61924    50913   -49072  -159526  -219207  -134685 
   73828   210537   142017   -71888  -269944  -324072  -211411   -16787 
   93556    19317  -146014  -242366  -207266   -69051   108980   225428 
  171355   -29087  -197685  -234461  -186051   -58764   137573   289499 
  310833   200142    24181  -109717  -144585   -69742    81333   161109 
   63786   -98347  -186742  -164740   -20529   156411   212328   116646 
  -57920  -189292  -155017     1591   117126   114586    22292   -52713 
   -1873   109229   129670    50221   -53998  -124789  -104268      573 
  123934   208182   203038   111681   -11905  -102598   -92699     6916 
   93000    90829    16092   -51282   -40373    35471   122238   174410 
  143166    26703  -107487  -167459  -102365    37596   148063   146958 
   18916  -148510  -239086  -226328  -161784   -81535     5432    66626 
   68368    13047   -54850   -55335    23855    62283   -18480  -115803 
 -123020   -67855    -7249     2385   -97262  -240432  -270743  -156636 
   -6076    80978    55873   -74532  -218208  -238536  -101108    61300 
   99937   -22970  -205787  -248219   -98647    60550   103742    77796 
   60065    90845   156782   200442   163976    43980   -58841   -54213 
  -10605    -3829    10206    33184    12646   -45453  -112232  -157662 
 -158134  -127380  -103655  -109938  -129625  -131218  -105740   -81365 
  -82880   -97795  -106030  -101991  -112504  -168581  -223804  -180623 
  -28594   123982   168303    58885  -148030  -259795  -148136    45044 
  129104   128001   114129    82603    55690    39695    10602   -22886 
  -48180   -33340    20537    24250   -48602  -120039  -118876   -18600 
  114084   154305    76092   -31897   -77653   -28553    71655   129940 
   92315   -10309   -95689   -79105    34491   125760   131213   109730 
   99237    91440    73589     7061   -86348   -95785    -2079    88160 
   99897    28576   -67373   -82660   -18855    -2062   -60193   -95023 
  -79027   -59316   -49185   -69568  -147888  -231223  -244313  -183340 
  -87841   -10269    11057   -33766  -160903  -292994  -281523  -171736 
  -74484    27645    54996   -77299  -237932  -307994  -272995  -130455 
   35808    86406   -14185  -149736  -174885  -102379   -52890   -33673 
   13479    54564    52042    39772    34404    12810   -18940   -14558 
   31741    64069    47212     5988   -13093    -7059   -23615   -73021 
  -98896   -62191    15194    86397   131760   172932   199335   158518 
   75111    29941    31757    46704    66873    87023    99900   104831 
   99100    84966    52764    -4101   -36761    -7105    42624    61172 
   41062     2712   -20143    -8390    14476     4159   -42691   -85688 
 -110859  -122061   -87345   -10606    35926    19556   -36537   -98435 
 -106690   -25199    88844   151507   143005    85611    13089   -24705 
   -5514    28638    11265   -80094  -171710  -156209   -64806   -32784 
  -72765  -104631  -129541  -163718  -161954  -129357  -127527  -150726 
 -137624   -62830    28001    52467   -18939  -147513  -272481  -314319 
 -223688   -64500    44023    71440    53198     1255   -33936    -9135 
    7722     7013    53424    81175    25840   -31849   -37141   -27756 
  -38130   -70062  -108271  -138531  -143658   -88114    15604    84416 
   61433   -52203  -187749  -225003  -143116   -43552    -2011   -36575 
 -113665  -139104   -75024     9490    43590     8309   -52228   -50996 
   23121    80177    64184    15334     9277    70143   134337   126648 
   56054    -1884   -10666     -225     9173    14692     7916     5687 
   12479    -1854   -26094   -34227   -39005   -28194    29817   119547 
  184509   152687     6270  -145345  -177353  -104692     6990   130982 
  187928   130144    42194   -11465   -26487   -12985    -4989    12606 
   86674   203512   284709   230415    61246   -58446   -50622    35144 
  136830   165898    86872   -26276  -113220  -151347  -127735   -61703 
    3105    15353   -45457  -148501  -223566  -207820  -138315   -97321 
 -104010  -152370  -212888  -224071  -165657   -75560   -22071   -46876 
 -115892  -159115  -131156   -59001   -19191   -33870   -63458   -86791 
 -106386  -120468  -129189  -120455   -92612   -95199  -141933  -168821 
 -152968  -138288  -143383  -150746  -155313  -166583  -191135  -217343 
 -202539  -124309   -35086    -4773   -42631  -112665  -166074  -140359 
  -24042    86402    98037    25209   -65701  -113694   -72959    40664 
