Origin Time       2021/02/13 23:08:00
Lat.              37.7
Long.             141.8
Depth. (km)       60
Mag.              7.1
Station Code      MYGH07
Station Lat.      38.1802
Station Long.     140.6405
Station Height(m) 44
Record Time       2021/02/13 23:08:08
Sampling Freq(Hz) 100Hz
Duration Time(s)  300
Dir.              1
Scale Factor      3923(gal)/8224838
Max. Acc. (gal)   208.174
Last Correction   2021/02/13 23:08:08
Memo.             
[...]
   -5678   -58024   -55356   -24013   -29737   -35078   -10652    -9008 
  -29126   -24187   -16798   -23633   -11858      -98   -18173   -28807 
  -18022   -18570   -20237    -7369   -10350   -30543   -34177   -26816 
  -32751   -40134   -30136   -20605   -28291   -32749   -26028   -27059 
  -29679   -23769   -31476   -42083   -19650    -3693   -28507   -36742 
  -19959   -30460   -46846   -35573   -16991     3886    25371    21802 
     866    -4828    -8413   -33010   -38611    -6363     -368   -33072 
  -39499   -18582   -25209   -58471   -72007   -58434   -45177   -32732 
  -13505    -1622    -1927   -11337   -26712   -25968    -3395     4642 
  -17014   -33532   -22106    -1347     4399   -10327   -29547   -30443 
  -16665   -11893   -20552   -30981   -33559   -27774   -27874   -30497 
  -15959    -5215   -21455   -35189   -35826   -43700   -40020   -22651 
  -33713   -53052   -35872   -18409   -23568    -9892    13263     2932 
  -22165   -25197   -12120   -10692   -30778   -53200   -59046   -56691 
  -55395   -37060    -3349     2326   -22038   -23240    -2112   -11179 
  -34446   -26620   -18735   -36628   -39460   -17078   -13703   -38898 
  -49696   -33833   -28254   -31770   -13203    -1331   -29142   -50341 
  -31395   -18762   -35077   -35442   -10612   -11209   -38704   -32502 
    1297    -3785   -34323   -32803   -21924   -46549   -73681   -64500 
  -49742   -47528   -34897   -18242   -11302    -4672     4279    10331 
    6381    -8105   -20393   -21676   -12132     -210     -352   -17334 
  -37196   -43459   -38438   -33181   -33928   -38277   -37812   -37604 
  -44787   -49157   -47923   -49874   -43962   -17513     3427    -7240 
  -29191   -31639   -18601   -20148   -41652   -45566   -17278     1645 
  -11583   -29728   -44374   -62603   -60004   -40564   -38030   -32158 
  -15388   -35329   -72304   -58048   -16946   -17181   -33431   -15012 
   -1325   -22766   -39607   -42793   -47433   -41385   -23149    -4754 
    7068      892   -18829   -22623   -10270   -11614   -13811     7287 
   17001    -6669   -22395   -12048   -12583   -42758   -70772   -60285 
  -20463     7685     8565     1582      297    -3420   -15499   -26426 
  -32416   -35195   -33411   -45261   -75705   -76308   -23517    17450 
   -8588   -48826   -35815     1414    11196    12490    28842    27202 
   -3873   -25134   -23484   -24745   -38946   -45497   -37104   -38179 
  -50182   -34442     5362     6829   -29592   -36871   -23708   -37130 
  -45499   -24160   -14721   -27471   -39044   -56347   -76794   -67926 
  -29068     3894    15955    21978    16309   -22387   -56532   -34874 
   -4430   -16140   -14311    19926    15241   -18738   -26416   -43595 
  -82054   -70687    -8776    19531    -8743   -27540   -10291   -11896 
  -40737   -38743   -11527    -9911   -22611   -22249   -31742   -62077 
  -73230   -50387   -28917   -17780    -2241     2359   -16738   -39854 
  -41494   -15576    10243     3985   -13421    -5605    -2254   -31781 
  -47186   -36755   -40578   -29073    18180    30273   -11792   -44467 
  -57211   -81984   -90644   -53500   -18657   -19548   -37517   -59382 
  -60631   -32989   -20332   -36043   -37314    -5555    23836    12364 
  -26543   -45662   -37516   -41238   -74953  -104271   -88512   -40194 
    -842    15580    13738     3896      379    -2373   -13404   -17506 
   -6658     5040     6860    -7510   -26118   -19697    -8753   -34423 
  -64903   -52668    -9575    27583    30250     4830   -13416   -20549 
  -30967   -29843   -11643    -8534   -32999   -55597   -58621   -51780 
  -42880   -33269   -24219   -15083    -6276    -9417   -34318   -51062 
  -28648    -5413   -19953   -36263   -22523    -1529    13251    30728 
   36391     8332   -39168   -66471   -60654   -41874   -21111    -8037 
  -19209   -40309   -41427   -24961   -15221   -18960   -23604   -27398 
  -39456   -46354   -35546   -38576   -64116   -60076   -21829    -6408 
  -17678   -18813   -11526    -3838    10997    18368    13254    18065 
   32206    32175    12869    -3948    -6389   -16484   -38977   -42488 
  -28530   -26507   -23409    -2803     3584   -22708   -53758   -61177 
  -47154   -34177   -33281   -37891   -41866   -31280     5229    32764 
   15523   -11928   -16629   -21740   -30990   -23510   -21948   -61627 
 -106918   -92996   -49002   -47542   -63423   -39727    -3321     3082 
   -5305    -3036    -3588   -27615   -53846   -53109   -37173   -26315 
  -22119   -32125   -65874   -95365   -91161   -80191   -78522   -57369 
  -17150    12225    17674     4623   -19214   -44099   -43993   -14851 
   -7666   -44766   -65107   -32877    -4390   -19691   -47241   -60658 
  -59989   -42385   -12942     8455     9525     5194    11939     6673 
  -30181   -55341   -27086    15280    14116   -12356   -12235     5817 
    4178    -2096     9825     9296   -20129   -44007   -50777   -58375 
  -66328   -72928   -73473   -58129   -54772   -75952   -71918   -30118 
   -1142    -4668   -20142   -31996   -28019   -10670    -8487   -17088 
   -5699     3852    -3098     6941    23217    18135     6639    -8878 
  -34169   -46805   -35949   -21946   -19238   -23535   -38268   -67545 
  -88123   -83913   -75639   -74214   -65589   -50210   -37200   -22940 
   -8316     -110     -143   -13074   -30688   -33660   -30281   -31309 
  -18100     3541    -4972   -32256   -26684     2278     9844    13497 
   37127    34709    -8745   -27272    -1366    15253    -2785   -25353 
  -16683     5552      319   -20077   -30593   -31552   -19051    -5379 
  -20709   -64814   -90231   -61784   -24295   -22102   -17724     6426 
   -1173   -42965   -48725    -7943    15213     7643     9680    16677 
   -4954   -36732   -41513   -36468   -49904   -66791   -71825   -71776 
  -65244   -65194   -82522   -77205   -44001   -23680    -6801     5358 
  -19029   -50959   -46203   -20965   -14202   -21953   -15896   -11529 
  -24676   -17969     9282     8486    -9572   -12818   -20312   -35079 
  -29363    -6481      541   -22189   -47444   -54783   -55378   -49056 
  -37039   -35625   -30343   -11917   -15024   -36701   -24374    25863 
   61811    44112   -14038   -46417   -17383    13903     2859     -171 
   29168    28372   -15619   -31916   -14369   -29131   -69961   -73430 
  -48253   -44874   -53590   -44986   -26555    -2436    25647    22837 
  -20926   -57518   -60268   -43808   -21760   -11094   -27607   -65928 
  -91821   -69437   -25058   -14827   -41080   -77603   -95088   -65560 
  -26881   -30018   -37534   -17444    -2096      453     2640     3962 
    9560     6309   -23010   -42877   -14362    23075    13073   -19306 
  -26218   -29897   -58244   -72257   -52861   -40527   -32767    -1914 
   11630   -20587   -43769   -27434   -14443   -20325   -11595     5844 
   -2992   -22218   -26140   -36047   -53397   -52825   -47683   -48276 
  -39988   -42762   -73217   -81194   -37663    -6211   -22358   -34304 
  -21168   -11830    -4926     9884     6339   -21307   -23016     8094 
   15676     2269    11129    14166   -29970   -73978   -57896   -18563 
  -23994   -65403   -84406   -56019   -14850    -2490    -8297    -3665 
    1686   -10644   -28077   -34744   -36814   -42693   -44015   -27314 
   -3202    -3558   -33751   -57638   -51783   -40340   -43421   -29508 
   16980    45345    35364    29863    25678   -24243   -84952   -63741 
   10747    15543   -38416   -49592   -47356   -92173  -106096   -39482 
   19067    15060    -7489   -19836   -40517   -71145   -84026   -63706 
  -26532    -1547    11643    21739     6210   -21257    -7400    29663 
   35964    25074    27486    36143    33986     3874   -35009   -39861 
  -36360   -53640   -53948   -38403   -42927   -52362   -40871   -21257 
  -22522   -44235   -60216   -65626   -69719   -71987   -75655   -78822 
  -67570   -48433   -38211   -26928    -8144    -6147   -37238   -74787 
  -69682   -17647    27518    34711    28293    30145    34034    29532 
    9344   -22041   -45492   -50512   -37359   -11924     2870   -24235 
  -82598  -104886   -65736   -28100   -41575   -82310  -102716   -89503 
  -54205    -8008    11923   -20286   -49624   -26573     7766    20402 
   34248    38445    12118      252    23244    20829   -20221   -37003 
  -15785    -3878   -24514   -60035   -73603   -40385     5887    12147 
   -9512   -20301   -15319      594    15381     7992   -21639   -45222 
  -34415    -9437   -10354   -19664    -6727     1235   -11800     1607 
   45979    48084     -518   -21697    -5240   -22555   -65936   -51999 
    1335    10629   -12753   -24111   -28405   -25051   -16891   -35415 
  -81140  -112924  -111844  -100341   -87766   -62640   -45542   -52976 
  -51100   -24547    -6685   -13937   -21851   -13219    -2941     -700 
    7388    25537    36246    33860    33135    30229    14848     8313 
    8949   -18079   -49909   -46369   -36776   -39023   -29145   -27009 
  -55633   -80944   -72987   -45353   -30229   -33835   -33443   -32699 
  -42624   -37166   -15842   -19940   -46676   -44674    -2083    23009 
   -7281   -49385   -65330   -70532   -67938   -47397   -25050   -17712 
  -19750   -27101   -48447   -68845   -49160     6211    43808    35688 
    3377   -24850   -40278   -39172   -22831   -16386   -33569   -49086 
  -49019   -42067   -31877   -32571   -55026   -80080   -92227  -100561 
 -112820  -119241  -100246   -51048    12112    77557   118890    83895 
  -14273   -85491   -95928   -85067   -59568     9992   100090   120534 
   38060   -58194   -83648   -49959    -9397     8741    12690     8850 
  -14974   -33142   -18115    -8935   -21984   -20773    -8135    -6057 
  -13178   -34786   -64037   -59493    -3867    44458    22092   -36590 
  -65245   -69701   -67165   -40088    -2184    -2165   -38585   -49165 
  -18701     2833     2675     -847    -8148    -3869    25189    46159 
   34649    16482     6153   -24493   -74821  -104139  -109039  -119929 
 -145246  -153731  -101835    -8433    53474    54106    22302    -3458 
  -19205   -44417   -51432   -15203     5941   -22572   -51705   -51568 
  -40643   -37450   -43299   -50566   -66228   -95112   -95967   -35083 
   35599    40185   -15596   -63956   -68547   -53499   -47142   -31606 
   -5560   -34863  -121871  -163769  -124152   -51792    28082    79667 
   59221     8723    -2174     7161   -24690   -88701  -124398  -111296 
  -66676    -4928    46845    48321    -4301   -58598   -66399   -48120 
  -40232   -20333    23633    36470     -427   -17562    18538    39236 
    5071   -23032   -25747   -60365  -100661   -74220   -34384   -62343 
 -106219   -89595   -43965   -32223   -52794   -76036   -79860   -33215 
   46603    77143    47808    26466    19188      122   -15422   -17331 
     174    43461    77706    73012    53607    34819   -12741   -89478 
 -139279  -126665   -73639   -21691    16183    62509   116660   132426 
   76457   -25265  -101817  -111419   -90590   -88925   -89835   -61834 
  -36321   -42805   -49351   -33882    -9580    13077    16889    -9184 
  -34294   -16443    42525    99238   123689   121157    99933    62417 
   11113   -51170  -103179  -125026  -129679  -118490   -61244    30045 
   76152    23415   -72752  -111705   -87490   -78178  -103100   -91440 
    3222   117468   153077   114223    71802    46647    36298    47515 
   52218    14476   -48143   -79239   -53187    -8311     7317   -15457 
  -64474  -112824  -120217   -75853   -18611    -3204   -42103   -86602 
  -91789   -65781   -51484   -78047  -113196  -107739   -73611   -60377 
  -89812  -129300  -127634   -79658   -39310   -61730  -116884  -112831 
  -39204    11234    -7485   -29458    -2845    28930    17267   -25266 
  -49362   -21961    23186    38875    30234    12715   -12930   -44335 
  -73575   -97298  -129709  -162943  -153214  -106116   -84871  -102262 
 -123955  -141836  -136320   -70474    37481   129851   170671   163690 
  137947   111337    84153    52816     6716   -44045   -66391   -59440 
  -49198   -50704   -70270  -104337  -135506  -143804  -121316   -76832 
  -30859   -14138   -29567   -27886     9279    38784    48061    73882 
  126829   147769    74885   -45306  -115168  -121433   -90915   -22793 
   42337    39887    -4315   -16403    17648    61854    77337    65485 
   62554    73942    84034    89170    82927    63321    35592    16048 
   28208    48838    23553   -50009  -122527  -153029  -141890  -113965 
  -82841   -50919   -31050   -41638   -67008   -62301   -29901   -14114 
   -9132    28583    97823   149681   144594    96321    44761    -2517 
  -54048   -98740  -118542  -108787   -90590   -88965   -97730   -92735 
  -64015   -34295   -26111    -1337    78619   160105   171999   117439 
   40043   -27203   -77696  -115414  -138515  -147523  -141246  -123813 
 -124668  -163607  -203817  -203280  -176094  -140894   -94297   -49119 
  -17914     9798    55725   125004   180609   182657   144180   107611 
   82644    50419    16351     5370    27364    72624   115878   135411 
  129600   108523    79895    42685     3194   -33366   -82749  -138294 
 -169680  -188300  -225062  -257531  -225946  -125196   -23530    39056 
   66780    35287   -41905   -74416   -33038    21644    44297    35414 
   19222     6103   -20884   -60891   -90842  -110945  -140238  -161959 
 -135230   -71073   -19026    -9003   -42360   -88364  -126770  -180208 
 -242935  -259421  -212700  -151935  -113752   -82934   -38731    20352 
   71174    55849   -41207  -138732  -167896  -135982   -50044    87087 
  208877   235191   173329    85671     6581   -62715  -117409  -117148 
  -35878    61885   116517   184273   311447   411893   380155   223881 
   36618  -101144  -166243  -181109  -191223  -199944  -173549  -144015 
 -161183  -198802  -225143  -253216  -286309  -283120  -211589  -125979 
 -108495  -147704  -160390   -98934     2662    77720   119979   174970 
  253141   323917   357768   351675   333891   324180   300240   236456 
  151920    77383    14377   -47272  -120602  -200388  -242077  -233328 
 -229261  -252346  -254885  -213455  -143094   -40452    61628    78069 
    5572   -44224     1919    70164    43958   -74455  -196323  -269366 
 -284126  -227623  -103878    14449    42556    -4997   -57383   -77429 
  -52528    -2377    27882    24170    14127    44145   123444   197954 
  213748   161252    74287    -3207   -61341   -96819  -102043   -96861 
  -78808   -23072    26754    18297     -630    21876    25722   -56748 
 -149187  -112517    51012   212340   272579   208657    67180   -65886 
 -119699   -74753     1551    22345   -12312   -49493   -57169   -64719 
 -146402  -294372  -399520  -407350  -352841  -266781  -162895   -63674 
   14470    50870    14042   -90289  -211906  -281514  -257264  -194549 
 -168192  -165523  -164922  -186738  -213869  -195242  -133672   -82232 
  -74487  -101050  -140887  -178402  -169209   -70756    65734   133693 
   95872     6091   -62575   -74729   -32827    48396   134580   167495 
  120465    24817   -67466  -124438  -142863  -110594   -29631    35698 
   38099   -12949  -107630  -208109  -240576  -173429   -34339   119142 
  228113   266765   245871   203551   197757   252921   312800   305491 
  224901   114702    33855    16507    19719   -26370  -112935  -158641 
 -119797   -59463   -62398  -111132  -127475   -96550   -72087   -76981 
  -69340   -31671   -15708   -47324   -81371   -88867   -75678   -36980 
    8698    22956    18725    40089    87732   104148    40987   -51202 
  -73666   -19896    37507    61919    79099   115385   154615   181186 
  205236   223146   227836   226130   213316   187340   171863   174968 
  160849   119155   102408   142393   200686   208237   126570    -6628 
 -119900  -188538  -230935  -256109  -246707  -181161   -61908    65144 
  122161    60417   -81290  -192315  -187049   -88433    13127    59501 
   55062    53391    99532   136922    76499   -45823  -132787  -167845 
 -183598  -195268  -202401  -195231  -166379  -124152   -91949   -97447 
 -134604  -150650  -112847   -66077   -75857  -124750  -145801  -148755 
 -191517  -256537  -275715  -233284  -166514   -99517   -33436    14886 
   30365    32134    46452    78885   108365    95805    26651   -53326 
  -87971   -85530   -75007   -45580    -7646   -15195   -65595   -82864 
  -36416    18441    26881   -18073  -103098  -201116  -255762  -223403 
 -146653  -112267  -118551   -88616   -21150     1521   -34034   -38325 
   29847    90576    83451    61896    73666    88946    82813    60295 
   29600    16475    47700   105067   134720   108301    51408    13562 
   17436    23449   -20563   -93475  -131890  -130208  -130901  -130208 
  -97340   -51852   -19612     6577    27681    37925    35618    16521 
  -11970   -29856   -26308    -9899     1702     7985    25529    42387 
   21111   -31896   -63548   -42965    15268    85747   156354   198953 
  158534    32579   -97248  -151698  -113142   -28989    28622    40724 
    7388   -97147  -239877  -342778  -376168  -344224  -266152  -179529 
 -115800   -85625   -69808   -44837   -23846   -26647   -42034   -48797 
  -47007   -65946  -122249  -168791  -146178   -73592   -13473    21641 
   56998    94130   110361    90656    46581      -66   -49223  -100741 
 -121126   -82162   -17562     7728   -10350   -21949   -27477   -71645 
 -138755  -165627  -133157   -63699    18613    83277   106054    92219 
   43083   -52837  -142366  -137798   -55725    21612    60586    54989 
   14806   -21681   -27503     1246    38664    41669    24424    43329 
   94103   118655   104950    95690   100842    86260    42510     2281 
   -2617    20713    47541    60716    36009   -23737   -72573   -82899 
  -55350     -827    52014    75342    59084    14115   -23602   -29106 
  -33030   -60833   -58703    -1764    26395    -8500   -29806     1972 
   48375    66696    56474    51532    58106    54778    50098    82462 
  158329   205256   149671    20110   -92911  -133367  -129335  -143920 
 -161389  -128509   -84932  -101077  -144236  -126863   -46094    21392 
   48365    83228   146499   184003   144864    54097   -24081   -67324 
  -97767  -124993  -148365  -173323  -182646  -152957   -93318   -45990 
  -57011  -112762  -148333  -138503  -104669   -56420    16214   100872 
  143586   116646    60447    12891   -20518   -26859    -2799    12359 
  -20090   -79585  -108081   -79119   -17957    26732    19044   -32771 
  -91725  -138187  -170969  -178799  -145260   -73113    20655   113420 
  166502   150880    87404    17292   -46672  -102891  -133186  -127824 
 -104936   -89919   -98379  -125645  -146985  -142164  -109923   -60022 
   -4183    41798    55301    24925   -35162   -95619  -116896   -73309 
   -2396    24580    -5031   -40371   -40200    -7777    23090    29097 
   38156    93005   171647   213027   210240   201452   201216   178754 
   91820   -30079   -99831  -107149  -110808  -122095  -117099   -96111 
  -78614   -84908  -115133  -145096  -155483  -147873  -140252  -153715 
 -181755  -189737  -164883  -118381   -44254    44932    89228    66414 
   33386    33307    33237    -3357   -43181   -51763   -70069  -129743 
 -187531  -205114  -183323  -142717  -129055  -159576  -189679  -192674 
 -205421  -248043  -264184  -202374   -90435     9930    47997     2114 
  -81820  -122600  -101695   -72299   -75840   -94776   -82040   -16826 
   73030   140645   157121   123535    67722    27625    24723    48608 
   71354    75709    64677    52440    44334    23572   -18809   -46826 
