Origin Time       2021/02/13 23:08:00
Lat.              37.7
Long.             141.8
Depth. (km)       60
Mag.              7.1
Station Code      MYGH14
Station Lat.      38.3400
Station Long.     140.9551
Station Height(m) 48
Record Time       2021/02/13 23:08:06
Sampling Freq(Hz) 100Hz
Duration Time(s)  236
Dir.              6
Scale Factor      7845(gal)/8223790
Max. Acc. (gal)   224.182
Last Correction   2021/02/13 23:08:06
Memo.             
[...]
  -44469   -34596   -23602   -17528   -33729   -64503   -85893   -81126 
  -44651    -8374    -9922   -33123   -44230   -47105   -60848   -77431 
  -78637   -67765   -50224   -29203   -23580   -31712   -23730    -5998 
   -7442   -17334   -22847   -39349   -63175   -73329   -71257   -73224 
  -82151   -86740   -81600   -68523   -44421   -21979   -31352   -63929 
  -83872   -87696   -75724   -41304   -13838   -18739   -34338   -38371 
  -35957   -37120   -40387   -36679   -34153   -51394   -71162   -67678 
  -62723   -69457   -52567   -14613    -7686   -36248   -60538   -63506 
  -55321   -53962   -59533   -48863   -23467   -19635   -41274   -57954 
  -73298   -92491   -84211   -50730   -28671   -25020   -24605   -17868 
  -12448   -18981   -24561   -17990   -10111   -10319   -22774   -48525 
  -69790   -67786   -57919   -60752   -61454   -40973   -12186    -5516 
  -28574   -51956   -58176   -73155  -115566  -154299  -146988   -97353 
  -43029    -6189     6359    -5219   -14550    -7460   -14310   -38196 
  -45226   -43306   -61106   -89630  -105387  -100606   -73743   -24389 
   27533    44714    18424   -21794   -60910   -99334  -112642   -91856 
  -64270   -36990   -11909   -18928   -60196   -82458   -50059     -683 
   17339     6465   -16638   -44639   -69886   -88558   -89630   -59971 
  -20062    -7061   -16247   -18889   -12568    -2141    10875    13528 
   -1213   -32983   -79087  -120927  -139175  -135067  -122162  -104619 
  -74409   -41732   -32240   -40710   -38244   -22878   -10816    -1426 
    2849    -8048   -26651   -44639   -59834   -63778   -59034   -63019 
  -71489   -51163    -7466    10762     8108    16808     9256   -31591 
  -67347   -89239  -108876  -101628   -64921   -45901   -59767   -67284 
  -54353   -47538   -50391   -41346   -17950    -2851    -8594   -30632 
  -69421  -109621  -129055  -125667   -90684   -33184     4757    15500 
   18689     5856   -28371   -59879   -79369   -94124   -99401   -91184 
  -68203   -38645   -26046   -30549   -24970     -963    13409    -3576 
  -30713   -47110   -59625   -69300   -75365   -81861   -80076   -69155 
  -61020   -58390   -60091   -57615   -36435    -2875    28613    59486 
   71487    22774   -66811  -121463  -131943  -145395  -155106  -122154 
  -54340     2829    14588   -12764   -46363   -73959   -95898   -92963 
  -63688   -41416   -44240   -56011   -52258   -41932   -49771   -50561 
  -20715     5887     5409    -9882   -16465    -6328    -5140   -24348 
  -51325   -80535   -99427   -97020   -79724   -60177   -35032     9107 
   36189     8067   -31621   -53239   -82139  -103920  -101895  -107599 
 -121065  -107377   -68347   -37249   -37883   -60327   -74352   -74154 
  -65421   -38431    -9971   -11399   -20063   -11342   -24073   -67475 
  -87285   -86456  -102504  -101761   -64841   -31357    -8357      361 
  -23706   -43829   -34684   -40861   -67533   -58588   -17432    -1051 
  -13293   -20067   -20837   -34339   -53739   -62424   -66889   -74164 
  -71919   -52124   -26970   -13809   -11954   -16760   -34628   -50776 
  -41724   -17533     6739    22519    14328   -10023   -37939   -76077 
 -111905  -119524   -91419   -50569   -33002   -31045   -23261   -29690 
  -52014   -55227   -31156       10    17070     6775   -19916   -46843 
  -73646   -85446   -65641   -35118   -17535   -14019   -30530   -65373 
  -86886   -71594   -34852     1954    32402    33083   -12341   -63953 
  -93239  -115987  -116340   -75604   -35914   -29712   -38804   -49526 
  -60210   -69017   -83848   -98911   -89455   -52155   -15345    -3380 
  -12301   -25536   -34582   -36576   -34423   -44672   -70067   -81064 
  -69132   -49881   -17830     5466   -12856   -37561   -45247   -60905 
  -78448   -90406   -98525   -76901   -40147   -40653   -63730   -56336 
  -22731     2000     5274   -16291   -49118   -73078  -100948  -122277 
 -100421   -62334   -41278   -31021   -48022   -74934   -61368   -34892 
  -26482     2956    38539     2960   -80811  -117274  -112996  -123124 
 -122993   -85199   -35432     2365     6574   -28313   -55102   -42307 
  -29731   -44074   -47626   -21501     1576     5366     -622   -14179 
  -32429   -44637   -41513   -30751   -34747   -59972   -84917   -77881 
  -44138   -36366   -55926   -35004    16924    16258   -30412   -55390 
  -57071   -64304   -72644   -59638   -20891    10258    -8455   -70856 
 -112197  -103265   -95979  -104244   -79085   -30726   -15678   -34276 
  -45223   -42383   -48922   -51926   -40359   -49391   -63571   -37948 
  -14415   -37486   -80688  -106234   -88832   -48363   -26584   -14693 
     544    11078    10732   -14994   -48663   -57933   -65016   -85746 
  -90437   -79384   -76009   -67139   -31789    11782    22503    -4909 
  -28772   -34126   -51050   -78403   -84215   -71724   -58889   -42357 
  -27253   -30736   -50217   -61685   -54209   -47710   -54465   -67960 
  -89756  -109595   -96842   -46701    -7929   -16582   -28156   -13919 
  -15388   -30397   -27022   -22896   -22871   -15839   -28453   -65863 
  -83937   -56997    -9111    21039    23160     3750   -27638   -45999 
  -54472   -81155   -99234   -70476   -29182   -23747   -42070   -45530 
  -30732   -18971   -14967   -15952   -25857   -36633   -34236   -32101 
  -52686   -72825   -58072   -30977   -28084   -47985   -76461   -96776 
  -98361   -98213  -102267   -86873   -61835   -57106   -48313   -14737 
  -12806   -65773   -86852   -45621   -33367   -66873   -68243   -27945 
    5182     7776    -6926   -17151   -35784   -70704   -76462   -42348 
  -22863   -28329   -30423   -42888   -73998   -93853   -95944   -87728 
  -66714   -66598   -99431   -96664   -51538   -42148   -61595   -58486 
  -55547   -70283   -76229   -66235   -44410   -12735    12198    16009 
    2673   -22927   -67325  -105867   -86158   -23963    12469     4943 
  -11832    -4225    10077   -14233   -65353  -102047  -115896  -102084 
  -61952   -32355   -29381   -14141    17825    14023   -20914   -33089 
  -29928   -41874   -49123   -39340   -41330   -62480   -70378   -50508 
  -30574   -34300   -57489   -86383   -98605   -79467   -53152   -50820 
  -52597   -31974   -24378   -55291   -92161  -110380   -98699   -56519 
  -20264    -7163    10416    21394   -26600  -104742  -117277   -65052 
  -32773   -38326   -30384     7203    24417    -4946   -30154   -21409 
  -12341   -31962   -65500   -62440   -29686   -35445   -64331   -71620 
  -77368   -71135   -50433   -63676   -84223   -69387   -60635   -69716 
  -62964   -52857   -54967   -60102   -71302   -70162   -38832   -18419 
  -33492   -55688   -68781   -70637   -63946   -55594   -32148     7925 
   28949    14875    -5310   -20304   -45674   -57936   -44396   -54207 
  -92839  -107688   -84426   -45265   -14584   -15647   -34327   -21971 
    2398   -27020   -73452   -60562   -23607   -32170   -71614   -84928 
  -59992   -33019   -15445    16175    38438     9894   -35453   -55236 
  -62892   -70672   -79077   -80473   -51923   -10230    -5228   -36077 
  -57987   -47839   -23661   -18693   -25245    -8105     5962   -32389 
  -82139   -88273   -84149   -92218   -89642   -87427   -82217   -58990 
  -52756   -63209   -64342   -76341   -77610   -34516    -5557   -28171 
  -48813   -46152   -59032   -82714   -74790   -49302   -41894   -35592 
  -18627   -20983   -50171   -74034   -75689   -73184   -70467   -54719 
  -37974   -25547    -7389    -2972   -31833   -72932   -97536  -104105 
  -93495   -52563     3477    41376    53607    32638   -25486   -82953 
  -92962   -56502   -17027     -355    -7483   -41982   -77290   -83540 
  -73124   -45165    -6855    -2844   -26898   -46099   -79235  -129076 
 -141335   -98321   -51678   -34701   -41504   -57765   -61871   -70758 
 -106159  -113078   -63648   -18486    -4135    -3439   -23781   -45246 
  -34169   -32260   -67166   -73799   -26262    12360    10026    -5383 
  -21986   -46059   -61767   -55919   -39225   -22724   -19449   -45382 
  -80010   -82116   -59976   -49423   -44743   -25066    -8113   -19870 
  -48311   -65923   -57057   -30469   -29174   -57273   -55262   -25435 
  -26376   -49670   -56155   -40350   -23238   -41829   -83169   -89970 
  -64035   -47528   -41561   -24806    -2471     9570     9085    -3906 
  -29138   -58288   -64621   -34173   -14231   -33948   -39054    -5591 
   14747     1279   -15183   -26613   -54503   -88024   -92349   -77916 
  -72392   -71169   -62700   -39829   -19207   -25694   -29538   -15353 
  -23387   -41554   -38514   -42252   -60810   -75926   -86659   -73970 
  -33801    -4729    -3179   -19194   -55341  -104666  -139002  -144153 
 -120104   -76527   -39077    -9606    17980    11900   -29745   -53991 
  -54855   -70966   -92761   -97434   -91802   -68278   -39008   -38631 
  -40644   -16988   -11897   -57241  -113578  -123036   -85060   -53360 
  -48336   -31815     2118    -5919   -57067   -75188   -60897   -55657 
  -31384     5049      955   -25816   -47000   -78232  -109225  -126547 
 -144092  -143634  -111268   -77888   -38238    32425    90741    77896 
   14104   -37836   -62156   -67242   -52413   -44568   -51567   -35241 
  -11199   -36605   -94301  -127234  -125328   -95656   -45183      568 
   21465    10084   -17436   -26954   -36117   -76069   -97499   -67208 
  -42741   -50595   -59290   -59022   -50508   -28058     7974    40095 
   33015    -3704   -20594   -23390   -50394   -85129   -79579   -36031 
   -2974   -11049   -53406   -97610  -122214  -119488   -74279   -25933 
  -27198   -29613    -4661   -27236  -107253  -167209  -177306  -147650 
  -93962   -45527    -8455    18450    14721   -16590   -47969   -71012 
  -88514   -86331   -50442   -10365    -4428   -17903   -28630   -40508 
  -50895   -60200   -66480   -56822   -41431   -24459     8895    31329 
   10586   -27220   -43191   -23693     6822    -3457   -49233   -75193 
  -76324   -78341   -78823   -65550   -37312    -3686    21909    23618 
    1961   -10739    -8530   -14808   -15306     1063     8402    -1894 
  -21217   -48203   -80692  -100552   -86994   -58838   -38944   -21455 
  -20715   -40124   -51606   -58268   -64978   -63433   -68484   -66866 
  -41041   -29964   -40545   -34693   -24382   -40994   -68790   -73878 
  -51216   -18831     3044    -3952   -20437    -4868     5940   -47224 
 -106976   -99420   -65095   -57391   -71757   -96967  -110690  -102417 
  -98991   -91693   -64520   -56034   -64488   -49316   -36749   -56872 
  -84414   -95550   -70235    -9147    30516     8463   -36301   -47056 
  -32900   -44510   -78892   -80721   -34020    20946    43067    17820 
  -34759   -71254   -81005   -90266   -93302   -70244   -43902   -36547 
  -47679   -76594  -111180  -145426  -162371  -116527   -37565   -10681 
  -26894   -34082   -44259   -70160   -83070   -67718   -34566    -4753 
     808     -556    13282      731   -61183  -111771  -110440   -72022 
  -24470    -3812    -8658    -4095     6397    -9613   -56347   -94024 
  -92103   -70158   -53235   -43310   -37808   -40849   -58615   -77132 
  -73233   -48540   -18266     -962    -6617    -6652    15040    21679 
   -1964   -31590   -58033   -79816   -87355   -80423   -62407   -35055 
  -14642   -14415   -24507   -40078   -62287   -75814   -80912   -93700 
  -97210   -80919   -64874   -37682     1738    16618    10419   -11387 
  -64594  -115920  -132206  -119381   -81193   -33856     2598    18635 
   -2999   -51798   -99362  -135318  -134269   -99198   -84048   -82348 
  -50714   -14139    -6324    -9787    -3192    12258    13058   -22181 
  -65805   -88072  -110072  -131120  -116796   -79710   -54469   -41476 
  -36051   -35205   -18083    22266    59661    66712    42545     6004 
  -30871   -66137   -94166  -112401  -121005  -117599  -104063   -71969 
  -18829    17363    18864    25897    53469    64399    36225   -10860 
  -42781   -55262   -69218   -83951   -90259   -92666   -84858   -66438 
  -65005   -96638  -138611  -149665  -104264   -17393    65211   100965 
   79201    32530    -7217   -58733  -128160  -158409  -135230  -112926 
  -89874   -39991     2003    24417    41716    21047   -33947   -60108 
  -52967   -52483   -55437   -46209   -41851   -55750   -76165   -89526 
  -88681   -80056   -73132   -53755   -14956    24101    55447    75772 
   75174    64596    52347    21486   -23658   -54997   -75238  -101216 
 -116379  -107482   -94109   -79300   -47510   -18014   -15718   -14072 
    8826    21429     4475   -25022   -47777   -48265   -33566   -22065 
  -15441   -16583   -25690   -42014   -72420  -103226  -111937   -94937 
  -69244   -60512   -66272   -62571   -48157   -40721   -56235  -100484 
 -150547  -169701  -156548  -130839   -84646   -12752    47952    65747 
   52872    27036   -14721   -53188   -49160   -16926     1302    -1258 
  -21570   -50384   -74266   -99863  -122574  -133363  -144555  -145319 
 -116043   -84304   -75581   -66078   -40385   -22977   -19143      140 
   21325    -9015   -74390  -102099   -85783   -70116   -61708   -47436 
  -36526   -42796   -62550   -83906  -100359   -97326   -64527   -29319 
  -18391   -24322   -42682   -68246   -82517   -91098   -94566   -64411 
  -15214     8567     4781    -3906     6434    42553    76991    89780 
   87093    77357    65992    49603    26582    17640    24655    21978 
   17127    12407   -29868   -94882  -137965  -176623  -209545  -186270 
 -121244   -69326   -33254    -6817    -6335   -28320   -60704   -91627 
  -93174   -66079   -45593   -43216   -46151   -42415   -28528   -17421 
  -27287   -60998  -101331  -128795  -142689  -147040  -128954   -83920 
  -26739    46529   134816   189248   174914   107528     7082   -97542 
 -166672  -194946  -190467  -150626   -97638   -61438   -46738   -59838 
  -99283  -132966  -142909  -136337  -116737  -100364  -103329  -111538 
 -117844  -132537  -152311  -161075  -140346   -86103   -20476    18243 
   14260     -571    -3188     1042    13089    18755     5636    -2577 
    2913      307   -20541   -56992   -98335  -118241  -103165   -66927 
  -17199    40586    75733    61060     3353   -67432  -126563  -170571 
 -194778  -181296  -124816   -48307    11500    31334    26254    28867 
   23865   -23413   -86710  -130640  -158755  -162645  -135392   -95428 
  -38145    47511   115349   116166    85978    74910    64986    30954 
  -23319   -79721  -110357  -109420   -90196   -54556    -2365    51725 
   83315    82931    64415    37037    -4523   -53447   -91542  -109664 
 -104747   -89766   -87631   -95625   -97559   -96456  -105599  -125672 
 -147783  -165088  -170581  -160972  -138042   -99646   -53246   -21425 
  -11109    -9084    -7426    -7773   -11720   -14843   -15433   -20393 
  -22194    -3755    16487     1962   -37844   -69260   -93027  -117309 
 -131791  -135078  -125054   -88682   -35760     5582    31406    57627 
   83916   100253   110987   116172    99484    60685    15245   -40433 
 -113540  -186007  -238740  -270194  -272150  -236505  -179918  -112846 
  -31629    45069    95580   109278    68334    -2799   -33979   -20325 
  -19939   -37350   -27730    18168    62607    74655    63170    42349 
   18428    10860    15923     4708   -16556   -17649     1989     9871 
  -17344   -64885   -99738  -106007  -100437  -102463  -100880   -77765 
  -32217    16070    32787     9823   -31839   -80183  -125186  -151135 
 -157960  -150280  -121134   -82999   -58545   -30586    15642    52513 
   59239    30910   -27687   -77936   -89208   -83771   -91601  -114046 
 -145562  -178636  -197986  -202483  -202097  -183150  -122486   -37511 
   30659    76891   112303   110061    46554   -34739   -82679  -118828 
 -166757  -189382  -170496  -136304   -96267   -59597   -59071  -108364 
 -165677  -173458  -128336   -73549   -43209   -39853   -32440     4858 
   44674    47564    11554   -35758   -57042   -49998   -42160   -32913 
  -21844   -26331   -27722    -2999    26676    47542    74163    97295 
   92138    68058    41447     3168   -47445   -93272  -122409  -129213 
 -114682   -83268   -36558    13180    47167    60802    58371    39375 
    4957   -26477   -42569   -59925   -80797   -88753   -89371   -81896 
  -49958    -6686    22018    34541    27739   -10552   -55190   -71706 
  -71799   -64273   -33565    11734    39702    27436   -13649   -51964 
  -79596  -108683  -142966  -167131  -164303  -148662  -140173  -130940 
 -114833   -91656   -56153   -28279   -28269   -25625     5317    33415 
   32890     8525   -36751   -76439   -79762   -69796   -72432   -73781 
  -66233   -66175   -85752  -115133  -135700  -139703  -134350  -130243 
 -126843  -117155   -96873   -76256   -79289  -103295  -115132   -99929 
  -72701   -54934   -53944   -57122   -53037   -46040   -44590   -51584 
  -63553   -69315   -57086   -31568   -10372     3171    11763    -1867 
  -34647   -43379   -18885    -2643   -17551   -44979   -57523   -46341 
  -31453   -48184   -91617  -110151   -88387   -59012   -35014    -4158 
   33129    61210    84952   126203   168781   176053   142738    87804 
   45449    32379    17609   -22226   -69381  -106679  -126878  -111095 
  -62575   -24405   -17466   -20208    -4742    30572    45000    25228 
   18808    30423    16938   -16715   -46295   -82031  -125625  -157111 
 -174210  -179971  -159640  -108957   -48795    -5394    14778    30477 
   43062    31249     1566   -22289   -32031   -29120   -19938   -15149 
  -33075   -75744  -112213  -125558  -117402   -95385   -89075   -94201 
  -78436   -64786   -88630  -132467  -161978  -169052  -155973  -116349 
  -66996   -36035   -16016     -114    -7038   -29228   -39474   -47447 
  -64365   -62503   -40069   -35784   -56666   -72713   -73399   -83523 
 -110704  -117551   -90756   -70549   -72279   -71763   -62176   -47229 
  -25903    -1054    26171    45408    46020    36701    20790    -7511 
  -39337   -57172   -56975   -49671   -41107   -32335   -30808   -46537 
  -76599   -91149   -77074   -63845   -58490   -43784   -30662   -31000 
  -39996   -56307   -72669   -79911   -72233   -45019   -21030   -27114 
  -42083   -41027   -52783  -108083  -174887  -192435  -142067   -60764 
    1458    35079    75077   127714   139565    88533    24270   -20754 
  -67684  -120671  -147658  -146713  -145314  -139004  -108645   -63649 
  -21366    17432    49018    61418    60521    51034    18389   -25739 
  -49098   -55479   -66195   -76781   -76635   -77031   -91482  -111051 
 -123533  -129772  -125783  -104554   -73772   -56508   -69138   -83708 
  -62324   -30385   -23245   -17120     -545    -5081   -27490   -36674 
  -40432   -58887   -68937   -40756    -2209    -2748   -43301   -95736 
 -143924  -174819  -169449  -122611   -55502     7515    54315    77527 
   81666    75438    55055    15201   -38616   -86827  -115415  -126465 
 -112911   -76665   -46685   -35572   -29968   -20726   -13302   -15205 
  -20232   -24340   -33184   -39000   -38300   -45850   -54800   -51406 
  -52471   -61811   -66199   -79631   -99893   -94051   -66495   -42511 
  -20568     -785     3951    -7105   -21212   -29259   -40146   -66291 
 -101110  -127197  -132372  -111342   -64147    -7699    25506    21883 
    -799   -25087   -53781   -87936  -109193  -101179   -67356   -24916 
    5383    15286    12830     2943   -18825   -51390   -80230   -90131 
  -78490   -54086   -33266   -19192     5508    30619    25411     7002 
    6516    14065    19642    24533    15623   -11510   -41505   -64358 
  -83072  -103231  -120731  -124906  -115088   -94656   -64431   -31175 
