Origin Time       2021/02/13 23:08:00
Lat.              37.7
Long.             141.8
Depth. (km)       60
Mag.              7.1
Station Code      MYGH13
Station Lat.      38.6993
Station Long.     141.4176
Station Height(m) -10
Record Time       2021/02/13 23:08:09
Sampling Freq(Hz) 100Hz
Duration Time(s)  244
Dir.              1
Scale Factor      3923(gal)/8224838
Max. Acc. (gal)   36.503
Last Correction   2021/02/13 23:08:09
Memo.             
[...]
    5070    10440     6203    -2597   -13548   -20939   -15988    -6295 
     330     8418     8822    -5494   -16704   -15635    -9208     1286 
    8062       22   -11699   -12425    -7904    -6092    -7782   -10994 
   -7308     2074     -842   -15218   -17227    -4538     4492     1706 
  -10476   -19060    -8128    13174    18655     5140    -6247    -4909 
    1559     8533    13760     7657    -5767    -7240     4314    13694 
   10660    -5853   -21100   -16042     3268    10552    -2694   -17213 
  -18042    -7966     6355    11986    -2180   -17035    -8260     7588 
    5961    -6502   -17012   -15345     2251    14675     8021    -7133 
  -17320   -13622    -6871    -7723    -4347      561    -4716   -12862 
  -17595   -18149   -12255    -3215     4939     9489     6461    -4190 
  -14864   -13757     -961     7819     4129    -2336    -2062      901 
    1408    -3449   -14008   -18040    -8860     3981     9695     2747 
   -9792   -16210   -14727    -5136     6134     5806    -1027    -3613 
   -3734     2200    13477    11762    -4742   -11033    -2381     1426 
     342     1767      272    -1837    -3200   -11854   -21533   -16683 
     724    11703     4820    -8181   -11519    -7292    -4889    -6208 
   -6295    -2791      652     1734     1691     1003    -5348   -17365 
  -19149    -5620     4873     4217    -1344   -12105   -22648   -18875 
   -5757    -3505   -11851   -13795    -6370     3549     9657     3508 
   -7797    -7272    -1620    -1664     -851     2025     4299     5983 
     233   -10284    -6864     6481     6134     -592      217    -1023 
   -3238    -4139   -11163   -11998     3557    13379      444   -13409 
   -6507     9499    15076     3943   -10893   -13115    -8847    -6786 
   -7713   -13095   -13290    -9417   -15769   -19313    -8910     -947 
   -1672    -6035    -8592    -1541     7933      977   -20013   -27572 
  -13274     1921     3742    -7788   -19996   -16875    -4240       66 
   -9486   -15496     -467    19368    22669     8814   -11110   -14561 
    2317    16116    18327    15842     7484    -3970    -7329    -4839 
   -6191   -11205   -15357   -11005     3526    12318     5607    -3269 
   -2234     4777     8525     2725    -7496   -10297    -6922    -7746 
  -12051    -9664    -3133    -7454   -16946   -13518    -4757    -5098 
  -13527   -23469   -22300    -7663     2733      970    -3057      504 
   10520    13714     4988    -3279    -3073     1551     4429     2204 
   -2690    -4837      -72     7466     6380     -391    -1278     2849 
    4657     -403    -7159    -6853     -704     3037    -2694   -12247 
  -14177   -10277    -6141    -5618   -13270   -19036   -10350     2361 
    1459    -9232    -9694     -317      575    -5859   -13277   -21853 
  -19303    -5729     -463    -6004   -12950   -19008   -20941   -14365 
   -4336     1825     3623     4943    10469    14129     5236   -10579 
  -18553   -11419     5081    18354    18883     4183   -11032    -9941 
   -3164    -2101     3414    12941    10712    -5251   -17378   -12634 
     654    12941    17193     2249   -13186    -6718    -3713   -18582 
  -28467   -25547   -14351    -1917      -36    -8249   -16414   -14119 
   -2610     6309     8550     5697     3261     2914    -1813    -3820 
    2744     4666     1399     1518    -1687    -7612    -4344     6912 
   16416    17675     7929    -5710   -11924   -11437    -8127    -4557 
   -4734    -1701     3960     -307    -7959    -6416     2060     7647 
    3630    -2181     2602    13370    10952    -7731   -17004    -2613 
   12397     4309   -15283   -22705   -15607    -3144     4675    -1339 
  -15327   -21506   -16056   -10010   -14035   -23476   -24333   -17288 
  -12804    -7163     2467     6193     2435    -4945   -15811   -23857 
  -21049    -7300     8783    13304     3537    -3684     2065     8872 
    6756    -2731   -14845   -16950    -2123    12920    10673     -530 
   -7005    -8756    -8237    -8939   -10542   -10164    -3858    14958 
   26291    12222    -1181     1514     8321    12171     3921   -11016 
   -9182     5417     7859    -7793   -25675   -27625   -15596    -5508 
   -2058     1156     8401    14908    13649     5489    -4693    -8174 
     409    11038    13687     5074   -15907   -37485   -43181   -31846 
  -17356   -14638   -22299   -24015   -14129    -2269     2772    -5463 
  -21061   -23217    -9239     -695    -5093    -7634    -6755   -12437 
  -18940   -16762    -7229    -2412   -10459   -20312   -23614   -18941 
   -2687    10350     5387      749    12055    19399     6782    -7530 
   -2538    18064    32713    21127    -7354   -19845    -5967    16784 
   26462    14440      214      939     7099     9729     6004    -6897 
  -17431   -13875    -6870    -7133   -11080   -15317   -12590     1509 
   12198     6613    -7852   -13863     -820    21369    29829    13331 
  -13973   -27110   -20709   -11446   -12073   -16761   -11730    -1193 
   -2768   -13786   -17863   -12495    -2488    10323    16934    12313 
    7859     5973      957    -1306     2690    10836    19124    15981 
   -2266   -23380   -32024   -23375   -10206    -4438    -5283    -7092 
   -2442     4176     1078    -6845    -8406    -5670    -6277   -10214 
  -13907   -11101     3087    12594     5263     -738     2666     4396 
    3586    -1950   -13647   -19368   -16916    -8908     4283    11191 
   11067     8969     3025      268     -201    -4336    -5549    -6258 
  -13508   -18069   -15560   -16544   -19920   -18522   -15786    -9938 
   -3528   -10362   -24675   -27537   -14148     7740    23113    19473 
    6208     1560      -13    -7838   -10311    -1142    13489    21670 
    9645   -10378   -15537    -5117    10554    11890    -7435   -17712 
   -7875    -5915   -21327   -35151   -31742   -10781     3801    -3296 
  -10041    -4041     7720    21163    21432     4710    -5044    -1170 
   -1362    -5350    -2585      433    -3092   -11846   -25824   -37303 
  -32279   -10022     8544     3757    -9848    -9852    -6864   -12105 
  -14015    -8985     1421    18041    19936    -5814   -28297   -21872 
   -2705     3144    -9111   -23415   -22269    -3242    15591    14319 
    1790      433    11214    20391    20498    14323     9165     8256 
   11719    16418    14739     7083    -1444    -7681    -7319    -5683 
  -10030   -15984   -16827    -8688     3361     4468    -7912   -15643 
   -9695    -3780    -8622   -17902   -17011    -2986     8681     9281 
    7330     9377    12178    11029     3801    -5019    -6376    -2508 
   -3933   -11236   -15750   -14598   -15446   -18603   -12958     -448 
    4870    -1489   -14220   -24385   -25262   -19186    -8473     5736 
   13460    15611    22202    20077     2462    -9656   -10041   -10281 
  -11470    -9533    -5333    -1109    -2164    -8590    -7017     5273 
   12154     9054     2794    -6251   -10139    -4824    -4905    -8545 
   -2322     3478    -4009   -17888   -27182   -23881    -8220       52 
  -13026   -30719   -33732   -21676    -7904   -10926   -25182   -27502 
  -18752   -10829    -4153     -143     -799     1483     9290     7099 
   -5051    -3713    10081    15044     4796   -13613   -25852   -23249 
  -11547     2983    15029    16652     6043    -5806    -8051    -7416 
   -9355    -4176    10332    21433    17979     3098   -10647   -11736 
    1665    12658     3802   -15388   -25721   -29143   -32062   -28602 
  -20780   -10675     6070    14231     2106   -11059   -12509   -10737 
   -9058    -6471    -5505    -2795     9690    28228    34861    22127 
    5089     -334     6802    19453    25281    16409     6315     4287 
    2489      -17    -6349   -14783   -10466     -290      839    -4855 
  -13549   -17914   -11182     2478    14935    13466    -1012    -5790 
     668     3794     6716     3083   -13359   -18968    -8418    -6351 
  -17672   -27780   -27164   -14868      735     4392    -6968   -13792 
   -5074     2706     -746    -4684     -850     9629    16590     4471 
  -23147   -38160   -23314    -2722    -4828   -16683   -24054   -29555 
  -22338    -5447     4310     9805    11163     2667    -9599   -19646 
  -23695   -19801   -12977    -5848     -361    -2176    -8066   -10831 
  -11570   -14220   -18418   -17693   -12981   -12401    -5456    13339 
   20985    13107     7045     4450     4375    11375    23537    29677 
   19896     6820     8625    20263    28949    28730    14763    -5682 
  -13992   -12309   -17383   -27552   -30026   -18311     1135     7056 
  -10625   -31471   -32734   -15418     4198     8392    -4949   -15502 
   -9371     1264     1294    -2061     4288    15834    27344    34362 
   26827    15284    13598    13378     8419      969    -4329    -3511 
     -14     5224    10278    11041    12349    12452     9289     9927 
    2203   -17736   -24233   -19024   -16164    -5834     -465   -16444 
  -28520   -21076   -11445    -6899     -884     3123    -2565    -8310 
    1451    16973    16205     1009    -6760     1134     6740    -2473 
  -12205    -7634     9285    23391    15569    -7078   -13554     3694 
   19317    12461   -10057   -26181   -21868    -9705   -13545   -21432 
   -8893     6235     1929   -13783   -24186    -9026    29351    52218 
   34921     -878   -11769     9659    22188     3875   -19164   -18890 
   -2835     1170   -14478   -34987   -40456   -27151   -25292   -48178 
  -60451   -40774   -11210     6525    12181     9424     5448     6871 
    7561     5046     4405    10307    18250    14027     5468    10640 
   21019    20930    10709     2158     6058    16501    16233      438 
  -17890   -23580   -19530   -20933   -24871   -20150   -14859   -19118 
  -23458   -13775     4741    13856     5784    -9586   -11813     5613 
   22783    24808    18165    12981    12970    11753     2317    -8328 
   -9259     3514    17157     4338   -26152   -32940   -13582     3384 
    3599   -10735   -19754    -6278    12931    12024    -5620   -20301 
  -21038   -13405   -17046   -38425   -56679   -50107   -19619    11151 
   20961    15657     8738    -2331   -19202   -26442   -12869     9489 
   24312    18972   -10994   -41499   -52425   -50631   -36985   -17833 
  -16398   -35857   -55748   -54797   -28016     1657     6910    -8907 
  -21915   -21496   -11919     2200    16243    29876    44568    50332 
   35698     9258    -5464    -3870    -2506    -4803    -4649    -1136 
    4733     5616    -3009   -14303   -22392   -26600   -22998    -7528 
   15531    35307    36080    21097    18839    31614    33970    16602 
   -8141   -18782    -6454    17275    29297     9062   -26442   -37246 
  -22847   -14666   -17022   -10581    -3422   -13254   -25822   -33947 
  -43001   -32818    -5896    -4789   -36478   -61339   -58433   -41790 
  -20656    -2654    -3986   -11902    -2587    14808    29096    44744 
   55262    57072    55948    40666     8850   -15812   -17533     3708 
   26441    19468   -14779   -51324   -69138   -55004   -28166   -27094 
  -48103   -55428   -41242   -22607   -12649   -12267    -8587     2351 
    6413     1948     1757     9976    26565    45138    44197    19877 
    1520     8773    32815    54081    51363    27669    15088    21195 
   17714    -9019   -44548   -66055   -51925   -13659     -961   -26847 
  -46753   -35733   -20163   -27692   -51302   -61750   -40018    -4509 
   12141     4352    -6417     5891    33798    40126    20190     2227 
     457     9383    13117     5626     1684     4569     7056    13306 
   17199    10093     2484    -2924    -9113    -2783    14902    16028 
   -7028   -29717   -34123   -18531     7497    22202    17397     9769 
   11804    14991     4896   -22446   -49678   -47262   -18590     -180 
   -7061   -28337   -45747   -39989   -20247    -9180    -1004    15070 
   35330    53052    53484    30555    10093    21346    54152    71637 
   60662    34817     5829   -13166   -12592    -7230   -14814   -27569 
  -31806   -26532   -15252    -4193      544    -1117    -2344     7242 
   25894    37683    31768    13485      502    -2781    -7654    -5067 
    8190     2173   -28796   -58644   -74409   -75589   -64339   -48359 
  -38900   -37204   -33322   -22154    -5271     4963     -267    -9127 
  -13180    -6997     9027    12459    -2462   -14705   -12877    -2695 
    5944     9300     9846    17612    36589    46552    30387      429 
  -16175    -8446     3230    -1746   -19543   -40144   -54859   -57292 
  -51136   -42331   -34678   -28314   -14295    12310    35505    32485 
    7437   -12221   -10876     2808     6205    -4625     -359    30993 
   56617    47075     7938   -33959   -45527   -18993    12839    21463 
   10512    -3051    -7635    -7264    -8341     2863    34627    64700 
   68621    45420    17462    -2826   -23476   -32231   -22361   -15676 
  -13864   -12118   -21901   -35132   -33849   -25643   -28854   -45139 
  -56154   -47297   -33500   -35167   -45291   -51786   -51004   -33689 
   -6921    10335    19673    22324    18787    21843    28417    33663 
   43675    44158    25924    12471    17324    30852    45990    52074 
   37249     6666   -25517   -40535   -29899   -11959    -6143   -17273 
  -33972   -32543   -11470     1750    -5379   -11118     -618     9786 
    5643    -4449    -8754    -8658    -6970    -6436    -6849     8544 
   36350    47155    36232    13684    -9112   -15468   -14434   -22993 
  -28332   -15136     9803    26916    21274     2917    -2857    10604 
   26612    30396    20648      545   -17313   -15958    -2416    -1717 
  -30527   -71278   -80121   -59502   -47988   -46307   -46105   -48243 
  -37632   -18277   -10990   -15549   -23523   -23494    -8390     7236 
   11645     8980     1790    -4175     2808    14408     9410    -1988 
    5179    26654    48189    54702    27919   -12685   -26104    -9171 
   12363    17691     1541   -19109   -16789     7626    20474     7587 
  -10453   -16819   -14338   -16348   -25834   -29554   -24930   -16907 
   -4499     1557    -1252     6045    20857    23117     7110   -13906 
  -17456    -7361    -5497   -12120   -17278   -14642    -1367    11043 
   11146     8721    14831    24819    26712    11739    -6492    -4561 
   11445    16495     1003   -21146   -27758   -18743   -16228   -24576 
  -26851   -22411   -25062   -36355   -50967   -56396   -34672     1150 
   20687    21937    23440    41104    65028    70875    62117    55807 
   52427    37570     8384   -11376    -8102     6076    16143    16011 
    9992      707   -15618   -35513   -43835   -29886    -4550     2685 
  -25874   -60555   -60621   -36258   -19303   -21412   -32818   -26628 
   -3731      963   -18877   -38254   -33882    -6436    10540    -4136 
  -29112   -30511    -3734    23454    35136    38576    38434    36524 
   33936    22445     2308    -2361    11217    12021     -537    -9992 
  -23957   -34111   -26531   -22114   -34711   -42970   -29889    -3318 
   20241    25955     9670   -10527    -5310    24277    44080    43281 
   34442    17396      750     -415     4020     4897     7011     9583 
   11863    12756     5159   -11747   -25031   -23436   -10620     3123 
    5146    -9427   -24799   -21271    -2462     4428   -11272   -29158 
  -31569    -9976    18701     9162   -29787   -40670   -10989    33403 
   56265    28891   -16626   -23309     5479    24949    17891     1867 
   -9508   -14906   -19295   -31260   -43896   -45162   -36508   -28038 
  -28073   -28363   -20497    -9393    -1534    -8127   -23518   -22600 
  -11709    -8815    -3619     8710    20237    22161     6706   -13888 
  -27774   -34171   -25759    -8186     3512     4842    -3755   -12163 
   -8521     1858     9223    10423     5273     2477    10214    24409 
   30879    16135    -4106    -7641    -2508     -102    -6706   -16691 
  -10659      737    -3303   -17417   -32634   -39978   -31158   -14418 
   -6713   -11649   -19083   -25759   -30051   -29058   -29280   -29610 
  -21703      152    28135    36248    27677    24957    30511    46631 
   57696    40333    14480    11805    29955    40316    30844    16193 
   -1090   -21832   -37565   -48999   -55197   -53233   -45989   -39339 
  -40875   -45414   -46461   -44567   -32012   -16621   -14157   -11753 
   -1405     6015     9595     8505     5305    13269    30555    45686 
   51281    44113    35996    38168    38402    17327   -13257   -22844 
  -16688   -13527   -10126    -6081      850    14203    13967   -10656 
  -29281   -14598    15423    25196     7042   -13324   -11888     7059 
   21077     6235   -33870   -57280   -44551   -22508    -8491     2369 
   11207    14597     8673    -4599   -13196   -14810   -19730   -29450 
  -35557   -30252   -16143    -6386   -11695   -24406   -20258     2754 
   19603    17848     5807     5379    27585    47993    39384     6616 
  -18732   -12236     9317    12024   -10737   -38878   -47505   -32637 
  -17451   -19310   -30327   -29255    -4816    21705    24537    14308 
   14866    33651    59243    67151    47656    20515    14600    35112 
   50063    29636    -9051   -27688   -24665   -19371   -10557    -2367 
   -7924   -20926   -34487   -43915   -37937   -23592   -16430   -16447 
  -23037   -33574   -35127   -30026   -30291   -26689   -13320    -8982 
  -17763   -24343   -29532   -30380   -11754    14268    27467    34194 
   40194    35637    18403     -449    -5069    11450    32104    27792 
  -11075   -49123   -43561    -6885    17419     6714   -26838   -43193 
  -25911    -7279    -7967   -13008    -6007    20457    43787    26171 
  -12923   -26865   -14821     1387     2177   -21369   -39676   -21465 
    8523    10183   -12209   -25911   -11761    16734    28390    10030 
  -13244    -4522    28753    41581    18098   -17329   -33633   -16133 
   12120    14399    -6907   -23872   -26666   -24798   -26431   -24979 
   -9923    10763    13649    -5886   -17930    -5262     8496     4178 
  -11379   -24854   -21694    -2802     3954   -13298   -29133   -29249 
  -25880   -26673   -33673   -43497   -42168   -29856   -22643   -19365 
   -8195     7491    22522    31160    27224    25199    31342    34423 
   32189    22131    15774    27148    38087    33509    20295     6384 
   -7186   -20422   -28416   -31228   -29679   -22148   -13848    -9775 
  -12861   -18740   -16551    -9666    -5883    -2131     1517    -3570 
  -16457   -20475   -13252   -11238   -13952    -8043     6084    19041 
   24533    22885    18095    10947     2085    -4607   -10331   -15288 
  -13887   -13096   -20015   -28686   -37422   -38092   -22866    -6594 
     159    -1948   -14320   -23442   -15020     -808     4176     3188 
    2084     2911    16660    39853    37866      931   -33251   -36614 
  -16340     4018     3611   -17119   -38961   -37516    -7778    18445 
   21153    14700     7716     1800     -926    -4985    -7497     2628 
   23668    40051    43757    41173    37654    30369    18500     2332 
  -16200   -22856   -17834   -21629   -33145   -40554   -41034   -26256 
    1237    19874    21509    17841    14894    11345     7007     -363 
   -7476    -9204    -8467    -3520     8078    17521    14183    -4939 
  -27886   -34804   -20605      380    12058     9778    -2058    -9578 
   -1405    10454     9516    -3420   -15427   -12617    -3491    -5640 
  -14867   -24040   -26271   -14836    -5143    -5625   -10883   -25917 
  -40072   -39818   -33905   -23715   -10916    -8727   -13668    -7917 
