Origin Time       2021/02/13 23:08:00
Lat.              37.7
Long.             141.8
Depth. (km)       60
Mag.              7.1
Station Code      MYGH14
Station Lat.      38.3400
Station Long.     140.9551
Station Height(m) 48
Record Time       2021/02/13 23:08:06
Sampling Freq(Hz) 100Hz
Duration Time(s)  236
Dir.              4
Scale Factor      7845(gal)/8223790
Max. Acc. (gal)   420.456
Last Correction   2021/02/13 23:08:06
Memo.             
[...]
     992     6200     7560     4661     4361     8228    10061     5063 
   -3460    -2397    17679    45570    62156    60648    44575    24317 
    9625    -4263   -23950   -41764   -48756   -43677   -30697   -22365 
  -27207   -32548   -21265     4066    30327    47853    48327    31434 
   10547    -1460    -1028     8694    14848     4449   -15253   -27321 
  -28717   -25975   -21909   -14084     -207    15635    24534    20217 
    2378   -19870   -29489   -20848    -6412     3751     9394    12841 
   16121    17350    17293    22279    29508    31310    27519    16742 
   -3277   -23676   -31864   -27373   -17856    -7408       17      826 
     364     3834     6671     7121    11500    19399    22682    18750 
    9360     -838    -4320    -3549    -4506    -2577     4426    10910 
   12636     7857      148    -6941   -16746   -26774   -29569   -24514 
  -10122    12270    31230    43779    57481    71301    76786    68773 
   45654    10567   -24667   -48996   -64733   -77309   -81159   -68459 
  -41434    -7578    24093    38924    30458    10056    -9352   -17639 
  -10181     2439    12093    22079    28953    28279    27760    32433 
   35208    29226    17105     6461     -792   -11234   -28105   -47136 
  -62641   -62382   -35253     7893    42445    55370    52855    43117 
   24962     1097   -21209   -39414   -48864   -46350   -36771   -20900 
    2727    27341    47722    60837    62182    60289    68266    79641 
   76662    52975    17863   -13356   -29327   -29648   -24462   -26134 
  -36381   -42480   -36094   -21541    -6739    -2975   -11402   -14890 
   -7757    -4992   -12729   -21385   -22042    -9879    14867    46003 
   77720   103154   113344   104020    78929    48729    21810    -2047 
  -25883   -50301   -68665   -70683   -56084   -32988    -7609    17101 
   39452    52795    48145    28159     2037   -22519   -33278   -27411 
  -22351   -27841   -32255   -28372   -21857   -15685    -9713    -5336 
   -1869     2512     6135     5697      770   -10220   -26249   -34281 
  -23456     5265    45555    81318    95443    84735    56447    26680 
    6709    -9347   -24667   -32055   -26320   -12370    -7384   -16729 
  -19492     -633    29629    54032    60929    45273    16070    -8259 
  -21644   -30646   -38992   -43517   -34555    -9219    16636    28046 
   26423    17713     6907     -205    -4919   -13756   -27680   -44856 
  -63443   -76839   -75281   -52643   -15265    16795    29010    29407 
   32032    35969    37737    39752    36798    24997    11765    -2276 
  -17991   -24432   -18891    -7715    10191    29239    35002    29162 
   24264    22769    23218    27099    33420    38408    39025    34846 
   25066     9958    -5213   -16140   -22979   -30122   -42946   -60052 
  -76210   -85857   -82983   -69431   -53771   -42072   -37377   -38209 
  -37785   -28410    -6218    24664    55821    78028    80855    62251 
   30735    -5009   -34705   -47525   -44586   -32242   -10720    14374 
   33895    50430    65331    70784    67644    62149    52567    37967 
   20638     1822    -9863    -3778    15333    30176    28987    12603 
  -12630   -34719   -37980   -20409     6515    34215    55792    63243 
   54357    31009      152   -23051   -30966   -31899   -32686   -32796 
  -34103   -38433   -44626   -48346   -40093   -17690    11084    41532 
   66317    76329    73926    64521    54756    54126    56115    47326 
   26354    -7940   -47070   -67585   -65267   -52797   -33793   -14197 
   -2583     6895    20328    35581    53819    68717    68762    63046 
   64719    66498    61030    45932    15337   -21154   -48454   -68615 
  -83131   -92889  -107460  -118305  -103584   -67811   -31469      973 
   32022    60427    88873   114740   121068    96589    52899     8005 
  -31117   -57322   -62824   -53451   -34974    -7326    19569    36188 
   42319    38943    33168    32570    32670    27585    19178    11815 
    6500     2690     8418    29074    46286    38411     6593   -33575 
  -62603   -69383   -61074   -46186   -24641    -2717     7560     8762 
   12471    15681    13555    16267    24632    22410     4072   -17450 
  -27838   -27333   -27043   -30850   -35424   -33255   -12518    19442 
   38920    42646    42418    42458    47083    58652    67441    65160 
   52590    30703       55   -33732   -59911   -71675   -70353   -57504 
  -38315   -24680   -17408    -5555    10706    21436    23106    18052 
   11431     5319    -3940   -11205    -8237     -198     4274      -85 
  -13838   -28817   -39202   -45393   -46211   -42392   -39799   -39775 
  -31745    -7946    21082    39699    45083    47848    56677    61915 
   50602    27105     1063   -17346   -14100     6342    25539    42439 
   61196    73197    73121    65098    54839    44415    31137    14820 
   -2673   -21057   -36061   -42898   -42873   -40005   -36447   -30793 
  -22081   -15927   -20653   -33307   -39614   -33976   -24644   -19885 
  -20673   -23688   -25907   -20957    -4780     8171     2776   -11651 
  -19489   -18901   -12405     1134    18169    31220    39744    43920 
   44157    52780    74667    90949    88738    76221    60644    46179 
   38452    27164    -1872   -38311   -66690   -86017   -93154   -83373 
  -59487   -26442     5641    28279    43198    47424    39017    34724 
   47613    64947    72268    75151    76183    62799    34072     4229 
  -17902   -30284   -37581   -51046   -71532   -87986   -93984   -88767 
  -75516   -63455   -58166   -53950   -38939    -5826    37096    70494 
   85872    89257    83174    65642    42718    26221    23379    32428 
   42658    41673    29636    17483     7063    -3715    -6282      783 
   11676    29968    48551    49009    32757    15292     5278     1935 
   -2330   -11500   -19484   -20653   -22219   -36838   -61018   -75076 
  -65811   -42118   -23014   -15190   -17605   -25718   -25983   -13919 
    2212    20510    41975    60073    66529    60979    47783    28309 
    9216     2598     9250    19701    24868    18260    -1404   -25915 
  -38799   -31622   -12005     9136    18125     6701    -9366   -13501 
   -9729    -5050    -7059   -22823   -42782   -56840   -67954   -72593 
  -66877   -61519   -58671   -45744   -16781    27639    76912   109038 
  118219   114369   102323    87056    71902    53847    31675     1968 
  -38449   -77248   -97451  -102328  -102610   -93831   -74498   -50307 
  -17824    17702    42136    55154    58720    50564    41357    44397 
   49080    40254    29581    29994    31754    23847     5728   -15607 
  -27639   -24630   -11373     5247    19156    28256    32660    29471 
   20317     8356    -8170   -20278   -17050    -9913   -11835   -16557 
  -17825   -19529   -24511   -29991   -28134   -13386     5162    15484 
   19873    21401    17659    13232    11268    10469    17227    30011 
   34333    27650    12924    -7632   -15809    -3102    11545    18346 
   21015    18111    15346    20615    26757    24868    14841     -448 
  -12945   -11082     4122    14667     6161   -14796   -32432   -38855 
  -30793   -11190     4912     6166    -3145   -12580   -16752   -18401 
  -20266   -19681   -13151     5734    36549    58496    56519    39336 
   18813     4054     3164    10712    10255    -5300   -27572   -47112 
  -56301   -47136   -25736    -7144     4997    10685     5125    -3994 
     274    15202    27757    34354    28059     9499    -4739   -12654 
  -20150   -17560     -477    22781    48217    70772    84707    93002 
   91188    68767    37008    18490    19442    36038    58881    62149 
   28524   -18813   -49069   -62503   -69376   -72882   -76995   -81742 
  -81349   -73633   -60562   -40999   -16561     2890    12845    15175 
    9776      718    -5981   -11647   -18268   -19102    -9321      490 
   -1690   -13574   -23209   -15396    11523    39865    61773    84235 
  106753   125730   142600   153100   148350   125320    86432    45311 
   22003    11537    -6363   -32162   -60639   -88927  -102798   -94348 
  -69709   -39870   -25115   -33023   -37582   -20040      652     3115 
  -11421   -34137   -53613   -57173   -48504   -42828   -42678   -43621 
  -44718   -40204   -28521   -18522   -15203   -20160   -31619   -37966 
  -32794   -22708   -14967   -13610   -18577   -24070   -24949   -19974 
   -8318    10065    33617    60610    84705    96048    92805    79986 
   59125    35382    23484    27194    35417    43725    49611    49611 
   52477    61468    65942    63482    58041    46962    28328     6509 
  -15184   -33848   -44699   -51306   -59736   -69306   -81126   -89422 
  -80229   -51479    -7893    40755    72732    79381    71369    51256 
   20540    -1648    -5498    -6701   -13659   -20163   -27720   -36005 
  -36915   -33905   -34693   -34192   -27680   -15849    10929    58835 
  108764   138257   143313   125334    88588    54993    45688    47970 
   42530    37362    34356    23859    12684     4783    -4025   -11286 
  -14550   -13984   -15981   -28466   -47718   -66676   -83882   -94301 
  -85531   -55722   -27206   -23569   -42842   -66677   -77429   -65520 
  -37416    -9941     7821    18954    26488    30049    33466    41829 
   60409    93231   126287   136728   121998    93513    60619    32699 
   12583    -5795   -20417   -23503   -20930   -24937   -35677   -45150 
  -47779   -38812   -15823     9678    20501    14985     2544    -9069 
  -16974   -24916   -35097   -44374   -55021   -71100   -87704   -96022 
  -85536   -50348    -5938    25645    41183    44096    33874    15507 
   -4621   -21613   -27855   -21481   -10239    -3766    -8132   -23201 
  -40651   -52222   -62810   -78572   -92392   -96758   -87080   -59278 
  -25486    -8827   -15871   -28008   -20098    14571    64975   119151 
  166351   196592   206120   196106   169596   129502    79749    32805 
   -1061   -26527   -45323   -53673   -60396   -73487   -84639   -86516 
  -80315   -63748   -39877   -25388   -25772   -26644   -20150   -11252 
    -823    11196    20321    30138    44297    54724    58472    57609 
   52088    51408    57565    52195    27319    -8893   -47220   -72202 
  -72497   -52436   -23292    -1046     6739    12340    30385    62361 
   91181    97744    91801    95817   110565   121729   116760    90205 
   49115     9374   -20517   -42869   -58718   -70789   -85645   -98649 
 -100143   -91918   -79689   -63589   -40068    -9873    17975    37099 
   47614    49599    44610    34777    23085    23074    46899    78306 
   90620    83752    67481    43831    25358    19538    14415     5225 
   -5767   -14392    -5823    19811    38192    35598    22181    10093 
   -3989   -26572   -51798   -72393   -87185   -92371   -83435   -64288 
  -43835   -23170     4336    37527    65011    76127    68033    51046 
   39873    36553    33292    21745     -963   -24885   -37274   -40126 
  -48259   -72550  -104396  -121764  -113614   -88041   -58865   -33694 
  -12191     9918    37577    72034   106132   132732   150024   150460 
  128557    94054    55791    13710   -31726   -77583  -115245  -131292 
 -116893   -77118   -35301   -11118     1830    13541    18580    13961 
    4958    -2794    -2760     4114     8182     8846    10392     7827 
   -2008   -14694   -26347   -34908   -42218   -50747   -52517   -36693 
   -7194    20541    30794    13630   -21300   -42930   -33822   -11728 
    2520     5175    -4252   -19672   -26755   -19718    -3929    14218 
   28144    28892    15606    -4131   -23998   -35789   -39294   -45326 
  -53476   -59802   -66274   -64569   -46248   -13778    26708    61518 
   77985    78343    70800    60235    47190    31606    19704    18809 
   32405    62904   100183   122023   125250   124579   119016   102417 
   84763    69870    49604    22790   -10825   -49952   -78594   -86517 
  -86098   -87822   -86869   -78374   -59300   -26384     8318    25907 
   29238    31259    32728    31973    28063    19079    14243    23383 
   37739    43225    37177    22438     3850    -9734   -15738   -15823 
   -2266    29189    66661    95100   103293    82351    37327    -9541 
  -46588   -79620  -102396  -103315   -87168   -60664   -32672   -24436 
  -46611   -83095  -110411  -119726  -112980   -92191   -61452   -25917 
   12329    47447    66993    66199    51892    29731     5216   -12271 
  -16551    -4652    21454    49921    69410    76287    71041    61653 
   60936    69886    76526    77387    78912    78475    69153    49827 
   24528     4276    -6797   -16434   -23264   -19295    -4914    16773 
   38600    47633    41175    26118     5239   -18616   -37201   -46500 
  -53771   -65928   -76589   -77226   -70403   -60844   -50492   -44582 
  -42344   -28298    10401    66218   118270   154419   179509   197012 
  200946   189139   164219   130736    96805    68006    47278    35014 
   26037    21335    26496    34429    33417    19855    -6234   -44386 
  -90167  -133936  -171678  -208134  -242180  -266448  -277612  -267348 
 -223157  -156465   -94427   -46592   -12100     8307    17667    19437 
   14224     6724     8945    24040    39366    45463    42084    28738 
    6326   -17192   -30036   -24240      515    41851    96059   150419 
  190694   214979   229436   241685   255579   268308   279244   288056 
  286926   267904   223485   149135    63836    -3989   -52632   -89644 
 -112725  -130260  -153106  -180025  -210474  -243967  -276733  -302876 
 -316183  -323816  -337311  -350636  -356819  -360315  -351897  -321065 
 -282723  -241797  -184198  -111348   -35770    32705    93494   153904 
  214178   269989   319666   365264   406985   435248   444001   436128 
  410630   365631   300541   217657   139194    87168    46056    -5319 
  -60562  -115105  -168181  -204180  -218135  -221054  -212749  -189892 
 -162726  -140803  -123931  -112260  -102745   -80662   -36414    20564 
   73835   115209   147222   171583   188276   204838   225936   246159 
  256390   242022   185664    90389    -4549   -59923   -78987   -83979 
  -83686   -85491   -98238  -116368  -129415  -138523  -146928  -150198 
 -145953  -136926  -123940  -110305  -103214  -104583  -113483  -130208 
 -152007  -174020  -190306  -197241  -198765  -198066  -191474  -175602 
 -147826  -101437   -36794    27342    77143   123693   173348   215415 
  250823   286367   317583   339271   350955   357409   362535   361416 
  348946   323299   281997   225080   161825   110620    76715    42977 
    2431   -34144   -65916   -96209  -120488  -139089  -154857  -168967 
 -186803  -209667  -232448  -253793  -272643  -285314  -293004  -297132 
 -294331  -282783  -260548  -223470  -173078  -116980   -59481     -222 
   58457   111393   154657   182829   192771   194903   203250   214429 
  217139   211647   202757   191349   176592   155822   128412    94593 
   49310   -12371   -87878  -163088  -219454  -256825  -292964  -332496 
 -359950  -367449  -359762  -331470  -271834  -189514  -111769   -52789 
    3829    69869   133065   185369   224881   245296   247552   234630 
  198525   140556    87007    51201    19197    -8387   -23087   -33212 
  -37453   -23368     8201    43789    66105    70893    70137    67999 
   63420    66877    84663   109167   133856   158496   184545   209333 
  222080   213021   182425   137273    90274    56157    35341    15664 
   -4814   -20110   -34269   -53716   -74949   -90748   -96496   -88144 
  -61265   -19770    17882    34061    29423    19360    20398    38512 
   68008    99063   120349   128758   136023   143891   137720   115230 
   85812    57731    38554    22582    -3711   -40512   -81349  -123199 
 -162437  -195129  -221900  -245342  -261991  -264100  -243626  -191891 
 -112167   -30325    28509    66015    93087   110872   121743   124012 
  108317    81722    64111    59886    56500    45404    32815    24409 
   15619     5953    -1575   -12645   -35976   -68621   -94236  -108523 
 -128335  -159430  -188194  -205714  -208654  -189535  -146844   -94281 
  -52254   -31874   -26497   -19367      -86    27334    54190    78318 
   99046   113028   119195   115511    98790    72658    42900    14528 
   -2278    -4151    -3713    -9273   -17232   -27866   -41310   -48371 
  -41601   -20752    13971    60241   107489   142327   157856   154980 
  136196    99725    50009     5127   -25663   -49840   -68235   -77021 
  -81461   -83664   -81660   -80528   -86182   -98936  -114164  -125776 
 -131571  -132221  -128845  -118639   -90578   -41839     8209    46523 
   85031   128062   164562   191421   209540   220533   226658   226686 
  223898   217200   198737   173107   147085   114359    72227    29405 
   -9019   -44795   -76860  -104161  -132563  -165527  -196516  -217510 
 -226746  -229520  -230226  -225310  -213362  -197432  -175208  -146543 
 -118984   -94416   -68311   -39665    -6349    33986    75096   110911 
  138929   151052   143743   129822   122243   117981   112206   110770 
  117051   128806   144555   157802   156200   126196    64527    -8136 
  -66302  -106293  -134065  -148683  -150111  -141084  -117903   -76900 
  -29932     7713    38101    66314    89303   107218   121069   133030 
  149378   165334   166271   148965   122269    90973    57859    32321 
   17506     7925     3812     2866    -5354   -21968   -38173   -50210 
  -58432   -63213   -69765   -82363   -96938  -108850  -118025  -124873 
 -126316  -116826   -93722   -57801   -15030    22243    49208    71285 
   88816    98609    97051    79872    54850    33347    14126    -3007 
   -9805    -2293    14700    33593    49738    60795    65685    66424 
   67254    70694    71543    61817    45362    32385    24372    19017 
   17666    19545    18773    11036      186    -6308    -8806   -13936 
  -23577   -34622   -44925   -53115   -55636   -50720   -43636   -39278 
  -36802   -36890   -40690   -43953   -43355   -39468   -31700   -22003 
  -16355   -12887    -2925    12513    25964    38267    53400    69361 
   84304    99453   110929   115279   118876   119595   103434    74007 
   46781    24607     6748    -5587   -16533   -28298   -34371   -27892 
  -11816     5417    17401    17162      226   -28786   -61188   -90128 
 -114056  -138311  -165227  -188847  -203783  -207720  -198389  -174621 
 -138277   -99017   -70029   -53044   -42400   -36327   -29498   -16092 
      55    18150    43529    72839    98266   119904   140695   154947 
  149058   115176    65406    23854     -307   -12345   -13459    -4345 
   13034    37207    60550    75685    81434    78429    66649    45790 
   21948     7635     9633    25998    50306    72403    84222    83011 
   66359    38153    13167     3138     9389    26231    40352    36587 
   10451   -26549   -53836   -61086   -57483   -54078   -51910   -49411 
  -44485   -35440   -24763   -14693    -6031    -1714    -2949    -5574 
   -3619     3861     9258     5467    -6932   -28235   -57199   -81082 
  -90531   -91160   -89622   -89113   -94405  -103748  -106154   -93309 
  -67552   -39577   -16467     6373    31877    51549    60208    61412 
   55131    40802    26986    22971    27699    35614    46265    59944 
   72304    79540    82012    80272    74058    67439    64389    60270 
   47626    24387    -5267   -34217   -58334   -76284   -86845   -91011 
  -91770   -91355   -89814   -85857   -78583   -65572   -45512   -24991 
  -12015    -6733    -6000    -7096    -6326    -3041      504     3609 
    3720        0      869    10801    21840    29421    37292    47225 
