Origin Time       2021/02/13 23:08:00
Lat.              37.7
Long.             141.8
Depth. (km)       60
Mag.              7.1
Station Code      MYGH10
Station Lat.      37.9411
Station Long.     140.8924
Station Height(m) 18
Record Time       2021/02/13 23:08:05
Sampling Freq(Hz) 100Hz
Duration Time(s)  300
Dir.              4
Scale Factor      7845(gal)/8223790
Max. Acc. (gal)   1425.970
Last Correction   2021/02/13 23:08:05
Memo.             
[...]
   10342     -966   -10652    -2172     2404    -4784    -1005     8911 
    1582    -7372     1435     5425    -5792    -5845     4045      571 
   -2474     7372     5545    -9285   -10230    -5007    -8996     -338 
   19102    13365    -3782     1331     5715    -8336   -10723     4077 
    6137    -4472    -1189     8348     3875     2338     6525    -5462 
  -14922     -943     6874    -5977    -6278     8770     7909     3499 
    8257    -4842   -23315   -13495      696    -3445     4924    24921 
   13891    -7252      859     2011   -22451   -21637    12860    25778 
    6677    -2218     4136     8340     7246   -10173   -25670   -11020 
    4619      253      851     7190    -1593   -14103    -7623     6798 
    6690     2938     9668     9741    -5579   -16815    -9896    -1239 
   -4012     -874    14697    16683    -7361   -19973     -426     7518 
  -11079    -8110    18323    15326    -9170    -8050     3608    -1806 
   -5508    -1359     2084    13562    20614     8428     1259     6646 
   -7614   -35704   -27957     4800     3770   -17848    -4730    25564 
   20837      797      463      -78     1437    12124     7477       36 
   -1915   -11256    -5709    20587    24178    -7581   -27460   -20387 
   -7992     6906    11414     1201    -3107     4623    10164     1773 
   -6258    -6920    -4874     5080     5449   -12769   -19780     5601 
   36852    23587   -15697   -18446    -3235   -12982   -15581     2971 
   -1767    -7263    29469    47753     6598   -33439   -29678    -7543 
    4216     6270     1460      291    17672    20935   -10134   -28534 
  -27361   -31814   -14431    25060    30009     7323    12058    22297 
   10895     6266    -5591   -40281   -47856    -7998    22065    18165 
   26191    40784    24996     4325    -5081   -12989     -186    16102 
   -1680   -20206   -13396    -4027     1129     4024     4869    -6532 
  -34179   -40662   -13333    11464    16006    21807    39912    25478 
  -23380   -34599   -24175   -39900   -24553    37500    51426    -5274 
  -38589   -14557     7075    10336    14608    10577     4843    11362 
   16432     4993   -17506   -23174     1281    30279    24529   -15990 
  -32405   -11504    -6266   -19683   -17464       70    17975    34011 
   32867    -6034   -53658   -50107     6478    43830    32895    17442 
    9398     2536    11354    24572    11190   -33966   -55313   -14386 
    8951   -16260    -6756    29097    40163    45220    40204    19041 
    6282    -6467   -26678   -45814   -61292   -46894     6593    55023 
   49013   -11163   -54334   -39692   -17169   -13463   -14679   -17539 
   -1804    41590    77276    77160    42128   -17240   -62742   -58672 
  -34182   -18276     9599    39683    38311    27403    29891    -1652 
  -61260   -55028     -641    17348    14328    21641    25215    21695 
   27787    36522    19803   -18625   -43541   -35498   -19869   -23207 
  -21138     3824    15815     -390    -7238    -7249   -48018   -85014 
  -41108    18781    24613    33041    59139    56624    47460    52042 
   16808   -46188   -36235    10708    -7190   -32348    -9730     1189 
   -9540     3661    28316    38952    54102    66509    21937   -66264 
 -105017   -85263   -55664    -9945    23932     5652   -15747     2921 
   33137    46062    53032    54652    20449   -18323    -5620     8546 
  -30002   -71710   -76362   -61854   -25386    30971    54318    34928 
   30127    40791    26854    12463     9643   -18692   -46699   -32267 
  -11083   -17246   -18721    13770    33212     3010   -13875    11605 
   26029    17676     7585    -6810   -31868   -43622   -16417     7171 
  -10320   -23010     2095    33129    41150    42952    53478    38005 
  -11090   -32205     2324    42110    23799   -33219   -54491   -55948 
  -63938   -22898    55699    83182    36653   -10066     3785    37777 
   37166     5246   -30246   -49389   -59028   -63626   -52226   -31819 
  -22982   -20445    10534    51189    51058    50365    68532    35996 
  -35694   -73600   -67153   -49216   -27094    21320    53142    25069 
    6988    28309    32178    10149   -27872   -69858   -61944     1113 
   47623    41949    24686    36699    48614    12325   -45152   -77951 
  -74166   -21826    37300    46697    40431    21730   -42484   -79809 
  -42040     6416       28   -34252   -12873    37253    58679    74812 
   81904    78382    75691    55283     7252   -55260   -90460   -90387 
  -70684   -28082     -162    -1890     7389    36915    72457    89221 
   35483   -63385   -84539   -22538      433   -26703   -15126    24169 
   39613    67328    77556   -19099  -137161  -138510   -66465   -25662 
  -13290    11948    19314     7504    47933   101326    84159    39577 
   21421    16706     -662   -29520   -28651     2303    27082    41542 
   29856     3279     2450    -6285   -48845   -63998   -30092   -21336 
  -46535   -19275    40905    50171    42849    64795    58357   -11445 
  -75705   -83473   -81757   -88921   -46399    34528    84072    85365 
   58261    42535    29384   -21150   -47039   -15934    -4873   -23587 
  -24394   -15630   -29951   -49180   -50890   -75031  -100782   -55156 
   27897    96186   150125   169662   135749    65284     7080   -13805 
  -37696   -84098  -124946  -154367  -160971  -110519   -35075     7059 
   30009    56640    70735    47876     9072    10625    25186       -9 
  -24953    -8279    20846    28804    35189    43131    20034    -4611 
    2174     8201    -1297    -6610   -11622   -24563   -33721   -48157 
  -39015    31240    82032    63722    45338    56139    71354    79339 
   63771    10987   -69562  -138136  -148558  -116981   -75278   -26863 
   -7862   -21504   -10585    17077    41685    85966   118042   113103 
   88732    64658    47771   -19242  -114735  -142624  -128567  -112851 
  -62977    34275   110520   112976   124127   150817    99407    20580 
  -22108   -71595  -143391  -172804  -122385   -72497   -36999    47576 
  115153    94992    46684    47800    70194    34245   -47200  -120513 
 -173647  -191128  -128664    11655   137938   201144   216322   189378 
  146429   106832    80547    42476   -37118   -89757  -103464  -115852 
  -76150    -2647    14162   -31016   -65006   -40860     3781    15685 
   -9354   -34754   -55773   -79678   -47880    30682    67378    51175 
   30009    40710    45547     -900   -37118   -32541   -48928   -89166 
  -75645     3920    72921    95642    78516    41881    32965    43652 
   25390   -16002   -35667   -16900    -8949   -37079   -45958    -5355 
   36927     8793   -49262   -28247    24081    12347   -20078   -15823 
    2446    22473    46498    35733     7452    12079     7912   -21558 
  -33941   -39399   -50418   -63049   -55791     1876    56103    50063 
   21860    26079    64666    86331    49439    17501    48135    54059 
   12781     8286    20796      970   -42584   -91960  -118881  -117046 
  -85641   -11938    44282    49300    50403    38043    13448   -10023 
  -59215   -90300   -80461   -67932   -16000    61084    48728   -23625 
  -26168    23938    37881    31051    50492    63605    15538   -52038 
  -47902    -1294    14300    33007    90792   111996    39926   -36012 
  -48807   -45018   -68515  -111148  -110980   -55266    -5478    34060 
   82509   107848    88272    45026    14042     2574   -22249   -63734 
  -79299   -51232   -17215   -15395   -18206     1660    22878    45188 
   65168    53892    33681    22986    -7076   -24879   -16677   -24757 
   -9170    39675    56370    41098     9806   -25921   -33228   -27396 
  -34082   -33729   -12715     6856    -7034   -47656   -65641   -42557 
   -6265    27317    45382    33555     8995    -8872   -11361     2073 
   10199     3892   -11465   -21978   -23168   -57528   -81599    -6801 
   69132    45284    10554    35878    56265    23161   -13252   -16713 
  -30535   -73450   -68465   -10145     7366     2632    31317    52425 
   37551    22994    31066    42835    69357    94770    53110   -20885 
  -69007  -108263  -117477   -67591   -10535    26855    78289   117495 
  106489    61169     2249   -39329   -44270    -9559    49712    71146 
   53875    63616    68931    22689   -45360  -125085  -196450  -205528 
 -128100    -7446    75010    81290    61470    91315   117620    71535 
   13909   -19215   -44292   -75721   -99827   -71745   -19566     6462 
   18337    28177    20351    -2030   -10145   -21100   -70384  -127755 
 -117821   -43533     3724    20448    38221    29907    -2320   -28475 
    9161    88137    78844    -2722   -48054   -57415   -58232   -35831 
    9292    36690    20669     7762    38402    53559    23793      643 
  -13317   -58638  -118570  -100930   -26179    -2227    36514   144844 
  192269   119962    38504    13576        0   -17631   -26755   -33265 
  -54271   -85126   -75895   -56712   -81579   -78048    13752   129841 
  172613   149149   137324   128151    67275   -15147   -54457   -66895 
  -87926  -123566  -151227  -112575   -55926   -49601   -28672    49563 
  123291   112777    60004    49550    42963     5239   -52046  -107694 
 -119638  -104337   -70128    16074    91895    82879    29636    -8363 
   -3343    20059    14893    23004    56100    49597    30272    44976 
   63536    81074    93337    77159    52731    28749    28868    37463 
  -10743   -58680   -71678  -105989  -143830  -122615   -39476    42430 
  107856   155844   155243   130418    74420   -22596   -94261  -110866 
  -73489    -1888    51468    81068    99540    85025    26068   -61636 
 -139089  -173206  -178507  -156732   -83839     1969    46494    51305 
   12935   -56932  -102041  -108373   -86329   -46138   -10079    17074 
   19803    16997    45694    70749    66582    38909    -5609   -32179 
  -24127    10307    44680    43440    45517    65260    29224   -40531 
  -76696  -113786  -166125  -178209  -154156  -125072   -59016    49569 
  141037   178818   179315   160743    99512   -26873  -162629  -225694 
 -234586  -232031  -173865   -50669    88429   200480   230430   206593 
  196155   150292    41754   -32130   -39286   -49956   -54580   -31413 
  -23743   -16075    25257    94015   145890   127716    79513    49356 
   18937    -6390   -19346   -38272   -51802   -52999   -57731   -61821 
  -78341   -87639   -43244     7846    34992    35459    -5733   -23797 
    5209    49253   100988   125107    98929    29782   -33046   -47583 
  -55563   -38188    46245   117799    96820     5849   -93067  -186983 
 -237448  -179930   -75922    -2386    38601    44960    58780   114716 
  168832   194109   181253   126963    54503   -43266  -141551  -183655 
 -173033  -126662   -70772   -31627    10049    63624    90586    58446 
     261   -39094   -64465   -92199  -106247   -70002   -23587   -20353 
    6721    76896   127765   169638   224187   286170   320562   270068 
  167807    80713    -4444   -89888  -119981  -120128  -163023  -213258 
 -245465  -286644  -305274  -292333  -257305  -207281  -179375  -111858 
   25281   120469   149018   139463   116584   113445    72333    -5047 
  -37405   -39128   -70499  -144460  -201521  -180713  -107804   -37964 
   31687   115350   189683   244723   259271   231014   206412   164332 
   69973   -40536  -133425  -167252  -106880   -11638    47201    67424 
   71906    74919    79779   121095   162024    95547   -24572  -107499 
 -168859  -199752  -200013  -198063  -175043  -100469    24283   146622 
  199234   204593   209525   152950    14145   -83853   -87852   -50053 
    7736    56616    76461    90672   101340   117602   141423   111580 
   24672   -41646   -55795   -20683    36811    68565    78320    78366 
   60093    50264    63072    53596    -5705   -68025   -96795  -105935 
  -76261    10953   116365   161167   113320    55169    10395   -64342 
 -135245  -190752  -245949  -270193  -241901  -157200   -39968    44126 
  106633   200427   227900   121151    -3535  -108322  -199678  -197012 
 -148412   -93688    29438   115695    92695    40748   -15793   -24845 
   31166    44085    26605    70317   126354   150585   175247   165967 
   80117   -39812  -128190  -172424  -177016  -110701   -28587   -42376 
 -107370  -102658      342   135129   210521   213786   196032   162832 
   74244   -26565   -62851   -59787   -47954   -39665   -20655    44601 
   74663    38938     3601   -49165  -119819  -205858  -310586  -343458 
 -290973  -230285  -166918  -106783   -65373     2677    92580   176337 
  276197   338952   320631   277595   211096   110010    18663   -71774 
 -169776  -240548  -299031  -362570  -416716  -436070  -375327  -259717 
 -151956   -66879   -17227    18052    63930   103636   139440   179047 
  231997   291609   332235   370508   390754   319798   145924   -76243 
 -285244  -452394  -591653  -682017  -707192  -715009  -697874  -616069 
 -485874  -344158  -209521    -6588   306713   583837   718672   768712 
  831126   935208   998426  1029121  1104000  1133956  1066621   919474 
  630598   287107    37831  -229717  -631647 -1006557 -1206199 -1246729 
-1192480 -1178435 -1231308 -1240543 -1222267 -1175719  -991967  -700234 
 -438959  -254588   -89625    89652   249390   380128   514613   655446 
  777031   902511  1082420  1279385  1393822  1376191  1258785  1134148 
 1040220   915293   741047   545131   345134   209348   148608    71909 
  -33254  -143436  -286501  -458974  -674604  -946220 -1171111 -1294451 
-1391451 -1461928 -1460498 -1397344 -1197649  -802070  -380640  -137593 
  -27043   126909   338324   543361   737857   896678  1030229  1188153 
 1361294  1494526  1486109  1188342   639985   209814    76023   -22219 
 -176632  -275850  -448432  -703223  -748418  -623077  -668259  -882582 
-1011236  -996322  -868891  -561392  -204221   -73881   -35472   162051 
  344016   432862   588146   726985   790981   829731   718590   397666 
   31908  -155275  -131642  -100044  -140211  -159178  -195856  -282132 
 -329320  -366538  -391452  -327496  -246380  -168123   -58287    25899 
  117217   251958   345735   394895   448594   467228   438567   385422 
  275741   125847     -226  -109144  -205773  -260712  -324205  -435990 
 -526953  -574102  -600816  -597086  -574056  -501211  -351935  -226054 
 -175439  -117813   -30883    34900    92325   164263   235602   323230 
  441547   552386   624125   644645   602698   544098   520121   472429 
  347465   221283   159063   120918    91947    88750    60455   -17147 
  -93912  -150728  -194070  -224074  -245905  -244189  -221536  -209380 
 -198045  -181238  -181440  -160988   -67230    41389    76793    74451 
   87313    80623    57792    64411    93391   112680   103306    63844 
   -4641   -85229  -135680  -153436  -171575  -201599  -234468  -237766 
 -189542  -108513    -3948    96098   163868   253516   373878   465224 
  526880   552324   485187   292573    48366   -99605  -162105  -291412 
 -493933  -633982  -682273  -759827  -863017  -831301  -663606  -450462 
 -241103  -117220   -14388   139384   226708   270494   334438   348879 
  363619   425625   485794   531455   536755   512408   501884   447380 
  292962   127498    36232   -25469   -89006  -140865  -195149  -237581 
 -266791  -315106  -349277  -327323  -259536  -172979   -96855   -40155 
  -23934   -51495   -64385   -73052  -122856  -170457  -195751  -217953 
 -212674  -165445   -98721   -51916   -48628   -72349  -105814  -120901 
  -91558   -58436   -48845   -17050    45297    97128   144784   199049 
  238954   279263   328849   369029   410364   458148   494546   498276 
  458003   375930   245646    99738     1574   -62444  -137938  -202629 
 -240327  -286456  -331900  -338094  -319285  -297878  -261603  -190297 
  -85762     4409    33855    21497    -7076   -55367  -105754  -136867 
 -143036  -126546  -107163  -101700   -99053   -58995    13007    42650 
   33515    60255   117022   170923   237205   297920   312817   301037 
  275298   200202   100788    33862   -42913  -162398  -262876  -339105 
 -418882  -456972  -433814  -380344  -301591  -200006   -97249     4806 
   96666   142680   159792   182150   199785   224133   266342   303007 
  331635   354478   356066   328823   265670   167721    62989   -13537 
  -53592   -93027  -158954  -233938  -312184  -395096  -448915  -434049 
 -330312  -165790   -26195    65553   167502   264832   330388   393620 
  408562   320268   161968     4860  -108371  -230713  -346812  -373627 
 -400075  -441055  -333505  -128569    -2020    76723   209736   365794 
  502987   635694   681659   574801   392160   207735    86400    45428 
  -17751  -124511  -173782  -162607  -165717  -171826  -145416  -120602 
 -120171  -118254  -113616  -129585  -165078  -195397  -208461  -225034 
 -246628  -248103  -250577  -277071  -282536  -233005  -156870   -89972 
  -38265    22237    99328   152261   153351   114062    56871    20439 
   13625    -5844   -46541   -71173   -60372   -18250    46857   105352 
  132360   154928   184102   195269   199829   201060   164512    86660 
   15746    -1522     5076   -23631   -65002   -77157   -61246   -14359 
   33301    44822    51152    64195    55927    32101   -10185   -99615 
 -207432  -262178  -251206  -226802  -217173  -186668  -116129   -34842 
   58341   174772   292222   396690   473901   505110   474880   358812 
  182082    28526   -58797  -121578  -202544  -276393  -323169  -342615 
 -291609  -168582   -45808    39016   100697   160015   207897   205357 
  141517    50672   -24813   -67036   -98853  -145264  -182252  -168509 
 -118373   -73518   -14720    71049   134083   165585   180690   168697 
  148624   133624   105976    67753    22362   -38308  -101285  -141010 
 -163777  -205004  -252351  -265551  -266149  -263077  -205174   -92990 
   16102    90105   141450   201980   271291   323974   343144   298124 
  176928    44016   -16137   -12029   -43159  -161724  -306126  -389371 
 -375185  -271976  -144963   -73265   -36312     7219    38118    74340 
  131537   177174   200600   197756   181427   175548   142587    77822 
   52988    51316    30379    41716    71980    70460    68557    67470 
   51144    63544   110880   114157    57604     9952   -45733  -131330 
 -195046  -246532  -314091  -375108  -382662  -307206  -215752  -164085 
 -100727   -20466    32591    85008   148651   182483   193918   204136 
  205821   213489   227920   224527   211647   208650   212795   210722 
  189787   147078    89733    38441    13691     9705    14044    22202 
   27684    30684    29552    16059    -7781   -41238   -82736  -115280 
 -138204  -170325  -216280  -279039  -350026  -373967  -308556  -198891 
 -115028   -48601    33404   109192   171232   227831   243904   197266 
  106232    12016   -42288   -76883  -149827  -238226  -259999  -217958 
 -149509   -38595    66706   122513   191997   273325   310437   296941 
  219030    89926   -21647   -68470   -85318  -161315  -281254  -317758 
 -271555  -252736  -223614  -117385   -22746    19327    55414    70734 
   54305    31465    -3153   -59439  -116629  -162561  -202396  -214686 
 -167751   -90412   -39968     2122    71483   130523   158689   179109 
  166568    90027     2234   -19778    18462    60083    99785   155648 
  209713   240591   239720   211657   169784   121757    72110    17317 
  -36599   -80239  -129153  -183558  -228667  -266710  -277936  -236058 
 -156990   -69762     8044    78497   160562   253571   344062   420515 
  459764   462630   460730   443734   358755   219559   112822    44817 
