Origin Time       2021/02/13 23:08:00
Lat.              37.7
Long.             141.8
Depth. (km)       60
Mag.              7.1
Station Code      MYGH07
Station Lat.      38.1802
Station Long.     140.6405
Station Height(m) 44
Record Time       2021/02/13 23:08:08
Sampling Freq(Hz) 100Hz
Duration Time(s)  300
Dir.              2
Scale Factor      3923(gal)/8224838
Max. Acc. (gal)   143.238
Last Correction   2021/02/13 23:08:08
Memo.             
[...]
  -19876    -7495     -935     3539     3368   -12131   -33524   -47272 
  -42083   -15876     7339     8509    -6242   -27237   -44273   -41208 
  -20464    -7291    -7427   -11099   -23437   -42966   -59437   -66779 
  -54561   -31074   -17783    -9212    -4630   -25404   -55452   -56801 
  -36823   -13468    10694     9485   -11098    -1167    10998   -23485 
  -50476   -33856   -19614   -18731   -16568   -25658   -35669   -25342 
   -9506    -2404     3589    11503    16617    12815    -1784   -17706 
  -20950    -7291      160   -22292   -46970   -42511   -30037   -26509 
  -24437   -27207   -33901   -37274   -36053   -20100     8816    16972 
   -8395   -32440   -31276   -19342   -20278   -37681   -39395   -15460 
  -15137   -45025   -55289   -47734   -43534   -31000   -22716   -28377 
  -19461    -3354    -6859   -10436    -4617   -14872   -34376   -35500 
  -29328   -33644   -36285   -32065   -25111    -8725     5362    -6982 
  -36027   -51711   -39082    -5751    18384    16254     -475   -23159 
  -28021     5481    27920     3759   -16502    -7896    -4961   -15842 
  -23414   -25208   -24476   -27315   -38078   -40369   -25992   -20304 
  -36705   -56149   -63211   -56010   -43058   -43174   -55371   -55541 
  -36751   -16750   -11808   -24854   -43283   -42643   -21516    -5687 
    1942    12746    14110    -3904   -27793   -41985   -39297   -20947 
   -1073      658    -4568    16551    38654    14570   -13490      481 
    6856   -18501   -26921   -22145   -43335   -66696   -67398   -66965 
  -58067   -17452    24776    35750    27464     4500   -30943   -36024 
   -2878    11769     2751    11797    25736    21361    16089    11063 
   -4945   -15655   -11885   -15125   -32810   -42897   -45365   -57005 
  -64095   -53036   -35565   -18285    -3420     1089    -4297   -18516 
  -41107   -48887   -32883   -26225   -31067   -13359    15375    17049 
   -5271   -22009   -20366    -8689    -5524   -15171   -16379    -4247 
    1215    -5162   -13663   -20362   -17574     1749     6605   -23338 
  -37647   -21240   -39955   -90297   -85058   -28566    -8537   -28478 
  -37643   -35637   -29938   -19504   -19916   -26133   -12877    16947 
   38407    43349    32171     3017   -25959   -42267   -62465   -74197 
  -44667    -9898   -20196   -39393   -23635     5873    25027    33542 
   26376     2458   -21411   -35777   -56605   -95785  -127781  -113603 
  -59323   -17325   -14791   -25959   -29887   -31006   -29874   -29112 
  -29664   -25408   -28119   -35812   -23947   -12734   -28228   -36400 
  -20055   -11962   -21498   -27039   -10255    20179    28687    20533 
   26717    21367    -4811    -9397   -10633   -41922   -57046   -36062 
  -34462   -59656   -58440   -28455   -22158   -52149   -67223   -52243 
  -60126   -85897   -73026   -38676   -21837   -20862   -39842   -61859 
  -48694   -20572   -15097   -12818    -1941      -74    10693    34566 
   31148     3740    -9466    -5456   -11132   -46541   -78088   -62348 
  -35054   -29430   -14540     7545    10374    13459    27970    22276 
   -9506   -33118   -48782   -77053   -91068   -66091   -23877     4360 
    2740   -10326    -6022    -3240   -32255   -54072   -21998    10948 
   -2377   -10872    -6947   -32081   -53464   -49921   -58594   -64439 
  -37828   -12812   -11130   -14008   -23184   -32103    -9416    22322 
   24104    21736    30483    27611    22553    24732    12702   -12037 
  -23328   -21487   -35217   -58588   -52520   -33073   -36971   -42514 
  -37854   -45038   -52451   -41011   -33069   -44998   -52837   -43001 
  -18877    19209    39271    20297      468    -1794    -4630    -2774 
     465   -22376   -47565   -34608   -18878   -26312   -15145    11705 
    6970   -17955   -18879     2207    14052     8217    -2722    -9648 
  -22057   -44767   -47254   -20243    -8683   -32406   -57114   -54400 
  -32521   -19531   -34708   -62158   -63246   -36838   -21531   -25698 
  -27716   -18937     2608    19626     1848   -21884     2903    42817 
   28563   -17219   -40845   -63941   -97514   -85999   -28302     8379 
    4410   -13606   -25687   -15152     3989    -7371   -36968   -46360 
  -40396   -33840   -20239     7330    40551    56619    37709    -8899 
  -46105   -44793   -26829   -18127    -5815     5449   -18117   -62027 
  -67971   -39788   -39108   -61339   -55807   -40278   -51599   -62182 
  -39815    -7447     7267    23179    50662    55439    27064    -9124 
  -40603   -57982   -53237   -45164   -49611   -49408   -29220    -5103 
   -5460   -28811   -37149   -17593    -2887   -12121   -31090   -35353 
   -8606    24748    18438   -15350   -18933     8735     9063   -30488 
  -56848   -50164   -38106   -34288   -45516   -54719   -24763     3335 
  -22971   -40066    -3879    20179    11475     9904     6978   -15519 
  -41515   -59629   -63201   -47964   -40950   -55891   -52959   -28327 
  -31002   -53185   -51791   -32915   -12552    16077    43798    46449 
   31221    31128    42940    40259    36082    40836    19026   -31163 
  -50591   -26705   -16972   -35506   -43727   -37714   -32594   -26003 
  -12690     8124    12087   -20792   -55911   -59205   -46573   -40038 
  -34542   -23866   -14781    -7827    -4519   -11936   -23943   -30886 
  -31294   -29002   -31302   -35437   -36139   -43081   -53821   -43271 
   -8673    19759    20267     2513    -7076    -1813    -6237   -31363 
  -50649   -45631   -30588   -21843   -26717   -39255   -32969     -664 
   23286    12972    -8367    -6455    18416    41401    27184   -20872 
  -36625    -6340     8914    -8368   -39675   -72243   -76927   -52220 
  -36826   -37717   -32498   -25209   -35190   -50562   -47117   -39645 
  -40764   -25177   -11520   -42642   -69287   -40972   -17914   -32841 
  -23419    19646    34555    20534    19974    10596   -26576   -29525 
   -2471   -30083   -75303   -62766   -46399   -58675   -45134   -10201 
   -3377   -22302   -40023   -49297   -56650   -65323   -60465   -36381 
  -22887   -33066   -32771    -9420    -2802   -23633   -28923   -16426 
  -22362   -23456    10527    30240     5525   -17373   -29716   -62581 
  -85653   -65383   -36148   -21143    -7874    -4699   -18439   -29165 
  -33230   -42731   -49335   -44223   -35934   -22222    -1809    -2871 
  -28339   -39653   -35154   -26790    10631    65562    87623    77608 
   64147    40687     2911   -17570   -15839   -30443   -54688   -42952 
   -6072    12888     7690    -9018   -33027   -55557   -56702   -38427 
  -28213   -23414    -4097     8040    -7020   -19438    -9686    -2444 
   -8779    -4766    12490    16949    10492     7620     -695    -2010 
   23812    40672    13990   -30913   -64967   -75702   -52103   -20163 
  -14812   -17971   -13620   -25205   -43360   -34156   -17412   -20889 
  -18454     1324     9593     2891    -9625   -25108   -14983    18762 
   16576   -27288   -42160    -9829     3472   -21118   -23078     7523 
   18227     8631    16906    33656    33481    30493    35796    19386 
  -32906   -73948   -66187   -41080   -30446   -22750   -20852   -38133 
  -56882   -69446   -83212   -80522   -55991   -35047   -23336   -12544 
  -17319   -40752   -51466   -42161   -39552   -41368   -27429    -9499 
   -8291   -19122   -24497   -24588   -38450   -58579   -48419   -12367 
    5449      993     2155    -1517   -29120   -54882   -70302   -94239 
  -87297   -30397    -6114   -38611   -54372   -47294   -55690   -55648 
  -27421     2303    24115    31492     6573   -19457   -14184      357 
   20738    48045    36505   -10180   -29061   -24927   -41467   -69650 
  -85720   -75635   -40149   -24727   -53103   -81830   -86463   -87011 
  -82074   -60662   -43796   -39563   -32373   -34823   -50824   -43690 
  -12706    -3983   -27564   -47493   -42782   -30716   -30049   -32444 
  -24926    -8756     7211    17525    25718    27510    16113     4135 
   -5702   -29382   -60578   -73562   -53086   -16218   -16278   -64694 
  -88990   -60930   -49767   -71269   -55875    -2844    13999   -12923 
  -31599   -29214   -22206   -16617   -18226   -34098   -48199   -31661 
   -2164       71    -7099     7516    18411     3102   -11700   -19367 
  -39889   -49994   -30611   -11160     2641    25739    47568    60978 
   60363    32260     -567     1856    27623    33621    14756    -9242 
  -36513   -54000   -35417    -3983    -8576   -40057   -47186   -12091 
   40540    76161    63956     8239   -31180   -13378    21246    24835 
    4117   -27230   -60427   -68166   -39484    -1958    14682    18404 
   33569    47745    40211    37436    62380    81660    65394    26048 
  -15535   -39814   -44220   -55281   -72048   -57500   -18647    -6589 
  -34693   -63396   -47279     5838    28587    -4430   -46334   -70058 
  -68111   -22770    28548    28339    10984    22870    26180     3503 
   -2046    13347    10179   -16663   -37110   -47853   -64525   -70438 
  -46529   -11132     3929   -10058   -25084   -25482   -40441   -74429 
  -85618   -59587   -19110    11654     9940   -25115   -71047  -108511 
 -115191   -92095   -68659   -46846   -31195   -40936   -40767    -4919 
    8278   -26547   -46799   -25596     -221     3742   -25658   -87070 
 -140067  -145092  -122337  -110226   -93060   -54303   -17250     3704 
   -8213   -58337   -92947   -75513   -48443   -51567   -58472   -34928 
  -11638   -40788  -102311  -131433  -110475   -59765     4353    54106 
   59827    21658   -37999   -83949   -88713   -69183   -55611   -37979 
  -11075   -13635   -51644   -65639   -27267     6602   -10481   -37432 
  -35087   -34874   -54340   -53875   -20714    -2887   -19647   -33727 
  -38196   -50168   -48725   -22769     7064    45603    97931   112047 
   46858   -43164   -88419  -104357  -126260  -131477   -85436    -7175 
   45175    46095    23220     7936    11094    21046    17334     7434 
    5794     4136     -405    -5694   -19716   -39017   -55657   -75583 
  -81535   -37552    34821    71782    56180    31912    40558    64204 
   69364    72050    78224    53226    18905    34654    79080    99651 
  100560    95388    77012    46809    18528     5944     3461   -11446 
  -24474     6363    60706    74918    41875    13906    24973    40092 
   25745    14368     9606   -29330   -76041   -74517   -35390      911 
   21467    32194    39919    46554    41161    13197   -21531   -40383 
  -42741   -31676     4079    65944   113003    96619    31271   -23670 
  -44608   -63046  -100950  -119165   -80127   -17675    19047    20016 
   -6970   -47810   -92192  -131912  -132987   -70440    14897    56312 
   39360     9796    15523    45580    45673     6569   -16758     3785 
   25069     6145   -34674   -59277   -63031   -74252  -104037  -119700 
 -100845   -75043   -63208   -56837   -59260   -71640   -68736   -54699 
  -63703   -81642   -79305   -79304   -96477  -111677  -119851  -118932 
 -106763  -102277  -122968  -156061  -160922  -126580   -84102   -33066 
   24826    31162   -23174   -65357   -68484   -74538   -96105   -90783 
  -34187    25768    37131    21945     -519   -53766  -100261   -78138 
  -17608    20405    10320   -44271  -103111  -133571  -134596  -107401 
  -62714   -23710    -1561    16749    49488    82505    82258    64320 
   71352    76956    35726   -18310   -42701   -75729  -167532  -269677 
 -282112  -200018  -108522   -48975     5211    66384   106650   106822 
   87821    79033    70449    29863   -39679  -105921  -129485   -69588 
   37794    86049    64998    61573    78354    29344   -87685  -156783 
 -110253   -25336     2592    -4830     9192    24829    33264    69820 
   95380    61092    19145    10947    14746    27194    61911   112168 
  152776   162770   146146   116058    68297   -11022   -90613   -92932 
  -12252    58364    61712    33516    24460    38658    48099    32794 
   -1456   -32285   -38354   -16573     5513     3437    -6430    -4430 
   14602    65353   131976   155024   117005    70573    54187    48988 
   37393    28232    11637   -33161   -91498  -129720  -124386   -66654 
   10891    51348    46739    31915    22430    16432    19075    19272 
  -20538  -102925  -170001  -192578  -203881  -220957  -231530  -233903 
 -216423  -153551   -66170   -16378   -30302   -79216  -109533   -90300 
  -45274     1566    57334   106146   117293   106402   118492   152037 
  136499    34562   -68481   -79691   -32819    -5976   -19818   -69060 
 -138010  -187648  -191452  -171202  -174347  -200631  -183339   -82579 
   38156    84069    52947     8148   -28949   -66735   -84523   -72816 
  -78359  -140232  -226376  -265793  -226104  -164407  -161947  -194832 
 -170672   -93090   -32741    13518    67458   104518   119065   113009 
   66148    -9817   -67509  -103616  -163080  -228899  -237234  -205343 
 -188462  -181214  -158404  -120060   -80954   -61450   -74439  -113937 
 -159000  -187809  -188836  -168389  -148149  -132101   -93361   -24017 
   36695    51109    38330    57734   121946   173117   181564   170787 
  153287   143702   152109   146387    99594    22735   -39576   -39276 
    1952    20695     1761   -36343   -80824  -104662   -69180    21320 
  111754   164681   190854   207187   203823   148616    25806  -117675 
 -192481  -154444   -59599    -4122   -19935   -67424  -104963  -115222 
  -82544   -15122    30585    23164    -9624   -56818  -127164  -170563 
 -105220    51651   171664   174857   109590    54248    32292    26261 
   24441    41056    71964    64615   -17275  -141860  -241458  -263784 
 -202806  -101883   -26985   -22522   -87917  -169992  -171441   -48786 
  126756   257677   279983   191307    82753    27990    -8742   -56157 
  -59279    11448   102055   157796   176628   174785   147237    91253 
   30835   -13463   -24798      -16    23422    27342    28472    19923 
  -12348   -57427   -93232  -110907  -125564  -129826   -74557    34916 
  114535   122951    90293    45292    10492    12387    52540   104017 
  140944   148252   102323    -1339  -101714  -133786  -115042  -106762 
 -119423  -106228   -59096   -42601   -72106   -74702   -42928   -51117 
  -96418  -120783  -128158  -138181  -125938   -81016   -54216   -79855 
 -106127   -81402   -39788   -32913   -48411   -53431   -54749   -78129 
 -132856  -191959  -210559  -172083   -84577    27321   119653   172501 
  192113   166178    99472    44693    30473    19688   -32216  -107001 
 -148285  -137667   -93846   -43717   -17185   -21683   -32181   -17477 
   42141   135383   216079   247540   227456   180358   143125   137432 
  148755   126692    50792   -26919   -67544   -72326   -17354   105436 
  206212   170313    18129  -115651  -164139  -169866  -167940  -153273 
 -135274  -112827   -55526    40348   149789   224830   205220   114852 
   65534   111804   186283   190224   103601   -13809  -106498  -158868 
 -165859  -127093   -77118   -60355   -57708   -13863    78640   176508 
  209907   121014   -54739  -204051  -262772  -237575  -138680   -13327 
   38670    -4491   -45922   -32652   -42846  -142196  -255772  -284042 
 -252807  -226231  -195037  -148707  -119038  -122231  -143843  -158512 
 -149716  -110546   -40856    23214    46606    59185   101200   160524 
  206232   221888   196516   126580    24617   -84769  -174225  -221649 
 -207328  -135400   -60016   -38543   -66915   -94551   -93641   -74799 
  -51425   -45585   -69888   -88632   -81425   -81715  -100912  -112887 
 -123718  -156911  -182058  -159992  -111188   -63364   -27819   -33891 
  -78646  -111491  -119992  -117751   -72925    28235   113659   121867 
   84596    54299    43093    58549   104071   146816   150412   111431 
   48610   -10864   -36753   -14894    26982    38839     -668   -63887 
  -98807  -104662  -134840  -168049  -120614     4911   131953   192225 
  158376    76243    20538    16325    35058    42130    28115   -12789 
  -80750  -142230  -153635  -104907   -35924     7230    27797    51710 
   84792   118768   133281   111404    83797    83056    61784   -25304 
 -121825  -160077  -141860   -87014   -28366   -14092   -28220   -22713 
  -22227   -72890  -145814  -181809  -185394  -200279  -223952  -210367 
 -130307    -3110   118172   192041   207322   163652    80277    18597 
   16583    19422   -21791   -61592   -67124   -78922  -118886  -149808 
 -125518   -52400    -6303   -46506  -134966  -209515  -258944  -271633 
 -233354  -168447  -100271   -44016   -26924   -46319   -60093   -45746 
  -33893   -51387   -58417    -9151    65219   106222   102968    64559 
   -3734   -61034   -58769   -20173      -67    -1871   -13975   -38871 
  -53703   -35594    -4055    13770    28692    59007    85190   100445 
  137498   195899   234986   236494   213043   170428   100857    29847 
    7150    29273    53609    82514   147577   217965   232559   214987 
  219100   222184   198886   175639   137524    33200  -114183  -227986 
 -275028  -275055  -256875  -226704  -175653  -116537   -84646   -94460 
 -114160   -97806   -51035   -22002   -16283    -3333    15566    24648 
   19743    -7338   -40005   -31032    11815    33791    36379    41454 
   35166    21528    15784    13188    14530    17192     8411   -10804 
  -36922   -71705  -117213  -178710  -232021  -246871  -257872  -285680 
 -275829  -223879  -188983  -176516  -160991  -144807  -125618   -89586 
  -46638   -24200   -24719   -26477   -22717   -23679   -30933   -37735 
  -49329   -59705   -40190    -8635   -10403   -27025   -29741   -41034 
  -61261   -52215   -18027     6373    29334    72266   113142   119146 
   89640    54666    49464    78368   103581    81855    12626   -61221 
 -113483  -170926  -245224  -280685  -235616  -151650   -93221   -67458 
  -42888   -15974     4671    36281    78910   106586   112842   106161 
   88942    49019   -25774  -107009  -143864  -120428   -58989    10282 
   65203    89980    76438    28433   -42211  -113287  -153403  -142788 
  -92334   -31162    28441    85247   115041   100575    75061    73514 
   76877    54475    34466    68202   120417   106151    28597   -45083 
  -77161   -70702   -68312   -97605  -107408   -49890    36815    85661 
   73125    31638    10250    23746    45087    46839    43015    45087 
   32668    13149     1561   -21720   -69485  -133116  -190728  -227808 
 -262973  -299592  -299822  -244723  -157589   -80906   -50345   -55867 
  -53171   -21232    21285    47410    52918    43602    22246    11736 
   32616    58095    58097    50288    50392    35679     4155    -3900 
   20417    43656    59869    73461    49640   -28988  -121501  -175784 
 -159325   -84758   -16929     4374     4156     5763    -7688   -39739 
  -49307   -21211    -5117   -36076   -83469  -100413   -72216   -26289 
  -12771   -38133   -37756    38311   153630   234060   247653   214598 
  174997   160482   163715   150051   119701   107368   124255   145739 
  134237    82872    44733    58432    82323    74856    55610    41837 
   25353    16487    28125    36069    11105   -28472   -36239     -946 
   47902    81916    85973    65176    42136    20169    -8186   -24981 
   -6216    43627    88098    82124    14154   -66845   -91422   -53643 
  -11620    -8058   -45995  -101186  -131795  -127020  -126729  -155949 
 -186478  -189583  -168293  -130111   -81024   -38546   -22944   -32756 
  -40555   -35448   -47509   -90351  -119133   -98787   -54120    -6724 
   46229    77337    56843     9547   -22608   -28036   -21493   -27409 
  -57481  -100056  -131903  -139344  -139672  -149546  -141925   -96101 
