Origin Time       2021/02/13 23:08:00
Lat.              37.7
Long.             141.8
Depth. (km)       60
Mag.              7.1
Station Code      TCG009
Station Lat.      36.7258
Station Long.     139.7155
Station Height(m) 361
Record Time       2021/02/13 23:08:23
Sampling Freq(Hz) 100Hz
Duration Time(s)  176
Dir.              U-D
Scale Factor      7845(gal)/8223790
Max. Acc. (gal)   81.073
Last Correction   2021/02/13 23:08:22
Memo.             
[...]
   -8734   -19303   -24522   -21620   -12475     -618    11537    21782 
   28611    31247    29435    24433    17531     9710     3257      302 
    1614     5749     8217     4726    -3979   -11083   -11470    -8680 
   -6870    -2652     8622    25204    38954    40385    26771     6104 
   -9709   -14277    -8374     2901    13487    20077    21894    18609 
   10876     1094    -7082   -10947    -9856    -3844     5589    15372 
   22958    25267    20105    10659     1804    -4872    -8611    -8552 
   -4455     3541    12993    20256    23556    22914    19685    15072 
    8456     -180    -8174   -11982    -9869    -4425    -1104    -1328 
    -483     6307    18854    30721    33629    25771    13689     3931 
   -3195   -10774   -19620   -24992   -20632    -6613    11210    25937 
   32737    32200    26643    15994     2623    -7882   -11524    -7873 
   -1078     3616     5715     6836     7528     9352    13050    17618 
   22284    24544    21240    12901     2886    -5995   -12517   -15068 
  -10582      915    13479    20703    20856    16927    13502    12341 
   11350     7389      596    -4691    -5439    -2849     1849     9626 
   19473    26119    24794    16471     7099     1332    -1375    -2843 
   -2893    -1260     1593     4787     7655    10621    13558    14739 
   12706     9306     8145     8363     7040     6165     8469    12256 
   15260    16428    14604    10377     5676      876    -4492    -9173 
  -10692    -8067    -2131     5674    13512    19356    21622    20432 
   17296    12729     7223     3186     1821     1602     1722     3365 
    7805    13841    17566    16329    10249     1559    -4399    -4051 
     139     5086     8681     8208     4290      217     -932     3628 
   11678    15871    13482     9582     9211    10989     9278      811 
  -11267   -19334   -17786    -6906    10126    29187    42464    41710 
   27849    11313     1142    -1202      594      869    -2916    -7811 
  -10423    -8302     -846     7234    11669    11977     7720     2394 
    2033     5926     9888    12694    14048    13319    10477     6566 
    3167      897     -267     -156      920     2957     6836    12276 
   17860    21907    22890    21439    18485    14092    10089     6366 
     224    -5769    -5838      214     7572    11647    11175     9115 
    9074    10636    11014     9601     8650    10195    12325    11277 
    7452     3480    -1159    -7200   -11709   -10989    -3780     8307 
   19942    24048    19211    11750     7688     7429     8075     6176 
     -48    -8325   -12957    -8691     4243    19334    29419    30707 
   23519    12349     2041    -5343    -8884    -8911    -7713    -7418 
   -8353    -7157     -194     8712    13481    13251     9265     5429 
    5359     5341     2589      832     2637     8004    14974    19215 
   19890    19172    17049    12771     5617    -3184    -7731    -4082 
    5753    17563    25612    26401    22971    19807    18531    18593 
   18261    16498    13181     8661     4618     1422    -3481   -10293 
  -14555   -12220    -2666    12503    29392    41675    44138    35912 
   19921     1759   -12074   -18242   -17516   -11767    -3410     4668 
   11047    14782    14058     8070     -787    -7195    -7369    -1485 
    8540    17733    19649    14071     6867     3343     4494     7041 
    8012     7666     6066     2708     -745    -2338    -1256     1050 
    -394    -7519   -15468   -18474   -13360    -1406    11188    18422 
   17672    10443     2732      109     2430     6157     9186    11059 
   11357     9660     6288     2447     -680    -2035    -1290      255 
    2435     6859    13154    19094    23319    25670    25463    21223 
   14084     7605     3774     2845     4284     6814     9050     9846 
    9300     8954     9877    11800    12900     9880     2535    -3296 
   -2107     6409    19053    29747    32989    28999    20545     8537 
   -5775   -18551   -25493   -24991   -17281    -3485    11839    22700 
   26082    21961    13938     6841     1564    -1302     1539     9765 
   17636    19912    15857     8230     -364    -7955   -11850   -10937 
   -5815     2652    10867    13477     8792     1120    -2296     1941 
   10133    15314    13540     7730     4587     7160    12915    17471 
   17764    14408    10635     7813     5378     2604    -1467    -5173 
   -5468    -3917    -2836     -290     3886     5832     4380     3025 
    5486    12857    22243    28787    31633    32058    27117    14268 
    -662    -7672    -2907     9250    20700    24059    17609     6727 
   -1734    -5435    -5713    -3019     3396    12537    20979    24784 
   22297    16278    11450     9370     9540    13306    21362    29983 
   33069    26609    11577    -5644   -17215   -18733   -10947      114 
    6978     6678     2099     -716     1100     3407     1138    -4996 
   -9566    -8370    -3107     2353     7221    10787    11146     8577 
    4892     2412     3608     8118    12006    11256     5690    -1571 
   -7472    -9683    -7202    -1755     4919    12708    20156    25061 
   25678    18754     4486    -9994   -18666   -19206   -11009     1448 
   12336    18742    17086     6975    -4432   -10179    -9182    -3249 
    5535    15047    23172    27676    26326    19472    11483     5823 
    2332     -136    -2813    -5086    -3518     3676    14455    25614 
   34307    37318    31881    19159     4399    -6951   -11263    -8243 
   -1447     5786    12060    15977    16978    16036    13995    11514 
   10145    11445    15094    18409    17217     9466    -1019    -8270 
  -11011   -11232    -9275    -4507     3234    12279    17801    16787 
   11063     3662    -3056    -7599    -8001    -2316     6901    15499 
   22191    25078    22482    16085     8140      475    -4785    -7006 
   -7099    -5270    -1193     3048     2901    -3330   -10758   -12440 
   -6014     5537    17298    25502    28652    27634    24376    20424 
   18567    22351    30051    34384    31409    23008    10994    -3360 
  -16775   -25752   -27673   -21143    -8611     4027    12681    17586 
   19201    16159     9877     5552     6898    12911    19260    22449 
   22368    19762    13946     5803    -1267    -6328   -10795   -13676 
  -12962    -8579    -1746     4961     8046     7215     7072    11399 
   18939    25617    27874    24174    15049     3686    -6084   -13926 
  -20389   -22555   -17451    -6828     4988    15730    24100    27676 
   25560    18270     6197    -6507   -12920   -10253     -506    11369 
   19080    19538    14332     6455    -2178   -10389   -16247   -16343 
   -8255     5552    19040    26932    26859    21292    15391     9718 
    1475    -7214   -10162    -3825     9394    22824    31009    31611 
   25294    16056     7317      849    -1468       72     3368     6455 
    6336      957    -7140   -12721   -12488    -6631     2656    13298 
   24926    36984    45932    47943    41913    29797    14978    -1621 
  -18027   -27568   -26806   -18428    -6666     2689     5825     6255 
    9640    16792    23403    23184    14013     1197    -8199   -11271 
   -8791    -3310     2756     9173    16579    24537    31972    37010 
   36860    30175    18544     4683    -8043   -15383   -16051   -12194 
   -5773      475     3986     5528     6130     5296     3254      364 
   -2150     -649     6551    15998    22219    21583    14790     6169 
     602     1016     5698    10332    13821    16834    17786    14839 
    8060     -348    -6648    -9418   -10716   -11722   -11169    -7290 
     160     8374    13590    14346    12330    11622    15037    21213 
   26069    25771    19660    10423      715    -7713   -11443    -7426 
    1891    11475    19348    24135    23009    15668     4653    -6663 
  -14137   -16227   -14195    -6852     7118    23449    34402    35568 
   29700    22401    16146    10874     5946     1510     -583        4 
    1530     3393     5201     6126     6200     6172     7987    12885 
   18839    21830    18044     7777    -4067   -13483   -17805   -15033 
   -6654     4121    13630    18270    18766    17932    16584    15680 
   15427    15310    16816    19207    18176    12687     5834     -598 
   -8031   -19075   -32175   -38128   -28449    -5657    19425    35874 
   37735    26376     9131    -4584    -7824     -615    10750    20463 
   26709    29797    30469    29074    25411    18806     8344    -4662 
  -15753   -20576   -16387    -3555    10349    15346     9344    -2197 
  -11776   -12822    -4220     8067    16977    20804    22646    24713 
   25535    22578    15342     6261     -891    -3713    -2201     1371 
    3219      299    -7051   -14755   -17782   -14785   -10204    -6667 
     797    15061    30690    40961    42294    34728    22607    11434 
    3717     -561    -1445      599     3815     6353     6034      853 
   -8032   -16954   -21683   -18833    -9556     1406    10183    14254 
   12933     7967     2149     -854     1549     7982    14997    18997 
   17844    14489    13891    16733    20529    21853    17690     9711 
    3684     3835     9398    14334    13059     6382    -1244    -6340 
   -7707    -5935    -1408     5433    12663    18457    21490    19608 
   12441     3460    -3775    -8475   -10959   -10338    -4264     8108 
   22721    31417    28595    17540     5842    -3300    -9360   -10060 
   -3820     8225    22204    32065    33123    23942     7272    -9173 
  -17772   -16839   -10628    -3989     2918    11288    18427    21305 
   19549    14463     9578     7110     5902     6230     8487     9216 
    5678      828      217     4598     9367    11743    13551    17807 
   25123    32814    38294    41312    39702    27849     4557   -23159 
  -46445   -59073   -58256   -45704   -25705    -3157    16337    28876 
   35731    40394    42174    38149    28825    17941    10320     9679 
   14497    17199    12548     3844    -4136   -10400   -14091   -15809 
  -18922   -22685   -21640   -14283    -3964     7268    16767    20232 
   20972    27423    39488    49075    50371    43806    31075    11398 
  -13115   -35638   -49900   -53198   -47552   -38666   -30739   -21501 
   -7022    11052    29374    42830    42963    30565    18202    16202 
   25479    39155    48081    47061    36790    22383     9680      -63 
   -9940   -18985   -21918   -16428    -2535    15583    28026    27965 
   15736    -2339   -17941   -27398   -28264   -17956     -949    15067 
   25689    28730    24954    16692     6097    -3596    -8552    -5024 
    5570    14731    16961    14160     8776     1069    -8414   -18770 
  -27333   -28216   -18350    -3233    10625    22665    29389    27286 
   22493    19683    18207    17134    15138    15045    18910    22208 
   21103    13838     -248   -18017   -34329   -43521   -40726   -23394 
    5328    34533    56828    70434    70123    54452    29909     3230 
  -18976   -30685   -30835   -21945    -7570     7784    19101    20429 
   10270    -2812    -8371    -3740     7075    19519    31455    41871 
   49505    50596    39455    15291   -14997   -41473   -55570   -53366 
  -37280   -13262    12366    34034    47274    47476    32822    10605 
   -7028   -13720   -11146    -4380     3234    10511    13956     9031 
   -2049   -10309   -10002    -3461     5632    16384    26149    31360 
   31483    26847    18594     8915    -2490   -15589   -25070   -24834 
  -13964     3576    22054    37289    47332    50688    46172    33555 
   15009    -2667   -12671   -14844   -12459    -5730     5568    14617 
   14823    11299    10228     8568     2346    -8284   -19535   -23662 
  -18292   -11063    -6068      429    10511    22975    35487    42417 
   36768    18794    -4166   -26221   -43362   -50692   -44377   -25367 
    -414    23176    42519    55814    58141    47044    26692     4513 
  -11782   -19784   -22929   -23598   -21274   -13770      518    19720 
   38330    49608    50576    42411    28788    17263    12224    10929 
   10694     7622       -6    -4062     -383     6353    14850    21886 
   21609    16715    11265     4345    -3338    -8789   -10239    -9832 
  -11696   -16437   -20852   -21298   -17369   -11666    -5177     3970 
   16600    28938    36498    39324    38765    34746    26698    13518 
   -1610   -10417   -10377    -7582    -7186    -9321   -12652   -15029 
  -13771    -8742     -337    12528    28908    44621    53954    51887 
   37774    17497     -841   -12299   -16251   -16251   -15214   -13072 
  -11632   -11924   -11603   -10669   -10204    -9377    -8013    -4630 
    3420    14611    24146    28163    26273    22098    19651    18967 
   17026    14104    14218    17157    17957    14285     8955     6675 
    8364     9603     6814     1844       89     5657    15789    21838 
   20484    17104    15016    12199     6624    -2208   -13822   -26046 
  -32796   -29029   -17246    -3294     8257    16945    26596    37737 
   44697    41374    24918    -3520   -33048   -45546   -36983   -19315 
    1408    22461    36174    41189    40770    36247    29682    22310 
   14689     7411     1695     1777     8403    15661    18736    15130 
    4887    -7007   -16276   -20545   -18125   -12916    -9634    -6453 
    -244     9502    23607    41709    57177    60030    45488    16152 
  -18492   -43837   -50625   -42376   -27352   -11164     1020     8199 
   14886    22192    28890    34550    35363    28432    16139     3319 
   -4293    -5989    -8661   -16006   -22592   -21223    -9825     9852 
   35968    64025    84875    91835    83288    58402    20761   -18531 
  -49192   -67483   -74293   -73927   -69406   -59240   -42010   -15735 
   19037    50877    68339    71116    62764    48897    36250    23787 
    8587    -5583   -15519   -19988   -17871   -11591    -1818    11519 
   21868    24281    18669     4027   -15491   -29691   -33924   -32367 
  -28080   -17620      372    20017    35583    48662    61311    68748 
   67875    59053    41083    18183    -1750   -16819   -24381   -20402 
  -10501    -2451     1746     2431     2471     2216    -1803   -10918 
  -24381   -37197   -41123   -33030   -14334    13050    43664    67995 
   75589    61628    34684     8352   -11499   -23926   -28903   -27558 
  -19021    -2361    18126    36011    46835    48139    39868    23664 
    3510   -14476   -25979   -28575   -20571    -3038    19001    36414 
   40597    32277    18855     4657    -9424   -23352   -35680   -41801 
  -37288   -20198     6168    30618    43083    44126    39086    32624 
   30095    32520    34134    29300    16587    -1059   -18034   -30125 
  -36377   -38151   -36224   -30897   -23795   -13846      961    18247 
   34936    47923    52143    45615    32401    18416     7321      484 
   -1004     3591    10467    13107    11205     9275     8644     6420 
    -341    -8714   -12852   -10813     -225    19678    40724    52848 
   51387    36648    13468   -10435   -27791   -32933   -23809    -5521 
   13737    29286    39588    44053    43808    38823    25308     4037 
  -16467   -29759   -34825   -30580   -19866   -13277   -14708   -17211 
  -16173   -11547    -5529    -1414     1948     7227    12047    14472 
   17744    23641    27943    26215    19857    12976     8035     6963 
   10017    13756    15859    17127    16097    10415     2766    -2956 
   -7056   -10265   -11600    -9899    -1998    11952    23546    26098 
   19337     6921    -5188   -14440   -17377    -8353     8199    21801 
   28760    30079    26991    22640    18171    10426    -1487   -15959 
  -29154   -34074   -27851   -10612    15587    38275    44030    34280 
   18445     3457    -4550    -1547    10289    24653    35857    41018 
   37701    27060    16586     8372    -1449    -9263   -10396    -9250 
  -10084   -11164    -8417     1605    16287    28085    31444    23693 
    8444    -4656    -9664    -6393     2690    13011    21078    27461 
   32474    31926    23699    10725    -4881   -21311   -36153   -47274 
  -51258   -44896   -26068     3766    35401    55954    60313    55715 
   50224    45319    40938    34990    24698    12368     2727    -2304 
   -4850    -8284   -15843   -29776   -44994   -51321   -44435   -26326 
   -3017    14504    19514    16981    14029    13176    16556    23257 
   28640    34138    43756    53273    54669    45222    28750    10511 
   -5003   -13076   -13930   -12691   -11832   -13520   -20741   -29300 
  -31137   -24208   -11514     3358    17393    27066    28520    22410 
   14870    11106    11221    11458     7437    -2145   -13713   -21903 
  -23055   -15871    -2582    11029    19195    20538    17845    12862 
    6428     3113     7468    16933    24988    28730    28757    25893 
   20308    10731    -2292   -12785   -15444   -10544      383    13223 
   17969     9371    -5536   -17339   -22671   -19523    -4432    20351 
   45540    62090    64316    51340    29586     9672    -1902    -6662 
   -9506   -12321   -13720   -12232    -5578     8448    27031    42263 
   45075    31067     7276   -13814   -27716   -35321   -36860   -33253 
  -22557    -5829     8024    18385    31950    44575    47367    39750 
   27891    19958    19215    20085    14324     1200   -10038   -13784 
  -13851   -10760    -3703     2438     5935     6443     -928   -16152 
  -32921   -45705   -48856   -39037   -19383     5454    31598    53077 
   64588    64273    52675    33543    12791    -4920   -16348   -18373 
   -9734     4671    15353    17864    15022    10254     6868     6363 
    4124     -845    -1455     2932     6459     8752    11419    13707 
   15606    16968    17319    17666    18692    19228    17478    11716 
    1455   -10767   -19554   -19691   -11782    -1312     8156    14061 
   14419    13078    15525    20619    24401    26387    26292    21941 
   13405     4823     1857     5329     7925     2062   -10701   -20734 
  -21096   -15457   -12051   -13574   -16619   -17442   -14960    -9042 
    -503     7149    11121    13721    20803    34797    49482    55012 
   47405    30127    10030    -6057   -15541   -19849   -19843   -17371 
  -15761   -14631   -10176    -1046     9641    19109    25253    24879 
   20829    19124    18532    16584    15067    14824    14400    10994 
    3925    -1782    -2489     -908      515     1941     3275     3468 
    1093    -2224    -2639      629     4869     6612     6112     7327 
   12048    19897    29852    38568    41706    37373    28440    19245 
    9632    -2380   -14395   -21635   -21458   -15450    -9693    -6867 
   -2841     3419     8167     9022     6316     2515     -334     1150 
   11075    25890    39190    49087    51938    43850    28615    11835 
   -6872   -27456   -43984   -51259   -50140   -44186   -33910   -18061 
     830    17238    26947    31083    35492    41435    44668    43661 
   37571    26396    16455    12364    12775    16085    16668     7168 
   -9972   -25872   -34029   -31575   -20719    -6914     6151    15881 
   21007    23322    24256    23503    19357     9443    -3522   -11902 
  -10600      905    19172    36630    45436    43802    35351    22249 
    6041    -8016   -15492   -17586   -18060   -17694   -13918    -6258 
    1248     3628     -492    -7264   -10768    -7284     2624    16294 
   32725    47698    51536    39852    16690    -9825   -27604   -29316 
  -19040    -3188    12479    22214    28850    39226    49010    47456 
