Origin Time       2021/02/13 23:08:00
Lat.              37.7
Long.             141.8
Depth. (km)       60
Mag.              7.1
Station Code      TCG009
Station Lat.      36.7258
Station Long.     139.7155
Station Height(m) 361
Record Time       2021/02/13 23:08:23
Sampling Freq(Hz) 100Hz
Duration Time(s)  176
Dir.              N-S
Scale Factor      7845(gal)/8223790
Max. Acc. (gal)   310.091
Last Correction   2021/02/13 23:08:22
Memo.             
[...]
  -32675   -27018   -13221     5670    22131    27417    18589     2000 
  -12216   -17371   -14172    -9086    -7454    -9478   -11889   -10535 
   -3493     5698    10328     6276    -6084   -20432   -26570   -22096 
  -15030   -12295   -15191   -21413   -25165   -22115   -14972    -7935 
   -2191      560     -120    -3279    -8823   -13460   -14094   -13032 
  -12021   -11890   -16002   -23213   -28061   -28706   -23364   -11866 
   -2056      171    -2976    -6847    -6115     1476    10878    14700 
   10893     2918    -6197   -14993   -21370   -25111   -27240   -26341 
  -22176   -17535   -12950    -7402    -1879     2421     3727      314 
   -5593   -11448   -16810   -17679   -10173     -176     2737    -3026 
  -13124   -22331   -25762   -22719   -17667   -14293   -11866    -9375 
   -8040    -8236    -9973   -13246   -15147   -14440   -14530   -15758 
  -15689   -14778   -12789    -9090    -6097    -5880    -9119   -14094 
  -15546   -10986    -3071     3700     4581     -643    -6581    -9813 
  -10729    -9350    -6095    -3042    -1656    -2925    -8063   -14535 
  -17829   -18972   -19948   -18806   -15805   -11402    -3554     5247 
   10219    10253     5062    -4131   -12780   -18342   -21521   -22585 
  -21880   -21168   -22160   -24741   -26852   -25740   -19283    -8992 
    -365     3003     2058      733     3734    10737    16024    14989 
    6084    -8595   -22842   -31626   -34265   -32877   -31627   -32952 
  -34900   -34599   -30184   -20993    -8634     3861    13463    18108 
   17693    14219    10922    10728    13956    17130    15217     4923 
  -11867   -27276   -33247   -29218   -22454   -19577   -21543   -26022 
  -29177   -28327   -23787   -16271    -8047    -4531    -7568   -11942 
  -11958    -6480     1287     6010     4997      137    -5805   -10841 
  -13797   -15819   -18274   -20557   -21786   -21112   -18135   -13910 
   -9363    -5324    -2705    -1088     -837    -3958   -10072   -15161 
  -15996   -13952   -11855    -9485    -6247    -2682     1478     4171 
    2435    -1224    -3280    -4203    -4494    -6637   -15449   -27918 
  -36508   -39490   -37390   -31993   -27819   -24410   -16108    -1975 
   12449    20391    18238     9628     2995     2623     5161     5767 
    3809      461    -3269    -6801   -11820   -18874   -25429   -29486 
  -29924   -27573   -25837   -25579   -24313   -20019   -12402    -5000 
   -3773    -9092   -14538   -13934    -5814     5076    10720     7184 
   -3017   -14774   -24759   -31833   -34597   -33355   -29803   -21856 
   -8522     5390    15434    18285    12688     4540     -136    -1480 
   -1170    -2282    -8274   -16268   -20846   -21693   -20389   -18661 
  -19500   -22030   -22952   -21681   -17127   -10135    -7036    -9452 
  -11061    -8506    -2924     4463    10666    13468    15241    17697 
   18010    13076     3025    -8892   -18347   -23265   -24818   -26617 
  -31797   -39171   -45015   -45457   -38196   -26893   -17983   -12653 
   -7622     -872     6235    10037     7366    -1080   -10566   -15996 
  -15796   -12093    -7877    -4545    -1088     3281     6990     7832 
    3422    -6951   -18643   -26384   -30361   -32379   -32616   -30045 
  -21338    -5860     9487    17018    15329     9142     5967     9339 
   13703    11151     2084    -7333   -13516   -15018   -13086   -14705 
  -24474   -38308   -49824   -55437   -55139   -51649   -47487   -42290 
  -31448   -10659    15539    35245    42236    41061    37756    34003 
   28575    18389     2805   -13366   -26049   -36070   -44778   -51927 
  -56967   -58355   -54056   -43918   -29259   -11303     6659    20129 
   28908    34997    37881    37320    34102    26900    14118    -3821 
  -25099   -44730   -55336   -54940   -48367   -39135   -27903   -16376 
   -6895    -1224      915     2430     4494     5996     7079     7496 
    6681     4737      -47    -6930   -12028   -15962   -21313   -28317 
  -36401   -41805   -40166   -33561   -26519   -19406   -10725     -348 
    9848    16700    19198    19306    17811    12178     1424    -9610 
  -15947   -18023   -16960   -12807    -8613    -6937    -7495   -10959 
  -16270   -19094   -17514   -13150    -9560   -11263   -18173   -24262 
  -25343   -23006   -20081   -17113   -14512   -13691   -13144    -8648 
    -225     6914     8043     1753    -8247   -14068   -12073    -7302 
   -4849    -3665    -2666    -3892    -8452   -15241   -21298   -23429 
  -21826   -18864   -15622   -12887   -11156    -9261    -6534    -3105 
     803     2982      742    -5169   -10162   -10076    -5796    -2180 
   -3516    -9988   -17701   -23017   -25481   -27233   -30935   -36180 
  -39630   -38504   -29822   -13352     3920    15664    20475    18347 
   13787    12258    12060     9454     3241    -6759   -16050   -18493 
  -16345   -15827   -18721   -25195   -33833   -39430   -38504   -30817 
  -15994     1451    12174    14154    12957    12976    16100    19527 
   16692     6093    -8550   -24393   -38203   -44644   -41648   -33037 
  -22072   -10628    -4282    -5162    -7175    -7271    -6523    -3200 
    1464     3542     2832     -666    -5606    -8212    -9369   -12113 
  -16471   -22054   -27214   -27414   -20852   -11862    -4592      533 
    3194     3416     2191     -472    -4027    -6534    -7580    -9297 
  -13398   -19207   -24194   -26006   -25435   -25289   -27191   -31854 
  -38699   -43262   -39934   -27854   -10305     6405    14081    12035 
    9402    12992    20668    26090    25049    17996     8217      264 
   -2713    -2864    -4699   -10261   -19148   -29074   -36235   -37481 
  -34314   -32085   -31896   -30435   -27274   -22995   -16995   -10377 
   -4155      450      839    -2785    -7314    -9972    -9640    -7099 
   -3388      125     1019    -1188    -4889    -8410    -7379     1026 
   10548    14883    14486     9825     3535      167    -2411    -6987 
  -12123   -17529   -20776   -18472   -13648   -10559   -11226   -17456 
  -24862   -25069   -17980   -11472   -11468   -17998   -27191   -33316 
  -33311   -31077   -31873   -34788   -35307   -31267   -23465   -13219 
   -2995     3464     6103     7947     9651    10910    11349     7465 
   -2843   -13844   -19213   -19822   -17435   -12529    -9200   -10305 
  -12935   -14439   -14080    -9788    -2002     5035     9051    10555 
    9904     7338     3882     1016     -603    -2656    -8205   -17595 
  -26906   -31141   -28807   -23787   -21132   -22059   -23996   -22021 
  -12283     2636    15460    21259    18954    10254     1279    -2868 
   -5259   -11242   -21961   -35888   -48648   -54144   -50064   -38130 
  -20322      405    18157    27081    25853    17964     9374     5467 
    7437    11503    12150     6284    -4652   -16880   -28574   -39383 
  -48544   -56143   -61221   -60635   -53346   -40932   -25821   -11415 
     120     8172    13656    20560    30042    36753    35833    26044 
    9675    -6740   -19089   -28066   -32992   -32822   -28453   -21254 
  -14720   -12468   -13672   -14401   -11310    -3998     5032    11994 
   12849     6405    -3516   -12514   -19306   -24362   -28601   -32875 
  -37210   -39546   -37137   -30172   -20237    -7973     4286    12600 
   16281    18399    21122    23404    21525    12964      847   -10050 
  -17568   -20254   -20394   -25076   -35997   -46025   -48213   -41227 
  -27660   -11817     1923    11766    18603    22218    20960    14689 
    4494    -7322   -16081   -19508   -20721   -21323   -19500   -15310 
   -9652    -4062    -4128   -12012   -19730   -20696   -16619    -9666 
   -3099    -2853    -8710   -15206   -20696   -26244   -31198   -34411 
  -34736   -30206   -19975    -6208     6991    15368    15716     8733 
     311    -4174    -5929    -9952   -18970   -32130   -44990   -49974 
  -42334   -25066    -5240     9849    14642    10196     2783    -3576 
   -8648   -13880   -18796   -18751   -11542    -1410     5980     6752 
      47   -11254   -22626   -30234   -32167   -28129   -18771    -6531 
    5274    14335    18790    18435    15660    12764    10705     8518 
    3755    -3684   -10933   -15568   -17398   -18476   -20474   -23222 
  -27037   -30704   -30076   -24387   -16071    -5887     3083     6894 
    6909     4060    -2498    -9761   -15464   -20347   -22856   -21662 
  -18647   -13861    -6313      178     1583      112    -1979    -6027 
  -10739   -13641   -14598   -12627    -7727    -3350    -2552    -4924 
   -7905   -10293   -13321   -18050   -23032   -25613   -24737   -22279 
  -21429   -22678   -24221   -24683   -22065   -14697    -4044     5524 
    9729     8365     5224     2660    -1432    -9360   -19431   -27259 
  -28383   -22304   -15059   -12083   -11657   -10319    -6723      556 
   10589    18092    17227     6704    -8853   -24675   -38827   -49177 
  -54783   -55499   -49293   -37056   -22804    -8307     4353    11503 
   12703    11038    10612    14821    22777    30310    35191    36116 
   31237    20950     6656   -11731   -32239   -47310   -50974   -46809 
  -40713   -34056   -28216   -24571   -21730   -17605   -11246    -5125 
   -3483    -5159    -4750    -2138    -2011    -5077    -9042   -13275 
  -15858   -15279   -14874   -16376   -16958   -15337   -12182    -7801 
   -2816      166    -1462    -4978    -5775    -4074    -2327    -2868 
   -7150   -10864    -7825      129     5638     3811    -5549   -17967 
  -27727   -33056   -35118   -35451   -34844   -31347   -23148   -12375 
   -2215     5827    10918    12326    10431     6457     1455    -3462 
   -7543    -9225    -6828    -2994    -1451    -2228    -5074    -9954 
  -14262   -16486   -18075   -17794   -13543    -9108    -7946    -7551 
   -7190    -8677   -11179   -15637   -23183   -29204   -30029   -25764 
  -17527   -10832   -10312   -12758   -15438   -19800   -24861   -27811 
  -26865   -20552   -10131     -129     7202    12474    15477    17586 
   20858    24412    27864    29961    26865    18436     7055    -7179 
  -23928   -42049   -61479   -80361   -92774   -92718   -80032   -60185 
  -39097   -21161    -7689     4337    17936    33092    46476    52496 
   49746    43117    36568    29544    19828     4768   -16048   -36791 
  -50897   -57844   -60740   -62024   -59836   -51034   -38052   -24412 
  -10628      642     6172     7641     7465     5104     1325    -1624 
   -3797    -6085    -7935    -8742    -7774    -3566     2806     7948 
   10449     9535     4010    -4413   -12991   -20255   -23700   -22526 
  -19164   -14644    -9946    -6640    -3780     -839     1607     2918 
     288    -6770   -13220   -15892   -16484   -17367   -20983   -28119 
  -35124   -37215   -31887   -19761    -5394     5610    10858    10854 
    6737      -17    -7426   -13980   -19020   -21730   -21131   -18565 
  -16803   -14962   -11408    -7627    -4382    -2951    -4982    -6774 
   -4905    -3123    -5701   -12231   -20366   -27434   -31649   -33066 
  -32487   -30975   -28663   -24536   -18295   -10821    -3974     1409 
    5890     9722    14735    21427    24722    20528     9931    -4044 
  -16578   -23471   -24430   -20221   -13335    -8669    -7318    -6019 
   -2585     2367     6910    10430    13180    12677     5715    -7600 
  -23623   -34447   -33291   -24259   -17833   -18704   -23611   -25527 
  -18862    -4712     9791    17716    15812     5778    -5277    -9413 
   -4581     2690     3696    -2502   -11141   -20081   -28865   -35437 
  -38033   -37157   -36451   -39345   -43513   -44267   -39135   -27733 
  -15360    -9336    -9790   -13024   -15634   -13136    -4351     6353 
   14509    17552    13720     5827       63    -2255    -2737    -1402 
    -222     -683    -1134    -2563    -7842   -14823   -18195   -16483 
  -10767    -2031     7327    16563    25957    32035    31857    26333 
   15630      853   -12414   -21161   -28251   -36605   -47229   -59154 
  -69277   -75212   -75972   -70378   -58459   -41909   -20960     4344 
   30292    51973    66823    73689    72365    64265    50372    30028 
    3215   -29174   -64735   -97900  -122700  -133174  -125251  -102928 
  -73148   -40687   -11321    13207    36838    59678    77172    88051 
   92921    91111    85560    77733    62649    38519     8806   -22168 
  -49842   -71821   -86921   -92280   -85463   -69298   -50958   -34740 
  -21798   -12486    -4577     4031    12432    17273    14985     6027 
   -6384   -19896   -32425   -43210   -51856   -54943   -49844   -38608 
  -25015   -12532    -4031      216     2316     3661     4588     5142 
    3167    -4468   -17335   -31098   -41187   -46313   -47525   -44783 
  -37720   -26877   -13973    -1803     9626    22225    33556    40377 
   44583    47036    45469    39714    27859     8687    -9732   -19588 
  -21978   -20083   -17027   -14084    -6369     7496    20299    28534 
   31951    25222     6839   -15057   -32937   -45616   -54275   -61636 
  -70121   -74999   -68476   -51152   -30946   -10775    12054    36404 
   60961    82813    91165    79080    47800     4276   -38580   -72382 
  -95339  -107393  -110484  -102821   -80874   -48635   -11692    25047 
   52381    65086    63018    48698    30438    12498    -6438   -24813 
  -42217   -59933   -76447   -88728   -94169   -93182   -85091   -66633 
  -41295   -11974    24059    63389   103555   142310   164687   160766 
  136541    99577    54135     -399   -64017  -125798  -176559  -214315 
 -235377  -238570  -221567  -181417  -124722   -57559    16737    89827 
  155953   209443   242798   256743   254290   235067   197363   134276 
   40544   -70567  -171796  -247831  -299438  -328942  -335107  -310070 
 -252085  -172895   -81171    11585    90744   157497   213387   251137 
  275467   289759   283689   259542   221387   160199    80761    -5405 
  -94077  -176858  -244308  -287706  -306308  -307798  -289572  -249404 
 -195558  -130937   -56407    19901    91214   152683   196703   218857 
  219707   204849   181368   147910   102984    49778   -12636   -75872 
 -120850  -145377  -160685  -167814  -161627  -141151  -109063   -72118 
  -36775    -4789    21076    34680    35391    30755    25812    22786 
   25497    31860    37505    42238    44082    44423    47487    47598 
   40184    28154     8784   -19133   -48442   -75223   -99858  -118983 
 -128537  -131275  -132368  -130563  -121149  -102778   -72551   -26941 
   27518    82367   131611   161536   163973   148543   126513    99827 
   66341    26998   -14341   -55399   -93031  -123071  -144239  -156261 
 -157843  -147380  -125352   -92304   -47328     3642    50143    88345 
  116083   129408   130954   122567   101121    71500    39226     4369 
  -27001   -49392   -65965   -78480   -82593   -77652   -68897   -59610 
  -49373   -34824   -16422     1301    18955    37859    54982    66017 
   71153    72624    66016    47070    16480   -24742   -71293  -113443 
 -145363  -163039  -161217  -142240  -114417   -82097   -48689   -21378 
   -4037    10882    33403    61357    86316   106470   119188   114895 
   93926    67603    41629    17888    -4838   -31854   -61641   -85293 
  -93799   -87818   -77433   -63625   -44529   -28840   -19870   -14929 
  -16584   -23554   -27614   -25294   -22530   -23847   -24358   -19826 
  -12189     -413    17761    36062    47011    49013    40714    26894 
   20502    26180    38961    54387    66486    69944    63626    44189 
    9811   -33062   -76036  -112617  -136759  -144791  -134846  -107026 
  -68268   -26919    12317    45369    72557    93421   102622   101648 
   94810    81079    60380    31526    -8903   -56430  -101710  -139641 
 -165383  -176393  -179786  -178434  -159813  -118115   -64199    -4253 
   60223   120918   170523   205829   227913   240185   235542   203168 
  142078    57199   -39704  -134207  -215536  -270909  -293846  -288989 
 -258507  -205968  -147102   -93625   -41781     8864    50932    83706 
  108410   120210   119395   114222   107963   102582    97686    81851 
   51895    15160   -23121   -52672   -67508   -73114   -77021   -84261 
  -88832   -81742   -66394   -49716   -36609   -33926   -41874   -49216 
  -45509   -26310     9830    55644    96367   121520   127214   111522 
   75489    25008   -33138   -89966  -131593  -150997  -150334  -129640 
  -93518   -52497    -9061    35023    71271    94155   100908    90289 
   68571    45898    25521     4371   -18860   -42522   -60671   -64885 
  -53411   -34080   -18152   -10470    -8819   -10143    -9061      -47 
   16038    37099    63089    88028   103554   108249   100715    77052 
   43171    11300   -18571   -52085   -84569  -112209  -135476  -152354 
 -168054  -187587  -201272  -197672  -171817  -122019   -55634    15365 
   81716   132478   164115   185633   201540   206012   190804   150452 
   86896     8348   -75019  -147482  -192037  -206239  -203665  -195547 
 -178205  -146767  -105358   -58958   -13558    23866    51584    74839 
   98632   118854   134319   150985   163656   161781   144925   114893 
   70506    12764   -53565  -117433  -166962  -199324  -216943  -221961 
 -211852  -180561  -129837   -68242    -6374    44934    81234    99117 
   98041    92118    94779   103345   109991   109661    96778    68854 
   33859     1814   -26022   -50527   -70846   -85595   -91682   -89019 
  -76783   -55514   -33660   -13467     4714    14257    15248    10103 
   -1121   -16173   -33592   -53966   -76688   -97924  -117428  -134447 
 -137876  -121342   -91578   -55505   -13833    33453    80453   123348 
  165198   202451   225659   231867   221121   192431   149396    96435 
   31459   -44969  -122455  -189082  -233417  -248339  -242285  -228997 
 -211806  -189064  -161019  -127313   -87453   -43486     4271    55192 
  101551   139369   173091   200772   210270   191670   148262    87976 
   13554   -65774  -133304  -177164  -193226  -185957  -162970  -130081 
  -93773   -57516   -24988     -826    20331    42688    61892    75969 
   83678    86567    86385    82004    77383    68439    47063    19854 
   -7314   -31814   -46020   -46916   -36672   -21930    -8421     4332 
   12081     9286    -3734   -27773   -60520   -91146  -109952  -114808 
 -108187   -95694   -82220   -67275   -48375   -22258    15493    61881 
  106035   140987   163674   171351   164581   143110   105316    53929 
   -6092   -70957  -132780  -173977  -182935  -167984  -141211  -111303 
  -86660   -66754   -48658   -34042   -21579    -8824     5807    22266 
   36676    47758    54297    50842    35591    12746   -13595   -44227 
  -78397  -105587  -115700  -110023   -92178   -61870   -21797    26296 
   81870   132961   166374   183020   187803   179710   156716   120961 
   75462    22702   -31661   -83675  -133762  -177754  -210459  -231603 
 -236008  -217467  -180110  -132290   -79928   -30967     4278    26503 
   48138    75681   107277   136977   151590   139757   103437    54820 
    3523   -49665   -99765  -135731  -155602  -163065  -158422  -141255 
 -111457   -67424    -9481    55283   115842   158643   176341   181068 
  185576   185491   175416   156338   127719    88919    43002    -6494 
  -56288  -102664  -146643  -189847  -223981  -236707  -223391  -189033 
 -146831  -109034   -76954   -47598   -18137    15118    49600    79251 
  100209   107438   100477    84867    63729    40582    20148     4457 
   -2729     -303     3967     5215     4897      583   -10814   -28258 
  -49692   -73693  -101449  -127618  -136656  -123508   -97529   -66247 
