Origin Time       2021/02/13 23:08:00
Lat.              37.7
Long.             141.8
Depth. (km)       60
Mag.              7.1
Station Code      TCG014
Station Lat.      36.5450
Station Long.     140.1742
Station Height(m) 130
Record Time       2021/02/13 23:08:19
Sampling Freq(Hz) 100Hz
Duration Time(s)  215
Dir.              U-D
Scale Factor      7845(gal)/8223790
Max. Acc. (gal)   97.056
Last Correction   2021/02/13 23:08:19
Memo.             
[...]
   25714    25631    20417    14288    11191    12397    17405    21514 
   21012    19942    21419    21099    18315    17190    15097     7932 
    1252     2261     7817    11956    15136    17902    20372    26114 
   34430    38373    33619    22311     9738      -10    -4310     -542 
   11256    25130    33951    36432    33517    25321    15196     7125 
    1818      -75     3682    13053    23842    31500    32877    26269 
   15595     8401     6922     9031    13543    18219    20321    20123 
   17516    10557     3397     4599    13969    24617    32489    34492 
   30186    24011    16525     6527     1044     5263    12750    17248 
   19348    21292    23980    24586    22114    22017    23372    18909 
   11792     7487     2525      503    10072    23539    30130    34655 
   38898    34233    22540    13163     7520     6872    12225    17714 
   22677    29330    29839    19869     8731     2247    -1603      861 
   10338    16320    16895    20170    23646    19873    14503    17537 
   25272    27496    23279    16510     8689     3416     6999    20908 
   35689    38882    31187    22945    17420    10443      797    -6575 
   -4592     8505    24663    32455    27386    14395     2826     -535 
    4479    12444    18168    21783    25045    26165    25671    29255 
   35449    33817    21756     8688     3535     7033    12992    14809 
   12469    11218    14188    19575    23726    24621    22073    15606 
    6241     -315      594     6650    13992    21261    25960    27070 
   28428    30096    26975    20302    15959    14077    11395     6786 
     706    -1455     9132    30096    46990    50410    41158    25155 
   10404     1757      398     6443    15196    19075    17786    16613 
   16395    15666    15303    15849    16031    11827     2926      189 
    9479    18530    18328    18388    25138    27074    17717    10102 
   12320    15375    14180    14260    18212    23760    29616    33894 
   33814    29826    24021    17386    11682     9948    12469    15184 
   15892    17105    19591    19710    16633    15350    19074    24102 
   24462    21276    19737    17215    10149     4183     4932     9641 
   13028    15688    19812    21479    18253    15867    17778    16667 
    6806    -1834     1773    11179    17748    25590    33917    30584 
   16333     7203     8110    10936    13019    17003    21789    22694 
   19136    19616    27126    28143    16525     8463    14450    21305 
   16363     8556    12721    24463    26184    16033     9887    12101 
   12062     8634     8858    12517    17278    24343    32476    36178 
   30277    15444     -425    -9251   -10488    -7630     1790    21336 
   41350    48552    43984    35440    26839    20077    14008     7267 
    4307     8244    14389    18164    20995    25988    31452    31077 
   22036     8037    -5563   -12510    -7192     7364    21176    30192 
   38719    46892    45173    28992     9316    -2002    -5938    -6251 
    -652     9925    20403    30824    38746    36865    28703    22671 
   17343    10984     7400     8218    12221    17664    23218    28372 
   30183    26335    22542    21959    15870     3061    -4151    -1308 
    6777    16588    24723    31405    40473    47115    42080    28668 
   15290     1422   -10936   -12627    -3218    10723    27583    42673 
   43241    24975     1644   -11084   -13374   -10945     -463    18661 
   35525    41901    39533    31644    20098     8208    -2137    -9741 
   -9085     3534    23082    41384    51957    52350    45625    33076 
   13798    -5431   -15072   -12908     -468    16791    26889    25070 
   21076    20586    16854     8209     2631     4922    14428    27932 
   38786    41759    38730    32389    20692     5891    -2214     1085 
    9795    18003    26998    35769    37141    30100    20672     9787 
   -3651   -11952    -7722     1505     4401     5135    14389    27818 
   31444    23575    16028    16723    21976    25447    26603    28143 
   30322    29652    23792    16399    10544     4733     2893    10813 
   20417    19388    10419     3724     2104     1765      649     2538 
   10081    18963    24664    27548    28455    25537    19602    15844 
   14293     9740     4556     7674    19134    29069    32152    31371 
   30812    30582    27465    21494    16499    13941    12780    11707 
   11137    13512    17706    20737    23307    22501    14331     7464 
   10276    15310    15214    14710    18269    21686    20472    17899 
   20725    27625    27014    14856     1942    -5825   -10210    -4779 
   14997    36533    45995    44089    34835    18559     2243    -5092 
   -4311     2490    16438    32136    42091    46265    45122    31841 
    5498   -14778   -13348    -2531     5591    21084    44523    56396 
   51193    38743    20389    -1464   -14270   -11202     3511    21448 
   35172    43166    46137    39677    22350     3169    -9868   -14729 
   -8941     4249    14694    21641    31506    39154    35743    24892 
   11722    -2903   -12472   -12984    -9508    -1954    13975    32869 
   45685    50043    47914    42001    31417    13182    -6593   -14337 
   -5184    12129    24911    27535    24503    19589     9057    -4716 
   -8333     1120    10791    17062    27662    38234    35845    21890 
   11352    12587    19453    23021    22403    22239    25375    28717 
   25378    14089     5000     8259    17497    19206    15211    14813 
   16634    17123    18990    24027    29818    31162    24008    11392 
     483    -4710    -2409     7136    18036    26825    37142    46238 
   44663    30169     8046   -10095   -10944     2431    15067    23766 
   32907    37318    29624    15014     5520     4126     3931     2498 
    5472    13539    20846    27141    36023    44201    44124    32864 
   13949    -5690   -20834   -29081   -25057    -2605    30528    52758 
   53325    41311    25176     5427   -12434   -18976   -12870     2339 
   25282    47668    54814    46020    33756    21799     6436    -6130 
   -6925     -843     4122    10227    20737    32541    41038    44328 
   42472    35068    21505     5343    -6609   -12889   -15084    -8576 
   10255    32745    46395    48782    44818    37485    26724    13463 
    2338    -1054     3349     7744     5320     1763     6243    14975 
   21357    28791    37872    40725    33786    19283     2641    -4450 
    2085    10434    15831    26014    38898    42354    30699     8453 
  -15453   -30905   -27199    -4198    20987    36310    48930    60806 
   58172    37296    11179    -8912   -19955   -24529   -23242    -8453 
   20318    45724    54762    53636    49786    38592    16688    -6682 
  -21510   -24804   -11140    19881    49397    58446    50407    38161 
   24615     8414    -4868    -8623    -1779    11966    25235    34566 
   42835    47235    38375    17100    -2547   -11132    -8796     3589 
   20733    30601    26928    16244     9691    10674    13944    16317 
   18990    18320     9840     2463     6941    15508    17959    20143 
   26784    29893    24169    16480    15144    17456    15083     8822 
    5813     6134     7153    11723    19244    21551    16116    10264 
    7927     6475     6292     9950    16447    24021    32929    40971 
   42411    35949    26372    18029    13738    14488    17305    18075 
   17120    20248    27781    29231    19931     8141      660    -2968 
   -3797      228    11059    24765    34959    42757    49788    46849 
   30940    15693     6704    -3649   -12560   -10457      572    14229 
   27635    35206    34420    30917    25469    11801    -7074   -20133 
  -21008    -6897    15661    30744    35024    35164    30105    20846 
   15442    12688     6118     4045    17193    35110    41473    37856 
   35696    34982    25174     8074    -1449      -67     3466     7546 
   16444    27561    33156    31206    27367    25400    22540    17285 
   12236     6816     1858     6548    21828    33241    32948    27141 
   22287    19001    13554     4086    -3898    -5625    -2234     7095 
   22210    35247    42113    45129    37717    14297    -8568   -14013 
  -10833   -10983    -7609     9224    35935    58990    65784    54233 
   31819     5405   -17649   -26743   -20898    -9431     6080    29223 
   51051    58288    50299    32472     8252   -16148   -32044   -31725 
  -10218    25721    58980    80595    89695    81259    53399    15610 
  -19531   -42697   -43559   -17240    22593    56976    78937    83695 
   64180    26036   -12798   -40213   -52334   -46368   -23236    12849 
   53951    83126    84483    60146    26543    -5260   -32690   -47340 
  -38794   -12511    15628    38149    53792    58082    49605    33377 
   13278    -6286   -15618    -9983     1941     9694    15381    26642 
   37536    32629    12217    -4904    -5695     3588    11357    18480 
   28999    35754    34088    29199    20451     5740    -3095     3886 
   17008    24166    27287    30581    27958    12037    -8941   -16974 
   -7209    11651    33041    51721    59366    52897    37095    17085 
   -2555   -14590   -14056    -3458    11989    28428    39214    36579 
   22617     8479     -236    -4793    -3060     6501    19106    31189 
   42133    49113    48433    38681    20649       21   -10979    -7095 
     889     5317    12707    25633    38107    46610    44609    25840 
    1539   -12579   -16067   -10991     7273    34897    54720    55957 
   45920    34959    22154     3090   -14102   -14681    -1128    12768 
   24823    35689    37889    29673    18779     9736     1381    -6583 
  -11727   -10471    -1227    14284    34618    54986    63209    54012 
   35419    13971    -6570   -18241   -17898   -10274     2928    21922 
   37791    38904    28066    16974     8660      673    -5783    -9084 
   -9490    -6394     2504    17317    32443    41766    45877    48501 
   45970    30226     6635    -8633   -10168    -1737    16295    39910 
   54521    49829    33224    15840    -1663   -20254   -33308   -28320 
     460    38654    65306    75524    74100    59859    32591     2377 
  -20463   -31167   -25311    -4240    21069    40220    48092    43837 
   33477    23623    12532    -2199   -15357   -19604   -11005     8718 
   31099    46350    51016    46681    34705    17601     -675   -14978 
  -16906    -3235    16784    31963    38480    35113    21951     6606 
    -519      735     1534     1055    11808    39656    66715    67817 
   44848    23406    12887     3068    -2748    10970    37412    47632 
   33345    16353     9317     4263     -606     3539    17159    30161 
   34720    31537    25492    17892     9385     8031    17385    24113 
   18295     9109     6008     6120     5304     5140     7349     9755 
   10619     9707     4671    -2114      396    15388    28252    26094 
   17055    15610    19456    19310    19175    24497    23503     8352 
   -2166     7890    24078    28458    24598    22489    23384    26408 
   34797    46813    51894    47493    42728    36223    19236     1293 
   -2799     1583     3662     2307    -2856    -9980   -11276    -3901 
    9486    27970    46066    54387    53863    50220    38803    17235 
     386      438     9135    15298    20077    26185    27436    17230 
     155   -14477   -24027   -27413   -16443    13660    46728    58236 
   46834    31324    20395     7786    -5540    -5509    11788    30234 
   35812    30850    23386    14928     2486   -11352   -17298    -9259 
    8324    26337    40946    49728    47063    33555    17022     -499 
  -19948   -31687   -24187     -841    23784    37273    38275    35564 
   33521    24304     4525   -11755   -12842    -6520    -1641     5166 
   14403    18777    17936    19368    24194    28792    34750    41821 
   43749    37921    26333    12891     5350     5894     6176     8062 
   25250    49632    55102    40180    24102    10960    -4716   -16810 
  -17238    -8673     2728    15885    31091    42624    40046    19140 
   -7204   -19419   -16661   -13346   -13563    -9856     -402    10295 
   21486    32964    39345    34885    20895     7204     4490    15060 
   30839    41931    45804    45069    39996    26121     4580   -10633 
   -6924    14982    45769    74160    90186    85413    59783    26819 
   -4738   -37507   -60689   -52560   -15611    23826    49227    61011 
   61746    54149    41639    23737     3109    -7727     -446    16163 
   29300    37392    40204    33748    23053    14528     3186   -13489 
  -26666   -28663   -19912    -3543    16274    33651    45797    50126 
   40238    21254    12174    20339    36209    48501    50053    40722 
   25023     7773    -6567   -18492   -29582   -32686   -14743    26196 
   66617    81230    76392    68605    55370    32424     6065   -17109 
  -29450   -21563     5459    37586    62399    73612    63391    31406 
   -6983   -35752   -44572   -28443     -783    17802    28341    42431 
   56043    56347    40585    15705   -11811   -35334   -49848   -54874 
  -42087    -5320    35989    56911    53676    35571    10875   -14634 
  -32008   -33318   -20590      976    25722    44158    52536    51857 
   39399    18798     3564     -777    -2791    -7848   -12247   -12839 
   -4471    14607    33473    49130    68685    79756    63413    31756 
    8159   -10763   -29189   -28971    -8781     9163    18555    28578 
   37137    36891    37640    44999    34295    -6685   -45122   -47174 
  -15310    24214    53578    80759   106474   103459    63031    13012 
  -28325   -64994   -84688   -63675   -13832    33203    69311    91316 
   88545    70263    50757    23039   -14377   -46542   -61291   -47429 
   -7902    31479    58515    74985    69942    41455     9130   -13925 
  -28545   -34630   -30385   -14967    11534    44489    76802    98609 
  100765    83462    51474    11512   -22266   -37540   -36331   -21253 
   11387    50128    71784    66280    37173    -2863   -35942   -54853 
  -55215   -24416    30987    81762   109275   109397    84396    44069 
   -1174   -37201   -51101   -47277   -31344     -278    37679    63047 
   66402    55605    37374     8494   -24004   -41831   -38975   -21037 
    8274    37304    46280    37260    33355    41696    48131    41297 
   21262    -2612   -13483    -4124     8712     7786      845     2331 
   10601    17644    21622    24052    23683    18792    16437    25236 
   38666    41839    30331    10922    -7380   -12657     2797    27113 
   40849    38423    24498     7643     -662     1937     5532     4251 
    3885    10956    23074    34303    43152    47538    42923    32984 
   24219    12027    -5686   -16854   -12903     1976    21595    40745 
   51962    51935    44631    32829    16842      180   -13902   -23997 
  -25470   -15230     5273    35845    68616    82158    66748    38151 
   12108   -10685   -28302   -32456   -22684    -3996    21573    42194 
   39390    16684    -4402   -14172   -16378   -13292    -4170    10843 
   28028    39472    41075    36591    27611    12086    -1422     3951 
   26855    42915    38281    25922    18763    12838     4423    -3284 
   -9412   -10191     2424    25566    42504    39156    16748   -12482 
  -36065   -45706   -36779   -11934    16270    35496    42210    38543 
   30423    25331    26939    34743    42792    41111    28980    15867 
    7495     5810    11465    18625    21799    27229    42070    54422 
   47143    25297     7996     6477    17045    25807    24598    18320 
   12650     7862     8432    22967    45523    55151    44566    27344 
   13057    -1435   -15044   -15817     1162    21388    29106    27549 
   27332    26530    16972      351   -14278   -18747    -6478    18530 
   38078    41608    38049    37837    40032    39893    35233    25753 
   13487     2579    -1003     4572    13431    22563    33998    44077 
   42936    30990    21240    13660     -217    -8637     4904    36747 
   71446    93580    94891    75570    36640   -12816   -49771   -59256 
  -48116   -30568   -11055    14978    44082    62745    64143    50313 
   23161    -9868   -30607   -30801   -21309    -7576    13424    35279 
   47602    43737    22462    -2108    -9579     2983    18883    21492 
   15822    18144    26415    28651    23353    14153     5254      -22 
   -3280    -5119    -3397    -1842    -4684    -4163    10606    32698 
   41538    36003    34398    36288    28872    16476     6852     -866 
   -3082     5044    16522    21088    20595    19970    18076    20216 
   31637    40898    37694    29876    27950    30148    26064     8012 
  -18166   -35465   -33269   -15484     8291    31525    54391    75736 
   83655    70618    44057    13647    -9512   -14114    -3836     9252 
   19205    23310    21895    16499     6407    -3601    -7993    -9684 
  -10885    -8010     5485    33870    66852    81548    63903    22623 
  -19993   -46537   -51707   -34218     6508    51221    68106    54622 
   33748    18655     9801     7592    10071    12522    17185    26208 
   34001    35351    30630    28215    32549    35027    33708    32595 
   24030     7940     1760     9894    14038     5042     2755    23310 
   47029    45179    16580   -14030   -26381   -26445   -24823   -17763 
   -3473    15430    40365    63148    64501    41905    14746    -2903 
   -8603      619    19562    28570    22029    23954    49017    71444 
   57441    13255   -22890   -34460   -35372   -29093   -10234    12533 
   32682    53725    71167    74208    64260    49999    31992    13521 
    3770     4132    12881    22893    20021     8928     9744    22509 
   30406    26613    13351    -4931   -15820   -10300      221     2853 
    5869    19946    37863    49499    55269    52348    29474   -11473 
  -43136   -39094    -7469    21354    33104    40509    56000    65107 
   49547    17474   -13011   -30875   -30944   -16313     5563    27750 
   42786    43529    30091    16067    12854    13522     7797    -2128 
   -8276    -7069      171    10474    21579    33118    42088    42827 
   33863    16286    -7176   -27444   -32798   -20610    -2428    10766 
   19349    24344    26538    31230    38931    44822    44092    33656 
   19410    10176     4865    -3053   -17748   -34430   -38022   -19340 
   12332    40277    58530    70634    76497    71716    52120    21197 
   -2647    -6701      633    12541    29031    41053    42628    42546 
   46441    45289    29879     7819    -4059    -2274     2127     -511 
   -9289   -12853    -2435    14951    23329    17671    11734    16143 
   22023    22176    21363    20355    20908    33714    57932    72180 
   60808    35523    17269     8947     2432    -5012    -9485     -517 
   25266    49326    53217    40633    21874       98   -20803   -32304 
  -27421    -9651     6979    17239    31422    49875    55210    39829 
   18484     8232     7767     5186      611     2085     7098    10111 
   14316    23083    33948    42016    40373    24251     1123   -14265 
  -18161   -15994    -6822     9711    23595    31027    38600    42263 
   32799    18405    14558    21417    27276    27756    26619    21432 
    8860    -6849   -20952   -27337   -18817     2980    27849    45812 
   52436    46998    31409    13437     4429     7938    12217     6486 
   -1559     -387     8085    14233    14219    14902    21660    30825 
   38842    43229    39502    27785    13182    -2577   -19642   -29369 
