Origin Time       2021/02/13 23:08:00
Lat.              37.7
Long.             141.8
Depth. (km)       60
Mag.              7.1
Station Code      TCG009
Station Lat.      36.7258
Station Long.     139.7155
Station Height(m) 361
Record Time       2021/02/13 23:08:23
Sampling Freq(Hz) 100Hz
Duration Time(s)  176
Dir.              E-W
Scale Factor      7845(gal)/8223790
Max. Acc. (gal)   262.765
Last Correction   2021/02/13 23:08:22
Memo.             
[...]
   -8434    -3580     4484    11421    13103    10882     7376     3082 
    -769    -3418    -4328    -2284     -113    -2034    -6358    -8583 
   -7225    -3580     1196     7133    12784    15878    17115    16992 
   12688     3775    -5551   -11550   -11959    -6008     3816    13697 
   18871    15988     9532     5664     3264     -754    -6126    -9586 
   -7373    -1089     4452     9219    14848    18549    17309    11942 
    4648    -3244   -12345   -22677   -30578   -33694   -33581   -30528 
  -23889   -14748    -4191     5560    11614    15188    19098    22916 
   24845    24405    22918    21957    21432    19514    14145     5863 
   -3349   -12220   -17689   -17258   -13836   -10667    -6790    -2485 
    -102     1864     6451    12220    15341    14801    11599     5563 
   -1354    -4618    -4885    -6523    -9749   -12228   -11662    -6586 
    -757      356    -2405    -5819    -8966    -9296    -4197     4087 
   11712    16309    16578    14914    15311    16726    16056    13107 
    7210    -2790   -14588   -24082   -28332   -26690   -21000   -13734 
   -6122     2659    13567    25081    33382    33936    27450    21562 
   19654    17995    14867    10062     2733    -5247   -12218   -17408 
  -18083   -14945   -12973   -12465    -9591    -4965    -2323    -1651 
    1296     9281    18333    22145    19963    14899     8141     -718 
   -9682   -15916   -18929   -18323   -14512    -9644    -3462     4176 
    9363     9741     6982     1885    -5030   -11079   -14844   -15206 
   -9541     -720     5520     9872    13703    15654    16960    17955 
   17023    15201    12861     7924     1121    -3573    -3692      330 
    6145     9464     7334     2081    -2396    -4828    -4828    -3353 
   -2948    -4072    -5513    -6012    -4573    -2235    -1020    -2010 
   -4016    -3119      766     2268       32    -3609    -8075   -11219 
  -12136   -11873    -6528     4249    12644    16443    19124    21539 
   24336    27175    28687    30608    32972    33039    30157    23301 
   12982     3523    -3314    -7639    -9243   -10729   -13776   -16945 
  -20887   -26562   -30430   -29254   -24312   -17537   -10798    -6821 
   -5248    -4484    -6095    -9387   -10222    -8133    -5135    -2282 
   -1275    -3099    -7067   -11840   -14052    -9915      319    13081 
   24911    32964    36841    38522    36828    29866    20590    11402 
    2019    -5973   -11739   -16699   -20209   -20989   -19873   -16456 
  -10381    -5301    -2289     2677    10593    20004    29914    36254 
   35334    29519    22416    14048     4098    -6664   -17485   -26391 
  -31495   -32695   -30863   -27598   -23099   -16012    -7304     1598 
   11755    23116    33748    42584    48871    51247    48635    41210 
   29265    12376    -7007   -23089   -32684   -37426   -39457   -38379 
  -33723   -26408   -15915    -1271    15273    28505    34157    33018 
   27461    16058     -734   -16106   -25035   -29346   -31669   -31607 
  -28976   -24618   -19349   -14381    -8491     1297    14257    27742 
   40211    49183    51418    45719    35534    26954    21983    17624 
   11753     6816     4483     -507   -11580   -22586   -27581   -26743 
  -21182   -11141     1684    12641    17065    15074     9954     3333 
   -4156   -10373   -13898   -15963   -19198   -25030   -30658   -32289 
  -29474   -21147    -6239     9429    18674    22621    25077    26033 
   26241    26609    25093    21134    15908    10991     9171     8625 
    2978    -7794   -15734   -16414   -14141   -12020    -7676    -1776 
    2640     5570     6856     7627    11622    16357    16349    15448 
   17398    15839     7496    -3485   -13787   -19510   -17631   -10431 
    -556     9652    14797    13072     8479     2654    -4178    -9896 
  -15253   -21699   -26850   -27799   -23575   -16240    -9499    -4024 
    1263     5846     8557     8471     4749    -1686    -7163    -9730 
  -10458    -9159    -6254    -3288      243     3804     6789    10361 
   12150     9450     5718     7372    16623    27275    32107    30407 
   23078    12533     4247     -425    -3096    -2814     -777    -2015 
   -8698   -17755   -24609   -28159   -30330   -30454   -25586   -13938 
    2748    18033    26924    29288    26422    20744    14505     9572 
    8926    10790    10010     8294     8302     5474    -2866   -13255 
  -21411   -22835   -16745    -9074    -3489     1875     6833     8787 
    8715     9039     9558    10963    13655    14458    12276     8995 
    5098     1756      805      747      245     1969     6970    11836 
   14605    16968    18292    15165     9327     5513     2154    -5479 
  -16841   -27826   -36769   -43594   -45954   -40193   -26111    -8895 
    6201    18146    26659    30222    29320    26599    23657    20865 
   17878    14227    10548     5842    -1231    -8020   -12087   -12675 
   -9036    -3524     1910     7746    11367    10469     6828     1324 
   -5197    -9097    -7784    -1308     7589    13516    13606     8538 
    -616   -10002   -14993   -16445   -17059   -16826   -15111   -10960 
   -3804     3909     8699     9972    10220    12164    16718    22118 
   24062    20069    10976    -2830   -18396   -27815   -26385   -17899 
  -10092    -7084    -7419    -8649   -10416   -12765   -11576    -1688 
   13980    29940    45523    58982    67608    70282    65111    52980 
   36316    15822    -5952   -26843   -44448   -54534   -58986   -61894 
  -60905   -53748   -42437   -29686   -17729    -6706     4477    13556 
   18642    22675    26059    25070    20837    17805    15954    13768 
   11993     9973     6057      321    -6407   -11843   -13798   -13655 
  -12938   -10928    -7792    -3777     1570     6867    10906    14156 
   15896    15738    16494    20128    24691    28669    31793    32370 
   30307    27213    22366    14534     3770    -8359   -17332   -22428 
  -29903   -40651   -48609   -51565   -50106   -44278   -35545   -23519 
   -7002     9104    19754    27043    32692    35846    38095    39933 
   40301    39914    37585    32016    25243    16684     3547   -12272 
  -25243   -31880   -32609   -28896   -21741   -11947    -1131     6903 
   11620    17529    24159    26503    25126    21636    12532    -1799 
  -13910   -18750   -18288   -18219   -20352   -20792   -18974   -17312 
  -13667    -8132    -5992    -6339    -4403    -1503      514     3261 
    6616    10054    14314    17186    16259    13656     9644     2065 
   -5181    -8829   -12762   -16545   -15381   -11947   -10486    -9306 
   -7491    -6042    -5601    -7468    -9721    -8598    -3512     6076 
   19516    32105    41108    46877    49441    50361    49657    43806 
   33339    20966     5857   -11349   -28038   -43078   -54986   -61852 
  -62550   -56319   -44335   -29945   -14939      866    16592    29619 
   37196    39093    37476    32645    23311    11310      807    -5171 
   -6804    -8446   -12514   -15083   -13690   -10629    -6177     2145 
   14581    27160    35006    38129    39615    38828    32965    23598 
   15052     7703     -899   -11408   -23056   -33651   -40459   -44483 
  -48455   -51507   -50598   -43336   -30717   -17976    -7651     2002 
   10698    17166    22158    26508    30372    33787    36944    39518 
   39870    36702    29724    20190    12842    11006    10940     7484 
    -899   -14191   -27727   -33093   -30667   -26265   -17312    -1821 
   12826    20506    20679    15628     9640     4897       40    -6093 
  -13423   -21628   -29525   -35465   -37723   -34843   -27021   -14781 
    1410    20206    40300    58785    70402    70949    59386    37782 
   10845   -15994   -38603   -52685   -55721   -52489   -48305   -42306 
  -35586   -30156   -21897    -7738    10824    31367    50133    63354 
   68732    65172    54557    41839    28868    11597   -10725   -31587 
  -46371   -54950   -54702   -42924   -24997    -7435    10347    28813 
   46215    63189    78075    84909    79419    61211    33804     3915 
  -23214   -45300   -59782   -64546   -60951   -52411   -42716   -35600 
  -31835   -29392   -26019   -19188    -8010     5802    19012    27417 
   30568    30572    25482    15232     5826     -286    -5960   -11853 
  -16208   -17574   -15349   -12239   -12093   -13765   -14635   -13779 
   -7244     7304    25475    43681    60610    73338    80488    81148 
   71998    53476    31013     7362   -18135   -45189   -72198   -95871 
 -112086  -117628  -107784   -81386   -47035   -12744    20333    51962 
   81611   106498   121483   125246   117919    98181    68521    34789 
    2147   -27024   -53651   -76237   -89719   -92308   -86296   -73905 
  -54228   -26241     5046    32690    53819    66930    69962    63155 
   49210    30291     8969   -14619   -45443   -80666  -108580  -126084 
 -133631  -124619   -98767   -64670   -25978    16121    55633    87795 
  112102   128933   140211   148695   153871   151860   140146   120607 
   95700    64513    26777   -14366   -56486   -97186  -130002  -151376 
 -164832  -167622  -153571  -130484  -107696   -83231   -55467   -22418 
   21618    70977   108715   129836   142237   144190   128048    98689 
   63404    23225   -15819   -46381   -66437   -78136   -89752  -104521 
 -113273  -108002   -89424   -62706   -34261    -7257    21903    57699 
   97830   135352   164722   180999   179687   162568   135195    98992 
   52236    -4677   -67543  -129620  -181345  -215269  -234365  -242169 
 -234207  -210415  -173916  -121743   -56020    14310    82567   139951 
  181890   213750   235156   243764   244204   229945   191562   138882 
   81893    21196   -39586   -97362  -150838  -193596  -215272  -215464 
 -201062  -168296  -117265   -60997    -7456    39798    79204   113213 
  140406   157013   159891   149431   132637   108124    66769    10813 
  -48251  -100051  -138549  -159012  -160609  -150901  -136232  -118666 
  -98062   -69747   -31390    12560    58658   105069   145876   176258 
  193639   197394   189693   166673   128291    82620    31209   -19989 
  -61130   -93868  -119030  -131843  -130404  -115150   -91347   -64373 
  -33754    -5154    13062    21973    21593    11595    -2860   -17988 
  -28687   -32686   -33081   -30836   -29247   -28217   -21583   -10530 
    4791    30323    62332    90855   107967   106382    88042    58525 
   18168   -23182   -52022   -67551   -72135   -68415   -59589   -41445 
  -15088     9568    31153    50464    65630    80211    94042   101241 
   97276    78447    45723     3044   -47684   -98786  -136759  -157454 
 -167189  -168855  -157878  -130885   -91444   -45427     2959    51444 
   99238   142040   172345   188504   194121   186322   157727   112436 
   62800    12120   -38947   -82601  -117058  -143876  -157993  -161644 
 -158460  -142173  -115102   -83280   -43128     1607    40427    69537 
   87768    97580   105973   115115   121945   123503   115612    94447 
   65707    43467    33701    26067     9919   -11522   -34250   -60041 
  -84878  -102406  -112617  -116704  -112741   -99881   -79095   -48762 
   -7766    38028    79907   111538   127955   130414   125647   115026 
   95436    66058    28162   -18100   -70969  -121860  -163422  -194790 
 -212782  -210251  -185261  -145948   -98366   -39058    30524    99484 
  153928   185839   206116   223744   226270   210982   190507   163605 
  121884    62619   -14975   -98817  -163127  -193982  -199890  -191150 
 -166148  -129153   -91714   -50696     -585    51860    97386   125753 
  134037   131449   121591    99856    68515    33569    -3036   -36359 
  -62554   -84932  -104629  -119754  -130484  -136134  -134067  -122862 
 -100857   -65408   -18169    32921    77728   108816   124667   132790 
  142194   150934   154441   150469   132100    98151    52521    -7971 
  -76840  -131907  -162332  -172878  -164600  -137566  -102539   -70256 
  -40558    -9605    25867    65958   103150   131414   152923   167181 
  169186   162400   149566   120725    73562    18415   -37854   -90702 
 -139761  -185045  -215115  -226123  -226829  -212147  -172204  -113296 
  -46144    23666    89476   144181   184998   207351   204383   179024 
  140783    93842    41399   -10667   -59516  -102855  -135361  -150832 
 -147166  -130832  -105844   -69673   -28722     7375    41593    78385 
  111829   136638   153804   159255   147984   126748    97750    50398 
  -11981   -70929  -115742  -142329  -150190  -146529  -140555  -135006 
 -123718  -101803   -71281   -32911    15561    71332   121157   152054 
  163490   157778   131403    85842    33463   -13752   -52855   -85608 
 -111904  -129895  -137097  -130210  -113630   -99612   -89517   -71400 
  -37488    10126    66244   122206   164998   191502   205830   202236 
  179602   147093   105472    56353    11674   -19921   -38307   -50473 
  -66950   -94167  -129577  -161177  -175027  -161551  -118593   -56986 
    7479    63987   105171   132351   151730   162176   161482   150742 
  126927    88596    43414    -4395   -54564   -97514  -129667  -160840 
 -189442  -206409  -212697  -205125  -177830  -134208   -73456      440 
   66299   110690   134200   140937   143073   148666   147557   129856 
   99427    58965     8853   -39490   -72512   -85796   -83127   -72805 
  -58698   -42877   -30969   -23384   -13548     5722    36317    71540 
  103431   130497   152212   160871   151236   131637   108105    74760 
   28027   -32049  -102587  -170029  -221244  -255627  -273686  -267745 
 -236217  -192053  -143392   -84871   -12359    69724   148088   208939 
  251699   276932   275702   249527   210614   160220    97320    32829 
  -25046   -78529  -128298  -167532  -188643  -191404  -176339  -141304 
  -91716   -34530    27265    86553   135650   170911   191608   197900 
  187737   157669   103245    28648   -46264  -106313  -150620  -177634 
 -185413  -174928  -147768  -112900   -75467   -30149    18368    57902 
   80978    82661    66573    43796    24030    13366     9590     5599 
   -2546   -17265   -36350   -49515   -50579   -43846   -29837    -6507 
   19367    47514    80850   104693   108903   100001    77053    38697 
   -4873   -45858   -77452   -97870  -115566  -129200  -131977  -125786 
 -111990   -89996   -57704   -12437    42811   102874   157418   192929 
  207331   202482   174040   126465    76181    29282   -14605   -46570 
  -67099   -86606  -106197  -123871  -137705  -144003  -139286  -120267 
  -87235   -41532    11886    61076   101781   138457   168257   182065 
  172206   138505    92715    44602    -4764   -51302   -91755  -126427 
 -149261  -157323  -157342  -148606  -123487   -83978   -40639     -360 
   38819    77068   108064   130339   141975   134824   112665    87210 
   57873    24422    -4692   -25488   -38167   -42772   -39459   -33297 
  -33492   -38430   -39347   -32138   -13493    14096    42142    66517 
   84681    95077    96707    85725    62827    32409    -4135   -43996 
  -81873  -115935  -146124  -168858  -180098  -175771  -152248  -117279 
  -84963   -56790   -26620     5553    38560    71691    99972   117302 
  121088   117360   113667   106933    94274    82073    73067    60196 
   39032    16150     -140    -7534    -4914     9167    30156    46132 
   47069    31338     3689   -25864   -45585   -47898   -30721      -72 
   28632    39928    31099    10791   -12745   -31652   -38353   -37288 
  -39795   -47641   -55472   -59603   -59076   -55966   -55448   -57654 
  -52166   -33993   -10586    15246    43197    61825    61908    50071 
   34562    15608    -3300   -15777   -23774   -31942   -38967   -41670 
  -39025   -32097   -22806   -12251      368    16298    31144    37628 
   38661    42934    49581    52246    47209    33336    15784       45 
  -13988   -22866   -22931   -15414      549    20848    36501    48103 
   56641    56758    52720    50591    43074    28275    14628        8 
  -21494   -45291   -70000  -101471  -135282  -157673  -161462  -147546 
 -117528   -73616   -23770    22431    62842    97020   121217   135989 
  143812   143091   131332   107761    76015    42141     8060   -25415 
  -53747   -73889   -86032   -89143   -84188   -71232   -47630   -22160 
   -4104    15569    45746    80725   108692   119411   113254   101839 
   90942    75061    53655    33736    15238    -6126   -27510   -45396 
  -59927   -70626   -79969   -91381  -100318   -99458   -91180   -81531 
  -67416   -47034   -28317   -16980   -14314   -19919   -28926   -38854 
  -49747   -54594   -47378   -31787    -9167    24784    64318    95781 
  116446   129128   130356   122015   107600    79678    40849     6801 
  -18802   -37993   -48612   -51895   -48616   -39793   -29856   -17270 
    2718    27369    49952    67437    80824    91854   101575   108704 
  106043    86086    52421    13819   -26630   -66217   -99967  -126940 
 -149370  -166306  -174380  -172212  -156721  -125389   -85104   -41439 
    9070    61881   102501   124494   132993   135422   132892   121485 
  101094    74379    42894     8523   -26778   -58221   -78788   -88087 
  -91265   -88545   -75601   -53673   -30183    -8872    12498    35758 
   59317    78683    90455    97457   104287   109148   104456    83874 
   46805    -1462   -48697   -81719   -95077   -89147   -73233   -63092 
  -61744   -60041   -51025   -31761    -5070    20926    40082    50591 
   53358    48166    34107    16642     1244   -15186   -34830   -53977 
  -69068   -79170   -83211   -77431   -59375   -31872    -1674    24722 
   45334    62302    78092    91983   102097   108889   110632   102655 
   84608    61375    36207     9235   -17126   -41906   -68187   -93457 
 -110431  -114828  -107716   -95685   -83498   -71640   -60990   -50822 
  -39922   -29573   -18698    -2469    19849    43339    63869    78868 
   88796    97571   104585   106074   104809   106617   108631   101910 
   86409    67522    43159    12528   -20648   -54634   -81245   -92839 
  -94815   -89020   -70345   -46498   -30676   -25574   -29956   -37490 
  -37816   -32729   -28968   -23716   -13740    -3462     1287     -164 
   -4757   -10500   -14871   -11491     1675    16166    23695    24750 
   24769    26011    26518    27734    30788    31550    28375    22434 
   17149    18959    27360    34098    36468    37828    34890    22542 
    5394   -12098   -31657   -52212   -70853   -85475   -91277   -88361 
  -84537   -80669   -68079   -43044   -13217    13977    41515    71648 
   95652   106637   109726   109090   100232    81139    54284    21514 
  -12158   -42406   -71710   -97183  -109069  -107869   -98443   -79878 
  -57368   -37943   -18288     5547    35534    74159   112104   134102 
  139698   137544   130405   117524    97330    67949    34500     4718 
  -22087   -46444   -61998   -67733   -69774   -72501   -78467   -87299 
  -95002   -99328   -97719   -85868   -63275   -32128     4257    39310 
   67703    88585    99994    99810    92029    81619    68361    51052 
   31147     9105   -15815   -39937   -57897   -68440   -74672   -82667 
  -95110  -108089  -116098  -113819   -96853   -65715   -25407    19186 
   62630    98856   125385   141326   145521   137466   118547    96144 
   77041    59441    40246    16745   -16880   -59038   -96561  -118330 
 -122881  -111985   -88044   -59282   -31965    -7920     3169    -2716 
  -14334   -24021   -27818   -18549     4378    31434    52197    62253 
   60262    47780    32277    18702     5061    -5844    -7460    -3416 
