Origin Time       2021/02/13 23:08:00
Lat.              37.7
Long.             141.8
Depth. (km)       60
Mag.              7.1
Station Code      TCG014
Station Lat.      36.5450
Station Long.     140.1742
Station Height(m) 130
Record Time       2021/02/13 23:08:19
Sampling Freq(Hz) 100Hz
Duration Time(s)  215
Dir.              N-S
Scale Factor      7845(gal)/8223790
Max. Acc. (gal)   320.466
Last Correction   2021/02/13 23:08:19
Memo.             
[...]
  -32263   -30091   -23865   -19700   -19994   -20610   -18256   -12519 
   -3140    12317    32732    49607    56718    57901    57196    49327 
   30318     6731   -12930   -25469   -29926   -26700   -20713   -18642 
  -22489   -26960   -24000   -11835     4823    20318    27731    22437 
    9166    -1273    -1980     5958    17138    24750    24246    18806 
   13162     6486     -832    -5431    -7843   -11276   -13672   -10439 
   -5381    -2821     1031     5178     3960    -1547    -6216    -5790 
    -151     5996     8964     9751    11059    13367    17635    23884 
   25760    20467    13906     7927     -549    -9984   -15531   -15688 
  -13086   -10413    -8020    -6054    -6860   -10524   -11367    -3848 
   10544    22828    28088    30923    31750    26302    14647     -205 
  -11331   -15206   -17140   -16611    -9653    -3493    -5135    -9381 
   -7813     3200    20364    34535    39609    34229    18049      136 
   -8006   -12125   -17745   -15184    -6166    -3065    -1150     7323 
   15329    19105    20729    17392    11045     6157      375    -3765 
   -3080    -5783   -13579   -17404   -16619   -13990    -7172      783 
    4638     7323    12239    17874    22423    24046    23355    23103 
   21042    15291     8482    -1019   -13315   -18786   -13722    -8515 
   -9844   -13085   -15920   -20899   -25008   -20525    -6288     8876 
   18441    26117    34169    37883    35795    32189    30585    28111 
   17987     1811   -12187   -23500   -35330   -43515   -42610   -34321 
  -22566    -8546     5950    18021    25397    27415    27205    27218 
   24902    19562    15817    16221    18166    20406    24322    26620 
   19735     1559   -18372   -26126   -20306   -12457    -9964   -12864 
  -19776   -26936   -29555   -23522    -9012     4542     9339     9229 
   11129    18576    31993    47596    59196    59483    44254    20509 
   -1402   -19772   -33690   -39368   -39356   -39168   -38333   -33666 
  -24694   -10710     8210    24956    32205    31009    27013    25778 
   28800    32386    32092    24572    10639     -976    -2830      392 
    -616    -6822   -13077   -18909   -27573   -35345   -33268   -21802 
  -11666    -6045     1996    13124    21686    27541    34191    39329 
   37228    29450    20655    11520     4387     1880     2161     1969 
    -881    -7913   -20196   -31768   -30202   -16326    -5043     -734 
     997    -2872   -11415   -12093     1825    21639    35820    42952 
   43285    33081    17668     6612    -1277   -10318   -18578   -22589 
  -23534   -24838   -24016   -15106       95    11696    14812    15589 
   19319    22839    22669    21230    21801    20139     9726    -3353 
   -8703   -10291   -13930   -14214    -9325    -5759    -8418   -12523 
   -3439    17721    27854    22491    19828    21818    15460      459 
   -9078    -5281      160    -3395    -6817    -2385     4315     9143 
   13306    18994    23953    21409    12306     3703    -3848   -14295 
  -28142   -38495   -37523   -28358   -18711    -6859    12421    32414 
   40855    39228    36468    34275    32881    32130    26493    14812 
    3056    -8495   -23348   -36336   -40624   -38900   -35322   -29581 
  -22839   -15676    -3757    13805    29185    37635    43669    48122 
   48593    49449    47194    30854     5478   -17784   -34616   -39078 
  -32875   -26215   -18808    -7076     1815     3323     3195     4774 
    5428     3680     1329     2060    10046    23571    31202    25358 
   11597    -1490   -10411   -17508   -23735   -23602   -17308   -12361 
  -10273    -6467     1308     8378    10999    14989    21330    20688 
   14185    11985    13934    15237    17829    23325    25812    19427 
    7338    -3797   -11049   -15309   -19327   -21697   -18885   -14428 
  -12410    -9248    -2484     5023     9525     7942     4035     6227 
   14189    21363    24032    22037    18370    13927     6702    -1497 
   -7361    -9221    -6281    -1510     -869    -7257   -15643   -16750 
   -8914      301     4522     2312    -2957    -3449     3168    12025 
   22076    33147    40459    41416    37964    32036    21818     6690 
   -7763   -18447   -25721   -26241   -19241   -11385   -10608   -17209 
  -21517   -18397   -15718   -17145   -13757    -1456    12135    20259 
   23643    27284    32007    32906    30697    31163    34242    33358 
   22788     7088    -4414   -12858   -22208   -27414   -26659   -27626 
  -33289   -36786   -31594   -18141     -897    15839    27340    29722 
   26211    24798    28622    34993    40036    41588    36910    21055 
   -1487   -16174   -19244   -18571   -17986   -19468   -25867   -31850 
  -29335   -18546    -2278    13284    16730    10006     7836    14301 
   21232    23745    26226    30501    27310    13510     1633    -2766 
   -9455   -19689   -22474   -15807    -7161      657     9363    16746 
   18601    16669    14233    11531    10615    11553     9913     4004 
   -5549   -16726   -24509   -26962   -25845   -21562   -13810    -1042 
   16151    28470    29635    26107    23531    20487    15164     9927 
   10330    11610     3137    -8541   -12414   -13166   -15111   -14058 
  -12066   -14640   -15865    -8685      469     6201    11927    15811 
   14693    15367    22388    27700    24694    18594    13932     7134 
   -3391   -12268   -13753    -9591    -6994    -7809    -8348    -8230 
   -9243   -10710   -12434   -15074   -13567     -619    19920    36003 
   40567    34414    24919    18268    12615     7537     7281    10665 
    9792      136   -12953   -22862   -29370   -32194   -28776   -18856 
   -8318    -5775    -7420      405    18731    35306    44147    51231 
   59917    62371    49882    22966    -5886   -22734   -29779   -36479 
  -42101   -40193   -28691   -15140    -8869    -7279    -3370     1694 
    4507     6523    11265    20005    28930    32846    33168    31618 
   21567     2976   -10897   -15076   -14797    -9937    -1505     3350 
    1144    -5304   -10628   -10250    -2952     6656    12510    14754 
   12827     3437    -7994   -12756   -10179    -4920      472     7545 
   13370    13824    16110    25434    33324    33733    30125    24102 
   12189    -6142   -24640   -35491   -36961   -34723   -32297   -26369 
  -18064   -12006    -3221    11330    23936    34483    47403    55799 
   53919    45185    32960    19147     4340   -10625   -20262   -22619 
  -25655   -34425   -43758   -47926   -44284   -31471   -12900     5798 
   21182    30015    31969    31256    29376    25412    23409    26347 
   29945    31500    29921    22054     9362    -6463   -25578   -40522 
  -43510   -35580   -20437    -4126     6612    13728    18223    14952 
   11553    18058    25901    25685    17100     3661    -4167    -1672 
    4742    11392    14782    11016     4167    -2284    -9861   -17617 
  -22418   -20626   -12525    -4545     1850    10501    19585    23593 
   21568    19870    23561    24723    13605    -2759   -12398   -16773 
  -20110   -18661   -12366    -8891    -9524    -7258      757    12212 
   21524    21331    14939    10201     4156    -1863     1944    12735 
   19545    17644     5744   -13074   -30373   -37779   -30017   -11186 
    6303    15560    18281    18264    18557    20277    22914    22156 
   15645    12475    15604    12511      913    -9026   -16497   -28462 
  -44400   -52482   -41593   -14029    15583    34861    46184    53770 
   52000    40477    28435    20159    11365     -394   -11230   -18509 
  -23153   -25254   -23777   -17683    -9562    -6092    -7372    -6181 
    -905     5337    12015    18500    22655    23710    24479    28121 
   30892    26703    18073    11425     5796    -3705   -16610   -27275 
  -29934   -24358   -17265   -13660   -12987   -14639   -16938   -13798 
     -51    19770    34306    39754    40711    38750    32832    26562 
   25023    25845    21909    10883    -5132   -22027   -31837   -30658 
  -27191   -27885   -25273   -16937   -10663    -5656     3076    12646 
   18743    20371    19472    18341    15661    13213    18015    26662 
   22770      599   -22754   -27688   -12742     8958    25396    35525 
   37764    23866     2974    -3883    -1171    -5493   -14202   -22616 
  -34327   -44070   -45843   -41944   -30199    -8838    13956    30526 
   39001    41774    46045    51810    48520    36113    24287    13173 
    1309    -8575   -21261   -38156   -48312   -47416   -40637   -29722 
  -15649     -891    11658    15695    11610    13001    25205    34624 
   33816    32513    35040    34052    28310    23970    20754    11354 
   -6432   -24842   -34221   -34260   -34618   -38496   -36356   -26022 
  -16806   -10308    -1514    10451    23831    35220    40702    38759 
   32957    27688    19734     8564     2582     3650     5690     5961 
    3375    -5474   -18698   -27669   -27473   -18021    -4044     4077 
    1906    -5746   -12214   -15186   -19219   -22553   -13992     3665 
   13504    12414    12168    17911    25583    31477    34022    32805 
   28298    22285    17339    13933    13333    17547    18592     4433 
  -21163   -43343   -56270   -64030   -65843   -52841   -23394     7865 
   25366    31044    34840    37073    36364    37945    44139    49401 
   46920    38394    28976    14743    -5594   -23071   -35864   -47452 
  -53647   -50193   -39455   -27977   -20247   -13382    -3319    10825 
   27824    44281    57234    63713    61917    53144    38610    21173 
    2936   -17574   -36235   -46467   -50449   -52543   -50855   -42103 
  -27515   -11348     2199    11433    18499    23294    23611    24807 
   31527    36752    34317    26219    13382    -3923   -18453   -25050 
  -31272   -42016   -47174   -37278   -17393     -791     7268    14557 
   24422    27645    23789    25951    33411    31993    21942    14134 
   10395     6914     2749    -2509   -10235   -18616   -23122   -21105 
  -10114    10498    31558    39685    34223    24661    13802     4681 
    4892     9153    10750    15637    23909    28031    25983    19978 
   11824     2555    -4642    -6858    -4950     -913      217    -5656 
  -14624   -23368   -31702   -36285   -35527   -28864   -14114     3277 
   15357    23862    33049    41351    46967    53387    60033    56785 
   41601    24506     8390   -11947   -35370   -51594   -54083   -50001 
  -49040   -51861   -53688   -50691   -44888   -39845   -32360   -18503 
   -1310    13733    26775    42186    57262    64131    64212    65566 
   68528    66694    58112    46126    33351    20343     6124   -10535 
  -28142   -42917   -51462   -52651   -49740   -46674   -41243   -29131 
  -10473    13932    44154    73564    87426    78779    58595    38697 
   20204     3399    -9157   -15279   -15909   -19376   -30682   -42336 
  -49316   -56978   -64952   -60952   -39058   -12212     6189    22647 
   46969    70217    79288    79489    83263    83934    65020    30983 
     -43   -24451   -46068   -59810   -65542   -71672   -77530   -77033 
  -68223   -50656   -28038    -5886    15222    35680    54459    70957 
   82518    85244    78949    68081    57748    47461    33392    18193 
    5799    -8661   -26531   -38456   -43023   -47879   -50723   -44633 
  -33091   -21384    -6832    10774    24548    29907    26133    18013 
   16978    25263    33064    34886    29548    18979    12714    15458 
   20945    22628    17922     6623    -9499   -27454   -42755   -51158 
  -54642   -59173   -61740   -51505   -27832    -2029    19754    38399 
   52112    61312    69930    74869    70938    57555    35613    12378 
   -2658   -10192   -15013   -17653   -17922   -19689   -28487   -39469 
  -41079   -36506   -36626   -35160   -18786     5463    18900    22561 
   29598    36151    34893    33768    37835    42348    45503    47306 
   45573    40279    31326    16387    -1798   -19012   -35765   -50170 
  -60053   -68443   -77242   -85897   -93622   -98691  -100552   -98728 
  -87944   -61254   -20919    19548    47899    64432    78625    96032 
  112155   118520   111584    94182    67738    31607    -9761   -49427 
  -81816  -100240  -101102   -88743   -68041   -41860   -15951     7931 
   33802    60443    79928    84157    71667    49621    27974    16189 
   17782    23403    21779    10902    -9648   -37130   -57123   -56744 
  -38812   -18592    -9899   -11187   -13537   -12081     -313    24777 
   52604    69299    70862    58985    35062     7404    -8974    -9617 
   -3260     5359    14072    12582      630    -1503    17377    42525 
   55962    54847    43974    25552     -500   -30639   -55586   -69600 
  -75124   -74726   -69198   -63423   -63274   -64542   -58550   -44849 
  -23870     7402    46360    85558   120417   148235   163767   163429 
  151700   137381   122810   101505    66640    18058   -37822   -93328 
 -138921  -164101  -169942  -165403  -150795  -124082   -94026   -67513 
  -35432     9508    56354    91527   114548   128385   126833   106205 
   77584    53497    36215    22056     5425   -17701   -46062   -73718 
  -91328   -92959   -83886   -71999   -57669   -39366   -17942     5329 
   27638    41708    38531    19815    -2490   -18719   -23873   -18245 
   -1537    29034    65037    94513   117489   134226   138090   124078 
   94084    58388    24383   -10982   -51815   -99176  -147588  -183892 
 -199139  -197762  -191525  -180308  -149148   -93312   -25116    47428 
  121587   186354   233140   265995   285776   284103   260008   220167 
  167767   102964    22728   -68563  -153127  -220807  -274064  -314323 
 -332723  -315870  -269472  -205167  -121608   -23943    80152   179393 
  247388   272126   274808   278754   270441   230393   173947   112126 
   43094   -25030   -95589  -169387  -226943  -259526  -275390  -280363 
 -262761  -211873  -144578   -68698    23001   116829   207578   285881 
  307613   284704   279099   274838   232572   175670   118018    52623 
  -16821   -95177  -171404  -220537  -242181  -249407  -244310  -216095 
 -166145  -108488   -49994    -4699    17410    30612    50641    82409 
  118218   142491   149700   138492   109104    74399    46819    29066 
   22223    17930     -382   -31367   -60127   -77469   -76326   -57308 
  -31190    -9551    -2293   -11850   -32008   -52791   -63042   -53341 
  -23994     6475    15726     1228   -20694   -35722   -42257   -37971 
  -14025    27283    68978    98918   115349   117427   107260    90247 
   67024    38045     8241   -16374   -31136   -39409   -47534   -54075 
  -62229   -84110  -115206  -131468  -120807   -90418   -48945    -4140 
   32192    49840    50396    49482    63930    94485   127565   151929 
  159312   142168   107914    74063    44285    11673   -21284   -47329 
  -69322   -92913  -114531  -126573  -126436  -115812   -93934   -60297 
  -22864     9834    37862    61290    77755    91751   108282   120654 
  118154    97860    67069    41720    32089    31490    29550    22558 
   11167      147    -8865   -21693   -40815   -59312   -69233   -69938 
  -64782   -58815   -59995   -67956   -69948   -58086   -36436   -11587 
   10270    26002    40360    56201    68968    77619    84352    87484 
   84723    74498    56070    31124     1506   -32366   -70449  -106139 
 -127638  -133276  -129124  -117462  -100836   -81371   -57346   -28159 
    8715    56297   107218   144872   153235   130212    90163    47206 
   11219    -5316    -1317     2319   -12969   -42034   -69438   -84807 
  -83220   -65259   -34177     4209    37451    54793    54926    45036 
   39668    47472    58974    59517    44913    16031   -23112   -54391 
  -57635   -33461     3354    40849    72087    91370    95096    86526 
   69076    39355     1148   -32883   -54961   -65538   -76619  -100431 
 -133353  -163059  -177719  -174349  -157146  -120515   -60261     8199 
   69415   123720   172863   211211   236579   251121   251338   235878 
  207362   160432    93895    22558   -41227   -96083  -140860  -176978 
 -207652  -228438  -231052  -206473  -152170   -81928   -12630    47148 
   94864   128768   142470   139584   137943   141783   135405   110403 
   78966    50390    17884   -18361   -43436   -48806   -44932   -48708 
  -60679   -65448   -58232   -47729   -30848    -2177    22820    27243 
   16471     3252   -18409   -56084   -94362  -119294  -129902  -126196 
 -112097   -88094   -51213    -7128    37794    82719   121590   141759 
  141210   131025   118791   106616    94675    78862    55246    23587 
  -11898   -42029   -61722   -73808   -81197   -84850   -83677   -72823 
  -51615   -32402   -28521   -37139   -43182   -37129   -23904    -5228 
   26080    60793    77172    69503    50695    36356    29347    22260 
   16411    16977    16298     6365    -8546   -21625   -28749   -25934 
  -13787     1510    16665    31013    39982    38169    25961    10107 
   -1512    -3357    10793    41976    72243    75031    45787     8888 
  -11711   -15348   -12729   -11055   -13938   -20799   -30804   -47349 
  -69070   -86379   -91420   -82525   -60754   -29455      349    17568 
   29839    52956    79172    82252    64528    63810    87809   101040 
   90367    66692    30646   -12356   -49088   -75323   -94666  -107364 
 -107225   -90552   -56054    -4865    52627   102188   129116   121159 
   87261    51340    23552     7875     7005     5746    -7362   -27021 
  -50548   -69107   -67562   -49234   -26504     2601    39876    65512 
   57878    17880   -37473   -88650  -120020  -118885   -84813   -45781 
  -31353   -33952   -27947    -5034    25949    55019    81203   107561 
  129312   137349   128264   102177    60986    10849   -41674   -85266 
  -98682   -73475   -33389    -8336      831    10501    23838    37381 
   57693    86047    98710    73518    27139   -10910   -34580   -51456 
  -70312   -96808  -126311  -144175  -135387   -99692   -54198   -12730 
   22959    50629    69499    87010   112472   144366   165628   163011 
  137018    93193    44096     2976   -30765   -69892  -121666  -168781 
 -185854  -175104  -152270  -112853   -50144    19801    74841   103387 
  106635    99982   100144   110130   123483   128872   111906    69164 
   12823   -39073   -70679   -81407   -84974   -85029   -72958   -48494 
  -21192     1845    18269    27697    35822    50749    67456    71662 
   58816    37122    17185     1842   -14283   -34488   -57191   -76466 
  -80773   -67923   -48621   -29601   -15195    -8139     -356    14820 
   29772    33319    23726    10940     9455    24166    44803    55325 
   48671    32611    19606    13792    10098     5205     -363    -9256 
  -20884   -27834   -25465   -15206    -5412    -3343      114    12536 
   19008     9084    -6187   -17672   -23310   -19759   -10492    -3927 
   -6411   -19936   -31797   -25390    -3819    19957    38329    48373 
   55050    60197    53568    32116     6012   -11117   -11346    -5169 
   -5509    -7855    -9718   -18058   -33656   -53006   -69761   -73444 
  -59320   -29979     5911    36290    59763    82863   103216   114670 
  117346   110810    92531    64466    32254     -162   -31226   -56686 
  -74306   -92118  -114812  -131719  -129743  -107721   -77122   -49572 
  -25304      635    30743    66360   102332   124183   123047   103550 
   76096    52830    39826    31290    19244    -1287   -31403   -63451 
  -83157   -76933   -46086    -8193    28020    58954    68509    52401 
   27403     8503     4083    14628    28363    32134    21257    -2825 
