Origin Time       2021/02/13 23:08:00
Lat.              37.7
Long.             141.8
Depth. (km)       60
Mag.              7.1
Station Code      TCG014
Station Lat.      36.5450
Station Long.     140.1742
Station Height(m) 130
Record Time       2021/02/13 23:08:19
Sampling Freq(Hz) 100Hz
Duration Time(s)  215
Dir.              E-W
Scale Factor      7845(gal)/8223790
Max. Acc. (gal)   287.298
Last Correction   2021/02/13 23:08:19
Memo.             
[...]
    2704     8214    13046    15581    18774    17707     6478   -11017 
  -26144   -31067   -25844   -21146   -22187   -21473   -15344    -8394 
    -730     9412    16792    15839    10494    10085    13639    10998 
    4581     4679     7087     5846     6216     7951     5140    -1250 
   -6430    -8360   -10008   -13926   -18393   -22130   -22503   -16931 
  -10165    -6322    -2895     1040     3284     2709     1472     4179 
   11560    19776    25062    25224    20578    11356     -778    -9763 
  -14580   -19205   -24814   -31017   -32181   -23329   -10135     2056 
   11045    12189     7168     3439     1923    -1061    -5293    -8527 
   -9910    -8559    -3735     3434     9664    11184     7798     5246 
    7665     9822     6529     1240    -2311    -5753   -11993   -19880 
  -23592   -21477   -18941   -18719   -19323   -18586   -12127    -1329 
    4783     5548     5911     4855     5892    16572    32356    41786 
   39799    27986    11832    -2350   -10866   -14835   -21917   -36490 
  -49932   -52776   -44065   -26546    -5255    14845    26739    21244 
    4800    -3125     1929    11038    20092    25586    22127    10088 
   -2879    -6278      130     4207     -511    -9559   -17477   -22630 
  -25992   -25704   -17775    -7483    -4170    -4839    -4220    -3719 
   -1506     2880     7855    17307    28779    31797    26235    19417 
    9147    -6315   -17452   -22400   -27390   -29339   -25493   -19276 
  -11784    -4467      838     2494    -1217    -4500     -777     8476 
   20061    26630    20189     5292    -8172   -16995   -23205   -24015 
  -14465    -5088    -7742   -14002   -13917    -8102     1262    10115 
   14968    14566     6423    -3179    -3005     2425     3113      847 
    -977    -2463    -1969      253    -1217    -9524   -19052   -24233 
  -24865   -19900    -8581     6056    16699    18684    19202    23379 
   25795    25614    24363    18711     6960   -10103   -26368   -35170 
  -39209   -38897   -32969   -29544   -29374   -21826    -4415    15684 
   30141    36198    36576    29513    16206     8598    11637    15396 
    6880   -14558   -33602   -42121   -47142   -50049   -46776   -37359 
  -22158    -4822     8475    16474    21898    29226    35814    31523 
   19014     9898     5057     1255      866     5212     8571     8031 
    9283    10968     6443    -4264   -22981   -46148   -60435   -63751 
  -59398   -45719   -28989   -14169     3840    23862    41183    54665 
   57929    50475    43524    37484    25394     9857    -7900   -28683 
  -45042   -51202   -48216   -37755   -24159   -12982    -3608     6089 
   14696    20866    21246    13741     5844     3456     3492     4194 
    2022    -6980   -14474   -13996   -11084    -7778    -1289     7897 
   13938    10501     2654     1046     5979    10783    14172    16104 
    7874   -11808   -29189   -38445   -40378   -31530   -17265    -8098 
   -5919    -8536    -8885      784    14152    24040    33565    38998 
   33656    22896    12486     -322   -16433   -30060   -35826   -34128 
  -28475   -20434    -9288     3523    11877    12798    10758     6370 
    -966    -5219    -9589   -20943   -30215   -29234   -18335     2741 
   24344    33578    30904    20183     5973    -1683    -3307    -9108 
  -15456   -13880    -6731     5634    20113    25543    19090     2508 
  -17043   -23696   -19642   -19869   -22761   -22924   -20630   -11435 
    3426    17069    26285    24761    14980    11786    13940     8491 
   -4233   -16519   -24017   -25753   -23467   -19422   -17142   -18542 
  -16556    -4419     9902    16457    20159    25934    25531    16383 
    7850     1605    -5927   -12823   -19248   -24417   -24298   -22254 
  -21851   -19458   -15843   -14806    -9987     4806    19545    23901 
   22759    23481    26203    25146    14904      329   -11202   -21986 
  -33026   -34445   -21953    -9599    -8082    -9051    -4479     3391 
    9969    12685    13591    13165     9089     5525     5891     4433 
   -2913   -11923   -16367   -13771    -6709     1201     7296     5756 
   -5680   -16220   -16582   -12225    -7974    -1507     2266    -3458 
  -14027   -21903   -22540   -11961     6309    19859    20610    15479 
   16526    23383    27814    26622    19017     1613   -23899   -43086 
  -45276   -40902   -41203   -38128   -23315    -3724    14858    35797 
   54454    57819    44884    25459     7834     -681    -1472    -6142 
  -19070   -37197   -53916   -56963   -43683   -23571    -3300    13594 
   22951    24063    22985    22547    16497     7391     5776     6362 
   -3631   -19863   -27936   -23966   -15105    -8148    -3457     -641 
   -3975   -10056    -7871     -472     2313      587    -4995   -11364 
  -11975   -10006    -7484    -1190     6600    17419    30022    30805 
   17000     1725    -6355    -9714   -16378   -28726   -37242   -34194 
  -25641   -16239    -1522    12212    15908    21195    33713    37525 
   30962    23923    10415   -10706   -25338   -30697   -34218   -36900 
  -38188   -37643   -32193   -22508    -8984    13805    40680    51089 
   41138    32667    33382    28437    15766     5715    -1151    -7600 
  -15296   -28772   -45040   -54507   -53509   -42962   -25265    -6118 
    8668    17644    21686    22474    24795    29128    26663    12384 
   -6704   -22735   -35849   -43600   -37142   -18751    -3852     1371 
    6039    13362    16592    16360    18180    22719    25488    19248 
    2625   -19198   -38745   -48837   -49225   -41102   -25277    -9796 
    2164    16233    30165    38641    43573    42295    29898    13428 
      29   -10700   -17689   -23477   -30674   -32178   -27807   -27496 
  -29581   -25771   -16783    -5373     8399    25856    45230    52771 
   41218    25585    15255     4444    -5054    -8276    -8343    -6898 
   -3303      446      918    -6964   -21085   -29223   -27378   -22215 
  -15850    -7742     -757     2088      -24    -2332    -1121     -950 
   -1472     1838     7246    14982    22740    23014    19134    18638 
   19288    15525     6642    -3615   -12854   -21821   -30388   -35176 
  -31931   -24510   -25902   -40217   -52650   -48689   -30546    -6007 
   17509    29778    32224    38454    49303    52265    42628    26337 
   10843      436    -3370      901     6079    -2663   -21301   -31699 
  -31116   -26480   -19849   -11329    -2830     3850    11524    19604 
   20721    15456    10131     6542     4081     -588    -6085    -5810 
   -4263    -5753    -1861     6745     9250     5387     -422    -8876 
  -18516   -26304   -32717   -37467   -39048   -37885   -34963   -30149 
  -19804     -731    23124    46330    63729    68245    58714    39649 
   16251    -5846   -25304   -43970   -61709   -75768   -80380   -73294 
  -59717   -46221   -36566   -26360    -7573    16833    37647    50311 
   54726    54733    51525    40305    20938     1726   -11102   -20487 
  -29976   -36084   -35938   -32695   -30088   -27562   -23517   -18993 
  -12746    -1561    12004    23839    33609    36198    26130    14540 
   16695    29864    40632    42223    39784    38277    34348    29207 
   28009    27481    20510     2091   -27083   -57505   -79317   -87033 
  -76850   -51410   -21392     1061     8268     5483     9686    27422 
   44456    49005    46018    39528    25596     4715   -15148   -27862 
  -37773   -49426   -55116   -47837   -34044   -26442   -28422   -29290 
  -21115    -6858    10108    26539    38358    44737    45052    39741 
   31272    19484     4862    -7901   -15687   -21347   -28744   -36483 
  -41215   -42365   -38615   -26202    -7805     6192    15326    28229 
   39819    40127    34430    28223    16688    -1111   -20483   -41199 
  -64574   -84508   -89446   -74251   -51451   -38889   -31626   -12135 
   19390    51291    74308    79577    66008    47448    37751    35328 
   31907    24158    12565    -2478   -21909   -38650   -39479   -27784 
  -19126   -17010   -17705   -23469   -34873   -43985   -42082   -25407 
    2683    30049    46138    51602    50206    43349    37503    37983 
   36055    22936     2832   -20715   -47717   -70726   -79639   -70336 
  -46086   -18360     4066    26145    49233    61990    65280    68143 
   63375    45616    21276    -6747   -31526   -47202   -62611   -81184 
  -93868   -97734   -94674   -81891   -57784   -25254    12842    52807 
   85729    98783    88281    67225    49893    38179    25087     3468 
  -25829   -54507   -76399   -92371  -102208   -99580   -86655   -77166 
  -74794   -68489   -49179   -18335    16303    49477    80289   103188 
  109530   101453    87779    73207    60300    46696    25014    -6288 
  -41953   -75150  -100192  -117914  -128696  -121374   -88894   -41492 
    6559    47956    85600   122204   148308   159453   162550   157842 
  138672   101016    47740   -12172   -67007  -104812  -125824  -143683 
 -161651  -167177  -153847  -127388   -92210   -47046     8638    67570 
  115515   142666   150601   143322   121460    92125    64698    37771 
    7700   -24273   -55757   -81247   -93301   -88285   -70073   -47039 
  -23251      213    21810    42479    61495    78046    95327   108876 
  109702    98995    77404    38515   -16475   -75181  -123375  -152752 
 -161312  -151737  -131688  -108168   -81618   -48188    -9520    25335 
   50090    62167    63397    63097    68515    80620    95987   104260 
   96040    75060    50236    19560   -21051   -61724   -93106  -117580 
 -131692  -127727  -107800   -77170   -43256   -15943     -913      666 
   -3206    -2884     -623     2709    17730    48357    78025    86421 
   68959    30730   -21490   -75604  -115551  -133020  -135110  -131824 
 -121964  -101347   -72139   -36585     5638    49621    82576    93992 
   89945    90466   104269   118894   124310   122916   112710    89201 
   59235    30348     -865   -37436   -72824   -99153  -114682  -122307 
 -125686  -123664  -113709   -98361   -79135   -57815   -36243    -3811 
   43957    88653   123102   154307   168606   156519   137218   117729 
   86184    41804   -13386   -74268  -120919  -145234  -161331  -178042 
 -188392  -184999  -170970  -147789  -110704   -58348    14365   104261 
  180357   218235   234063   251567   260054   244409   218351   189672 
  148586    93052    20309   -74185  -171350  -237582  -269011  -289939 
 -294320  -260556  -210173  -159224   -89591    -2515    94294   182418 
  210533   187492   180829   183556   154907   116644    84306    43394 
   -1182   -48955   -98555  -124881  -122195  -119485  -136305  -155871 
 -159829  -154047  -142213  -124001   -98544   -52816    13601    87482 
  158676   204624   211223   193909   164327   122828    79779    43916 
    9069   -29467   -68571  -105638  -134559  -145632  -137716  -116833 
  -88892   -59313   -25420    16560    53287    72011    81012    93366 
  109796   119082   112396    93029    62912    19280   -32247   -75215 
  -88480   -65593   -26041     8928    30890    34105    21217     7704 
    2376      619     3759    22720    50727    64744    62634    54402 
   33828    -2938   -45547   -83651  -108361  -115770  -110268   -94720 
  -73116   -54097   -40076   -28705   -16993      946    22334    37708 
   48946    62085    72509    69148    48902    22970     2189   -11797 
  -20420   -33523   -62829   -98153  -115483  -103428   -68091   -22812 
   21655    56974    79392    94670   104286   102821    90660    67676 
   33828    -4403   -40749   -69114   -88553  -103647  -106905   -88331 
  -56371   -23129     6304    26048    36940    45913    50939    41720 
   15260   -17443   -48095   -76515   -95396   -94609   -74552   -45036 
  -18225     2718    24574    45050    54583    55455    48706    26319 
   -4752   -28220   -42411   -48945   -41864   -22885    -4726     4072 
    5810     5293     4706     6901    15029    29099    44088    52949 
   51784    41135    21556   -10552   -50152   -77872   -82651   -70359 
  -50164   -26674    -1062    24949    54936    95481   137255   162515 
  164658   142006    95629    38881   -12996   -56312   -92759  -125419 
 -153878  -165797  -151957  -121506   -89846   -61379   -28757    13100 
   58969   100095   134113   162853   181341   179293   152609   110174 
   66754    27064   -10808   -41995   -62117   -76214   -91917  -112136 
 -130792  -137646  -134582  -132482  -130813  -120263   -97762   -66802 
  -31641     8510    56276   102856   132709   139791   129654   115153 
  104793    98308    98010    96179    72459    25213   -30743   -84198 
 -127240  -158652  -181499  -193492  -192175  -176831  -140923   -77485 
   10963   106616   180593   217405   222259   207393   182667   143247 
   89878    41489    -5621   -61118  -106537  -134960  -155486  -166071 
 -161626  -140111  -109594   -79655   -41682     6508    44917    64431 
   81868   108973   122428    93555    36687   -17479   -60957   -90266 
  -99952   -93754   -78873   -59768   -35829    -8734    13508    28115 
   41435    58274    70457    69233    61447    54961    49133    41775 
   29174    11664    -1333    -6126   -11993   -22334   -27063   -18808 
    -367    19672    30678    27615    14536    -2425   -24079   -55524 
  -89502  -111607  -121566  -122700  -108947   -78437   -35074    22890 
   94231   159028   195407   204912   195347   164667   116517    58421 
   -5320   -68397  -127368  -179105  -219030  -247113  -253490  -224502 
 -169326  -103212   -28810    49829   121905   176462   208535   220391 
  218316   207862   190030   161890   117043    56963   -10052   -86788 
 -168334  -235333  -281874  -303330  -289853  -253335  -208062  -144494 
  -55981    47575   146570   211117   235742   255081   280920   282910 
  251024   202073   140555    69817     -769   -69230  -130430  -175570 
 -204265  -220862  -223188  -204992  -166449  -113633   -56282    -3761 
   38600    71370   103743   140398   169977   179049   165829   131477 
   74910     6220   -53665   -96812  -128563  -146677  -155483  -164803 
 -157987  -122463   -77862   -35572     7909    46953    78008   107461 
  140135   169982   181507   167128   132710    84226    25339   -36841 
  -93748  -139666  -168844  -177439  -172786  -163167  -143224  -103530 
  -39854    38736   100901   124256   119230   102277    88560    86607 
   82863    73683    69368    61639    40446    12530   -12692   -37885 
  -71928  -109536  -135010  -137596  -116752   -87488   -64832   -39263 
    4976    60031   106208   134117   147021   148972   135884   106542 
   67216    20391   -30399   -75082  -108820  -129980  -129327  -102294 
  -66469   -45864   -40045   -32107   -18740    -8186      992    18087 
   40527    55312    59065    58858    60664    63132    55780    36587 
   18199     1786   -21039   -45058   -61304   -73585   -87536   -96024 
  -89619   -71817   -51356   -30179    -6789    19005    46861    70636 
   84213    95862   107029    99149    67699    26793   -14642   -50143 
  -78131  -105070  -125413  -120085   -83214   -38515   -13104    -4754 
   -2363    -1667     9046    32184    52751    62702    63262    53576 
   37416    29315    34616    37974    31006    23997    21986    17953 
    7188    -6215   -17863   -26923   -29176   -26319   -29417   -39881 
  -51869   -61192   -59915   -51030   -51430   -60016   -58842   -42256 
  -17575     4058    14099    15304    18384    32188    54276    73502 
   84597    86337    77449    62037    42534    17518    -8183   -27018 
  -40980   -59958   -83566   -97896   -99932   -97444   -85761   -59595 
  -25367    14956    59213    93991   111757   116556   106049    75675 
   36229     1536   -27714   -55831   -83452  -105356  -113040  -103287 
  -82436   -60104   -35939    -5576    23924    47952    70275    85125 
   85484    79060    78479    86444    92915    87216    69620    45852 
   20706    -2022   -25618   -56097   -87727  -113339  -137870  -156820 
 -147455  -106416   -57932   -14197    27754    60805    79924    95554 
  108519   106076    87156    57836    18327   -26735   -64588   -90085 
 -108658  -121508  -126219  -120141   -94660   -45955    14419    69388 
  109177   135044   151479   156849   146171   120133    86169    48012 
    2338   -50249   -99974  -135414  -152132  -149484  -126999   -90462 
  -46720    -1017    33882    50248    55849    60241    70760    88080 
   99045    91665    63499    20005   -22337   -52425   -74436   -89043 
  -92924   -89914   -78498   -54170   -27079    -8120     3372     9838 
   16366    30677    53233    77282    93039    87305    55734    14813 
  -16380   -36035   -53616   -72496   -82383   -75597   -57607   -34797 
  -14534    -9302   -21142   -32953   -24417     6334    46199    83614 
  103931    97374    76658    53804    26181     -299   -13734   -21253 
  -40892   -71041   -93407   -99590   -91343   -69963   -40228    -8726 
   23045    52443    72307    77487    67093    51025    40899    27463 
    3168   -18319   -32320   -45320   -54494   -56092   -52258   -46966 
  -43429   -40271   -34770   -24144    -3944    14492    10172    -4459 
   -1255    11589    14802    14095    17859    25920    39679    54756 
   63853    68600    68770    61762    54804    50261    36467     5911 
  -34767   -70781   -93262  -106039  -113451  -116194  -116028  -108160 
  -85365   -50075    -6822    41122    87589   123102   133520   116845 
   91199    70748    57373    49145    40186    22311    -6839   -40798 
  -74803  -105251  -123591  -130810  -131166  -117818   -93815   -73176 
  -53779   -19526    30489    73120    98170   124771   151621   148940 
  117081    80520    49563    33183    29840    18825    -3824   -23711 
  -35480   -45592   -57257   -66791   -75897   -85241   -88106   -85388 
  -77720   -60480   -43961   -39453   -36884   -21959     7508    47898 
   93563   129294   139455   130831   118390    99554    71107    41733 
   13733   -19078   -59582  -104494  -142789  -162685  -162946  -147789 
 -117616   -67676     2988    74547   117265   129054   134881   144706 
  143560   121198    83991    43995     4128   -42299   -91449  -130470 
 -156986  -174852  -179061  -156467  -105322   -45758     -594    24379 
   38458    53677    75351   101058   121734   125759   109270    77577 
   41358    10014   -18725   -47459   -67880   -73500   -66491   -54527 
  -45644   -43432   -48636   -59494   -68962   -65599   -42469    -5367 
   32830    62359    77387    73897    55348    37111    33281    39841 
   41261    27881     1204   -28679   -49022   -50865   -36655   -25101 
  -31978   -47646   -52610   -42026   -21813      329    15622    20729 
   20996    22951    29559    35885    27664     3118   -17771   -24358 
  -22898   -15747    -2794    13447    28910    39567    47648    53357 
   47213    25304    -2729   -26950   -44153   -51386   -45905   -31824 
  -17911    -9537    -6882    -7994    -9259    -6251     2598    16152 
   31746    42697    40315    21717    -5202   -26021   -31126   -21594 
   -7334     1840     7353    13462    16915    18297    20293    14990 
   -1601   -21128   -40031   -57001   -63143   -54329   -33565    -2529 
   30851    52177    57308    53411    46827    39240    29332    14717 
   -4692   -24807   -40914   -48728   -43649   -27291   -10328    -2667 
   -6542   -19556   -31804   -28691    -8657    16217    33924    37339 
   27556    13177      638    -9263   -15587   -16765   -12934     -575 
   21726    40216    39803    21147    -3443   -17331   -14428    -5850 
