Origin Time       2021/02/13 23:08:00
Lat.              37.7
Long.             141.8
Depth. (km)       60
Mag.              7.1
Station Code      FKS001
Station Lat.      37.7949
Station Long.     140.9196
Station Height(m) 9
Record Time       2021/02/13 23:08:04
Sampling Freq(Hz) 100Hz
Duration Time(s)  300
Dir.              E-W
Scale Factor      7845(gal)/8223790
Max. Acc. (gal)   554.658
Last Correction   2021/02/13 23:08:03
Memo.             
[...]
   60041    36189   -46056   -29953    55173    31862   -65016   -83524 
  -20453    25533     9321   -16121    -7441   -14864   -37562    -7314 
   20146   -24869   -65997   -36144    28428    51013    -1100   -48440 
  -10238    53874    40780   -42338   -93178   -43803    38898    47841 
     997   -29143   -50454   -65148   -21994    38619    28316   -28394 
  -60698   -40000     8379    14705   -19592   -22480   -12406   -19263 
     234     8885   -18223   -25062   -40775   -51270    -1609     8471 
  -15638    53493    83471   -33241   -82973   -13869     1872      621 
   49018    29917   -75363  -121977   -50854    27735    34912    48909 
   82386     8249  -131561  -141606   -24738    79070   103627    22561 
  -86325   -92786   -28574    31436    68442    37331   -45715  -108880 
  -89542    33945   128422   103507    59142    10914   -90656  -142908 
  -58492    60511    75605     4531   -32564   -39974   -69091   -30622 
   63410    70599     3836   -58696   -88245   -54240    29272    83188 
   32917   -68698  -107277   -94930   -54827    44770   117745    57877 
  -60755  -110416   -72315    36367   163228   158679    -2893  -127129 
 -100319    -4224    49318    39112      198   -78472  -146836   -82934 
   52791    93181    48334    33863    28636   -53794  -143529  -120247 
   -8781    81826    89337    13689   -96088  -118567   -17038    51162 
    6891   -44892   -38589   -16124   -17070    23955   133427   156629 
   61537   -25598   -97702  -111102   -36108    -3870     4102    43825 
    9799   -76130  -100530   -56539     4712    14516   -37494   -86686 
  -79610   -16735    45000    62864    43954    12063   -23886   -79008 
  -94771    -4411    76318    61256    49412    50653    -1120   -61074 
  -66204    12690    99716    24287  -135006  -144724   -61365    -7592 
   53597    53785   -47896  -108785   -76912    -4422    64147    58093 
  -27834  -100268   -76773    49341   148315    85596   -38184   -96091 
 -126065  -125768   -60515    31125    69032    28584    10328    34948 
   33285    18206    -2257     9744    49596   -12183   -75505     2853 
   36286   -26284   -32802   -14732     5532    10840   -65892   -66386 
   30018    15387   -23895    -2612   -16256   -14682    13990    30030 
   33895   -58274  -187501  -165609   -29554    33218    10623    39133 
   79250    36035     2845    14467    54022   127259    99378     3450 
    7483   -11157   -79899   -35297      406   -51783   -27314     4866 
  -76162  -109344   -48716   -24414    -5865    10334   -22840    15284 
   87286    39472   -22746   -41135   -91899  -112063   -73908   -18468 
   62959    96392    47614     7425   -32976   -96161   -89853     9321 
  112635   144568   108422    40824   -64840  -128680   -37543    50706 
  -14994   -74965   -36999     9882    26647    19515    19143    31688 
   17998    -5597   -13806   -17826   -29832   -56651   -63229   -41123 
  -23931    15932    41297   -37836  -103206   -36919    31885    40474 
    9404  -105690  -140063    -8141    43981    36085    82799     8865 
 -133386  -143016   -69988    37547   127527    45621   -88526   -40791 
   55237    63668    56520    20494   -15226   -16579   -43395   -29612 
   35961     6139   -92713  -116856   -72632      499    93538   103632 
   10736   -43676   -44683   -58099   -41588   -17868   -26257     9925 
   44062     7493    -1642    -1213   -80684  -162585  -168407   -97675 
   33821   120424    82482    26238    14756   -24556   -61682    -8224 
   89221   115609    58415     3631    -1942    12280    23136    42631 
   32857   -40906   -97953   -61215    48681   129643    86124    -8887 
  -52176   -85826  -119264  -110415   -95786   -94896   -81272   -50365 
  -20146   -37430   -85224   -52945    42111    55066    -8592   -36369 
  -18940      483    12888    47856   111365   115582    45292    15476 
   33193    32896    30430    30680    31361    36683      287   -40714 
   -8976     4473   -77329  -139768  -123152   -89375   -56211   -69394 
 -116959   -68289   -11541   -55675   -27170    77287    81839    20764 
  -26573   -27341    24524    45241    41351    41108    10935    37600 
   86132    19770   -15084    45364    25964   -18432    25146    73481 
   76341    29162   -34419   -51279   -81895  -141457  -123981   -38745 
   26650    49724    33282   -57643  -198624  -195837     4949   132420 
   66266    11470    41296    15404   -37862     -665    13007   -61501 
  -41314    80607    58391   -42601    66599   166387    -4444  -143216 
  -92828     9806   146805   254631   202246   -23284  -256818  -277466 
  -98131    42331    24845   -34388   -62000  -103333  -126936  -100260 
  -60739   -25070    -4205    22584    35012   -22523   -22103    75234 
   27473  -143287  -162637   -56898    45731   141239   165302   133847 
  116155    62953    -2717     -773    47521    72943    54116    25577 
  -35472  -109325   -74784   -11905   -65013  -119348  -115867  -168512 
 -199017   -68917    90256    84811   -61874  -124580   -29004   -36382 
 -145454   -69358    45252   -16475   -43023    42611    53272    23209 
   83785   123930    25687   -58182    15973   110006   117315   103015 
   41104   -49790   -39557    35280    64092    11049  -113503  -211809 
 -215654  -138989    15198   134824    63518  -105749  -181711  -190721 
 -215208  -168882   -11002    97883    48972   -54915   -52628    70428 
  152651    99833     4710   -64210  -107420   -75373    44366   161572 
  185094    83496   -42199   -57844   -40497   -43040    25188    74287 
   46044    56660    61190   -15147   -99199  -115164   -46074    35112 
   45449    -6959   -84118  -146923  -165312  -165538  -137660   -16074 
  109576   116402    91779    90404    24439   -73087   -48049   103607 
  174391    47671   -91072   -73903    -6243    30577    38427   -11792 
  -17092    29965      886     -220    73236    89314    78900    43740 
  -75892  -140840   -95426   -70969   -56874   -28742   -73425  -138588 
 -155808  -164673   -94306    73847   137436    43611   -12417    12409 
   -9548   -24783    83519   173307   105459     5611   -44316   -66191 
   20645   155660   148806    97299   111971    49732   -46688    -8699 
  112662   209646   162718   -56988  -198894  -159151  -124636   -79435 
   22775   -20340  -158662  -152761   -87173   -66035     2062    68052 
   12216  -103451  -158126   -74223   113433   172660    44118   -55406 
 -125986  -226179  -173697    20803   142393   141489    41175   -86440 
  -91967    53743   195764   133794   -59946  -133161  -152791  -185676 
  -35321   132383    50326   -42091    -7628   -32653   -18738   139340 
  139000   -48301   -97888   -76815  -107511    -1101   153351    96172 
  -60048  -125259  -149715  -165111   -72254    69498    40365  -111242 
 -108449    49725   128682   113368   124534   101889     4244   -70800 
  -81081   -35244   -10188   -43802   -10876    41613   -25022   -87751 
  -77701  -103322  -130365   -50070    60200    21929  -114586  -154113 
 -109316   -42982    18304   -31097   -83987   -18576   -20329   -53285 
   77186   168928    62781   -18102    11335    49015   133976   204830 
  114689    -8995   -37062   -27750    29655    93178    14697  -104809 
  -85576   -45434   -41018    72318   167497    46730  -103748   -59759 
   80493   122033    64781     1501   -52161   -64478   -51375   -75644 
  -34248    91053   100051    -7005   -58484   -35914     2978   -10413 
 -111049  -141173    10866   173356   160960    -8829  -145490  -133216 
  -98541   -79848    -3418    41134     7296   -37079   -56516   -12058 
   23176   -61705  -153384  -144153  -108426   -75213   -32841   -14040 
  -19857   -52072  -113994  -164662  -145737    -8556   119812    33787 
  -87091    25713   186953   209410   145044     2118   -67301    69669 
  183267   146376   137836   186726   122512   -43069  -113498   -49991 
   24695    49815    61445    70112    41575    58110   134017    63494 
 -111991  -151885  -117994  -139874  -171671  -167054   -98069   -20495 
  -54650  -144582  -170911  -159727  -137135  -103781  -131571  -175522 
  -68007    93448    54621   -82768   -90539   -10692    98536   187197 
  127535    13505     1826    41200   138721   299154   327735   176644 
   34325      707    38761    84612   128821   211694   233460    57015 
 -167185  -218577  -133294   -25550    60744   102339   102296    15697 
 -182196  -288295  -176064   -77490  -117373  -100498    46118   158473 
  133235    25579   -75825  -116037   -55179    63798    84944   -32505 
  -95484     6967   113856   105066    51084     1227   -18149    32429 
   80565    69951    64542    34053   -74002  -116247   -24187    30921 
  -43168  -135064  -139209   -99823   -95889   -84528   -27446     -295 
  -47380  -140440  -241099  -269836  -185827   -99692   -96283  -103099 
 -106042  -163298  -197781  -135137   -49114   -33964  -112394  -171370 
 -101601   -40556   -79925   -34082   121186   186011   138165    63433 
   13165    44910   132050   225018   291810   219889    33648   -11878 
  127593   192484   154861   199962   185533   -45193  -216508  -196284 
 -172875  -127935   -26643   -34132  -150789  -221541  -169666   -53958 
  -21246   -67177   -71126   -52161   -31081    41629    92485    46033 
  -20254   -41774   -49215   -60277   -84889  -183051  -305523  -276153 
 -106598    44024   128668   103310   -59374  -176358   -80829   101970 
  187493   177291   121591    33528   -60147  -121455  -122208  -101488 
  -86414      -40   126381   118053   -15511  -105484  -155754  -207647 
 -113266    63543    28814   -98361   -31118   116877   184141   198182 
  157075    70298      646   -41289   -47132    27812   155902   229188 
  207056   157750   113773    50510    11920    41351    69493    62772 
  115480   225884   229487   117780    75621   145470   203179   184927 
  146113   124170    71442    11030    25002    84508   108194    69309 
    6154   -30285   -62178  -105027  -109399   -94590  -101490   -86086 
  -67185   -98770   -94921      972    98155    98481   -46122  -239215 
 -299110  -247784  -219612  -211655  -182937  -142553  -105906  -122910 
 -200796  -223821  -128495   -20217   -23373  -123219  -189675  -149739 
  -72457   -37444   -27981   -19084   -38287   -69830   -54004    13142 
   92796   126924    80312    30503    55934   128752   216703   257215 
  163339    21469   -21447    -2353    34183   143702   230508   162731 
   56197    21735    13798    26482    10978   -92318  -137178   -70644 
  -87408  -171498  -144702  -108287  -177483  -199654  -109340   -23691 
   21898    59873    55915   -30261  -128700  -150082  -115376   -79211 
  -74580  -106149  -114417   -88832  -101048  -131722  -100758   -28749 
   20223    27716   -45690  -214995  -318844  -208726    -6764   104652 
  100086    18181   -75065  -115917  -134936  -158391  -121687   -34368 
   -8305   -35046   -18981    14991    22912    48316    74162    57319 
   43875    30555   -22212   -35264    10924   -37917  -184469  -203559 
  -50274   104608   204746   260798   261166   245971   185031    52434 
   -7522    76185   179034   210955   203554   177793    99712    12472 
   -5826   -10127   -33052    11653   133536   264217   340004   326149 
  276278   224426   132011    39193    30554   104341   211624   328388 
  446489   495639   356724    34732  -250601  -255110   -40211    94248 
   62164      132   -75305  -192917  -259185  -238414  -201289  -162893 
 -106683   -61362   -48359   -54842   -78763  -124028  -164411  -173550 
 -151282  -105518   -46346    34318   138840   186907   124029    28532 
  -60952  -149152  -128965    33399   181307   231055   255287   270336 
  211835   107171    28098   -77334  -255108  -390810  -391838  -309478 
 -209594  -113687   -52724   -46279   -52975   -49912   -74668  -138402 
 -203457  -214641  -166090  -131926  -141319  -137876   -97258   -55216 
  -38330   -33273      272    82981   142119    88075    -5553   -10031 
   37783    56322    90934   177176   234584   227439   204299   154321 
   57765   -34416   -98802  -156586  -200539  -202802  -174391  -175358 
 -213591  -225983  -219053  -237717  -240479  -182425  -111568  -112403 
 -207987  -331237  -364157  -252483  -114986   -90290  -150853  -190128 
 -156347   -89437   -51775   -55463   -70815   -26819    80754   142300 
  165431   251922   320025   228347    15209  -187978  -287451  -226227 
   11167   302892   491571   545220   363541   -38496  -269847  -227688 
 -189882  -147079   -51779   -32167   -59186   -77445   -74838    26900 
  153715   118080   -34014  -119206  -121509   -65311   132067   372594 
  351222   104564     -332    82275   144728   186462   271887   334119 
  321819   289379   242819    54878  -286440  -548343  -496004  -156339 
  171718   229855    74032   -40385     9617    60601   -38943  -196423 
 -341406  -485852  -527200  -367163   -50460   274664   436700   362556 
  172536    80131    78011     6080   -84782  -120846  -174286  -217683 
 -208645  -172336   -41793   218859   476000   548391   364015    24503 
 -304323  -526158  -562342  -393172  -199575  -146527  -160556   -66051 
  236248   511717   393834    58962  -109570  -140144  -120190    19219 
  268647   450538   387899   179604    74984   110567   127788    43779 
  -43696     4726   164662   289056   305364   217926    83986    32362 
  117055   236945   267732   170121    23743   -36448    -1729     1196 
  -81743  -158309  -139153   -69304   -57437  -113684  -158248  -176867 
 -221537  -263004  -241003  -196746  -184578  -190193  -186190  -164840 
 -136782  -131633  -187748  -312194  -458599  -570996  -590877  -449523 
 -219268  -114313  -154180  -156421   -71332    35449   132664   204527 
  263676   310306   280705   134978   -81499  -296368  -443030  -416732 
 -190431    65803   218836   293951   252942    90683    -6272   -43245 
 -196600  -339169  -306243  -195781  -104178   -46557     5227    80115 
  131839   123660    75814    50576    71740    66721    66637   190387 
  346158   354082   234596    81604   -44895   -79936   -78868   -87511 
   11588   196237   305939   342752   364632   348367   300916   239994 
  145872    87170   131094   178812   173739   183770   198313   173664 
  145066   143594   136510    67359   -44861  -120565  -146429  -149833 
 -143544  -162558  -235481  -339654  -428726  -485157  -520372  -510183 
 -406787  -217591   -23765    34636  -131926  -384400  -492376  -475310 
 -451639  -352398  -154421    36760   144865    59516  -165946  -241123 
 -132752   -43806    12255    84145   149161   225621   310500   357956 
  321985   196717    85833    68647    98085   159668   289591   438540 
  537331   561150   460085   258531   109436    76851   113706   226709 
  365334   375669   265972   179691   126297    61684    30400    41250 
   42014    53433   121743   169658   103549   -20101  -118555  -183582 
 -202902  -174344  -135147   -87627    17917   178511   277244   194636 
  -45918  -295489  -441350  -496251  -495726  -449232  -415166  -415905 
 -389438  -348617  -344745  -342027  -314728  -276906  -227140  -207898 
 -256783  -307278  -300883  -271231  -240094  -176337   -66665    69237 
  193023   251332   218998   124603    19278   -68133  -133164  -145444 
  -54403   111665   244672   290000   249590   147274    83080   102205 
  118470    91924    38724   -11148    21604   134030   239579   332106 
  425019   455256   387194   292582   238173   162994   -10804  -188446 
 -196446   -33513    99261    30387  -117645  -119718   -56193   -78784 
 -103061   -51483    41226   107275    55687   -86071  -154923   -96789 
  -38947   -49310   -61593   -61133   -49414    10332    54025     4018 
  -92191  -149126  -138276  -119423  -157118  -222797  -281323  -343541 
 -390641  -376952  -283119  -131530    25311   141326   179084   119836 
   31055     -687    -7695   -35402   -16791    86371   193428   226656 
  192659   131107    51813   -25401   -26964   101655   285979   354357 
  279896   198570   168798   181410   194597   145266    77792    42874 
   26615    40240    77899   118484   154835   159671   116827    46237 
  -21541   -72813  -101429   -90838   -71780   -96279  -102093   -14816 
   73836    74992    35060   -32012  -142708  -235300  -269067  -268456 
 -261223  -273237  -300080  -316167  -337537  -369708  -353972  -264100 
 -161813  -106037  -103715  -138369  -163877  -138719  -101468   -99868 
  -95710   -54442      184    61743   129780   167512   151479    94745 
   30187     8716    25702     -511   -77877  -115715   -61470    68909 
  219450   325691   353602   286587   158634    42195   -83871  -258325 
 -387336  -381129  -288646  -216103  -194611  -166356  -127865  -117742 
  -56146   127484   306640   322227   186594     6519  -166858  -312500 
 -315588   -83454   181569   211527    88510    44925   133706   213922 
  155698    85041   130499   189679   196785   152038    50361   -41072 
  -65703   -17124    79637   174012   249782   277113   179679   -12884 
 -156130  -208052  -203920   -93286    99843   204454   153674    16762 
 -114363  -153848  -116830   -67545   -11283    28732    18295   -35495 
 -105433  -145378  -137068  -107453   -89912  -119755  -195413  -252414 
 -241389  -200314  -191191  -169913   -36617   159501   241782   143500 
  -17120   -95153   -81310   -53894   -53792   -73549   -57932    33012 
  139206   182278   143847    68882    44888    94462   151904   184624 
  212973   235306   234391   219325   212589   205864   164365    84214 
    -103   -38700    13783   111462   136803    84595    30944   -20305 
  -61312   -62249   -63477   -93035  -127341  -156951  -169113  -151939 
 -133049  -142022  -161910  -158506  -128459   -99517   -97656  -118962 
 -156180  -207551  -226034  -165557   -81062   -50268   -43972    -6420 
   40362    53859    27031   -20298   -57451   -45723    27041   106224 
  155912   208603   268011   289908   247008   151575    31920   -98521 
 -191207  -147447    45441   262269   351847   264103   125641    93563 
  116514    60945   -53958  -151745  -209511  -215901  -165943   -85534 
  -26331   -14235   -36153   -76666  -112122  -119172  -106378  -108341 
 -136884  -153670  -132030   -97985   -99742  -160505  -234972  -267355 
 -273877  -285147  -267977  -165445    -9100    66560   -15311  -161200 
 -213869  -140925   -45617     6596    27738    21845    -9225   -41017 
  -34642     2706    11835     7524    54419   136097   194305   210172 
  185291   127066    74505    61902    81648   129278   189697   211800 
  183001   145683   124622    86170    -4337   -92808  -101547   -47009 
    7962    24745   -21459  -103650  -132892   -65907    45968   118872 
  115727    81229    67575    70795    68840    38857   -40259  -152928 
 -230604  -210892  -118292    -2543   130215   224475   188863    56396 
  -57905  -126917  -181014  -193733  -144697   -89955   -34295    81896 
  196701   169381    -7088  -187979  -239695  -156578    -3110   119044 
  105572    21078    -4819    26245    90950   152415   137176    53397 
  -33002   -59319     1179    91659   124497    64705   -49389  -147183 
 -189905  -155939   -21305   152790   231508   169227    38210   -61499 
  -80473   -61007   -31194    29361    86412   112785   126864   103327 
    9656  -110004  -179122  -183929  -137038   -41908    29334    11619 
  -44062   -73496   -80489   -93883  -124713  -164702  -209248  -248517 
 -251424  -194998   -93386    14998    97351   129062    95207    21327 
