Origin Time       2021/02/13 23:08:00
Lat.              37.7
Long.             141.8
Depth. (km)       60
Mag.              7.1
Station Code      FKS001
Station Lat.      37.7949
Station Long.     140.9196
Station Height(m) 9
Record Time       2021/02/13 23:08:04
Sampling Freq(Hz) 100Hz
Duration Time(s)  300
Dir.              U-D
Scale Factor      7845(gal)/8223790
Max. Acc. (gal)   507.175
Last Correction   2021/02/13 23:08:03
Memo.             
[...]
   -5057    -5059    -5059    -5057    -5055    -5055    -5055    -5059 
   -5059    -5057    -5055    -5059    -5059    -5058    -5058    -5061 
   -5058    -5054    -5057    -5059    -5059    -5055    -5054    -5058 
   -5062    -5061    -5057    -5055    -5057    -5059    -5058    -5057 
   -5057    -5061    -5062    -5058    -5057    -5058    -5057    -5057 
   -5059    -5059    -5058    -5057    -5055    -5055    -5059    -5059 
   -5055    -5054    -5057    -5061    -5059    -5058    -5058    -5059 
   -5061    -5059    -5055    -5054    -5057    -5059    -5059    -5058 
   -5058    -5057    -5055    -5058    -5058    -5057    -5058    -5059 
   -5057    -5057    -5057    -5055    -5058    -5062    -5057    -5053 
   -5057    -5058    -5058    -5058    -5058    -5058    -5059    -5059 
   -5059    -5058    -5057    -5059    -5059    -5055    -5055    -5059 
   -5061    -5059    -5058    -5058    -5059    -5061    -5058    -5057 
   -5061    -5062    -5058    -5055    -5058    -5061    -5059    -5055 
   -5057    -5061    -5061    -5058    -5057    -5057    -5055    -5054 
   -5054    -5057    -5059    -5059    -5059    -5058    -5057    -5059 
   -5061    -5061    -5057    -5054    -5055    -5059    -5061    -5059 
   -5057    -5057    -5058    -5058    -5058    -5058    -5057    -5057 
   -5055    -5054    -5058    -5058    -5058    -5061    -5058    -5054 
   -5057    -5059    -5057    -5058    -5062    -5062    -5058    -5057 
   -5057    -5057    -5058    -5057    -5055    -5055    -5061    -5061 
   -5057    -5055    -5057    -5057    -5055    -5054    -5055    -5058 
   -5058    -5058    -5058    -5058    -5058    -5059    -5058    -5055 
   -5055    -5058    -5058    -5058    -5059    -5061    -5059    -5057 
   -5055    -5055    -5057    -5059    -5059    -5058    -5058    -5058 
   -5058    -5058    -5057    -5057    -5057    -5057    -5059    -5059 
   -5061    -5059    -5054    -5055    -5059    -5059    -5057    -5058 
   -5058    -5059    -5059    -5057    -5057    -5061    -5061    -5058 
   -5059    -5059    -5057    -5055    -5054    -5057    -5062    -5063 
   -5061    -5057    -5058    -5059    -5057    -5053    -5055    -5059 
   -5058    -5057    -5057    -5055    -5058    -5058    -5057    -5057 
   -5058    -5058    -5059    -5063    -5062    -5057    -5057    -5059 
   -5058    -5061    -5062    -5058    -5057    -5055    -5055    -5058 
   -5058    -5057    -5057    -5057    -5057    -5055    -5057    -5058 
   -5061    -5061    -5058    -5057    -5055    -5055    -5058    -5058 
   -5059    -5059    -5057    -5054    -5058    -5058    -5057    -5059 
   -5058    -5055    -5057    -5058    -5059    -5061    -5057    -5057 
   -5061    -5059    -5057    -5058    -5059    -5058    -5058    -5059 
   -5057    -5055    -5055    -5057    -5058    -5057    -5055    -5059 
   -5059    -5057    -5055    -5058    -5062    -5062    -5058    -5057 
   -5058    -5058    -5058    -5058    -5059    -5057    -5054    -5057 
   -5061    -5059    -5059    -5058    -5057    -5058    -5059    -5057 
   -5055    -5057    -5058    -5059    -5057    -5055    -5057    -5061 
   -5061    -5058    -5055    -5055    -5057    -5061    -5061    -5059 
   -5058    -5058    -5058    -5055    -5054    -5057    -5057    -5055 
   -5058    -5062    -5059    -5058    -5061    -5059    -5054    -5057 
   -5061    -5061    -5058    -5058    -5058    -5058    -5058    -5058 
   -5055    -5057    -5058    -5058    -5058    -5057    -5058    -5059 
   -5057    -5057    -5059    -5059    -5058    -5057    -5057    -5059 
   -5061    -5061    -5057    -5054    -5054    -5054    -5053    -5058 
   -5062    -5059    -5057    -5058    -5061    -5061    -5057    -5057 
   -5058    -5059    -5058    -5059    -5059    -5057    -5057    -5059 
   -5058    -5055    -5054    -5055    -5058    -5057    -5057    -5057 
   -5055    -5057    -5058    -5055    -5055    -5057    -5057    -5058 
   -5058    -5057    -5059    -5059    -5058    -5061    -5057    -5055 
   -5059    -5058    -5054    -5054    -5055    -5057    -5057    -5055 
   -5055    -5057    -5057    -5057    -5058    -5058    -5058    -5058 
   -5057    -5057    -5057    -5057    -5057    -5058    -5058    -5057 
   -5058    -5058    -5058    -5058    -5057    -5055    -5055    -5054 
   -5053    -5054    -5057    -5058    -5058    -5057    -5055    -5058 
   -5059    -5058    -5057    -5058    -5058    -5057    -5057    -5061 
   -5062    -5059    -5057    -5058    -5061    -5058    -5053    -5053 
   -5057    -5059    -5058    -5055    -5057    -5059    -5058    -5057 
   -5057    -5058    -5057    -5055    -5057    -5057    -5055    -5058 
   -5059    -5058    -5055    -5055    -5057    -5058    -5057    -5057 
   -5058    -5057    -5057    -5058    -5059    -5058    -5055    -5054 
   -5055    -5058    -5058    -5057    -5057    -5057    -5057    -5059 
   -5059    -5058    -5058    -5059    -5057    -5058    -5059    -5058 
   -5057    -5058    -5059    -5059    -5059    -5057    -5055    -5055 
   -5058    -5058    -5057    -5055    -5057    -5058    -5057    -5055 
   -5057    -5058    -5058    -5057    -5058    -5058    -5059    -5059 
   -5057    -5057    -5058    -5057    -5055    -5055    -5058    -5059 
   -5058    -5057    -5057    -5055    -5058    -5062    -5057    -5054 
   -5058    -5058    -5054    -5054    -5057    -5058    -5058    -5055 
   -5058    -5061    -5057    -5054    -5058    -5058    -5055    -5055 
   -5059    -5061    -5059    -5058    -5055    -5054    -5055    -5055 
   -5054    -5055    -5055    -5055    -5057    -5059    -5061    -5059 
   -5059    -5059    -5058    -5057    -5059    -5059    -5058    -5058 
   -5059    -5059    -5057    -5054    -5055    -5058    -5057    -5054 
   -5054    -5057    -5058    -5059    -5059    -5059    -5058    -5057 
   -5057    -5058    -5057    -5055    -5058    -5059    -5057    -5055 
   -5055    -5055    -5054    -5054    -5057    -5057    -5057    -5058 
   -5058    -5055    -5055    -5058    -5059    -5058    -5054    -5054 
   -5058    -5057    -5054    -5057    -5059    -5057    -5057    -5057 
   -5057    -5059    -5061    -5057    -5055    -5058    -5058    -5057 
   -5057    -5058    -5061    -5059    -5058    -5055    -5055    -5059 
   -5059    -5055    -5055    -5058    -5059    -5059    -5059    -5059 
   -5059    -5058    -5058    -5059    -5059    -5062    -5073    -5093 
   -5115    -5111    -5059    -5017    -5084    -5229    -5267    -5148 
   -5161    -5528    -5933    -5760    -4855    -3897    -3894    -5182 
   -6778    -7032    -5394    -3218    -2354    -3457    -5790    -7912 
   -8251    -5814    -1883     -182    -3271    -9066   -11497    -7214 
   -1742    -2015    -6010    -7362    -4996    -3543    -5675    -7546 
   -5714    -2940    -2257    -3975    -7673    -9142    -4395     2776 
    4224    -4126   -13266   -10747    -1599     2474    -1422   -11601 
  -16391    -4509     8384     1456   -14235   -18638   -12622    -3025 
    5664     5293    -8494   -25575   -25199    -5346    10654    13198 
    7341   -13967   -38518   -26392    12177    16538   -12208   -19276 
   -8565   -13878   -19796    -5447    10517     5150   -10358   -11568 
   -3402       43     5772     9601   -10617   -36987   -23573    17329 
   34514    22318     4278   -14858   -29349   -20420     6991    25614 
   24625     9690   -10930   -25716   -17470    17131    40926    22250 
  -12087   -24333   -18658   -11497    -3289     1485     4083     6794 
  -17443   -48736   -22723    20630     2493   -37238   -27340    18283 
   39563    -1914   -72678   -75863     7487    58984    18582   -27853 
  -31980   -37955   -47156   -15812    28861    28329      811   -28354 
  -60319   -48051    16762    53805    39363    15086   -15145   -47353 
  -43541     5692    66752    87092    23587   -83146  -116409   -38491 
   45731    45164     7641    10667    27764    -7878   -63690   -48019 
   10170    20730    11974    17755    -5842   -26518     7832    22655 
  -13130   -12085     2070   -50633   -79348     1262    85874    64848 
  -30325   -99526   -81082      -10    63297    45831   -14747   -24084 
   -3264   -24877   -37343    15168    68575    43569   -59378  -138078 
  -81970    61354   133138    58152   -83783  -137836   -54861    38097 
   41535    35541    68435    13724  -111600   -91287    32998    25278 
  -49789    12009    88632     3703   -65946     1876    26990   -25411 
  -15801    14823   -32663   -65959    -5724    47115    40834    36791 
   49404    46722    -2533   -86362  -125645   -78873    27221   135179 
  132086     8749   -59329   -44020   -74515   -67446    66325   118409 
   -5846   -64561    27085    27203  -110652  -111892    70382   164662 
   68827   -64582  -114111   -70700     7770    49966    44922    16502 
  -11277   -40042   -92506   -88649    22767    67200   -37493   -74005 
   42584    92797    -7499   -92487   -66002     5552    47055    64399 
   61464    -8527  -124089  -157824   -58448    62982   119601   120082 
   38416  -116563  -179470   -40500   136117   117740   -43042  -104701 
  -63189   -74394   -51908   110636   195077    52191  -120617  -189275 
 -188311   -56845   186888   277515    74605  -151213  -121668     5822 
    1806   -23799    57242    65026  -113152  -183216    11488   163710 
   79240   -48004   -33322    10116   -39460   -48118    29525    51651 
   15533   -17845   -44188   -20254    26727    15973   -17177   -24943 
  -29837   -28810    21396    80150    26878   -81643   -84937   -41419 
  -30954    22653    98662   100930    29862   -67323  -133139  -107400 
   20335   151139   146546     6158  -152895  -204576   -80889    95913 
  150546    91821   -16083  -124281  -134680   -15169   110332    88319 
  -29698   -63404   -30632   -75421  -152373   -72819   155528   252981 
   83002  -113039  -115207   -34577   -19510    -3292    39950     5506 
  -31553    59957   126875    40294   -15453    49223    33831   -98614 
 -114988    -2135    13856   -60137   -31887    57427    21061   -59659 
  -28111    19766    19757    -1366   -40574   -10026    68860    63609 
  -16526   -68790   -14288    61592    45158    20934    39973    55721 
   28844   -85081  -190661  -172729   -92078   -11973    49657    78425 
   55588   -63207  -144829    -8862   173090   178486    70290   -56694 
 -180628  -263403  -172138   146522   336411   145736  -108723  -158379 
  -72534    21810    22239   -36902   -45562   -18472    -6868   -27988 
  -29697    57454   111728    41958   -14530    14667    46677   -13707 
  -99391   -29546    70730   -16167   -66787    87812   146259   -12850 
 -118484   -35829    76698    23947  -105700   -90769   -20713   -44015 
  -44837    24537    42230   -16112   -59136    -9402    68231    12714 
 -116345   -78286    55182    25328   -86038   -77797    58727   177369 
   99696   -75123  -145041  -138456  -130519   -90756    35063   138600 
   94779     8572   -12303    24386    25380   -62224   -88149   -41835 
   -5895   114822   154159   -55671  -176781   -57762    70811   153442 
  180616    47791  -145023  -162602   -42835    13547    28021    57678 
   34973   -27346   -83070  -128340   -84774   105900   276104   206446 
  -54940  -260099  -246504   -82555    52698    87678    64147    48231 
   79928    80713   -39916  -133432   -27754   119003    86944   -66545 
 -161360  -131976   -48217    30022   153945   299670   248942   -29731 
 -239307  -212652   -91631   -18758    42194    65361   -42714  -133313 
  -39835   119535   146387    44776   -37883   -87354  -141575  -121007 
   28270   186794   134399   -80914  -157739   -71574    16654    74248 
   53019   -10459   -33481  -125413  -222500   -68542   192904   184056 
  -19079   -16173   190941   198313   -73500  -240111  -149824   -77548 
 -106259   -43386    70575    64697    35356    95187   124521    38106 
 -113204  -243707  -277794  -205825   -35352   181317   245741    80360 
  -55101     9786    87457    75818    99673   143595    52559  -172422 
 -281422  -128437    47780    49041     9506    72277   149823    92780 
  -47089  -102081   -47981   -11929   -29197   -11627   -13554   -98587 
 -113958    24340   155210   121801    19230     7040     8363   -84385 
 -170556  -121887    13203    73375     6000   -42774    46483   142118 
  127368   102864    55517  -106645  -225135  -114139   103754   121230 
  -82794  -168556   -40019    20619   -65006   -64044    48861    22644 
 -122650  -110069    15708    18229   -38491    24015    99427    -5984 
 -126338   -42142    62063    59541    81378    61979   -77907  -104342 
   58097   104926    -9728   -46808   -38487   -64299   -27626   106254 
  185665    33577  -154562  -142489   -88399   -89176   -88526   -28705 
  169337   312924   121504  -199293  -205941     9387    38851   -75794 
  -88292    21901   124772    86583   -59233  -208661  -227107    16090 
  328091   383846   142125  -145670  -249154  -231796  -111680   184007 
  376355   204853  -151825  -403728  -336008    55966   397959   389908 
  139298  -116506  -228312  -247252  -205349    38754   308238   306996 
   95435  -230715  -423453  -234528    49137   226443   285784    54708 
 -241976  -287517  -196669   -73103    51537   109308   135105   156820 
   56386  -149152  -213050   -77074   160251   281568    34902  -272539 
 -227627     8928   156016   158356    91841    15966   -56539  -114613 
 -156128  -144036   -64820    82857   291628   397905   203979  -175656 
 -346524  -188158    89343   296677   212248   -84045  -173578  -129930 
 -216064  -163020   191425   490180   397391   -64924  -515852  -536731 
 -157562   247525   414718   304036    32748  -186587  -254233  -245454 
 -130231   119061   197919   -36571  -224510  -181001  -100818   -45829 
   16464    33299    50035    81936    67336    72771    95852    69449 
   78996   113483     9387  -195666  -285107  -222173  -118439    21938 
  177149   228451   162950   123238   163899    78896  -170263  -251617 
  -50498   163034   184675    54761  -114670  -233251  -212969   -53850 
  116762   163872    90647    28294     -827  -116799  -260159  -234874 
 -118160   -52685    47906   183388   244034   137273  -112359  -205548 
  -30867   132347   109055    19340   -11500   -96720  -280852  -307552 
  -35926   271023   316807   169952    14203  -137627  -291899  -318412 
  -69249   303709   426822   165774  -177253  -197537    25381    87836 
  -16382    38071   182120    55374  -200020  -256711  -182119   -45781 
  108986   119873   -38805  -242998  -260896   -23692   174665   197961 
  218454   217237    37639  -158815  -148421   -80896   -90536   -58908 
    3855   -26590   -69240    17660   106413    91372    80219   -28649 
 -228024  -182198    25207    93887    93330   125253   106002   -51479 
 -203196   -72361   251073   360736   138875  -146646  -275067  -221956 
  -32502   129266    69965   -42627    59005   142186    17442   -42600 
   39240   109084    57663  -153700  -253027  -100191    35498    73044 
   57505       33    71479   216373   151997   -59803  -175516  -189271 
 -182591  -128206    -8063    78678    55444   -53573  -191312  -180702 
  106232   358021   214286  -116275  -281183  -293425  -201476    39044 
  270638   244143    -4946  -196713  -153022    85541   255363   119950 
  -87482   -70810    -1237   -40574   -72715    14593   219464   311204 
  110164  -148986  -245978  -231631  -176729   -77106    95411   217509 
  113003  -130264  -272061  -194378    81938   415727   497713   185342 
 -212440  -382540  -294410   -82749    69228   167817   174897   -90259 
 -343854  -157866   246261   353250    71123  -211025  -218115   -90641 
   -8252   -21895   -44788    54037   208782   285884   242119   136587 
   17367  -155610  -244610  -121633    40080    94086    11699  -136482 
 -167167   -94250   -36088    70240   222601   177059  -138442  -400812 
 -384558  -177340    69001   180720    90892   -19629    27837    94103 
  -34406  -188222  -143143    43950   255644   310427    99956  -189252 
 -311373  -237825  -103928    41704   162984   140131     3908   -68103 
    9555   141562   195095   113649   -38514  -107605  -126158  -148780 
  -19276   183606   235962   175475    46889   -89324   -68384     3495 
  -88298  -197502   -93263   106478   117707   -63062  -137779   -46462 
  -69084  -186386   -94774   180192   403390   375605    27099  -206297 
  -36251    63011  -102756  -228456  -248593  -133643   111545   180859 
  -26302  -210308  -178383    58356   310174   235101   -64466  -180621 
  -90583    62752   171895   149135    74622   -28350  -196096  -248046 
  -72917   161600   324365   304210    -3117  -278908  -194977   -28054 
    4344     8872   -83482  -182533   -70096    60899    99945   174834 
  138514   -44433  -145903  -177515  -134974    56898   196369   208988 
  229851   196915     8810  -235626  -366331  -281500     2107   230331 
  155002   -45142  -122786  -137555  -134931   -75772    28223   174044 
  224162    46427  -155877  -225571  -216646   -72022   136418   217320 
  151694  -128386  -467337  -411224    -4006   329402   404329   264676 
   64467   -74756  -124533  -141966  -211212  -203079   -27355    64832 
  -46846  -123358   -20541    85407     8213  -126754   -99401    62193 
  197449   176385    -7465  -153540  -108639    46408   174773   197235 
   93290   -45828  -103928   -78715    20718   127237    68280   -92882 
 -152323  -120946   -78233   -50355   -10358   125439   271899   207360 
  -18511  -184970  -270942  -243056   -30100   184199   222721   111404 
  -83204  -273098  -314847  -101661   224573   380710   253135    -2332 
  -77535     8179    -1696     1194   108719   110763    32796     8583 
  -53746  -148792  -107280    42626   109269   103308    99052   -46136 
 -319550  -426848  -264703    32628   284944   291087    33986  -255371 
 -334739  -172334    45115   203031   279100   188937   -44240  -218008 
 -125976    74902    46546   -50287   -11065   -35361  -123780  -127872 
  -75091    26612   150768   192889   115704    20448     6582   -34022 
 -148972  -138589    60825   264676   258620    39580  -128713  -136628 
  -65286   133952   330083   219267  -102790  -321055  -260235    37759 
  194142    71053   -21136   -56586  -134725  -140310   -79695   -10677 
   74617   146595   159575    15417  -217429  -215002    20521   175163 
  195401   103667   -87493  -204226  -228366  -222837  -120451     2241 
   25131    12955    14575    28436    68959    39517  -126265  -223692 
 -115042   -13876    -4217    70947   167768   164161    56262   -98795 
 -169830  -144123  -100789    10524   153006   160957    33134  -108980 
 -172035  -128367   -23171   115349   204399   141777    45921    28431 
   -3990   -96086  -162367  -131338   -22331    88580    71701   -68786 
  -95639    -5347    -3402   -35483    21290   115389   142919    60475 
  -51013   -59823    24580    70879    33885   -29220   -38601    37891 
   99134    87816    93205    88514    -6384   -67883    -3434    59096 
   -3380  -127556  -154457   -23604   165146   220035   100386   -49578 
 -173973  -196447   -35251   112723    91473    45362    55209     4036 
 -102442  -117101   -49115    -6178    14014    48521    55418    26010 
   40743    44042   -64021  -152281  -143158  -104005    -9189    64107 
   15511   -25515    15604    60826    41679   -34160   -52500    22631 
   95126   103084    41287   -37039   -89680  -135298  -131855   -54669 
