Origin Time       2021/02/13 23:08:00
Lat.              37.7
Long.             141.8
Depth. (km)       60
Mag.              7.1
Station Code      MYGH10
Station Lat.      37.9411
Station Long.     140.8924
Station Height(m) 18
Record Time       2021/02/13 23:08:05
Sampling Freq(Hz) 100Hz
Duration Time(s)  300
Dir.              5
Scale Factor      7845(gal)/8223790
Max. Acc. (gal)   1075.793
Last Correction   2021/02/13 23:08:05
Memo.             
[...]
   -5607    -4650   -18360   -15361    -4436   -13413   -20267    -2582 
   12803     1958    -6778     7118     4936   -12708    -7029    -7616 
  -23822   -11453     8599     3677     1929    11958     8149      122 
    6338      216   -24251   -23753    -4349   -12186   -19678    10463 
   20738    -6793    -3083    14947    -4572   -21961   -15592   -10326 
    -853    11865     8569     -109      199    -8199   -20908   -15036 
   -9929   -11173    -4598    -9402   -16891    -2465    11875    16147 
   15174    -1147   -10758    -3765   -10469   -18176    -4151    -1507 
  -18065   -13594     8541    19357     8352   -17113   -20123    -8854 
  -31774   -49268   -12784    22370    24858    18542    -3699   -18635 
    3462     8364   -23773   -25543     8140    16112    -3966    -5487 
   19116    28306    12036    -2081   -20096   -44201   -47613   -28127 
   -7523     2060     4691    -6986   -11692    18509    19386   -14303 
   -9304     -851    -8847     7223     9930   -13196    -3867    14461 
    -652    -6334    -9809   -21348     -504     3144   -24167   -31841 
  -36813   -27719     3565    18010    24309    20775   -12158   -21595 
   13186    10840   -21749    -5987     6619   -26472   -32867    -7564 
   -6679    -6527    23566    28984     1749    -2123    -3950   -24410 
  -30343   -31309   -32921    -7917    25116    29358    10108      704 
    6581     2524     7195    35426    24233   -31132   -35257    -6264 
  -21290   -21663     -607   -24595   -37596   -11565    -8910   -27606 
  -26622     -139    26634    26223     4149   -11973    -9502       21 
    1445    10755    27319    15726     -846   -11790   -49365   -62212 
  -23334    16001    50386    62413    23863   -10111     -124    -9533 
  -67416   -86362   -47769   -21595    12064    65326    76912    56660 
   44770    22104   -31122   -90194  -107395   -72557   -28120     1115 
   33712    73746    86833    63667    30562      317   -15673   -24671 
  -42169   -51177   -60030   -68766   -37922      723     5445    29741 
   73345    64851    29941     8187    -8456   -11880   -28251   -41582 
  -17034   -33481   -79328   -52913   -17216   -37243   -48282   -17787 
   17331    13212     8622    46512    54270    30766    34443    25937 
    7931   -16079   -74941   -72675    -6118     7921    18662    59807 
   53308    25517    10678   -21159   -47028   -54221   -71608   -77301 
  -53754   -36155   -16079    24194    36832     9660    -6760    11638 
   40672    47447    42354    34263    -6858   -48007   -26805    -3755 
  -50789   -79516   -40579   -27642   -37932   -21740   -13108      751 
   37416    40535     2316   -33863   -47218   -18557    14500   -11396 
  -26060    34069    72308    48193    50525    85024    63875    -5063 
  -36358   -44290   -72783   -64135   -22531   -46951   -99040   -76731 
  -38496   -58301   -46958    26757    55279    64588   107850   103434 
   69213    65468    23500   -52612   -73631   -56687   -44818   -40158 
  -42763   -33677   -11327    27841    76026    61474    -1000   -17905 
  -14449   -53176   -86734   -52423    -5044     6592    54923   122683 
  115727    87903    90949    61511    -8494   -62490   -92109  -107156 
  -92921   -78285  -100988   -87704     6961    56313    15940    13108 
   49509    33004     1436    13852    37613    40383    48165    66866 
   49516     4114   -21938   -26676   -40774   -87783  -107091   -59159 
  -35930   -48239   -13797    28676     8193   -35398   -31781    19488 
   47376     4032   -43098    -2682    63640    76967   123836   176928 
   95162   -23904   -81187  -144540  -184887  -160164  -106825   -21929 
   58727    65947    50504    83211   102288    57318    -3407   -54610 
  -84510   -74731   -39889    -4047    -7657   -19103    37400    77244 
   41251    25795    26527    -3792   -30393   -54124   -87027  -116938 
 -116850   -78837   -67104   -54376    30125    74251    28746    17671 
   35206    21316     9857    -2980     2061    56427    85241    48686 
  -15156   -61291   -72434   -83911   -52933    47834    73986    24452 
   40305    63494    12675   -58139   -88092   -71653   -63013   -74541 
  -81901   -56246    17055    67599    96820   125628    84550    34928 
   33165   -23696  -109459   -92388   -41011   -84574  -137030   -77830 
   27067    70043    76939   100969    95420    43861    28553    39938 
  -21143   -70087    -4125     9529   -79625   -84314   -35911   -59553 
  -70078     4201    77832    62271    12816     7303    -1533   -18850 
   -6039     8201    19759    10759   -30535   -47298   -46993   -47042 
  -30122    -9601    47830   116428    79965   -22059   -48976   -12278 
  -14661   -33126   -19888   -42296   -83859   -49877    19458    58178 
   86381   122551   145164   107283    32927    12725    14446   -38857 
  -90536   -79108   -60593   -85795   -76214    -1242    29515    32439 
   91489   120426    64955    23637    25242   -16904  -107539  -155054 
 -160254  -165011  -125718   -46167    27969   119041   200065   204298 
  153010    86143    19996   -35544  -102405  -142230  -102028   -92669 
 -158229  -144154   -46603     6693    29849    62966    81264   108157 
  161153   179901   132903    40744   -60353  -118982  -159869  -209142 
 -192964  -138488  -129609   -79988    41027   109649   163453   241204 
  212924   146574   112135   -35856  -194506  -187944  -171556  -230019 
 -216028  -114469    -9828   111855   241056   294738   262735   210249 
  139013    17905  -105248  -205926  -283225  -268023  -198506  -148999 
  -65565    28537    95389   164884   191991   188550   188678   113599 
  -32640  -114686  -116226  -173557  -230118  -134222   -47182   -62993 
     560   107050   112606   107137   169966   176023    64829   -17605 
  -41293  -116371  -210465  -241713  -203720  -108257     2889    70521 
   88904   100873   133351   166052   131622    25282   -49945   -65568 
  -76474  -112117  -162224  -194290  -229292  -225751  -129612   -72989 
  -41624   124753   286941   283956   242010   226863   164006    70649 
  -39669  -166367  -214451  -186329  -142348   -35311    94099   119198 
   85845   145818   245424   194368    39258   -69033  -149134  -219956 
 -270159  -323298  -317436  -198416   -55571    29774   104761   217981 
  310726   312843   231753   109904   -28915  -167294  -254383  -254233 
 -207686  -184401  -169447   -61726   103118   180223   192696   206097 
  182402   135600    86044   -19126  -130354  -133111  -102955  -133173 
 -111505   -19857    30109    79741   147603   146484   121917   130345 
  100930    24449   -43796  -109566  -196496  -264971  -219767   -92873 
   -9207    57294   128852   150826   159891   138576    44988   -20295 
  -41891   -73129   -69492   -62434   -80431   -54303     7048    54280 
   55734    34338    65642    92257    67259    89151    82205   -53369 
 -121698   -82354  -159097  -281558  -224563   -57109    54704    91951 
  124341   175660   176688   103623    26800   -26673  -119113  -214377 
 -203100  -155449  -143158   -98244    -8783    84218   129231    97879 
   57674    61994    81267    78837    40313   -20857   -53068   -37862 
  -41386   -70618   -53042   -27696   -10482    84122   151980    79328 
    4403   -26218   -75687   -67998   -26275   -39600   -27515    11441 
    2362   -20644   -45227   -34063    51349    85984    37719    36512 
   60006    37573    24302     1779   -81000  -112317   -33135    42561 
   69188    83708    93309   101958    88861    12012   -88503  -122304 
 -119978  -133701  -116698  -103690  -112784   -62783   -10264     2486 
   47241    73737    54180    95778   155331    87274   -26491   -19117 
   32038   -21105   -90443   -77526   -94603  -132077   -81086   -59675 
  -98867   -25188   113971   133563    71551    54105    58664    56511 
   57350   -10552  -101290   -56789    34009     9026   -13711    50533 
   79011    92730   143627   108616      511   -49657   -64785   -88021 
  -71971    -8218    28408     1846   -28638   -27573     -982    25710 
    6655   -41847   -70240   -66013   -53381   -30268    15892    22657 
   -9040   -10129     5688    18500    35797    54882    61820    44756 
   39727    55151    29678   -31430   -55227   -40406   -15534    15357 
   53415   104800    71196   -74302  -130114   -58368   -22369   -62428 
  -99004   -80806   -84719  -146457  -161396  -125674   -86108   -14208 
   59090   115859   176712   171094   115696    86875    22580   -47148 
  -25104    -4216   -78970  -117733   -11631    43259   -35441   -15612 
   86965    80759    65767   107773    26293  -131453  -178587  -198745 
 -240406  -198134  -101347   -10751    84866   137408   116379   124734 
  164936    84230   -53188   -59406   -21035   -61834   -66852   -19091 
  -32497   -55675   -60285   -46585    60983   119630      722  -103183 
  -90877  -102837  -153796  -125455   -73149   -74956   -42496    23754 
   67402   121474   144381    93891    36532   -16004  -100318  -174244 
 -151260   -27172    82088   134428   198705   225202   159714   109169 
   89260    25533   -27332   -55208  -113674  -137749   -70390    -5475 
  -34466   -57748    29870   123688   148905   165125   152529    50701 
  -46116   -46392   -55305   -88642   -30419    55300   103489   154259 
  154662   116526   118021    92373    18496     8098    59738    62966 
   12429   -19720   -68436  -166359  -186864   -87999    -5976    28043 
   66829    66221    40601    58500    45667   -40621   -93766   -80141 
  -72214   -59606    -3269     2567   -64295   -76331   -52454   -56597 
   -2667   108684   162827   137463   101290    89667    31259   -82337 
 -124690  -124995  -228445  -334631  -290240  -206128  -133219    22527 
  152343   156236   146692   120376    -2556  -116931  -144833  -167001 
 -206950  -246657  -294910  -269908   -92507   142978   242650   170808 
  110575   115744    57134   -15832     1011   -16538   -98292   -91357 
  -42842   -37357    25208   138265   181241   141887    41345   -85845 
 -112992   -10188    79454    85183    46689   -20563   -85585   -78075 
  -42822   -95104  -178595  -199223  -169911   -78651    37226    92441 
   86683    53391    36058    40841    25481    12916    36621    52288 
   19121   -24138   -46180   -92068  -166912  -210679  -173470   -85310 
  -46052   -18328    70968   128320   124691    93228      -49   -77963 
  -79658  -113340  -205422  -261171  -231029  -154249   -99809   -40293 
   88713   251962   373554   415496   385061   341386   325138   255982 
   74395  -114288  -238596  -360153  -487206  -514264  -410620  -289842 
 -181043   -25911   111291   174903   208626   201114   167151   192564 
  247912   262913   255380   219275   149847    76299   -43965  -191162 
 -232576  -172659  -108369   -41293    47555   106786    61604    -4317 
   59339   145332   127610    99441   104660   113633   109215    63784 
   19894    36738    78711    58843   -23207   -60849   -20850    22522 
   54195    87085    49077   -47607  -110191  -176135  -250090  -245782 
 -187035  -116191    -9610   104464   158928   147213   135753   175740 
  216521   172777    41688   -67566   -62753   -36956   -64748   -48807 
  -23568   -84576  -107684   -39542     4444    41183   106623   104087 
   17934   -46920   -69130  -130320  -233925  -285692  -263082  -225645 
 -184855  -114465   -32602    21258    46465    99198   211752   283080 
  226027   116874      912  -160307  -312697  -381927  -376335  -278822 
  -75323   112747   190564   238393   278650   249841   207160   176239 
  126179    92546    46480   -61395  -178121  -243135  -289480  -367772 
 -385186  -251768   -58776    92724   203322   306066   397935   412778 
  336001   250315   164444    25799  -115435  -218172  -304704  -294333 
 -162704   -45939    41779   156442   234058   242227   239157   234374 
  158441   -22850  -230291  -350828  -372444  -352881  -291169  -178175 
  -72033     6686   116166   245905   285074   205054    71290   -85988 
 -228788  -322566  -394229  -429144  -396565  -341706  -272401  -130297 
   50005   184904   302296   423343   486143   458195   332353   154161 
   -1605  -138623  -240250  -255831  -229293  -220676  -195859  -116889 
  -45532   -40026   -33718    25643    63247    51764    57186    92438 
  150076   217232   243814   252842   277616   251953   157870    57700 
  -25733   -97505  -150882  -159657  -115973   -64358   -35725   -40360 
  -83870  -127332  -146817  -149748   -89729    51977   175200   224793 
  284953   383418   426924   399485   370369   346169   295396   183069 
    2227  -173047  -322253  -459010  -511821  -498209  -488444  -450994 
 -365068  -237645   -98410    36175   212660   363078   371567   271575 
  145349    61419    42020    24106   -29816   -69171   -40606     5474 
   14231    39322   101139   153173   174568   135099      -18  -163032 
 -220158  -185267  -170221  -142398   -15996   187528   383355   485711 
  501498   513433   518822   448722   328176   230241   134632    19425 
  -74594  -145012  -216999  -293512  -375476  -488859  -658720  -840861 
 -965337 -1023294  -999855  -814232  -477276  -192408   -74756    41269 
  246634   414323   524616   598226   566011   476227   420398   403382 
  387231   307303   198097   132355    61901   -27143   -73151   -80755 
  -82952   -80589   -83401  -106625  -126171  -110100   -51543    35842 
  111144   124420    74711    67552   140844   125716     7882   -17759 
   -3337   -76368  -172601  -300940  -423276  -420199  -429024  -559234 
 -672348  -712490  -696134  -551186  -280438   -64525    49912   254001 
  501223   649035   828651  1031583  1123023  1100687   950832   703098 
  382117    62783   -29358    45381    28075   -39658   -99743  -208741 
 -296215  -381842  -507085  -580810  -645807  -735007  -748492  -696298 
 -595979  -424819  -282517  -209263  -124417   -40208    19710    88998 
  142780   164389   175031   167763   175498   254056   370282   471591 
  557578   605853   600552   575908   517843   368739   161968    14374 
  -60735  -163532  -292175  -394835  -515551  -651451  -754407  -827470 
 -811610  -668571  -500673  -352865  -189542   -55883    43848   180751 
  302520   329198   290551   203304    90309    20008   -17226   -41719 
  -24675   -12528   -34126   -15450    69448   191427   324695   432556 
  520977   618861   681949   614160   393755   155645    33372   -36706 
 -154272  -293676  -430671  -561421  -668524  -772765  -839621  -778068 
 -611793  -445402  -322713  -204260   -45716   102505   192307   281703 
  371221   376780   280164   125043    -3735   -36151   -20592   -21452 
  -19953   -12210   -22775   -29053    -4210    38009    85780   129614 
  148670   170590   242311   294102   230037   136713   130858   135074 
   73001    24179    16259    -6042   -50280  -127804  -218844  -264304 
 -286945  -325449  -372243  -407205  -391231  -301433  -163837   -33616 
   56562   129154   187782   187960   154896   157835   172411   168565 
  193646   256575   311490   347083   373272   385067   383101   360922 
  277488   123681    -2716   -44474  -101582  -198643  -238365  -235758 
 -241578  -227209  -198661  -177500  -111134    41848   199771   287752 
  375904   484930   523147   501449   479358   421025   301969   190003 
  129729    75424     8529   -53628  -121846  -183663  -252643  -362010 
 -447311  -456223  -430551  -373249  -273291  -199674  -155105   -66676 
   20632    59387   122913   248656   401028   541316   639368   653652 
  529205   298325   101498     9153   -53730  -162218  -294093  -399443 
 -478028  -537493  -562794  -573160  -582423  -526952  -362773  -177600 
  -76767    -4626   120279   230281   286748   329919   333873   282919 
  179174    13938  -110020  -121036  -126600  -172705  -182079  -155777 
 -119551   -48394    41733   118775   181735   230601   249351   225913 
  183910   137569    75709    22405     -564   -24151   -62446   -84495 
  -97341  -154214  -249535  -306555  -291231  -234609  -149650   -59719 
  -20295    -4264    32601    44641    32456    43511    63043    68122 
   52091    27170    35483    85951   145345   174422   148377    84705 
   10237   -77751  -150973  -136701   -68073   -64546   -81631    -7936 
   94703   124447    56556   -50329   -76366   -36332   -36405   -48527 
  -32616   -43744   -71752   -93125  -168193  -262356  -262251  -197480 
 -155186  -101364   -13856    41242    70100   125776   198120   259625 
  315457   384575   447187   466622   430624   335570   214454   104180 
   -9487  -112599  -179313  -248031  -313750  -313596  -256756  -192570 
 -151615  -142194  -122665   -90247  -108652  -165091  -200072  -219632 
 -248323  -287084  -313255  -305459  -298556  -295004  -223542  -110836 
  -26208    71151   177876   233149   263525   281549   246817   157117 
   41187   -47709   -93360  -168454  -290872  -376161  -383706  -325375 
 -207192   -73909    35299   160546   319073   457934   531391   494672 
  355213   220681   138842    53010   -50230  -142643  -222866  -274414 
 -279678  -259537  -226492  -170815   -82709    22212   107638   165177 
  200851   218872   238724   265307   274880   248884   183929    76512 
  -53865  -144818  -162904  -151096  -158971  -190540  -218922  -218677 
 -185430  -123768   -51819    13755    87596   164184   217059   279964 
  386278   468679   454994   362983   241358   137027    82560    44242 
  -25899  -105819  -177907  -261777  -326964  -352960  -352169  -278614 
 -138721   -18712    90298   229695   354119   420547   409249   303972 
  172913   102001    40559   -85822  -222477  -321786  -406634  -433533 
 -347291  -199318   -66854    40734   168108   330018   475973   558338 
  521019   330762   135511    76712    38707   -70120  -195550  -367769 
 -584227  -748283  -842044  -843818  -733467  -584857  -417895  -216392 
  -43403    97328   273711   484481   702953   864305   834088   595136 
  308832   147463   124193    95821    11400   -39415   -71734  -139307 
 -176353  -153878  -118763   -85729   -31946    50548   102546   104218 
  134026   189247   198995   182713   168004   136629    97753    54710 
   -9768   -85961  -156751  -222577  -277002  -311011  -342181  -380732 
 -399182  -378035  -320317  -227766  -120511   -32024    22411    43596 
   51422    53975    30268    -9428   -35095   -37399    -3971    60814 
  123037   173403   231147   283493   278082   179961    16183  -120965 
 -172307  -192620  -226274  -250176  -270187  -282116  -240032  -150356 
  -73467   -12843    88992   216791   313244   385821   428652   402052 
  285688   100444   -44228  -103231  -191164  -334422  -445112  -488818 
 -443445  -320510  -187820   -77985    -5981    54672   153835   248134 
  303627   340042   330369   292438   262832   182116    59671   -24906 
  -91033  -158754  -201160  -217699  -189074  -108199   -41073   -25813 
  -26520   -30890   -56870   -68951   -36556   -14332   -25832   -21043 
     457    -5332   -29115   -16217    38252    86941   124564   149457 
  110832    18339   -60346  -116576  -157731  -165730  -154323  -126566 
  -64882   -16079   -13830   -10768     7271    14694    14115     7703 
   -4064    -7873    -3308    -2500    -9132   -10968     7823    47742 
   85918    78742    20316   -26361   -43897   -75655  -103524  -101101 
  -99064  -103374  -104931  -106787   -91397   -63977   -35413    32809 
  148990   263615   345325   378615   347954   274653   191974   106269 
   28993   -30838   -78570   -99119  -108546  -150643  -192396  -187982 
