Origin Time       2021/02/13 23:08:00
Lat.              37.7
Long.             141.8
Depth. (km)       60
Mag.              7.1
Station Code      MYGH10
Station Lat.      37.9411
Station Long.     140.8924
Station Height(m) -187
Record Time       2021/02/13 23:08:05
Sampling Freq(Hz) 100Hz
Duration Time(s)  300
Dir.              3
Scale Factor      2942(gal)/8224139
Max. Acc. (gal)   148.291
Last Correction   2021/02/13 23:08:05
Memo.             
[...]
  127742   131186   113421    94421   121221   130673    76936    42510 
   61839    80856    90034   118095   129209    63780   -11137     7776 
   91157   141060   108918    54148    60442   116465   143403   105217 
   80871   111217   126495   101974    53469    11979    26010    80615 
  119707   127188   104175    45704    22963    82583   149353   174540 
  151339   109205    89469    82640   100700   125185   120667   115534 
  106613    63784     6296   -13404    36868   117861   151791   135518 
  115854    91432    76754    92703   106863   114450   124976   126473 
  119605   105506    96958   116727   146638   136502    84053    38651 
   26639    47687    95567   130069   112271    84468   103211   139999 
  132339    80909    45031    56303   106701   156024   154607   113173 
   79849   108677   178251   172629    90132    40153    42267    55541 
   75216    88965    91829   111846   144992   166749   137450    71948 
   60650    93139   141145   207142   190813    87558    56301   126253 
  145446    69283    22208    25108    42018   107157   143540   102631 
  102601   121506    68731    26356    41099    90643   162685   178551 
  156361   162309   141652   116834   134797   131626    78031    11173 
    1803    55393    88079   104768   131687   121761    89845    88191 
  101931    79436    38593    46190    85693   112126   113452   118987 
  146284   132552   125419   165800   119780     7952   -28111    28575 
  117628   137469   103054   116554   116109    77021    70333    38322 
   12148    65418    90054    91129   117674    96766    82572   109485 
  138962   206184   223747   137845    83843    83219    63872    46214 
   67252    97906    88983    75585   102362    92345    20090    -5024 
   52197   126634   139195    65639    11302    49815   130108   189210 
  175691   130095   138281   140618    94282    69407    57680    42940 
   66204   109030   132133   118551    72873    37390    26492    19818 
   35889    80870    92838    74220   109678   152706    98956    50944 
  121111   171647   105347    59472    93394    95496    51305    59489 
  106176    97437    90848   149434   128790    19075   -15595    -1756 
   28358   101749   133759   129938   158760   176743   156640   136229 
  113445    95520   116699   129433   101422    65349    21567    -3345 
   35041   105750   141143   138414   130901   112565   118188   160343 
  141812    82417   124457   194620   112957    -2836    37889   146250 
  185079   163220    97549     7553     7372    83767   102066   134962 
  232182   249189   176916   153100   191540   135275   -17281   -41440 
   56041    91357    98267   141799   144815   107453   130642   181012 
  151324   136921   208388   182305    41069     5177    94409   154880 
  128054    71162    62505    98770   114778    71417    17743    37546 
   61983    49593   111901   170478   123711   100957   150711   221031 
  261266   175659    29536    16636   102683   102560    20151   -46002 
  -55140    24675   100249    81912    36559    -4017     7626    78745 
   95019   103131   170718   201957   179130   148913   107406    63112 
   57096    81785    48219    -4631    22574    -7106   -84700    35723 
  204002   185267   111871    64801    66050   122299   125783   132202 
  164346   123870    81143    44062     2440    39957    47808    -7672 
   19483   105599   165447   135272    56517   124389   233898   164560 
   48689    38769    96410   134829   164508   195744   136463    75620 
   69134    -7396   -34067    64913    71344     4344    62287   161122 
  148640    47788    14931   164928   279315   199837   117174    87230 
   54723    71853   112438    65591   -30019    -4989    72767    51678 
   59633   149462   171937   123660   134809   208489   188588    86058 
   50028    62266    83308    55688   -62371  -107014   -62028   -30256 
   32213    79928   139112   268331   280557   191311   193912   224519 
  173188    91639    81033   100255    62214    63256   121069    87555 
   -6033   -17115    17674     8510    14756    86590   147425   191870 
  296935   348472   239715   133385   107227    69079    17636    55131 
  165123   137608    30736    93366   181627   132780   102174   140410 
  133789    62448    20429    62895   126316   153354   176466   218115 
  218250   138256    90898   156011   184781   138554   136463    67069 
  -69947   -33293   112689   167120   153812   178391   184574    80223 
   52416   136339   107599    22774    -4792    12324    58232    53910 
   53963   121668   144597   128691   108206    25635    11665   133355 
  166401   145424   197124   141501    67379   120266   100932     6080 
  -54823  -110616   -86552    96955   245623   172525   131044   262221 
  264062   115103    24757   -36432   -52223    38978    78402    56563 
  125967   124492    11028    22464    61503    33741    50224    63591 
  117489   252107   257754    95400    26084   117907   102936   -26550 
   -5275    97848   118615   154526   206257   142082    49590    72030 
  108184    17842   -55966    64820   160104    75369    51586   125847 
  136783   121355   148857   160972    91863    32853    81927   137072 
  140312   143441   104496    32431    36265   176156   326886   207443 
   13898   152980   293853   125734   -39371   -42885     5255    62405 
   83743    13798   -15768   100345   217053   259637   197078    17853 
  -74355    37281   193858   186710    78653    82614   156373   177655 
  118563    56204   125572   166291    45773    -7852    56073    96442 
  107705    81978    50396    88978    71528   -54589   -19423   193877 
  238897   102193    45318   119053   225080   224568    79378    -2517 
  134183   299756   211534   -30086   -76454    25671   -38531  -169114 
  -84565    96215   117504    31118    31614   136948   251831   305260 
  270945   204063   149727    52995   -96180  -137176    63323   310748 
  308249   163991   136024   175301   139541     8783   -68478    41647 
  172771   191222   162386   108360   123213   197664   128343    40803 
  118845   161374    61368   -28971    19691   177948   235872   130924 
  104741   189845   157207    59252    21608     -427    45630   143135 
  160906    84593    27446    69148    63679     5668    86358   195096 
  182256    77965   -16518    36157   129918   182526   275327   273974 
  135846    59049    91053    75517   -61634  -110747    12536    51530 
  -36348   -38210    67285   131839   120235   155013   188472    75420 
   -1664   127002   273653   250924    98436      630    67055   143672 
   84908    -9312   -46697    -6809    73731    63308     2914    26306 
  123311   221714   237772   176750    91458    20714    33754    81047 
   54052    12159    41381    49219    58067   147094   133524    69533 
  110276   116230   127847   204812   226110   173550   104866   123253 
  196044   144663    13252     5266    88662    74694    18023    44208 
   58637     6756    12019   133465   249762   282901   215248    65226 
   55529   182088   190254   132908   111667   104359   105576    82773 
   59193    27502     8230    80927   154533   138335    80040    43981 
   82364   192952   250303   153376    55324   100840   172112   177778 
  145478    69418   -18235   -45107    -6254    51756    79307    63725 
   65315   146921   197610   127369    98212   171730   222265   210780 
  175235   119915    70880    85764    76233    12114    16521    42749 
   36231    68308   134962   161392   139367   133983   128916    92163 
   76110   140235   189949    87928    71312   220830   154970   -49472 
  -18582   133350   125089     8915   -13617    75026   201425   244566 
  111964       31    35883    52744    42479    78516    80253    88376 
  103739     3570   -52767    71680   203763   168169    29574    49978 
  176004   175612   150939   129887    39208    64103   195114   141609 
  -17621   -23481    19946    -4725     1985    76257   131371    98135 
    6710   -52752    36566   179300   163995   139861   217202   210972 
  160591   178922   132598    93725   227153   176292  -129205  -124177 
  139954   193500   108101   107829   130119    92110    71531    72615 
  107360   266365   321628   141659    67304   128926    55485   -32262 
   20460    92290   112820   106122   179050   319110   275533    93912 
   32046    69580   110461    92416    36603    83771   166314   126909 
   -5143   -54977    56220    99623    12047     9682   102199   157474 
  135013   134329   176237   158303    97320    29381   -16187   -11070 
   25925    98852   162114   136216    71979    77818    71089    48386 
  120837   113647   -23253   -96650   -42611    82486   133058   128829 
  136744    80065    65271   113810    90402   112853   204691   212178 
  172349   104796    26727    76885   195480   231479   173728    99378 
  138547   221424   164571    59834    53422    85654    31164   -86724 
  -47001   125016   133645    63560   149334   226127   156394    89545 
   61747    16410    45114   141358   135244    69668    71421    72522 
   82742   114918    44184   -24672    44478   134080   155308   136566 
  170631   231026   165335    67643    64187    33153   -13428    19572 
    4249   -58757   -10993    74812    92974   124897   168924    78765 
  -42454    28956   155262   132675     3106   -89935   -29425    94277 
  114619    41994   -18067    -3658    57349   100041    67938    63197 
  203998   284962   214752   146755    81148    50584    67614    49002 
   49646   100452   180396   194861    77643    42148   105455   104735 
  139334   239170   286470   252402   204994   216110   240148   250171 
  243411   122998   -47179   -73026    27830    98155    78482    67690 
  143968   218682   185818    84337    62073   123699   140279   131560 
  159638   168296   125065    79779    92149   174688   200947    81851 
   12120    86525   112363    39040    12676   103442   219109   246823 
  181242    85495    16135    -2347    63764   161104   160331   111753 
  116133    88128     9977    30433   104773    89287    76049   119719 
  128537    74783   -34627   -90504    12170   138295   124294    16476 
  -22509    37372    71325    62058   101038   179388   194402    97224 
   22978    94784   169149   170014   177066   149843   119638   127901 
  115801   162564   234126   144229   -27865   -84265    10870   157792 
  168073    30307   -22553    54965    75188   -34935   -78972    65412 
  120711    36175    76766   114342    64197   154828   249763   121429 
  -20777   -16961     6725    -3877    12849    85727   135676    60342 
  -57503   -38489    71999    53543   -36872    41623   184875   157499 
   81479   134465   201664   197052   130808    32355    74260   237813 
  266784   144162    66222    60204     2432   -82013   -84438   -16665 
   43933    57199    46923    55834    89851   110874   100404    87079 
   85630    93541   138399   229046   260471   185059   111218    44606 
   21517   180840   291660   148788    53073    86308    68408    73974 
  130098   189510   273315   280238   157279    38727    44230   115516 
  141504   177714   235813   178410    74505   132846   305121   372622 
  274954   184015   214822   220591   170704   228675   299886   240291 
  184959   193066   150115    59618    49635   131673   182466   202945 
  204989   102381    25618   114698   201436   170403   132541   134481 
  105752    92847   141821   168011   198040   214072   128777    50695 
    1150   -55512    -8395    73857    55139    36725    67436    89178 
  128698   124372    79424   102498    77754   -16044   -28833    46642 
  171694   259773   256400   208845   112486    13077   -19649   -38263 
  -35229    23788    21257   -11464    75235   131257    31819   -51117 
  -28409     4430   -61784  -193271  -218747  -144872  -120955   -78484 
   76002   193804   193205   191789   220583   179197    83288    49746 
  104573   219226   299729   252435   120438    -3994     4384   112166 
  124509   100429   154255   178245   119365    52357    13486    18998 
   65974    25937   -90784   -67107    75219   177427   156200    14872 
  -12052    73849   -59591  -304531  -281824   -35788   174218   286627 
  318114   288099   241381   106658   -82842   -60959   172825   271024 
  154263   126643   225659   193630    52180   -10466    75358   197706 
  162043    65963    27687   -41913   -48084    58484   141755   191894 
  168798    48843    31899   160951   233135   189913    47806  -103515 
  -36571    75994   -22972   -30982   118534   110173    61223   151367 
  208940   109872   -30019   -10570   109873    98633    -3391    -2425 
  116063   143885    37509    72395   164493    97683   153420   352746 
  354839   243924   215327   240532   288368   291417   260763   202306 
   49010    30484   177920   160597    77371    97559   105722    76578 
    3005   -17003    92846   168926   235165   349340   359533   263436 
  140597   120101   256724   282916   134554     6736   -42601     2322 
   80778   143710   221859   280721   349837   394686   322149   279306 
  288750   211717   163651   164789    94738    71702   121350    94200 
   44028    30747   -27904   -78521   -92956  -123774   -99616   -71197 
  -45447    94624   185213    80558   -63077   -89395  -107325  -151305 
    6515   210119   211686   232368   305274   233810   137293   128814 
   54182   -65430   -62484   -48068   -68499    57831   173657    69955 
    2076    65670    35542   -73282  -132089   -93407   -20067   -68856 
 -148614   -94101   -30362   -76777  -107627   -10651    67186   -20487 
 -111609   -79095   -55093   -97656  -207717  -317622  -219364   -37002 
   12518    74113   147985    79520     5435    28301    25073    42747 
  172660   299276   347827   305202   235788   262276   294182   204384 
   50352    14893   165343   247322   175363   139959   121907   103786 
  127615   130885   153991   151706    50847       44    47163   140204 
  233155   242458   210236   177246   107617    13369   -67267   -46136 
   78555   162745   180673   151043    44832    -6076    38530    52216 
   97195   183980   193441   151129   130817   184808   250614   250885 
  272639   297151   198532    22743   -37841    48278   101505   136055 
  252054   302788   186877    14130   -93465   -72119    41879   125096 
  162020   202906   197124   144325   116256    73016    -9729    23645 
  190973   267958   277377   357365   368065   245354   119515    69017 
   83242    85882    76588    77009    77463   171695   269851   203482 
  131236   124633    93168   119971   188590   155634   138646   280357 
  315520   149642   128514   192262    68563   -51341   -22666    25365 
  114616   224266   163186    42583    57094    81872    77839   102239 
   73804     -535   -22535    37585    86896    48235   -12410   -73816 
 -121892   -76150    35384   113524    69391   -50761   -24198   158379 
  222340    90231   -29578   -39808    -8243    16633     7429    14372 
   43683    12814   -26939   -62182  -130511  -129361   -11369   146322 
  252995   295239   302655   297888   328212   309208   213274   208818 
  240289   183618   143780   124629    50004    39609   134362   144153 
   43349   -21301   -47825   -53392    35893   193236   278210   233813 
  147349    90121    70524    94571    93487    53481    99096   157326 
   67841   -27297    -6196    29562    59806   114112   158679   123904 
   20475    -4893    44258    67223    38661   -52760   -61572    84632 
  150520    18987   -98712   -31720    65263    48875    78291   194057 
  192896   123765   148103   193881   259742   298907   182838   100791 
  124293    87883    47706    97834   181219   177283   100288    83656 
  105057    96408    74174    79978   112834   122110   118137   141133 
  170348   121946    79257   208467   310852   206410    92785    89036 
  130594   165599   153596    93325    88578   200144   235534   104080 
   57419   155532   203779   173668   151856   212711   302173   244912 
  131608   163757   206178   121050    16524   -34551   -27814     1023 
     978    25192    65254    45220    48128   143519   206427   150903 
   95874   118824    98948     8675   -19404   -12699   -57593   -67340 
  -43000   -49896   -11862    26646    21255   104471   139288   -24106 
  -68373    72848    91314    69635   135271   123545    32113     5471 
   44244    29236    14720   119308   177824   121707    97891    93484 
   93568    81183     9265    15843    94313   107295   126446   147982 
   76729   -20583   -30674    63073   141956   143583   157800   157742 
   85347    46144    55775    32991     3457    32456   125238   167616 
  111613    73701    57935    49073    95879   137582   154861   176019 
  197299   246029   276763   254807   259841   293097   263676   175527 
  108704   105844   155123   152429    55578    24929   115454   164502 
  123449   115375   176376   213348   164766    82645    72083   109213 
   71776    14320    53168   137505   182725    92786   -98510  -132946 
  -12468    36864    37864    82977   108693    65310    46522   108101 
  151735   173433   209958   157090    48466    46132    74252    14110 
  -15638    30532    16827   -59584   -48809    32919    35032    19714 
   38564    -3173   -30385    15196    56339    50792    19311    59837 
  126684    94343    74142   146919   166077    89619    48779    60799 
   82721   138542   186206   215362   224324   130308    49334    95558 
  129536   110170   105537   118702   119223   107794   178908   275169 
  224542   123070    96985    59814    24368    62962    60496    21697 
  113829   219615   173763   128781   147602   102926    62247   118297 
  158064   136001   129278   140545   144991   143388   102054    -3118 
 -105000   -86166    37444   119646   162287   256537   332236   297880 
  165383    24023    -2717    43927    53626   102728   226123   268933 
  193710   127701   121046   138484   168030   152867    38026   -44369 
  -12240    48968    98986    75497    38074   130288   179485   130553 
  195269   242146   151906   111510   108063    37424   -36320   -31962 
   32346    61789    53844    24177   -79286  -153138   -69695    82638 
  177624   185511   173460   185519   111500    -6114    11749    84503 
   99885    80551    38997    33894   104101   179505   195006   182822 
  148485    48791   -17820    54691   167517   207249   188319   149285 
  119925   105570    93785   120660   180913   186128   103777    -8753 
  -40579    63751   196897   250356   236726   179609    69682    -2462 
   65067   118613    60065    45847    63520    62738   110377    90344 
    5787    42642    91694     3881  -115441  -145922   -32382   129028 
  178181   172019   168976   131245   119257   137405   100103    43326 
   64621   123381   121922    78872    17841   -76605  -117814   -66749 
  -39264    -9479   106105   171667   157048   160041   124503    81190 
   94286    79281    63761    78331    54581    51374    93687   105394 
   56455   -38310   -54866    38977   107775   133235   108112    32935 
   44413   128190   153485   139135   143337   174460   190632   129659 
   72438   113595   168277   179882   171417   121335    52886    56813 
  149937   217547   190378   142580   128888   140359   153646   138662 
  141357   186858   175587   142982   181129   197438   183838   198270 
  211581   205195   150622   136548   206797   215997   191135   193749 
  161815   114135    56116    11051    46302   113715   150962   152199 
