Origin Time       2021/02/13 23:08:00
Lat.              37.7
Long.             141.8
Depth. (km)       60
Mag.              7.1
Station Code      MYGH10
Station Lat.      37.9411
Station Long.     140.8924
Station Height(m) -187
Record Time       2021/02/13 23:08:05
Sampling Freq(Hz) 100Hz
Duration Time(s)  300
Dir.              1
Scale Factor      2942(gal)/8224139
Max. Acc. (gal)   253.586
Last Correction   2021/02/13 23:08:05
Memo.             
[...]
   78440    78101    77450    78390    77589    76037    76978    77290 
   76366    76675    76931    76149    75905    77179    77618    77060 
   78322    77843    75278    76430    77585    75055    74707    78282 
   80146    77832    74861    74175    76536    79199    76586    72924 
   75600    78799    78625    79524    79150    75813    75240    78070 
   78984    77440    77841    79555    78097    75116    75007    75926 
   76936    81286    81770    74753    73913    79897    81108    76958 
   72594    76581    86227    83781    72727    72098    78540    78372 
   75838    78715    79876    77720    80032    80700    73041    69068 
   76412    83137    82441    80831    78174    72281    69257    71489 
   74722    76979    80221    85182    84106    73597    68844    75676 
   80368    77677    72280    69738    73876    79803    82202    80786 
   75830    74484    77280    73606    68265    70355    77931    86591 
   87573    78849    73394    78147    82732    79510    75462    77055 
   78675    74136    71518    78877    85456    80650    74644    77530 
   77784    68773    71215    85126    83432    74279    71963    70596 
   78152    87056    79664    70502    75203    84200    83539    74655 
   70129    73693    76535    75456    76894    84007    90479    85874 
   68770    54557    61676    80987    86668    77730    73121    80488 
   85012    75745    68509    73503    78447    78848    75986    69649 
   73102    84619    82451    73516    76657    77865    72720    83798 
   91312    71761    61102    72181    78160    81183    91496    93654 
   79510    71027    73147    65580    60164    76441    95308    96817 
   88132    77596    68724    65515    60828    62275    80428    91324 
   89058    86100    73302    56438    59103    85222   102343    88861 
   76943    81112    80055    74444    77576    88298    91072    85787 
   83370    72775    56490    58255    73816    82359    84751    82522 
   69669    73168    92053    71097    43200    70784    97949    93013 
   94949    75834    36274    51358    90050    85905    76563    82721 
   83462    84410    79170    58405    55552    87160   108673   101578 
   87439    68150    55993    69642    85947    74463    52535    65435 
  106234   111651    81315    66893    59476    52705    65751    77760 
   82044    82799    72489    71652    78626    73279    72841    75274 
   69807    80605    92988    84369    77353    67176    66555   103678 
  118528    86977    68499    67597    69267    77997    77255    70259 
   79829    96067    91318    64906    49655    62291    80181    88796 
   80230    59301    69565   100637    94689    69520    60185    59614 
   75556   101826   102523    71582    45098    58083    85363    81807 
   70771    82329    86256    75693    83060    85534    61472    59672 
   78040    72193    67635    71205    57360    67485   103184   102277 
   82701    74013    69705    87488    98262    70185    39482    35129 
   64620   100111   104099    94494    91835    97271   107323    96253 
   66320    66187    98768   116734   107473    80707    52906    60687 
   89792    79988    55570    73333    86081    65880    59730    62689 
   63217    78039    79866    57130    65265   102069   103491    81553 
   62818    42682    54427    93339    94248    66935    80750   102895 
   77926    64106    79852    75014    59340    52678    52073    74830 
  118705   132817   113248    88631    49685    47552    95476    98550 
   67483    53503    36171    43672   100687   146566   133759    83199 
   43501    46356    79830    97818    72646    46313    63963    76161 
   54253    54885    65734    52254    69326   113817   100545    50498 
   51098    88804   107025    92086    74125   100869   134743   114554 
   75220    51005    40290    41547    54538    94459   115034    84395 
   77199    93690    89900    87724    75497    41238    29427    61615 
   83180    69628    77444   107307   130658   132310    92136    63479 
   71872    72121    62783    43335    16771    19230    53806    77283 
   58468    46437    79396   112079   120962   106452    79600    79084 
   94720    85140    70112    80241    88076    75085    48721    43478 
   91813   103289    36895    18729    66343    92821    93163    91710 
   95929    84856    52801    58274   100658   123213   134897   119130 
   55676    28732    45366    60199   112558   157377   127296    76677 
   42831    17226    21581    66725    97344    82717    80732   102529 
  104880    99848    93475    71984    65002    80060    83560    76794 
   76465    78453    79578    67504    40212    34504    67392    97652 
   81268    56146    75317    81823    56018    76700   103711    65774 
   35206    56971    85981    99118    90113    68825    65288    73597 
   80214    96884   104249    90848    87621    92747    86182    70561 
   70903    80609    51448    38259    83182    99293    90271    99477 
   93977    63927    27797    35058    76397    64177    37180    74517 
  126858   136177   104976    75436    85513   115981   135812   121788 
   67508    19156    12530    32131    74970   116139   101220    75776 
   92195   100971    89448    81568    61568    39118    40552    53399 
   71510    96714    94941    67350    75915    94153    61210    51046 
   85606    61298    -2955    -5467    30753    50338    70206    89452 
  107346   118740    83509    49756    87712   142940   144594   108781 
   86599   106091   130050   109385    79686    65264    45949    53609 
   83596    78044    51067    52425    77876    81792    75250   109263 
  134968   102973    62696    24160    -1181    45774   115001   121057 
   97826    95609    94144    78023    80158    93903    65022    27687 
   36090    43895    46809    90713   111732    64214    36271    44262 
   46283    87602   135765   125649   121335   139768   127619    90337 
   56149    50292    63460    48683    23866    35063    58094    67556 
   71520    67063    48421    35406    61244    96861    96577    99161 
  114191    89646    49046    27114    27783    79118   128213   124475 
  126747   118644    70370    59721    70286    33781    26995    92404 
  115163    60386    41315    80086    97105    93950    86737    77028 
   99904   106193    70972    74980    99724    92088    87021    82922 
   61284    62199    67648    47424    52220    49711     6393     4133 
   33226    48612    74310    91322   101256   130570   132776    86090 
   49338    56313    89851   125194   134709   131939   130077    93399 
   52671    63844    90788    65084      257   -21043   -12788    -4386 
   62866   118413    86937    89014   122624    82237    73677   147437 
  146701    53762     8687    41332    61284    35822    35807    97922 
  153624   157106   137925   119218   122249   133999   111246    92492 
  120330   141363   126927    91328    38394    39154    76080    54664 
   59304    97295    76866    70584    88418    69263    47096    35313 
   28536    38429    59319    69898    55167    62676   101239    82279 
   43421    90941   135765   116244   144207   179972   120113    46647 
   17043    12100    16004     9551    31363    78183    95488    81198 
   63387    85399   118199   106527    85270    70451    42012    34210 
   77139   108324    95083    92153    72114    40311    84906   134715 
  133239   138785   120422    98281   119562   100720    66553    91619 
   96288    68868    53194    34569    55784   102074    97380    66027 
   63198   108274   154850   132223    56813     9423    24719    56187 
   79770   100924   104811   103786   115136   129859   130775   107719 
   64507     8293   -12451    23842    37851    31070    64844    80264 
   45118    28425    36198    46475   117702   209109   174418    85534 
   79612    76592    44466    33782     6110    -7547    44128   111589 
  142584   121404    97380   117090   138400   110434    64150    65291 
   75339    50615    66819   119859   124943    92484    37450   -16282 
    6011    67324    91588   109433   126704   114328   101331    85313 
   54345    37027    30130    37100    55701    73889   108892   134099 
  123903    86848    42928    60149   124322   149763   147290   110111 
   42670    32470    60311    83876    98883    71666    58820    91050 
   76086      834   -40321    11165    88240    88465    58409    70721 
   81207    74633    83070   100649   108584    93129    54807    31592 
   37039    26979    -3388   -10374    28339    82215   114327   142788 
  155059   108878    57319    59930    63967    58711   104357   136476 
   99594    93185   137447   143858   110779    78783    62546    80061 
   95002    61213    39529    70501    79243    62884    80496    89932 
   53689    28722    57531    77927    63286    84861   104253    78811 
   86881   121382   140317   138924    98729    98936   157010   143972 
   79223    50792    42711    41380    29347     9572    20016    48477 
   83991   123797   113742    34198    -4270    76843   146381   118566 
   86166    44424   -15607    23873   115582   131927   105174    64547 
    2943   -24610    14264    49291    44524    68612    86872    34284 
    5451    40412    50755    44675    86883   125165   128779   147810 
  142508   108685   126652   143911    97951    44907    32541    48791 
   42684    16920    20380    62877   109088    93811    47355    64903 
  117891   134018   135217   154542   164467   152058   125194    87226 
   73230    82440    80526    67705    28966      216    36162    56304 
   33505    45461    61284    59383   101326   146464   136918   139680 
  171204   146677    70422    30307    32128    36709    55953    52135 
    8247    20536    87934   117157    95374    46066     7265    41316 
   77778     6188   -64462   -45115   -23113   -15971    28710    95297 
  117834   105071    96836    62496    65776   161923   211916   164813 
  126418   132389   144329   118544    69638    62842    81876    78628 
   93102   144460   151336   102930    94560   124654   122908    91755 
   81473    92078    70383    58726    86745    73126    35668    12193 
    -660    58656   150823   174575   156442   143633   136560   134545 
  127857   109979    69908    17945    15045    47518    48546    51733 
   96516   129304    93931    14021   -59945  -103399   -58864    51177 
   86701    63749    77043    68320    46036    99237   143887   119202 
   98273    78572    39154    29894    65173    76481    52105    80519 
  149011   146389    89020    86300   105277    84522    87268    80393 
   22967    10899    36732    64277   141516   203382   160790    94300 
   77419    39757   -25074   -11412    58635    63616    33836    64338 
  107318   115735   131924   139774   112052    92626   105827   124399 
   96832    36244    34830    83906   105914   101719    83382    45010 
   25959    44130    38909     7183     9483    26823    11323     4081 
   61951    99310    48384    30333    71915    82779    92961    89523 
   41690    48843   100183   123784   158776   188244   151390    89922 
   54484     5975   -40961   -14671    67301   160254   204884   165744 
   86834   -17369  -101029   -98096   -53470   -14829    27213    65507 
   78552    79991    87250    99304   136529   148473    98826    84608 
   91849    66459    76577   115763   158901   205441   206733   175355 
  141770   104407    78536    88258   112032    57761   -26545    10885 
   94759    93332    71374   102270   153399   203316   243973   227747 
  175320   145906   109042    44532    22493    69479    98254    78432 
   57053    12310   -73327  -147301  -119026    19056   101106    75555 
   56439    53100    49786    45112    20428    13959    10393     1737 
   24398      145   -59919   -38718      922     7288    61433   149999 
  200724   171047    72387     1128   -17409   -22970    26628   132707 
  184999   132873    57389    52898    96901   114874   133127   192889 
  221324   165119    95592    79913   117532   183905   208377   113613 
  -34279   -62541    20541    45381    -6542   -34986   -12819    44780 
  148783   272863   322056   250952   137714    89536    65981     9699 
   57307   206926   251814   175701    84835    33519    25957    -2957 
  -65275   -74632      664    77797   121544   179579   182295    91643 
   45126    65161    86366   113871   144869   187740   213622   151661 
   39636    -2614    25992    45430   103563   161472    80042    21340 
  109512   145881    95467    51021   -15726   -40732    38364   115111 
  150522   216309   267830   222328   127896    13667   -94412   -69566 
   37936    43969    18858   113495   221670   206525   140887    78025 
   16919    37693    99582    84777    30746    27325    73826   109556 
  145417   203423   204075   123538    27702   -28188     4904   103335 
  137735    44726   -51491   -12388   151023   317285   329128   222723 
  172187   127467    61753   100264   155445   125178   124730   221046 
  301576   251826   128279    46695    53397   110790    97668     1070 
  -57982   -54282   -26476    -6496   -61803  -163152  -182470   -69411 
   70079    62781   -26573     4757    89564    81444    32339    56802 
  162749   221621   153858    45029   -16279   -61157  -148320  -215269 
 -179514  -116942   -98691   -90003  -103044   -89866    49268   170189 
  148828   132244   168633   226493   322907   315000   171215    89372 
   63884   -18380  -108990  -186849  -292239  -393508  -440518  -433852 
 -376556  -261287  -151779   -57877   117342   323391   439527   490936 
  536283   599043   699251   786106   742344   562284   377572   227664 
   59067   -72673  -105533  -106579  -139558  -198520  -257806  -318149 
 -380281  -412011  -435125  -469436  -468531  -416311  -308280  -173014 
  -70247     9890    58513    64328   109163   228904   370435   491368 
  568448   569952   527094   554918   646450   699796   725778   690352 
  497493   230920    33500   -73900   -87937     9814    97314    12560 
 -189086  -362425  -445419  -448208  -432696  -396171  -295527  -215141 
 -228609  -201798   -82136   -34657   -73791   -72781    19330   209100 
  442833   636187   708416   618860   479333   432442   482757   535621 
  507709   417125   346434   334727   324198   250954   164116    91052 
  -46479  -235587  -368459  -420280  -409174  -342567  -276319  -252653 
 -243460  -232622  -226277  -175352   -27955   131437   178171   150232 
  141671   178175   256369   302027   263923   241029   304130   365570 
  318838   188384   166102   359575   552150   572017   513243   427276 
  312156   196096    75313    -1611    19635    84681   124740    80561 
  -87700  -263136  -316290  -290081  -225089  -132332   -72497   -13555 
   80387   101317    13622   -50805   -20911    29170    66040    88920 
   47189     5672    61762   129736   110860    75205    81432    54021 
  -34057  -107569   -98458    27611   215842   303963   236583   148625 
  110947   102585   143370   190313   171181   143429   188040   271522 
  288350   163317    30607    74815   152277   114918    56150    -7574 
  -66667   -65896   -42064    -7426    32266    47117    98100   204998 
  216522    96638    43565   141980   291725   404570   411521   305595 
  214262   210416   202725   161231   133863   110658    79698    20359 
  -48971   -71987   -91457  -116328  -104823  -137390  -221813  -208120 
  -81666    28899    70889    77144    97433   149797   179612   120939 
    2023   -43384    23780    60656    14071   -37596   -25813    88099 
  196800   180945   105518    50078    41192    84828   127646   153657 
  200857   214860    93451   -92805  -134759    17281   213193   304761 
  244196   101927    10866    49912   153036   197181   142788    28119 
  -12402    80462   152748   132187    96113    82134    96248   127110 
  120305    51025     7584    58541   119044   112777    96259   111321 
  101287    86676   107997    46534  -110488  -197961  -153580   -49902 
   -3392   -18133     4313    30284   -19581  -104157  -148733  -121603 
  -43351    15259    22223    47102   120582   176716   185184   187078 
  215356   241729   272188   334075   356427   306174   218135   113737 
   30273   -31002   -32433    61414   142142   160438   137978    31004 
 -103648  -126168   -37590    36964    67431   119518   150063   125359 
  122150   133157   106078    42584   -44057   -86416   -24752    38556 
  -27137   -95454    11018   133740   115618   131927   247675   257507 
  129721    51645    95974   181334   248019   301118   267845    48772 
 -195566  -260502  -225752  -174950  -131592  -157646  -177187  -157567 
 -168504  -155393   -87505   -19897     5404   -27338   -54521   -25905 
   18993     1019   -66748    -8625   197388   373639   499998   606899 
  596091   504335   487979   460637   306441   189747   202857   264281 
  305425   241011    76385  -101460  -218052  -233402  -201804  -152024 
  -96067   -53253     9703    46008    35959    51190    84622   143228 
  173360     9941  -219022  -229065   -77676    39712    87467    86733 
   82192   150269   279849   327400   237721   192898   276851   369828 
  480412   569465   436985   176531    48864    43271    50757    76096 
   84250   -13564   -95230   -51025   -70224  -127427   -36670    47741 
   33755    26505   -11709   -92900   -89487    13968    88970    82691 
   50807    21942   -53462  -142639  -102551     7067    30690    55053 
  164371   245246   235346   166953    53779   -22910      -78    24413 
   18373    46692    49368    -3496    -8706    50409   109690   155510 
  173271   128586    57647    31252    34682     6808   -32694   -15199 
   32787    35922     3497   -19020   -29043   -21618    50314   166186 
  231392   214763   123028    24958    58687   204635   281169   208596 
   93410    49875    68681    91307    75874    49214   110847   240186 
  295272   262472   224503   176270    89293     6481   -33733   -44242 
  -33235     4669    61422   116459    97983   -35505  -138688   -83493 
   30102    88231    69126    -3026   -33527    -8974    -4995   -16854 
  -12418    16482    76381   148023   189086   182601   136669    71109 
   61701   116195   141164   131665    89831    14103    21706   111963 
  164111   190566   209503   184910   150240   148135   145677    82741 
   20387    25774     1285   -61476   -60866   -17182    25355    60084 
   95447   170248   218309   179285   160424   128634   -23751  -141407 
 -119742   -44460    52172   128939   144452   148009   175911   206084 
  202979   165852   129011   136653   199523   224465   164427   137667 
  190460   201501   128073    76087    73137    57545    25942   -10998 
   -8606    93648   190497   173045   152525   174387   140258    95053 
   93738    70819    31862    55030   137470   162275    91255    29230 
   -2143   -25834    35158   157593   181232   127456   127967    91827 
  -45733   -95565   -26391   -20758   -74352   -59962    35305   148940 
  215319   195643   111597    32425    18675    76249   129334   137500 
  153388   164818   157698   178656   215276   218832   159025    89714 
   67462    52947    46066    33683    -9328   -20807   -32445   -85357 
  -82784    -6527    78424   108985    50051    23674   107478   181461 
  187547   143869    63009    27503    59810    76342    63879    70758 
  108105   134663    88734    19121    49909   118442    89802    61385 
  130064   196647   219639   196678    54459  -113008  -114455   -12294 
